<?xml version="1.0" encoding="UTF-8"?>
<gpx version="1.1" creator="tripplanner (simplified from Strava export)" xmlns="http://www.topografix.com/GPX/1/1">
  <metadata>
    <name>Around Cyprus — Ayia Napa → Pano Lefkara</name>
    <time>2025-12-04T07:05:53Z</time>
  </metadata>
  <trk>
    <name>Around Cyprus — Ayia Napa → Pano Lefkara</name>
    <trkseg>
    <trkpt lat="34.990637" lon="33.992155"><ele>23.8</ele><time>2025-12-04T07:05:53Z</time></trkpt>
    <trkpt lat="34.990254" lon="33.991683"><ele>22.0</ele><time>2025-12-04T07:06:07Z</time></trkpt>
    <trkpt lat="34.989846" lon="33.989080"><ele>16.8</ele><time>2025-12-04T07:06:46Z</time></trkpt>
    <trkpt lat="34.989095" lon="33.987372"><ele>13.0</ele><time>2025-12-04T07:07:08Z</time></trkpt>
    <trkpt lat="34.988960" lon="33.987060"><ele>12.8</ele><time>2025-12-04T07:07:12Z</time></trkpt>
    <trkpt lat="34.988670" lon="33.985971"><ele>12.0</ele><time>2025-12-04T07:07:26Z</time></trkpt>
    <trkpt lat="34.988479" lon="33.985749"><ele>11.6</ele><time>2025-12-04T07:07:34Z</time></trkpt>
    <trkpt lat="34.988669" lon="33.984339"><ele>11.0</ele><time>2025-12-04T07:07:58Z</time></trkpt>
    <trkpt lat="34.988827" lon="33.981158"><ele>9.6</ele><time>2025-12-04T07:08:42Z</time></trkpt>
    <trkpt lat="34.989223" lon="33.979715"><ele>8.6</ele><time>2025-12-04T07:09:01Z</time></trkpt>
    <trkpt lat="34.989323" lon="33.979086"><ele>8.6</ele><time>2025-12-04T07:09:09Z</time></trkpt>
    <trkpt lat="34.989436" lon="33.976689"><ele>8.6</ele><time>2025-12-04T07:09:39Z</time></trkpt>
    <trkpt lat="34.990091" lon="33.974197"><ele>9.8</ele><time>2025-12-04T07:10:12Z</time></trkpt>
    <trkpt lat="34.990301" lon="33.972768"><ele>10.4</ele><time>2025-12-04T07:10:30Z</time></trkpt>
    <trkpt lat="34.990068" lon="33.970553"><ele>9.6</ele><time>2025-12-04T07:10:56Z</time></trkpt>
    <trkpt lat="34.988955" lon="33.967573"><ele>7.4</ele><time>2025-12-04T07:11:37Z</time></trkpt>
    <trkpt lat="34.988625" lon="33.965047"><ele>8.2</ele><time>2025-12-04T07:12:09Z</time></trkpt>
    <trkpt lat="34.988626" lon="33.963712"><ele>9.8</ele><time>2025-12-04T07:12:27Z</time></trkpt>
    <trkpt lat="34.988897" lon="33.960870"><ele>10.0</ele><time>2025-12-04T07:13:04Z</time></trkpt>
    <trkpt lat="34.988803" lon="33.957287"><ele>8.6</ele><time>2025-12-04T07:13:47Z</time></trkpt>
    <trkpt lat="34.987435" lon="33.949749"><ele>11.4</ele><time>2025-12-04T07:15:25Z</time></trkpt>
    <trkpt lat="34.986953" lon="33.948721"><ele>12.0</ele><time>2025-12-04T07:15:40Z</time></trkpt>
    <trkpt lat="34.985815" lon="33.946925"><ele>12.6</ele><time>2025-12-04T07:16:08Z</time></trkpt>
    <trkpt lat="34.985484" lon="33.946259"><ele>12.6</ele><time>2025-12-04T07:16:17Z</time></trkpt>
    <trkpt lat="34.984158" lon="33.943563"><ele>10.6</ele><time>2025-12-04T07:16:52Z</time></trkpt>
    <trkpt lat="34.983059" lon="33.940084"><ele>9.0</ele><time>2025-12-04T07:17:32Z</time></trkpt>
    <trkpt lat="34.981771" lon="33.938177"><ele>8.2</ele><time>2025-12-04T07:17:59Z</time></trkpt>
    <trkpt lat="34.981262" lon="33.936732"><ele>7.8</ele><time>2025-12-04T07:18:16Z</time></trkpt>
    <trkpt lat="34.980839" lon="33.933916"><ele>8.4</ele><time>2025-12-04T07:18:49Z</time></trkpt>
    <trkpt lat="34.981284" lon="33.930273"><ele>9.8</ele><time>2025-12-04T07:19:35Z</time></trkpt>
    <trkpt lat="34.981162" lon="33.928542"><ele>10.4</ele><time>2025-12-04T07:19:57Z</time></trkpt>
    <trkpt lat="34.979030" lon="33.920972"><ele>8.6</ele><time>2025-12-04T07:21:30Z</time></trkpt>
    <trkpt lat="34.978022" lon="33.918246"><ele>8.4</ele><time>2025-12-04T07:22:04Z</time></trkpt>
    <trkpt lat="34.976637" lon="33.910980"><ele>7.2</ele><time>2025-12-04T07:23:30Z</time></trkpt>
    <trkpt lat="34.975649" lon="33.908188"><ele>6.8</ele><time>2025-12-04T07:24:05Z</time></trkpt>
    <trkpt lat="34.975438" lon="33.907355"><ele>6.8</ele><time>2025-12-04T07:24:15Z</time></trkpt>
    <trkpt lat="34.975414" lon="33.907186"><ele>7.2</ele><time>2025-12-04T07:24:17Z</time></trkpt>
    <trkpt lat="34.975410" lon="33.905892"><ele>7.8</ele><time>2025-12-04T07:24:33Z</time></trkpt>
    <trkpt lat="34.976004" lon="33.900249"><ele>12.0</ele><time>2025-12-04T07:25:49Z</time></trkpt>
    <trkpt lat="34.975945" lon="33.898206"><ele>11.4</ele><time>2025-12-04T07:26:15Z</time></trkpt>
    <trkpt lat="34.976141" lon="33.895893"><ele>12.2</ele><time>2025-12-04T07:26:47Z</time></trkpt>
    <trkpt lat="34.976177" lon="33.895636"><ele>12.6</ele><time>2025-12-04T07:26:51Z</time></trkpt>
    <trkpt lat="34.976426" lon="33.895061"><ele>13.6</ele><time>2025-12-04T07:27:02Z</time></trkpt>
    <trkpt lat="34.977023" lon="33.894621"><ele>17.4</ele><time>2025-12-04T07:27:21Z</time></trkpt>
    <trkpt lat="34.977931" lon="33.894682"><ele>21.6</ele><time>2025-12-04T07:27:46Z</time></trkpt>
    <trkpt lat="34.979523" lon="33.894865"><ele>16.6</ele><time>2025-12-04T07:28:08Z</time></trkpt>
    <trkpt lat="34.980467" lon="33.894806"><ele>16.4</ele><time>2025-12-04T07:28:20Z</time></trkpt>
    <trkpt lat="34.984554" lon="33.894565"><ele>19.8</ele><time>2025-12-04T07:29:27Z</time></trkpt>
    <trkpt lat="34.986308" lon="33.894110"><ele>21.4</ele><time>2025-12-04T07:29:58Z</time></trkpt>
    <trkpt lat="34.990699" lon="33.892443"><ele>25.4</ele><time>2025-12-04T07:31:22Z</time></trkpt>
    <trkpt lat="34.992356" lon="33.892108"><ele>26.4</ele><time>2025-12-04T07:31:53Z</time></trkpt>
    <trkpt lat="34.992630" lon="33.892083"><ele>26.6</ele><time>2025-12-04T07:31:58Z</time></trkpt>
    <trkpt lat="34.997115" lon="33.892042"><ele>32.2</ele><time>2025-12-04T07:33:23Z</time></trkpt>
    <trkpt lat="35.001269" lon="33.892696"><ele>41.4</ele><time>2025-12-04T07:34:50Z</time></trkpt>
    <trkpt lat="35.004759" lon="33.893309"><ele>37.8</ele><time>2025-12-04T07:35:48Z</time></trkpt>
    <trkpt lat="35.004929" lon="33.893342"><ele>38.0</ele><time>2025-12-04T07:35:51Z</time></trkpt>
    <trkpt lat="35.006026" lon="33.893284"><ele>39.6</ele><time>2025-12-04T07:36:10Z</time></trkpt>
    <trkpt lat="35.006445" lon="33.893498"><ele>40.2</ele><time>2025-12-04T07:36:18Z</time></trkpt>
    <trkpt lat="35.007166" lon="33.893321"><ele>42.4</ele><time>2025-12-04T07:36:33Z</time></trkpt>
    <trkpt lat="35.007589" lon="33.893486"><ele>44.0</ele><time>2025-12-04T07:36:43Z</time></trkpt>
    <trkpt lat="35.008026" lon="33.893364"><ele>45.4</ele><time>2025-12-04T07:36:53Z</time></trkpt>
    <trkpt lat="35.008679" lon="33.893302"><ele>44.6</ele><time>2025-12-04T07:37:07Z</time></trkpt>
    <trkpt lat="35.009618" lon="33.892912"><ele>43.0</ele><time>2025-12-04T07:37:23Z</time></trkpt>
    <trkpt lat="35.009694" lon="33.891838"><ele>42.0</ele><time>2025-12-04T07:37:40Z</time></trkpt>
    <trkpt lat="35.009570" lon="33.891430"><ele>41.8</ele><time>2025-12-04T07:37:46Z</time></trkpt>
    <trkpt lat="35.007713" lon="33.888434"><ele>40.8</ele><time>2025-12-04T07:38:34Z</time></trkpt>
    <trkpt lat="35.000955" lon="33.878648"><ele>35.4</ele><time>2025-12-04T07:41:11Z</time></trkpt>
    <trkpt lat="34.997401" lon="33.871695"><ele>33.8</ele><time>2025-12-04T07:42:53Z</time></trkpt>
    <trkpt lat="34.996376" lon="33.870141"><ele>33.8</ele><time>2025-12-04T07:43:17Z</time></trkpt>
    <trkpt lat="34.995254" lon="33.868876"><ele>33.4</ele><time>2025-12-04T07:43:40Z</time></trkpt>
    <trkpt lat="34.994811" lon="33.868420"><ele>33.6</ele><time>2025-12-04T07:43:49Z</time></trkpt>
    <trkpt lat="34.989294" lon="33.863065"><ele>39.0</ele><time>2025-12-04T07:45:38Z</time></trkpt>
    <trkpt lat="34.987064" lon="33.858833"><ele>37.6</ele><time>2025-12-04T07:46:38Z</time></trkpt>
    <trkpt lat="34.984602" lon="33.855645"><ele>41.8</ele><time>2025-12-04T07:49:48Z</time></trkpt>
    <trkpt lat="34.981367" lon="33.852625"><ele>46.8</ele><time>2025-12-04T07:51:06Z</time></trkpt>
    <trkpt lat="34.978943" lon="33.850778"><ele>47.2</ele><time>2025-12-04T07:51:50Z</time></trkpt>
    <trkpt lat="34.978098" lon="33.850250"><ele>47.8</ele><time>2025-12-04T07:52:06Z</time></trkpt>
    <trkpt lat="34.977571" lon="33.850130"><ele>48.0</ele><time>2025-12-04T07:52:18Z</time></trkpt>
    <trkpt lat="34.977525" lon="33.849691"><ele>48.0</ele><time>2025-12-04T07:52:28Z</time></trkpt>
    <trkpt lat="34.977685" lon="33.848784"><ele>49.0</ele><time>2025-12-04T07:52:43Z</time></trkpt>
    <trkpt lat="34.976913" lon="33.846326"><ele>50.8</ele><time>2025-12-04T07:53:22Z</time></trkpt>
    <trkpt lat="34.976698" lon="33.843699"><ele>52.8</ele><time>2025-12-04T07:53:57Z</time></trkpt>
    <trkpt lat="34.977010" lon="33.841974"><ele>54.0</ele><time>2025-12-04T07:54:20Z</time></trkpt>
    <trkpt lat="34.977999" lon="33.838752"><ele>56.0</ele><time>2025-12-04T07:55:05Z</time></trkpt>
    <trkpt lat="34.979153" lon="33.836143"><ele>57.0</ele><time>2025-12-04T07:55:43Z</time></trkpt>
    <trkpt lat="34.980378" lon="33.832154"><ele>58.0</ele><time>2025-12-04T07:56:36Z</time></trkpt>
    <trkpt lat="34.981046" lon="33.829311"><ele>58.2</ele><time>2025-12-04T07:57:11Z</time></trkpt>
    <trkpt lat="34.981062" lon="33.829223"><ele>58.0</ele><time>2025-12-04T07:57:12Z</time></trkpt>
    <trkpt lat="34.981279" lon="33.826724"><ele>57.0</ele><time>2025-12-04T07:57:40Z</time></trkpt>
    <trkpt lat="34.982430" lon="33.823375"><ele>54.2</ele><time>2025-12-04T07:58:20Z</time></trkpt>
    <trkpt lat="34.983626" lon="33.818157"><ele>50.0</ele><time>2025-12-04T07:59:16Z</time></trkpt>
    <trkpt lat="34.984071" lon="33.816539"><ele>50.0</ele><time>2025-12-04T07:59:35Z</time></trkpt>
    <trkpt lat="34.984585" lon="33.813383"><ele>50.8</ele><time>2025-12-04T08:00:12Z</time></trkpt>
    <trkpt lat="34.985962" lon="33.808836"><ele>50.6</ele><time>2025-12-04T08:01:07Z</time></trkpt>
    <trkpt lat="34.985944" lon="33.807773"><ele>50.6</ele><time>2025-12-04T08:01:19Z</time></trkpt>
    <trkpt lat="34.985514" lon="33.805266"><ele>49.4</ele><time>2025-12-04T08:01:46Z</time></trkpt>
    <trkpt lat="34.985483" lon="33.805072"><ele>49.2</ele><time>2025-12-04T08:01:48Z</time></trkpt>
    <trkpt lat="34.985196" lon="33.802311"><ele>44.6</ele><time>2025-12-04T08:02:14Z</time></trkpt>
    <trkpt lat="34.985032" lon="33.801638"><ele>42.6</ele><time>2025-12-04T08:02:20Z</time></trkpt>
    <trkpt lat="34.984616" lon="33.800449"><ele>43.6</ele><time>2025-12-04T08:02:33Z</time></trkpt>
    <trkpt lat="34.984548" lon="33.799807"><ele>44.8</ele><time>2025-12-04T08:02:40Z</time></trkpt>
    <trkpt lat="34.984937" lon="33.796360"><ele>43.0</ele><time>2025-12-04T08:03:17Z</time></trkpt>
    <trkpt lat="34.984839" lon="33.794539"><ele>42.2</ele><time>2025-12-04T08:03:35Z</time></trkpt>
    <trkpt lat="34.986182" lon="33.786661"><ele>42.4</ele><time>2025-12-04T08:05:01Z</time></trkpt>
    <trkpt lat="34.986037" lon="33.785823"><ele>42.4</ele><time>2025-12-04T08:05:11Z</time></trkpt>
    <trkpt lat="34.985653" lon="33.785314"><ele>42.0</ele><time>2025-12-04T08:05:19Z</time></trkpt>
    <trkpt lat="34.984898" lon="33.784994"><ele>41.6</ele><time>2025-12-04T08:05:30Z</time></trkpt>
    <trkpt lat="34.982815" lon="33.784415"><ele>30.8</ele><time>2025-12-04T08:05:50Z</time></trkpt>
    <trkpt lat="34.982296" lon="33.783911"><ele>30.2</ele><time>2025-12-04T08:05:56Z</time></trkpt>
    <trkpt lat="34.981941" lon="33.783153"><ele>30.0</ele><time>2025-12-04T08:06:03Z</time></trkpt>
    <trkpt lat="34.981797" lon="33.782947"><ele>29.6</ele><time>2025-12-04T08:06:05Z</time></trkpt>
    <trkpt lat="34.981143" lon="33.782089"><ele>23.6</ele><time>2025-12-04T08:06:13Z</time></trkpt>
    <trkpt lat="34.980989" lon="33.781547"><ele>19.8</ele><time>2025-12-04T08:06:17Z</time></trkpt>
    <trkpt lat="34.981051" lon="33.780994"><ele>16.8</ele><time>2025-12-04T08:06:21Z</time></trkpt>
    <trkpt lat="34.981898" lon="33.780041"><ele>10.2</ele><time>2025-12-04T08:06:31Z</time></trkpt>
    <trkpt lat="34.982220" lon="33.779306"><ele>6.6</ele><time>2025-12-04T08:06:39Z</time></trkpt>
    <trkpt lat="34.982491" lon="33.779334"><ele>5.8</ele><time>2025-12-04T08:06:44Z</time></trkpt>
    <trkpt lat="34.982610" lon="33.779484"><ele>5.6</ele><time>2025-12-04T08:06:47Z</time></trkpt>
    <trkpt lat="34.983556" lon="33.780744"><ele>6.4</ele><time>2025-12-04T08:07:15Z</time></trkpt>
    <trkpt lat="34.984028" lon="33.779944"><ele>6.8</ele><time>2025-12-04T08:07:30Z</time></trkpt>
    <trkpt lat="34.984409" lon="33.778882"><ele>7.0</ele><time>2025-12-04T08:07:49Z</time></trkpt>
    <trkpt lat="34.983716" lon="33.778245"><ele>7.2</ele><time>2025-12-04T08:08:06Z</time></trkpt>
    <trkpt lat="34.983735" lon="33.777962"><ele>7.4</ele><time>2025-12-04T08:08:11Z</time></trkpt>
    <trkpt lat="34.983814" lon="33.777231"><ele>12.6</ele><time>2025-12-04T08:08:33Z</time></trkpt>
    <trkpt lat="34.983281" lon="33.776696"><ele>18.2</ele><time>2025-12-04T08:08:58Z</time></trkpt>
    <trkpt lat="34.982737" lon="33.776154"><ele>17.8</ele><time>2025-12-04T08:09:15Z</time></trkpt>
    <trkpt lat="34.982563" lon="33.775987"><ele>16.8</ele><time>2025-12-04T08:09:18Z</time></trkpt>
    <trkpt lat="34.982038" lon="33.775857"><ele>13.8</ele><time>2025-12-04T08:09:24Z</time></trkpt>
    <trkpt lat="34.981429" lon="33.776444"><ele>5.4</ele><time>2025-12-04T08:09:42Z</time></trkpt>
    <trkpt lat="34.981373" lon="33.776448"><ele>5.4</ele><time>2025-12-04T08:09:44Z</time></trkpt>
    <trkpt lat="34.980895" lon="33.775950"><ele>4.6</ele><time>2025-12-04T08:11:41Z</time></trkpt>
    <trkpt lat="34.980563" lon="33.775543"><ele>4.6</ele><time>2025-12-04T08:11:51Z</time></trkpt>
    <trkpt lat="34.980344" lon="33.775041"><ele>5.6</ele><time>2025-12-04T08:12:01Z</time></trkpt>
    <trkpt lat="34.980597" lon="33.773426"><ele>7.0</ele><time>2025-12-04T08:12:26Z</time></trkpt>
    <trkpt lat="34.980391" lon="33.772265"><ele>8.4</ele><time>2025-12-04T08:12:43Z</time></trkpt>
    <trkpt lat="34.981280" lon="33.767357"><ele>9.6</ele><time>2025-12-04T08:13:48Z</time></trkpt>
    <trkpt lat="34.980876" lon="33.765825"><ele>6.0</ele><time>2025-12-04T08:14:04Z</time></trkpt>
    <trkpt lat="34.980888" lon="33.764881"><ele>6.0</ele><time>2025-12-04T08:14:14Z</time></trkpt>
    <trkpt lat="34.981086" lon="33.763678"><ele>6.8</ele><time>2025-12-04T08:14:28Z</time></trkpt>
    <trkpt lat="34.981563" lon="33.762290"><ele>5.6</ele><time>2025-12-04T08:14:44Z</time></trkpt>
    <trkpt lat="34.982432" lon="33.755239"><ele>6.8</ele><time>2025-12-04T08:16:12Z</time></trkpt>
    <trkpt lat="34.982301" lon="33.750821"><ele>4.8</ele><time>2025-12-04T08:17:05Z</time></trkpt>
    <trkpt lat="34.982113" lon="33.749790"><ele>4.2</ele><time>2025-12-04T08:17:18Z</time></trkpt>
    <trkpt lat="34.981811" lon="33.747156"><ele>6.6</ele><time>2025-12-04T08:17:52Z</time></trkpt>
    <trkpt lat="34.981794" lon="33.743626"><ele>8.6</ele><time>2025-12-04T08:18:37Z</time></trkpt>
    <trkpt lat="34.982143" lon="33.741341"><ele>10.6</ele><time>2025-12-04T08:19:08Z</time></trkpt>
    <trkpt lat="34.982675" lon="33.740527"><ele>11.8</ele><time>2025-12-04T08:19:23Z</time></trkpt>
    <trkpt lat="34.983020" lon="33.740277"><ele>12.2</ele><time>2025-12-04T08:19:30Z</time></trkpt>
    <trkpt lat="34.983608" lon="33.739941"><ele>11.8</ele><time>2025-12-04T08:19:41Z</time></trkpt>
    <trkpt lat="34.983716" lon="33.738362"><ele>12.2</ele><time>2025-12-04T08:20:03Z</time></trkpt>
    <trkpt lat="34.983697" lon="33.736269"><ele>9.6</ele><time>2025-12-04T08:20:28Z</time></trkpt>
    <trkpt lat="34.983223" lon="33.733416"><ele>5.6</ele><time>2025-12-04T08:20:58Z</time></trkpt>
    <trkpt lat="34.981905" lon="33.729318"><ele>10.8</ele><time>2025-12-04T08:22:01Z</time></trkpt>
    <trkpt lat="34.981880" lon="33.725722"><ele>10.6</ele><time>2025-12-04T08:22:50Z</time></trkpt>
    <trkpt lat="34.982026" lon="33.724693"><ele>10.8</ele><time>2025-12-04T08:23:05Z</time></trkpt>
    <trkpt lat="34.982506" lon="33.723102"><ele>13.0</ele><time>2025-12-04T08:23:29Z</time></trkpt>
    <trkpt lat="34.982824" lon="33.722036"><ele>12.4</ele><time>2025-12-04T08:23:44Z</time></trkpt>
    <trkpt lat="34.984091" lon="33.718521"><ele>4.6</ele><time>2025-12-04T08:24:22Z</time></trkpt>
    <trkpt lat="34.983374" lon="33.717327"><ele>3.6</ele><time>2025-12-04T08:24:39Z</time></trkpt>
    <trkpt lat="34.981373" lon="33.714325"><ele>4.6</ele><time>2025-12-04T08:25:23Z</time></trkpt>
    <trkpt lat="34.980693" lon="33.712792"><ele>4.8</ele><time>2025-12-04T08:25:44Z</time></trkpt>
    <trkpt lat="34.980404" lon="33.711570"><ele>4.6</ele><time>2025-12-04T08:25:59Z</time></trkpt>
    <trkpt lat="34.980253" lon="33.710324"><ele>4.6</ele><time>2025-12-04T08:26:15Z</time></trkpt>
    <trkpt lat="34.980141" lon="33.706547"><ele>5.0</ele><time>2025-12-04T08:27:02Z</time></trkpt>
    <trkpt lat="34.979014" lon="33.695570"><ele>5.4</ele><time>2025-12-04T08:29:20Z</time></trkpt>
    <trkpt lat="34.978194" lon="33.691890"><ele>5.6</ele><time>2025-12-04T08:30:04Z</time></trkpt>
    <trkpt lat="34.977645" lon="33.687315"><ele>6.4</ele><time>2025-12-04T08:30:58Z</time></trkpt>
    <trkpt lat="34.976998" lon="33.684956"><ele>6.4</ele><time>2025-12-04T08:31:26Z</time></trkpt>
    <trkpt lat="34.974014" lon="33.676155"><ele>4.4</ele><time>2025-12-04T08:33:08Z</time></trkpt>
    <trkpt lat="34.972005" lon="33.673047"><ele>4.8</ele><time>2025-12-04T08:33:51Z</time></trkpt>
    <trkpt lat="34.970846" lon="33.670821"><ele>4.8</ele><time>2025-12-04T08:34:20Z</time></trkpt>
    <trkpt lat="34.968665" lon="33.667825"><ele>5.0</ele><time>2025-12-04T08:35:07Z</time></trkpt>
    <trkpt lat="34.968459" lon="33.667347"><ele>4.8</ele><time>2025-12-04T08:35:13Z</time></trkpt>
    <trkpt lat="34.965993" lon="33.665223"><ele>4.0</ele><time>2025-12-04T08:35:53Z</time></trkpt>
    <trkpt lat="34.961201" lon="33.658560"><ele>3.4</ele><time>2025-12-04T08:37:27Z</time></trkpt>
    <trkpt lat="34.959189" lon="33.656261"><ele>3.6</ele><time>2025-12-04T08:38:04Z</time></trkpt>
    <trkpt lat="34.958057" lon="33.655207"><ele>4.2</ele><time>2025-12-04T08:38:23Z</time></trkpt>
    <trkpt lat="34.957820" lon="33.654713"><ele>4.2</ele><time>2025-12-04T08:38:29Z</time></trkpt>
    <trkpt lat="34.956906" lon="33.653728"><ele>3.6</ele><time>2025-12-04T08:38:44Z</time></trkpt>
    <trkpt lat="34.956005" lon="33.652892"><ele>4.0</ele><time>2025-12-04T08:38:58Z</time></trkpt>
    <trkpt lat="34.952488" lon="33.650214"><ele>3.6</ele><time>2025-12-04T08:39:49Z</time></trkpt>
    <trkpt lat="34.951959" lon="33.649592"><ele>3.6</ele><time>2025-12-04T08:39:58Z</time></trkpt>
    <trkpt lat="34.951063" lon="33.649006"><ele>3.8</ele><time>2025-12-04T08:40:10Z</time></trkpt>
    <trkpt lat="34.948016" lon="33.646070"><ele>4.6</ele><time>2025-12-04T08:40:56Z</time></trkpt>
    <trkpt lat="34.944898" lon="33.644336"><ele>3.8</ele><time>2025-12-04T08:41:35Z</time></trkpt>
    <trkpt lat="34.943352" lon="33.643164"><ele>3.6</ele><time>2025-12-04T08:41:55Z</time></trkpt>
    <trkpt lat="34.942820" lon="33.643174"><ele>3.8</ele><time>2025-12-04T08:42:01Z</time></trkpt>
    <trkpt lat="34.939892" lon="33.641904"><ele>4.2</ele><time>2025-12-04T08:42:38Z</time></trkpt>
    <trkpt lat="34.935894" lon="33.640459"><ele>4.2</ele><time>2025-12-04T08:43:29Z</time></trkpt>
    <trkpt lat="34.933998" lon="33.639154"><ele>4.0</ele><time>2025-12-04T08:43:56Z</time></trkpt>
    <trkpt lat="34.931438" lon="33.637884"><ele>4.2</ele><time>2025-12-04T08:44:31Z</time></trkpt>
    <trkpt lat="34.930652" lon="33.637341"><ele>4.4</ele><time>2025-12-04T08:44:43Z</time></trkpt>
    <trkpt lat="34.930244" lon="33.637445"><ele>4.4</ele><time>2025-12-04T08:44:51Z</time></trkpt>
    <trkpt lat="34.929849" lon="33.637247"><ele>4.4</ele><time>2025-12-04T08:44:58Z</time></trkpt>
    <trkpt lat="34.926812" lon="33.636755"><ele>5.2</ele><time>2025-12-04T08:45:48Z</time></trkpt>
    <trkpt lat="34.924800" lon="33.636967"><ele>5.4</ele><time>2025-12-04T08:46:22Z</time></trkpt>
    <trkpt lat="34.921843" lon="33.636607"><ele>5.4</ele><time>2025-12-04T08:47:06Z</time></trkpt>
    <trkpt lat="34.920803" lon="33.636936"><ele>5.8</ele><time>2025-12-04T08:47:21Z</time></trkpt>
    <trkpt lat="34.917791" lon="33.636633"><ele>6.0</ele><time>2025-12-04T08:48:19Z</time></trkpt>
    <trkpt lat="34.917625" lon="33.637969"><ele>5.4</ele><time>2025-12-04T08:48:45Z</time></trkpt>
    <trkpt lat="34.917107" lon="33.638267"><ele>5.0</ele><time>2025-12-04T08:51:14Z</time></trkpt>
    <trkpt lat="34.914013" lon="33.638085"><ele>4.8</ele><time>2025-12-04T08:53:23Z</time></trkpt>
    <trkpt lat="34.914023" lon="33.637901"><ele>4.8</ele><time>2025-12-04T08:53:50Z</time></trkpt>
    <trkpt lat="34.914022" lon="33.637896"><ele>5.0</ele><time>2025-12-04T08:53:51Z</time></trkpt>
    <trkpt lat="34.914407" lon="33.637831"><ele>6.0</ele><time>2025-12-04T08:55:42Z</time></trkpt>
    <trkpt lat="34.914206" lon="33.637989"><ele>6.2</ele><time>2025-12-04T09:48:18Z</time></trkpt>
    <trkpt lat="34.913753" lon="33.637978"><ele>6.2</ele><time>2025-12-04T09:48:33Z</time></trkpt>
    <trkpt lat="34.911339" lon="33.637785"><ele>6.4</ele><time>2025-12-04T09:49:32Z</time></trkpt>
    <trkpt lat="34.911194" lon="33.637652"><ele>6.8</ele><time>2025-12-04T09:49:38Z</time></trkpt>
    <trkpt lat="34.911427" lon="33.635754"><ele>8.8</ele><time>2025-12-04T09:50:22Z</time></trkpt>
    <trkpt lat="34.911163" lon="33.634810"><ele>8.6</ele><time>2025-12-04T09:50:45Z</time></trkpt>
    <trkpt lat="34.910978" lon="33.632891"><ele>7.8</ele><time>2025-12-04T09:51:21Z</time></trkpt>
    <trkpt lat="34.911254" lon="33.627606"><ele>12.2</ele><time>2025-12-04T09:53:52Z</time></trkpt>
    <trkpt lat="34.910984" lon="33.622889"><ele>13.4</ele><time>2025-12-04T09:54:58Z</time></trkpt>
    <trkpt lat="34.911045" lon="33.621317"><ele>14.4</ele><time>2025-12-04T09:55:21Z</time></trkpt>
    <trkpt lat="34.911085" lon="33.615925"><ele>12.2</ele><time>2025-12-04T09:56:27Z</time></trkpt>
    <trkpt lat="34.911203" lon="33.613804"><ele>11.2</ele><time>2025-12-04T09:56:54Z</time></trkpt>
    <trkpt lat="34.911546" lon="33.611393"><ele>11.8</ele><time>2025-12-04T09:57:28Z</time></trkpt>
    <trkpt lat="34.911422" lon="33.610819"><ele>11.0</ele><time>2025-12-04T09:57:35Z</time></trkpt>
    <trkpt lat="34.911753" lon="33.610263"><ele>10.2</ele><time>2025-12-04T09:57:43Z</time></trkpt>
    <trkpt lat="34.911911" lon="33.607640"><ele>9.8</ele><time>2025-12-04T09:58:14Z</time></trkpt>
    <trkpt lat="34.912063" lon="33.607343"><ele>9.8</ele><time>2025-12-04T09:58:23Z</time></trkpt>
    <trkpt lat="34.911937" lon="33.607092"><ele>9.6</ele><time>2025-12-04T10:02:44Z</time></trkpt>
    <trkpt lat="34.911962" lon="33.606618"><ele>9.6</ele><time>2025-12-04T10:02:52Z</time></trkpt>
    <trkpt lat="34.912014" lon="33.603866"><ele>11.6</ele><time>2025-12-04T10:03:33Z</time></trkpt>
    <trkpt lat="34.912228" lon="33.603270"><ele>12.6</ele><time>2025-12-04T10:03:43Z</time></trkpt>
    <trkpt lat="34.912622" lon="33.602782"><ele>14.0</ele><time>2025-12-04T10:03:54Z</time></trkpt>
    <trkpt lat="34.914513" lon="33.601812"><ele>17.6</ele><time>2025-12-04T10:05:06Z</time></trkpt>
    <trkpt lat="34.914553" lon="33.601785"><ele>17.8</ele><time>2025-12-04T10:05:07Z</time></trkpt>
    <trkpt lat="34.914678" lon="33.601431"><ele>17.8</ele><time>2025-12-04T10:05:14Z</time></trkpt>
    <trkpt lat="34.912766" lon="33.598479"><ele>11.4</ele><time>2025-12-04T10:05:51Z</time></trkpt>
    <trkpt lat="34.912022" lon="33.596726"><ele>9.8</ele><time>2025-12-04T10:06:11Z</time></trkpt>
    <trkpt lat="34.911638" lon="33.595432"><ele>9.8</ele><time>2025-12-04T10:06:25Z</time></trkpt>
    <trkpt lat="34.911211" lon="33.593930"><ele>11.6</ele><time>2025-12-04T10:07:17Z</time></trkpt>
    <trkpt lat="34.910946" lon="33.591476"><ele>15.2</ele><time>2025-12-04T10:07:50Z</time></trkpt>
    <trkpt lat="34.909929" lon="33.586194"><ele>31.8</ele><time>2025-12-04T10:09:35Z</time></trkpt>
    <trkpt lat="34.909676" lon="33.584933"><ele>32.4</ele><time>2025-12-04T10:09:55Z</time></trkpt>
    <trkpt lat="34.908311" lon="33.580405"><ele>35.6</ele><time>2025-12-04T10:10:56Z</time></trkpt>
    <trkpt lat="34.908112" lon="33.579094"><ele>36.2</ele><time>2025-12-04T10:11:13Z</time></trkpt>
    <trkpt lat="34.908103" lon="33.577818"><ele>36.8</ele><time>2025-12-04T10:11:28Z</time></trkpt>
    <trkpt lat="34.908333" lon="33.575480"><ele>38.4</ele><time>2025-12-04T10:11:58Z</time></trkpt>
    <trkpt lat="34.908426" lon="33.572213"><ele>41.0</ele><time>2025-12-04T10:12:41Z</time></trkpt>
    <trkpt lat="34.908273" lon="33.569941"><ele>43.2</ele><time>2025-12-04T10:13:13Z</time></trkpt>
    <trkpt lat="34.908151" lon="33.568840"><ele>43.0</ele><time>2025-12-04T10:13:28Z</time></trkpt>
    <trkpt lat="34.908023" lon="33.568242"><ele>42.2</ele><time>2025-12-04T10:13:36Z</time></trkpt>
    <trkpt lat="34.907667" lon="33.567787"><ele>42.4</ele><time>2025-12-04T10:13:44Z</time></trkpt>
    <trkpt lat="34.907644" lon="33.567415"><ele>42.8</ele><time>2025-12-04T10:13:49Z</time></trkpt>
    <trkpt lat="34.907744" lon="33.567146"><ele>43.4</ele><time>2025-12-04T10:13:53Z</time></trkpt>
    <trkpt lat="34.908254" lon="33.566812"><ele>43.4</ele><time>2025-12-04T10:14:02Z</time></trkpt>
    <trkpt lat="34.908940" lon="33.565837"><ele>41.6</ele><time>2025-12-04T10:14:18Z</time></trkpt>
    <trkpt lat="34.910987" lon="33.561825"><ele>42.6</ele><time>2025-12-04T10:15:14Z</time></trkpt>
    <trkpt lat="34.915532" lon="33.556802"><ele>46.8</ele><time>2025-12-04T10:17:00Z</time></trkpt>
    <trkpt lat="34.916796" lon="33.555431"><ele>49.0</ele><time>2025-12-04T10:17:31Z</time></trkpt>
    <trkpt lat="34.918946" lon="33.552104"><ele>58.2</ele><time>2025-12-04T10:18:41Z</time></trkpt>
    <trkpt lat="34.920453" lon="33.550181"><ele>63.2</ele><time>2025-12-04T10:19:30Z</time></trkpt>
    <trkpt lat="34.920825" lon="33.549678"><ele>63.6</ele><time>2025-12-04T10:19:42Z</time></trkpt>
    <trkpt lat="34.921994" lon="33.547736"><ele>65.0</ele><time>2025-12-04T10:20:19Z</time></trkpt>
    <trkpt lat="34.923619" lon="33.545852"><ele>66.0</ele><time>2025-12-04T10:20:58Z</time></trkpt>
    <trkpt lat="34.925845" lon="33.541722"><ele>68.0</ele><time>2025-12-04T10:22:08Z</time></trkpt>
    <trkpt lat="34.926308" lon="33.540871"><ele>70.2</ele><time>2025-12-04T10:22:26Z</time></trkpt>
    <trkpt lat="34.926896" lon="33.539259"><ele>77.6</ele><time>2025-12-04T10:23:08Z</time></trkpt>
    <trkpt lat="34.926949" lon="33.538305"><ele>82.4</ele><time>2025-12-04T10:23:36Z</time></trkpt>
    <trkpt lat="34.927378" lon="33.537644"><ele>85.0</ele><time>2025-12-04T10:23:59Z</time></trkpt>
    <trkpt lat="34.927440" lon="33.537329"><ele>86.2</ele><time>2025-12-04T10:24:08Z</time></trkpt>
    <trkpt lat="34.927515" lon="33.536795"><ele>86.2</ele><time>2025-12-04T10:25:08Z</time></trkpt>
    <trkpt lat="34.928592" lon="33.535143"><ele>84.4</ele><time>2025-12-04T10:25:40Z</time></trkpt>
    <trkpt lat="34.929097" lon="33.532471"><ele>86.6</ele><time>2025-12-04T10:26:22Z</time></trkpt>
    <trkpt lat="34.929165" lon="33.530814"><ele>86.2</ele><time>2025-12-04T10:26:46Z</time></trkpt>
    <trkpt lat="34.929161" lon="33.530689"><ele>86.6</ele><time>2025-12-04T10:26:48Z</time></trkpt>
    <trkpt lat="34.928954" lon="33.529168"><ele>89.6</ele><time>2025-12-04T10:27:13Z</time></trkpt>
    <trkpt lat="34.928231" lon="33.526251"><ele>95.0</ele><time>2025-12-04T10:28:02Z</time></trkpt>
    <trkpt lat="34.928166" lon="33.524565"><ele>96.6</ele><time>2025-12-04T10:28:30Z</time></trkpt>
    <trkpt lat="34.928103" lon="33.521623"><ele>108.8</ele><time>2025-12-04T10:29:37Z</time></trkpt>
    <trkpt lat="34.927671" lon="33.518860"><ele>120.4</ele><time>2025-12-04T10:30:44Z</time></trkpt>
    <trkpt lat="34.927638" lon="33.518358"><ele>120.8</ele><time>2025-12-04T10:30:54Z</time></trkpt>
    <trkpt lat="34.927779" lon="33.517364"><ele>120.8</ele><time>2025-12-04T10:31:11Z</time></trkpt>
    <trkpt lat="34.928438" lon="33.515429"><ele>122.4</ele><time>2025-12-04T10:31:45Z</time></trkpt>
    <trkpt lat="34.928456" lon="33.515328"><ele>122.8</ele><time>2025-12-04T10:31:47Z</time></trkpt>
    <trkpt lat="34.928621" lon="33.512235"><ele>138.8</ele><time>2025-12-04T10:33:02Z</time></trkpt>
    <trkpt lat="34.928917" lon="33.511398"><ele>144.0</ele><time>2025-12-04T10:33:27Z</time></trkpt>
    <trkpt lat="34.929210" lon="33.510855"><ele>147.2</ele><time>2025-12-04T10:34:59Z</time></trkpt>
    <trkpt lat="34.930003" lon="33.509455"><ele>148.0</ele><time>2025-12-04T10:35:30Z</time></trkpt>
    <trkpt lat="34.930380" lon="33.507493"><ele>142.6</ele><time>2025-12-04T10:35:48Z</time></trkpt>
    <trkpt lat="34.930762" lon="33.506674"><ele>141.6</ele><time>2025-12-04T10:35:56Z</time></trkpt>
    <trkpt lat="34.931458" lon="33.506197"><ele>141.0</ele><time>2025-12-04T10:36:05Z</time></trkpt>
    <trkpt lat="34.933039" lon="33.505911"><ele>140.2</ele><time>2025-12-04T10:36:27Z</time></trkpt>
    <trkpt lat="34.933589" lon="33.505724"><ele>142.2</ele><time>2025-12-04T10:36:39Z</time></trkpt>
    <trkpt lat="34.934060" lon="33.505320"><ele>145.2</ele><time>2025-12-04T10:36:56Z</time></trkpt>
    <trkpt lat="34.934371" lon="33.504816"><ele>148.2</ele><time>2025-12-04T10:37:11Z</time></trkpt>
    <trkpt lat="34.934587" lon="33.503855"><ele>149.8</ele><time>2025-12-04T10:37:31Z</time></trkpt>
    <trkpt lat="34.934578" lon="33.503734"><ele>149.8</ele><time>2025-12-04T10:37:33Z</time></trkpt>
    <trkpt lat="34.934219" lon="33.498992"><ele>133.0</ele><time>2025-12-04T10:38:11Z</time></trkpt>
    <trkpt lat="34.934067" lon="33.497060"><ele>133.2</ele><time>2025-12-04T10:38:27Z</time></trkpt>
    <trkpt lat="34.934229" lon="33.495858"><ele>134.8</ele><time>2025-12-04T10:38:40Z</time></trkpt>
    <trkpt lat="34.934652" lon="33.494991"><ele>135.4</ele><time>2025-12-04T10:38:52Z</time></trkpt>
    <trkpt lat="34.937161" lon="33.492072"><ele>138.0</ele><time>2025-12-04T10:39:47Z</time></trkpt>
    <trkpt lat="34.938613" lon="33.489525"><ele>139.4</ele><time>2025-12-04T10:40:28Z</time></trkpt>
    <trkpt lat="34.939236" lon="33.487644"><ele>139.4</ele><time>2025-12-04T10:40:58Z</time></trkpt>
    <trkpt lat="34.939754" lon="33.487213"><ele>139.2</ele><time>2025-12-04T10:41:09Z</time></trkpt>
    <trkpt lat="34.940897" lon="33.486319"><ele>142.8</ele><time>2025-12-04T10:41:40Z</time></trkpt>
    <trkpt lat="34.941773" lon="33.485078"><ele>146.2</ele><time>2025-12-04T10:42:11Z</time></trkpt>
    <trkpt lat="34.941977" lon="33.484559"><ele>147.8</ele><time>2025-12-04T10:42:22Z</time></trkpt>
    <trkpt lat="34.942160" lon="33.483792"><ele>146.8</ele><time>2025-12-04T10:43:53Z</time></trkpt>
    <trkpt lat="34.942159" lon="33.481508"><ele>143.6</ele><time>2025-12-04T10:44:19Z</time></trkpt>
    <trkpt lat="34.941685" lon="33.480059"><ele>144.8</ele><time>2025-12-04T10:44:47Z</time></trkpt>
    <trkpt lat="34.941876" lon="33.479065"><ele>144.0</ele><time>2025-12-04T10:45:01Z</time></trkpt>
    <trkpt lat="34.941981" lon="33.478815"><ele>144.0</ele><time>2025-12-04T10:45:05Z</time></trkpt>
    <trkpt lat="34.943399" lon="33.476186"><ele>153.6</ele><time>2025-12-04T10:46:02Z</time></trkpt>
    <trkpt lat="34.943796" lon="33.474669"><ele>154.6</ele><time>2025-12-04T10:46:28Z</time></trkpt>
    <trkpt lat="34.944734" lon="33.473424"><ele>158.4</ele><time>2025-12-04T10:46:56Z</time></trkpt>
    <trkpt lat="34.944927" lon="33.473042"><ele>159.4</ele><time>2025-12-04T10:47:03Z</time></trkpt>
    <trkpt lat="34.945907" lon="33.471071"><ele>160.0</ele><time>2025-12-04T10:47:37Z</time></trkpt>
    <trkpt lat="34.945468" lon="33.468256"><ele>162.8</ele><time>2025-12-04T10:48:18Z</time></trkpt>
    <trkpt lat="34.945863" lon="33.465585"><ele>163.8</ele><time>2025-12-04T10:48:56Z</time></trkpt>
    <trkpt lat="34.945837" lon="33.465297"><ele>164.0</ele><time>2025-12-04T10:49:00Z</time></trkpt>
    <trkpt lat="34.945556" lon="33.462927"><ele>170.8</ele><time>2025-12-04T10:49:40Z</time></trkpt>
    <trkpt lat="34.944788" lon="33.461012"><ele>174.6</ele><time>2025-12-04T10:50:15Z</time></trkpt>
    <trkpt lat="34.944778" lon="33.459972"><ele>176.8</ele><time>2025-12-04T10:50:33Z</time></trkpt>
    <trkpt lat="34.944316" lon="33.457797"><ele>182.0</ele><time>2025-12-04T10:51:11Z</time></trkpt>
    <trkpt lat="34.944360" lon="33.457354"><ele>183.2</ele><time>2025-12-04T10:51:20Z</time></trkpt>
    <trkpt lat="34.944335" lon="33.457224"><ele>183.2</ele><time>2025-12-04T10:51:26Z</time></trkpt>
    <trkpt lat="34.943677" lon="33.456176"><ele>185.4</ele><time>2025-12-04T10:52:20Z</time></trkpt>
    <trkpt lat="34.944294" lon="33.453768"><ele>182.0</ele><time>2025-12-04T11:06:18Z</time></trkpt>
    <trkpt lat="34.944193" lon="33.452931"><ele>181.6</ele><time>2025-12-04T11:06:28Z</time></trkpt>
    <trkpt lat="34.944085" lon="33.452185"><ele>183.6</ele><time>2025-12-04T11:06:40Z</time></trkpt>
    <trkpt lat="34.944128" lon="33.451193"><ele>186.2</ele><time>2025-12-04T11:06:57Z</time></trkpt>
    <trkpt lat="34.941671" lon="33.449359"><ele>195.2</ele><time>2025-12-04T11:08:03Z</time></trkpt>
    <trkpt lat="34.938641" lon="33.446283"><ele>208.8</ele><time>2025-12-04T11:12:32Z</time></trkpt>
    <trkpt lat="34.938168" lon="33.446129"><ele>210.0</ele><time>2025-12-04T11:12:43Z</time></trkpt>
    <trkpt lat="34.936017" lon="33.446280"><ele>217.2</ele><time>2025-12-04T11:13:32Z</time></trkpt>
    <trkpt lat="34.935191" lon="33.445968"><ele>218.8</ele><time>2025-12-04T11:13:50Z</time></trkpt>
    <trkpt lat="34.933680" lon="33.445089"><ele>223.6</ele><time>2025-12-04T11:14:24Z</time></trkpt>
    <trkpt lat="34.930913" lon="33.442604"><ele>233.2</ele><time>2025-12-04T11:15:31Z</time></trkpt>
    <trkpt lat="34.930415" lon="33.442310"><ele>234.4</ele><time>2025-12-04T11:15:41Z</time></trkpt>
    <trkpt lat="34.928309" lon="33.440930"><ele>244.4</ele><time>2025-12-04T11:16:27Z</time></trkpt>
    <trkpt lat="34.926793" lon="33.440339"><ele>255.6</ele><time>2025-12-04T11:17:12Z</time></trkpt>
    <trkpt lat="34.926240" lon="33.440092"><ele>257.2</ele><time>2025-12-04T11:17:34Z</time></trkpt>
    <trkpt lat="34.925419" lon="33.438813"><ele>259.4</ele><time>2025-12-04T11:18:17Z</time></trkpt>
    <trkpt lat="34.924869" lon="33.436524"><ele>259.6</ele><time>2025-12-04T11:19:00Z</time></trkpt>
    <trkpt lat="34.924667" lon="33.435274"><ele>262.2</ele><time>2025-12-04T11:19:23Z</time></trkpt>
    <trkpt lat="34.924977" lon="33.433921"><ele>266.2</ele><time>2025-12-04T11:19:50Z</time></trkpt>
    <trkpt lat="34.925217" lon="33.433521"><ele>268.2</ele><time>2025-12-04T11:20:01Z</time></trkpt>
    <trkpt lat="34.925416" lon="33.432948"><ele>268.0</ele><time>2025-12-04T11:20:14Z</time></trkpt>
    <trkpt lat="34.924978" lon="33.432698"><ele>266.4</ele><time>2025-12-04T11:20:28Z</time></trkpt>
    <trkpt lat="34.924945" lon="33.431534"><ele>268.0</ele><time>2025-12-04T11:20:53Z</time></trkpt>
    <trkpt lat="34.925388" lon="33.430551"><ele>266.2</ele><time>2025-12-04T11:21:11Z</time></trkpt>
    <trkpt lat="34.925452" lon="33.430484"><ele>266.2</ele><time>2025-12-04T11:21:13Z</time></trkpt>
    <trkpt lat="34.925858" lon="33.430135"><ele>272.4</ele><time>2025-12-04T11:21:36Z</time></trkpt>
    <trkpt lat="34.925852" lon="33.430089"><ele>272.8</ele><time>2025-12-04T11:21:38Z</time></trkpt>
    <trkpt lat="34.925758" lon="33.428260"><ele>275.4</ele><time>2025-12-04T11:22:19Z</time></trkpt>
    <trkpt lat="34.926286" lon="33.424795"><ele>280.0</ele><time>2025-12-04T11:23:21Z</time></trkpt>
    <trkpt lat="34.926684" lon="33.423048"><ele>282.6</ele><time>2025-12-04T11:23:49Z</time></trkpt>
    <trkpt lat="34.926584" lon="33.421516"><ele>283.8</ele><time>2025-12-04T11:24:12Z</time></trkpt>
    <trkpt lat="34.926067" lon="33.419666"><ele>286.8</ele><time>2025-12-04T11:24:44Z</time></trkpt>
    <trkpt lat="34.925779" lon="33.417608"><ele>291.8</ele><time>2025-12-04T11:25:23Z</time></trkpt>
    <trkpt lat="34.925754" lon="33.417139"><ele>292.8</ele><time>2025-12-04T11:25:31Z</time></trkpt>
    <trkpt lat="34.925694" lon="33.414065"><ele>292.4</ele><time>2025-12-04T11:26:20Z</time></trkpt>
    <trkpt lat="34.926473" lon="33.411250"><ele>289.8</ele><time>2025-12-04T11:27:03Z</time></trkpt>
    <trkpt lat="34.926703" lon="33.409484"><ele>290.4</ele><time>2025-12-04T11:27:28Z</time></trkpt>
    <trkpt lat="34.926681" lon="33.407432"><ele>287.6</ele><time>2025-12-04T11:27:51Z</time></trkpt>
    <trkpt lat="34.926675" lon="33.407357"><ele>287.8</ele><time>2025-12-04T11:27:52Z</time></trkpt>
    <trkpt lat="34.926267" lon="33.404494"><ele>294.0</ele><time>2025-12-04T11:28:36Z</time></trkpt>
    <trkpt lat="34.926397" lon="33.403595"><ele>295.2</ele><time>2025-12-04T11:28:50Z</time></trkpt>
    <trkpt lat="34.927242" lon="33.400439"><ele>299.2</ele><time>2025-12-04T11:29:45Z</time></trkpt>
    <trkpt lat="34.927288" lon="33.400104"><ele>299.6</ele><time>2025-12-04T11:29:51Z</time></trkpt>
    <trkpt lat="34.927314" lon="33.399706"><ele>300.8</ele><time>2025-12-04T11:29:58Z</time></trkpt>
    <trkpt lat="34.927210" lon="33.398801"><ele>305.6</ele><time>2025-12-04T11:30:17Z</time></trkpt>
    <trkpt lat="34.926668" lon="33.397288"><ele>313.8</ele><time>2025-12-04T11:30:55Z</time></trkpt>
    <trkpt lat="34.924845" lon="33.392501"><ele>323.4</ele><time>2025-12-04T11:32:34Z</time></trkpt>
    <trkpt lat="34.924278" lon="33.391306"><ele>325.6</ele><time>2025-12-04T11:33:01Z</time></trkpt>
    <trkpt lat="34.923433" lon="33.390249"><ele>325.0</ele><time>2025-12-04T11:33:23Z</time></trkpt>
    <trkpt lat="34.921344" lon="33.388747"><ele>326.2</ele><time>2025-12-04T11:34:05Z</time></trkpt>
    <trkpt lat="34.920428" lon="33.387837"><ele>329.0</ele><time>2025-12-04T11:34:30Z</time></trkpt>
    <trkpt lat="34.918411" lon="33.384650"><ele>335.4</ele><time>2025-12-04T11:35:41Z</time></trkpt>
    <trkpt lat="34.918177" lon="33.384329"><ele>335.4</ele><time>2025-12-04T11:38:33Z</time></trkpt>
    <trkpt lat="34.916677" lon="33.381766"><ele>333.0</ele><time>2025-12-04T11:40:56Z</time></trkpt>
    <trkpt lat="34.915808" lon="33.380247"><ele>324.4</ele><time>2025-12-04T11:41:10Z</time></trkpt>
    <trkpt lat="34.915395" lon="33.378810"><ele>314.2</ele><time>2025-12-04T11:41:19Z</time></trkpt>
    <trkpt lat="34.915392" lon="33.376071"><ele>302.6</ele><time>2025-12-04T11:41:35Z</time></trkpt>
    <trkpt lat="34.915382" lon="33.375775"><ele>302.6</ele><time>2025-12-04T11:41:37Z</time></trkpt>
    <trkpt lat="34.915196" lon="33.374285"><ele>300.8</ele><time>2025-12-04T11:41:48Z</time></trkpt>
    <trkpt lat="34.914335" lon="33.371556"><ele>293.6</ele><time>2025-12-04T11:42:07Z</time></trkpt>
    <trkpt lat="34.913956" lon="33.369857"><ele>290.4</ele><time>2025-12-04T11:42:19Z</time></trkpt>
    <trkpt lat="34.913905" lon="33.367505"><ele>286.8</ele><time>2025-12-04T11:42:37Z</time></trkpt>
    <trkpt lat="34.913873" lon="33.365203"><ele>285.6</ele><time>2025-12-04T11:42:58Z</time></trkpt>
    <trkpt lat="34.912727" lon="33.360096"><ele>281.8</ele><time>2025-12-04T11:43:55Z</time></trkpt>
    <trkpt lat="34.912636" lon="33.359794"><ele>280.4</ele><time>2025-12-04T11:43:58Z</time></trkpt>
    <trkpt lat="34.912155" lon="33.358916"><ele>277.4</ele><time>2025-12-04T11:44:07Z</time></trkpt>
    <trkpt lat="34.911658" lon="33.358413"><ele>275.0</ele><time>2025-12-04T11:44:13Z</time></trkpt>
    <trkpt lat="34.909341" lon="33.357089"><ele>263.8</ele><time>2025-12-04T11:44:34Z</time></trkpt>
    <trkpt lat="34.908951" lon="33.356863"><ele>263.8</ele><time>2025-12-04T11:44:38Z</time></trkpt>
    <trkpt lat="34.908072" lon="33.355982"><ele>265.8</ele><time>2025-12-04T11:44:52Z</time></trkpt>
    <trkpt lat="34.906610" lon="33.352234"><ele>280.8</ele><time>2025-12-04T11:46:33Z</time></trkpt>
    <trkpt lat="34.906461" lon="33.349410"><ele>290.8</ele><time>2025-12-04T11:47:44Z</time></trkpt>
    <trkpt lat="34.906102" lon="33.348127"><ele>296.0</ele><time>2025-12-04T11:48:19Z</time></trkpt>
    <trkpt lat="34.905552" lon="33.347235"><ele>300.4</ele><time>2025-12-04T11:48:46Z</time></trkpt>
    <trkpt lat="34.903691" lon="33.345658"><ele>314.6</ele><time>2025-12-04T11:50:13Z</time></trkpt>
    <trkpt lat="34.903325" lon="33.345062"><ele>319.0</ele><time>2025-12-04T11:50:40Z</time></trkpt>
    <trkpt lat="34.903212" lon="33.344447"><ele>322.6</ele><time>2025-12-04T11:51:01Z</time></trkpt>
    <trkpt lat="34.903230" lon="33.343838"><ele>325.2</ele><time>2025-12-04T11:51:20Z</time></trkpt>
    <trkpt lat="34.903314" lon="33.341888"><ele>325.6</ele><time>2025-12-04T11:52:00Z</time></trkpt>
    <trkpt lat="34.903309" lon="33.341805"><ele>325.4</ele><time>2025-12-04T11:52:01Z</time></trkpt>
    <trkpt lat="34.903172" lon="33.340844"><ele>321.4</ele><time>2025-12-04T11:52:10Z</time></trkpt>
    <trkpt lat="34.900879" lon="33.336169"><ele>300.2</ele><time>2025-12-04T11:52:45Z</time></trkpt>
    <trkpt lat="34.900739" lon="33.335638"><ele>300.2</ele><time>2025-12-04T11:52:49Z</time></trkpt>
    <trkpt lat="34.900132" lon="33.331507"><ele>327.2</ele><time>2025-12-04T11:55:06Z</time></trkpt>
    <trkpt lat="34.899481" lon="33.329930"><ele>336.6</ele><time>2025-12-04T11:56:08Z</time></trkpt>
    <trkpt lat="34.899458" lon="33.329803"><ele>336.6</ele><time>2025-12-04T11:56:12Z</time></trkpt>
    <trkpt lat="34.899821" lon="33.328208"><ele>332.8</ele><time>2025-12-04T11:56:35Z</time></trkpt>
    <trkpt lat="34.899495" lon="33.326168"><ele>320.8</ele><time>2025-12-04T11:56:49Z</time></trkpt>
    <trkpt lat="34.899573" lon="33.325875"><ele>318.6</ele><time>2025-12-04T11:56:51Z</time></trkpt>
    <trkpt lat="34.900051" lon="33.325358"><ele>314.2</ele><time>2025-12-04T11:56:56Z</time></trkpt>
    <trkpt lat="34.900114" lon="33.325057"><ele>313.8</ele><time>2025-12-04T11:56:58Z</time></trkpt>
    <trkpt lat="34.899671" lon="33.324033"><ele>315.0</ele><time>2025-12-04T11:57:09Z</time></trkpt>
    <trkpt lat="34.899638" lon="33.323590"><ele>317.4</ele><time>2025-12-04T11:57:16Z</time></trkpt>
    <trkpt lat="34.899755" lon="33.323232"><ele>319.2</ele><time>2025-12-04T11:57:24Z</time></trkpt>
    <trkpt lat="34.900494" lon="33.322427"><ele>323.6</ele><time>2025-12-04T11:57:51Z</time></trkpt>
    <trkpt lat="34.900647" lon="33.321838"><ele>325.0</ele><time>2025-12-04T11:58:05Z</time></trkpt>
    <trkpt lat="34.900492" lon="33.321205"><ele>326.0</ele><time>2025-12-04T11:58:18Z</time></trkpt>
    <trkpt lat="34.900385" lon="33.321043"><ele>326.4</ele><time>2025-12-04T11:58:22Z</time></trkpt>
    <trkpt lat="34.899401" lon="33.319668"><ele>328.2</ele><time>2025-12-04T11:59:03Z</time></trkpt>
    <trkpt lat="34.899371" lon="33.319206"><ele>327.4</ele><time>2025-12-04T12:03:40Z</time></trkpt>
    <trkpt lat="34.899665" lon="33.318348"><ele>326.8</ele><time>2025-12-04T12:03:58Z</time></trkpt>
    <trkpt lat="34.899661" lon="33.317725"><ele>326.2</ele><time>2025-12-04T12:04:07Z</time></trkpt>
    <trkpt lat="34.899172" lon="33.316672"><ele>325.4</ele><time>2025-12-04T12:04:22Z</time></trkpt>
    <trkpt lat="34.898484" lon="33.315118"><ele>319.4</ele><time>2025-12-04T12:04:38Z</time></trkpt>
    <trkpt lat="34.898624" lon="33.314454"><ele>316.2</ele><time>2025-12-04T12:04:43Z</time></trkpt>
    <trkpt lat="34.899453" lon="33.314126"><ele>311.0</ele><time>2025-12-04T12:04:50Z</time></trkpt>
    <trkpt lat="34.899730" lon="33.313695"><ele>308.2</ele><time>2025-12-04T12:04:54Z</time></trkpt>
    <trkpt lat="34.899637" lon="33.313346"><ele>308.2</ele><time>2025-12-04T12:04:57Z</time></trkpt>
    <trkpt lat="34.899050" lon="33.313067"><ele>309.0</ele><time>2025-12-04T12:05:04Z</time></trkpt>
    <trkpt lat="34.898872" lon="33.312768"><ele>309.8</ele><time>2025-12-04T12:05:08Z</time></trkpt>
    <trkpt lat="34.899292" lon="33.311639"><ele>310.8</ele><time>2025-12-04T12:05:21Z</time></trkpt>
    <trkpt lat="34.899078" lon="33.310924"><ele>310.2</ele><time>2025-12-04T12:05:29Z</time></trkpt>
    <trkpt lat="34.898558" lon="33.310078"><ele>309.0</ele><time>2025-12-04T12:05:40Z</time></trkpt>
    <trkpt lat="34.897885" lon="33.309882"><ele>308.6</ele><time>2025-12-04T12:05:49Z</time></trkpt>
    <trkpt lat="34.897566" lon="33.309590"><ele>308.2</ele><time>2025-12-04T12:05:54Z</time></trkpt>
    <trkpt lat="34.897374" lon="33.309233"><ele>307.8</ele><time>2025-12-04T12:05:58Z</time></trkpt>
    <trkpt lat="34.896826" lon="33.308120"><ele>302.4</ele><time>2025-12-04T12:06:08Z</time></trkpt>
    <trkpt lat="34.896307" lon="33.307581"><ele>297.0</ele><time>2025-12-04T12:06:14Z</time></trkpt>
    <trkpt lat="34.896166" lon="33.306361"><ele>290.6</ele><time>2025-12-04T12:06:23Z</time></trkpt>
    <trkpt lat="34.895860" lon="33.306280"><ele>288.6</ele><time>2025-12-04T12:06:26Z</time></trkpt>
    <trkpt lat="34.895779" lon="33.306359"><ele>287.8</ele><time>2025-12-04T12:06:27Z</time></trkpt>
    <trkpt lat="34.895455" lon="33.306657"><ele>286.6</ele><time>2025-12-04T12:06:31Z</time></trkpt>
    <trkpt lat="34.895188" lon="33.306511"><ele>286.0</ele><time>2025-12-04T12:06:34Z</time></trkpt>
    <trkpt lat="34.894545" lon="33.305787"><ele>284.2</ele><time>2025-12-04T12:06:43Z</time></trkpt>
    <trkpt lat="34.894371" lon="33.304970"><ele>283.0</ele><time>2025-12-04T12:06:50Z</time></trkpt>
    <trkpt lat="34.894097" lon="33.304463"><ele>281.2</ele><time>2025-12-04T12:06:55Z</time></trkpt>
    <trkpt lat="34.892517" lon="33.302971"><ele>274.0</ele><time>2025-12-04T12:07:14Z</time></trkpt>
    <trkpt lat="34.891748" lon="33.301896"><ele>269.6</ele><time>2025-12-04T12:07:26Z</time></trkpt>
    <trkpt lat="34.891424" lon="33.301966"><ele>269.6</ele><time>2025-12-04T12:07:30Z</time></trkpt>
    <trkpt lat="34.891362" lon="33.302099"><ele>269.6</ele><time>2025-12-04T12:07:32Z</time></trkpt>
    <trkpt lat="34.891169" lon="33.302588"><ele>274.2</ele><time>2025-12-04T12:07:46Z</time></trkpt>
    <trkpt lat="34.891165" lon="33.302936"><ele>276.6</ele><time>2025-12-04T12:08:00Z</time></trkpt>
    <trkpt lat="34.891922" lon="33.305200"><ele>294.0</ele><time>2025-12-04T12:09:47Z</time></trkpt>
    <trkpt lat="34.891946" lon="33.305280"><ele>294.4</ele><time>2025-12-04T12:09:51Z</time></trkpt>
    <trkpt lat="34.892487" lon="33.305729"><ele>299.2</ele><time>2025-12-04T12:10:28Z</time></trkpt>
    <trkpt lat="34.892751" lon="33.306623"><ele>304.4</ele><time>2025-12-04T12:11:10Z</time></trkpt>
    <trkpt lat="34.892252" lon="33.307412"><ele>309.4</ele><time>2025-12-04T12:11:53Z</time></trkpt>
    <trkpt lat="34.891982" lon="33.307614"><ele>312.0</ele><time>2025-12-04T12:12:11Z</time></trkpt>
    <trkpt lat="34.891687" lon="33.307285"><ele>315.4</ele><time>2025-12-04T12:12:36Z</time></trkpt>
    <trkpt lat="34.891869" lon="33.306407"><ele>321.0</ele><time>2025-12-04T12:13:16Z</time></trkpt>
    <trkpt lat="34.891791" lon="33.306022"><ele>323.4</ele><time>2025-12-04T12:13:34Z</time></trkpt>
    <trkpt lat="34.890129" lon="33.304655"><ele>337.4</ele><time>2025-12-04T12:15:14Z</time></trkpt>
    <trkpt lat="34.889257" lon="33.303317"><ele>347.6</ele><time>2025-12-04T12:16:26Z</time></trkpt>
    <trkpt lat="34.888811" lon="33.302958"><ele>351.6</ele><time>2025-12-04T12:16:53Z</time></trkpt>
    <trkpt lat="34.887629" lon="33.302528"><ele>361.4</ele><time>2025-12-04T12:17:55Z</time></trkpt>
    <trkpt lat="34.886436" lon="33.302998"><ele>371.0</ele><time>2025-12-04T12:18:55Z</time></trkpt>
    <trkpt lat="34.884089" lon="33.302523"><ele>378.6</ele><time>2025-12-04T12:20:12Z</time></trkpt>
    <trkpt lat="34.883565" lon="33.302125"><ele>380.8</ele><time>2025-12-04T12:20:32Z</time></trkpt>
    <trkpt lat="34.883008" lon="33.301032"><ele>387.2</ele><time>2025-12-04T12:21:21Z</time></trkpt>
    <trkpt lat="34.882663" lon="33.300781"><ele>390.4</ele><time>2025-12-04T12:21:40Z</time></trkpt>
    <trkpt lat="34.881453" lon="33.300569"><ele>400.2</ele><time>2025-12-04T12:22:44Z</time></trkpt>
    <trkpt lat="34.879928" lon="33.301054"><ele>413.2</ele><time>2025-12-04T12:24:14Z</time></trkpt>
    <trkpt lat="34.879587" lon="33.301150"><ele>416.8</ele><time>2025-12-04T12:24:33Z</time></trkpt>
    <trkpt lat="34.879024" lon="33.300987"><ele>422.2</ele><time>2025-12-04T12:25:08Z</time></trkpt>
    <trkpt lat="34.878305" lon="33.300268"><ele>430.2</ele><time>2025-12-04T12:26:01Z</time></trkpt>
    <trkpt lat="34.878358" lon="33.299799"><ele>434.2</ele><time>2025-12-04T12:26:24Z</time></trkpt>
    <trkpt lat="34.878753" lon="33.299471"><ele>438.2</ele><time>2025-12-04T12:26:51Z</time></trkpt>
    <trkpt lat="34.878894" lon="33.299080"><ele>441.6</ele><time>2025-12-04T12:27:13Z</time></trkpt>
    <trkpt lat="34.878812" lon="33.298792"><ele>443.8</ele><time>2025-12-04T12:28:07Z</time></trkpt>
    <trkpt lat="34.878341" lon="33.298227"><ele>449.2</ele><time>2025-12-04T12:28:37Z</time></trkpt>
    <trkpt lat="34.878594" lon="33.297312"><ele>454.8</ele><time>2025-12-04T12:29:13Z</time></trkpt>
    <trkpt lat="34.878439" lon="33.296499"><ele>458.8</ele><time>2025-12-04T12:29:45Z</time></trkpt>
    <trkpt lat="34.878261" lon="33.296628"><ele>461.0</ele><time>2025-12-04T12:29:56Z</time></trkpt>
    <trkpt lat="34.878270" lon="33.297188"><ele>464.4</ele><time>2025-12-04T12:30:17Z</time></trkpt>
    <trkpt lat="34.877832" lon="33.298263"><ele>471.6</ele><time>2025-12-04T12:31:04Z</time></trkpt>
    <trkpt lat="34.877650" lon="33.299187"><ele>478.0</ele><time>2025-12-04T12:31:42Z</time></trkpt>
    <trkpt lat="34.877328" lon="33.299340"><ele>480.8</ele><time>2025-12-04T12:31:59Z</time></trkpt>
    <trkpt lat="34.876851" lon="33.298892"><ele>484.8</ele><time>2025-12-04T12:32:25Z</time></trkpt>
    <trkpt lat="34.876587" lon="33.298940"><ele>487.2</ele><time>2025-12-04T12:32:37Z</time></trkpt>
    <trkpt lat="34.875072" lon="33.301506"><ele>506.8</ele><time>2025-12-04T12:34:30Z</time></trkpt>
    <trkpt lat="34.875074" lon="33.301819"><ele>508.4</ele><time>2025-12-04T12:34:41Z</time></trkpt>
    <trkpt lat="34.875483" lon="33.302142"><ele>512.6</ele><time>2025-12-04T12:35:02Z</time></trkpt>
    <trkpt lat="34.875533" lon="33.302434"><ele>514.8</ele><time>2025-12-04T12:35:14Z</time></trkpt>
    <trkpt lat="34.874904" lon="33.303363"><ele>520.8</ele><time>2025-12-04T12:35:58Z</time></trkpt>
    <trkpt lat="34.874763" lon="33.304438"><ele>527.2</ele><time>2025-12-04T12:36:37Z</time></trkpt>
    <trkpt lat="34.874441" lon="33.304972"><ele>530.4</ele><time>2025-12-04T12:36:59Z</time></trkpt>
    <trkpt lat="34.873997" lon="33.305581"><ele>535.4</ele><time>2025-12-04T12:37:25Z</time></trkpt>
    <trkpt lat="34.873611" lon="33.305690"><ele>538.2</ele><time>2025-12-04T12:37:41Z</time></trkpt>
    <trkpt lat="34.872698" lon="33.305268"><ele>544.8</ele><time>2025-12-04T12:38:15Z</time></trkpt>
    <trkpt lat="34.871465" lon="33.305706"><ele>553.8</ele><time>2025-12-04T12:39:02Z</time></trkpt>
    <trkpt lat="34.870927" lon="33.305555"><ele>557.2</ele><time>2025-12-04T12:39:21Z</time></trkpt>
    <trkpt lat="34.870115" lon="33.305951"><ele>564.2</ele><time>2025-12-04T12:39:55Z</time></trkpt>
    <trkpt lat="34.869881" lon="33.305862"><ele>566.0</ele><time>2025-12-04T12:40:05Z</time></trkpt>
    <trkpt lat="34.869841" lon="33.305832"><ele>566.2</ele><time>2025-12-04T12:40:07Z</time></trkpt>
    <trkpt lat="34.869552" lon="33.305341"><ele>567.6</ele><time>2025-12-04T12:40:24Z</time></trkpt>
    <trkpt lat="34.868727" lon="33.305758"><ele>571.4</ele><time>2025-12-04T12:40:56Z</time></trkpt>
    <trkpt lat="34.867381" lon="33.305288"><ele>579.2</ele><time>2025-12-04T12:41:59Z</time></trkpt>
    <trkpt lat="34.866827" lon="33.305826"><ele>582.0</ele><time>2025-12-04T12:44:17Z</time></trkpt>
    </trkseg>
  </trk>
</gpx>
