<?xml version="1.0" encoding="UTF-8"?>
<gpx version="1.1" creator="tripplanner (simplified from Strava export)" xmlns="http://www.topografix.com/GPX/1/1">
  <metadata>
    <name>Around Cyprus — Peyia → Pedoulas</name>
    <time>2025-11-30T07:31:56Z</time>
  </metadata>
  <trk>
    <name>Around Cyprus — Peyia → Pedoulas</name>
    <trkseg>
    <trkpt lat="34.872235" lon="32.361063"><ele>63.2</ele><time>2025-11-30T07:31:56Z</time></trkpt>
    <trkpt lat="34.872344" lon="32.361994"><ele>62.8</ele><time>2025-11-30T07:32:31Z</time></trkpt>
    <trkpt lat="34.873453" lon="32.362872"><ele>65.0</ele><time>2025-11-30T07:33:06Z</time></trkpt>
    <trkpt lat="34.873604" lon="32.362826"><ele>65.6</ele><time>2025-11-30T07:33:12Z</time></trkpt>
    <trkpt lat="34.873706" lon="32.362656"><ele>66.0</ele><time>2025-11-30T07:33:17Z</time></trkpt>
    <trkpt lat="34.874668" lon="32.360891"><ele>76.2</ele><time>2025-11-30T07:34:09Z</time></trkpt>
    <trkpt lat="34.874615" lon="32.360644"><ele>76.6</ele><time>2025-11-30T07:34:15Z</time></trkpt>
    <trkpt lat="34.874395" lon="32.359667"><ele>76.6</ele><time>2025-11-30T07:34:32Z</time></trkpt>
    <trkpt lat="34.874418" lon="32.358544"><ele>75.2</ele><time>2025-11-30T07:34:49Z</time></trkpt>
    <trkpt lat="34.874013" lon="32.357948"><ele>71.4</ele><time>2025-11-30T07:35:05Z</time></trkpt>
    <trkpt lat="34.876532" lon="32.355323"><ele>76.0</ele><time>2025-11-30T07:36:17Z</time></trkpt>
    <trkpt lat="34.877502" lon="32.353999"><ele>74.4</ele><time>2025-11-30T07:36:44Z</time></trkpt>
    <trkpt lat="34.878664" lon="32.351858"><ele>72.0</ele><time>2025-11-30T07:37:21Z</time></trkpt>
    <trkpt lat="34.881698" lon="32.348538"><ele>66.6</ele><time>2025-11-30T07:38:28Z</time></trkpt>
    <trkpt lat="34.883700" lon="32.344685"><ele>66.6</ele><time>2025-11-30T07:39:36Z</time></trkpt>
    <trkpt lat="34.884013" lon="32.344758"><ele>67.0</ele><time>2025-11-30T07:39:43Z</time></trkpt>
    <trkpt lat="34.884498" lon="32.345121"><ele>72.2</ele><time>2025-11-30T07:40:05Z</time></trkpt>
    <trkpt lat="34.884962" lon="32.346542"><ele>84.2</ele><time>2025-11-30T07:41:43Z</time></trkpt>
    <trkpt lat="34.885214" lon="32.346896"><ele>88.0</ele><time>2025-11-30T07:42:04Z</time></trkpt>
    <trkpt lat="34.887372" lon="32.348120"><ele>111.0</ele><time>2025-11-30T07:44:03Z</time></trkpt>
    <trkpt lat="34.887951" lon="32.348995"><ele>119.8</ele><time>2025-11-30T07:44:48Z</time></trkpt>
    <trkpt lat="34.888034" lon="32.350135"><ele>128.0</ele><time>2025-11-30T07:45:32Z</time></trkpt>
    <trkpt lat="34.887309" lon="32.354576"><ele>160.2</ele><time>2025-11-30T07:48:30Z</time></trkpt>
    <trkpt lat="34.887430" lon="32.355147"><ele>164.4</ele><time>2025-11-30T07:48:53Z</time></trkpt>
    <trkpt lat="34.887749" lon="32.355579"><ele>168.8</ele><time>2025-11-30T07:49:15Z</time></trkpt>
    <trkpt lat="34.888006" lon="32.355716"><ele>171.6</ele><time>2025-11-30T07:50:04Z</time></trkpt>
    <trkpt lat="34.888444" lon="32.355754"><ele>175.0</ele><time>2025-11-30T07:50:25Z</time></trkpt>
    <trkpt lat="34.890778" lon="32.354670"><ele>192.8</ele><time>2025-11-30T07:52:11Z</time></trkpt>
    <trkpt lat="34.891378" lon="32.354304"><ele>197.6</ele><time>2025-11-30T07:52:39Z</time></trkpt>
    <trkpt lat="34.892600" lon="32.353128"><ele>209.4</ele><time>2025-11-30T07:53:45Z</time></trkpt>
    <trkpt lat="34.893193" lon="32.353152"><ele>213.4</ele><time>2025-11-30T07:54:10Z</time></trkpt>
    <trkpt lat="34.893620" lon="32.353539"><ele>217.0</ele><time>2025-11-30T07:54:33Z</time></trkpt>
    <trkpt lat="34.893813" lon="32.354157"><ele>221.4</ele><time>2025-11-30T07:54:57Z</time></trkpt>
    <trkpt lat="34.893691" lon="32.354817"><ele>225.8</ele><time>2025-11-30T07:55:22Z</time></trkpt>
    <trkpt lat="34.892793" lon="32.355825"><ele>235.6</ele><time>2025-11-30T07:56:15Z</time></trkpt>
    <trkpt lat="34.891950" lon="32.357581"><ele>249.4</ele><time>2025-11-30T07:57:32Z</time></trkpt>
    <trkpt lat="34.890578" lon="32.359187"><ele>264.8</ele><time>2025-11-30T07:58:58Z</time></trkpt>
    <trkpt lat="34.890031" lon="32.360326"><ele>273.4</ele><time>2025-11-30T07:59:48Z</time></trkpt>
    <trkpt lat="34.889796" lon="32.361504"><ele>281.0</ele><time>2025-11-30T08:00:34Z</time></trkpt>
    <trkpt lat="34.889552" lon="32.365158"><ele>304.2</ele><time>2025-11-30T08:02:52Z</time></trkpt>
    <trkpt lat="34.890053" lon="32.365754"><ele>310.2</ele><time>2025-11-30T08:03:24Z</time></trkpt>
    <trkpt lat="34.890699" lon="32.365743"><ele>315.6</ele><time>2025-11-30T08:03:55Z</time></trkpt>
    <trkpt lat="34.891127" lon="32.365291"><ele>320.4</ele><time>2025-11-30T08:04:21Z</time></trkpt>
    <trkpt lat="34.891354" lon="32.364232"><ele>327.0</ele><time>2025-11-30T08:04:58Z</time></trkpt>
    <trkpt lat="34.891467" lon="32.363814"><ele>329.0</ele><time>2025-11-30T08:05:13Z</time></trkpt>
    <trkpt lat="34.891831" lon="32.363260"><ele>332.2</ele><time>2025-11-30T08:05:36Z</time></trkpt>
    <trkpt lat="34.892528" lon="32.362881"><ele>335.4</ele><time>2025-11-30T08:06:05Z</time></trkpt>
    <trkpt lat="34.893308" lon="32.363016"><ele>339.0</ele><time>2025-11-30T08:06:35Z</time></trkpt>
    <trkpt lat="34.893863" lon="32.363592"><ele>342.4</ele><time>2025-11-30T08:07:01Z</time></trkpt>
    <trkpt lat="34.895512" lon="32.367068"><ele>355.8</ele><time>2025-11-30T08:09:00Z</time></trkpt>
    <trkpt lat="34.896901" lon="32.368825"><ele>362.8</ele><time>2025-11-30T08:10:06Z</time></trkpt>
    <trkpt lat="34.898132" lon="32.370456"><ele>373.8</ele><time>2025-11-30T08:11:14Z</time></trkpt>
    <trkpt lat="34.898344" lon="32.371391"><ele>379.8</ele><time>2025-11-30T08:11:48Z</time></trkpt>
    <trkpt lat="34.898223" lon="32.372396"><ele>386.8</ele><time>2025-11-30T08:12:27Z</time></trkpt>
    <trkpt lat="34.897024" lon="32.374496"><ele>405.2</ele><time>2025-11-30T08:14:09Z</time></trkpt>
    <trkpt lat="34.895013" lon="32.378928"><ele>442.0</ele><time>2025-11-30T08:17:38Z</time></trkpt>
    <trkpt lat="34.894732" lon="32.379759"><ele>448.6</ele><time>2025-11-30T08:18:15Z</time></trkpt>
    <trkpt lat="34.894685" lon="32.380787"><ele>455.8</ele><time>2025-11-30T08:18:56Z</time></trkpt>
    <trkpt lat="34.895399" lon="32.383040"><ele>473.4</ele><time>2025-11-30T08:20:32Z</time></trkpt>
    <trkpt lat="34.896498" lon="32.384915"><ele>488.0</ele><time>2025-11-30T08:21:55Z</time></trkpt>
    <trkpt lat="34.897361" lon="32.386409"><ele>496.2</ele><time>2025-11-30T08:22:56Z</time></trkpt>
    <trkpt lat="34.899656" lon="32.388677"><ele>506.4</ele><time>2025-11-30T08:24:39Z</time></trkpt>
    <trkpt lat="34.901585" lon="32.391630"><ele>520.8</ele><time>2025-11-30T08:26:23Z</time></trkpt>
    <trkpt lat="34.902592" lon="32.395648"><ele>533.0</ele><time>2025-11-30T08:28:10Z</time></trkpt>
    <trkpt lat="34.902927" lon="32.395961"><ele>534.2</ele><time>2025-11-30T08:28:22Z</time></trkpt>
    <trkpt lat="34.902964" lon="32.395970"><ele>534.2</ele><time>2025-11-30T08:28:23Z</time></trkpt>
    <trkpt lat="34.904056" lon="32.395955"><ele>531.6</ele><time>2025-11-30T08:28:43Z</time></trkpt>
    <trkpt lat="34.904126" lon="32.395996"><ele>531.2</ele><time>2025-11-30T08:28:44Z</time></trkpt>
    <trkpt lat="34.904656" lon="32.396670"><ele>526.6</ele><time>2025-11-30T08:28:53Z</time></trkpt>
    <trkpt lat="34.904596" lon="32.397636"><ele>522.0</ele><time>2025-11-30T08:29:01Z</time></trkpt>
    <trkpt lat="34.903289" lon="32.399974"><ele>508.4</ele><time>2025-11-30T08:29:20Z</time></trkpt>
    <trkpt lat="34.903059" lon="32.401141"><ele>502.8</ele><time>2025-11-30T08:29:28Z</time></trkpt>
    <trkpt lat="34.902694" lon="32.403199"><ele>503.8</ele><time>2025-11-30T08:29:50Z</time></trkpt>
    <trkpt lat="34.902704" lon="32.404293"><ele>504.0</ele><time>2025-11-30T08:30:05Z</time></trkpt>
    <trkpt lat="34.902964" lon="32.407793"><ele>520.0</ele><time>2025-11-30T08:31:37Z</time></trkpt>
    <trkpt lat="34.903290" lon="32.408201"><ele>522.6</ele><time>2025-11-30T08:31:56Z</time></trkpt>
    <trkpt lat="34.903791" lon="32.408140"><ele>525.6</ele><time>2025-11-30T08:32:16Z</time></trkpt>
    <trkpt lat="34.903966" lon="32.407776"><ele>528.2</ele><time>2025-11-30T08:32:32Z</time></trkpt>
    <trkpt lat="34.904251" lon="32.405973"><ele>543.2</ele><time>2025-11-30T08:33:47Z</time></trkpt>
    <trkpt lat="34.904517" lon="32.405740"><ele>545.6</ele><time>2025-11-30T08:34:03Z</time></trkpt>
    <trkpt lat="34.904555" lon="32.405746"><ele>546.2</ele><time>2025-11-30T08:34:05Z</time></trkpt>
    <trkpt lat="34.904770" lon="32.405943"><ele>547.4</ele><time>2025-11-30T08:34:18Z</time></trkpt>
    <trkpt lat="34.904938" lon="32.408180"><ele>554.8</ele><time>2025-11-30T08:35:24Z</time></trkpt>
    <trkpt lat="34.905787" lon="32.409521"><ele>558.8</ele><time>2025-11-30T08:36:06Z</time></trkpt>
    <trkpt lat="34.905897" lon="32.409838"><ele>560.8</ele><time>2025-11-30T08:36:16Z</time></trkpt>
    <trkpt lat="34.906149" lon="32.413008"><ele>577.0</ele><time>2025-11-30T08:37:58Z</time></trkpt>
    <trkpt lat="34.905941" lon="32.415509"><ele>589.6</ele><time>2025-11-30T08:39:17Z</time></trkpt>
    <trkpt lat="34.906416" lon="32.417517"><ele>602.0</ele><time>2025-11-30T08:40:31Z</time></trkpt>
    <trkpt lat="34.908325" lon="32.419895"><ele>614.8</ele><time>2025-11-30T08:42:04Z</time></trkpt>
    <trkpt lat="34.909191" lon="32.421281"><ele>622.0</ele><time>2025-11-30T08:42:53Z</time></trkpt>
    <trkpt lat="34.909253" lon="32.421359"><ele>622.8</ele><time>2025-11-30T08:42:56Z</time></trkpt>
    <trkpt lat="34.910131" lon="32.421685"><ele>630.0</ele><time>2025-11-30T08:43:30Z</time></trkpt>
    <trkpt lat="34.911165" lon="32.423479"><ele>647.4</ele><time>2025-11-30T08:44:58Z</time></trkpt>
    <trkpt lat="34.911570" lon="32.423980"><ele>652.2</ele><time>2025-11-30T08:45:25Z</time></trkpt>
    <trkpt lat="34.912268" lon="32.424818"><ele>652.8</ele><time>2025-11-30T08:45:59Z</time></trkpt>
    <trkpt lat="34.912661" lon="32.425718"><ele>654.2</ele><time>2025-11-30T08:56:01Z</time></trkpt>
    <trkpt lat="34.912780" lon="32.425969"><ele>651.6</ele><time>2025-11-30T08:56:12Z</time></trkpt>
    <trkpt lat="34.913458" lon="32.426096"><ele>646.4</ele><time>2025-11-30T08:56:55Z</time></trkpt>
    <trkpt lat="34.913774" lon="32.426345"><ele>645.6</ele><time>2025-11-30T08:57:04Z</time></trkpt>
    <trkpt lat="34.914140" lon="32.426779"><ele>642.0</ele><time>2025-11-30T08:57:11Z</time></trkpt>
    <trkpt lat="34.914961" lon="32.429176"><ele>629.2</ele><time>2025-11-30T08:57:31Z</time></trkpt>
    <trkpt lat="34.915033" lon="32.429269"><ele>629.0</ele><time>2025-11-30T08:57:32Z</time></trkpt>
    <trkpt lat="34.916565" lon="32.430141"><ele>635.8</ele><time>2025-11-30T08:58:05Z</time></trkpt>
    <trkpt lat="34.917297" lon="32.431147"><ele>635.4</ele><time>2025-11-30T08:58:28Z</time></trkpt>
    <trkpt lat="34.917868" lon="32.432691"><ele>638.6</ele><time>2025-11-30T08:58:55Z</time></trkpt>
    <trkpt lat="34.918756" lon="32.433790"><ele>643.8</ele><time>2025-11-30T08:59:23Z</time></trkpt>
    <trkpt lat="34.919672" lon="32.434416"><ele>646.2</ele><time>2025-11-30T08:59:44Z</time></trkpt>
    <trkpt lat="34.919978" lon="32.434567"><ele>643.6</ele><time>2025-11-30T08:59:49Z</time></trkpt>
    <trkpt lat="34.922288" lon="32.435442"><ele>623.4</ele><time>2025-11-30T09:00:19Z</time></trkpt>
    <trkpt lat="34.923437" lon="32.436402"><ele>610.2</ele><time>2025-11-30T09:00:36Z</time></trkpt>
    <trkpt lat="34.924263" lon="32.436301"><ele>600.8</ele><time>2025-11-30T09:00:49Z</time></trkpt>
    <trkpt lat="34.924318" lon="32.436504"><ele>598.6</ele><time>2025-11-30T09:00:52Z</time></trkpt>
    <trkpt lat="34.924138" lon="32.437073"><ele>591.8</ele><time>2025-11-30T09:01:01Z</time></trkpt>
    <trkpt lat="34.924610" lon="32.437352"><ele>586.0</ele><time>2025-11-30T09:01:11Z</time></trkpt>
    <trkpt lat="34.924876" lon="32.437986"><ele>579.6</ele><time>2025-11-30T09:01:19Z</time></trkpt>
    <trkpt lat="34.925666" lon="32.438478"><ele>581.0</ele><time>2025-11-30T09:01:34Z</time></trkpt>
    <trkpt lat="34.926182" lon="32.438705"><ele>579.0</ele><time>2025-11-30T09:01:42Z</time></trkpt>
    <trkpt lat="34.926877" lon="32.438608"><ele>576.6</ele><time>2025-11-30T09:01:51Z</time></trkpt>
    <trkpt lat="34.926957" lon="32.438613"><ele>576.0</ele><time>2025-11-30T09:01:52Z</time></trkpt>
    <trkpt lat="34.928422" lon="32.438873"><ele>567.2</ele><time>2025-11-30T09:02:09Z</time></trkpt>
    <trkpt lat="34.928794" lon="32.439449"><ele>562.0</ele><time>2025-11-30T09:02:17Z</time></trkpt>
    <trkpt lat="34.928792" lon="32.439532"><ele>561.4</ele><time>2025-11-30T09:02:18Z</time></trkpt>
    <trkpt lat="34.928567" lon="32.440262"><ele>553.8</ele><time>2025-11-30T09:02:26Z</time></trkpt>
    <trkpt lat="34.928523" lon="32.441085"><ele>545.2</ele><time>2025-11-30T09:02:35Z</time></trkpt>
    <trkpt lat="34.929054" lon="32.441320"><ele>539.2</ele><time>2025-11-30T09:02:41Z</time></trkpt>
    <trkpt lat="34.930126" lon="32.441237"><ele>537.6</ele><time>2025-11-30T09:02:56Z</time></trkpt>
    <trkpt lat="34.930460" lon="32.441417"><ele>536.4</ele><time>2025-11-30T09:03:01Z</time></trkpt>
    <trkpt lat="34.930741" lon="32.442026"><ele>532.6</ele><time>2025-11-30T09:03:09Z</time></trkpt>
    <trkpt lat="34.930991" lon="32.442315"><ele>528.4</ele><time>2025-11-30T09:03:14Z</time></trkpt>
    <trkpt lat="34.931133" lon="32.443472"><ele>515.2</ele><time>2025-11-30T09:03:27Z</time></trkpt>
    <trkpt lat="34.931334" lon="32.443709"><ele>511.6</ele><time>2025-11-30T09:03:32Z</time></trkpt>
    <trkpt lat="34.931471" lon="32.443741"><ele>510.6</ele><time>2025-11-30T09:03:34Z</time></trkpt>
    <trkpt lat="34.932056" lon="32.443644"><ele>510.2</ele><time>2025-11-30T09:03:43Z</time></trkpt>
    <trkpt lat="34.932781" lon="32.443911"><ele>513.4</ele><time>2025-11-30T09:03:58Z</time></trkpt>
    <trkpt lat="34.933890" lon="32.443788"><ele>515.8</ele><time>2025-11-30T09:04:22Z</time></trkpt>
    <trkpt lat="34.934213" lon="32.443971"><ele>515.4</ele><time>2025-11-30T09:04:28Z</time></trkpt>
    <trkpt lat="34.934480" lon="32.444142"><ele>513.2</ele><time>2025-11-30T09:04:32Z</time></trkpt>
    <trkpt lat="34.935006" lon="32.444203"><ele>511.0</ele><time>2025-11-30T09:04:40Z</time></trkpt>
    <trkpt lat="34.936091" lon="32.443659"><ele>498.0</ele><time>2025-11-30T09:04:54Z</time></trkpt>
    <trkpt lat="34.937781" lon="32.443300"><ele>486.0</ele><time>2025-11-30T09:05:11Z</time></trkpt>
    <trkpt lat="34.939301" lon="32.443746"><ele>475.8</ele><time>2025-11-30T09:05:31Z</time></trkpt>
    <trkpt lat="34.940324" lon="32.443338"><ele>464.8</ele><time>2025-11-30T09:05:43Z</time></trkpt>
    <trkpt lat="34.941710" lon="32.443988"><ele>454.2</ele><time>2025-11-30T09:06:01Z</time></trkpt>
    <trkpt lat="34.942296" lon="32.445345"><ele>444.4</ele><time>2025-11-30T09:06:19Z</time></trkpt>
    <trkpt lat="34.942328" lon="32.445397"><ele>443.8</ele><time>2025-11-30T09:06:20Z</time></trkpt>
    <trkpt lat="34.942572" lon="32.445451"><ele>442.0</ele><time>2025-11-30T09:06:27Z</time></trkpt>
    <trkpt lat="34.942937" lon="32.446321"><ele>437.8</ele><time>2025-11-30T09:06:48Z</time></trkpt>
    <trkpt lat="34.943261" lon="32.446710"><ele>436.2</ele><time>2025-11-30T09:07:00Z</time></trkpt>
    <trkpt lat="34.944586" lon="32.445886"><ele>430.2</ele><time>2025-11-30T09:07:33Z</time></trkpt>
    <trkpt lat="34.944827" lon="32.445759"><ele>428.2</ele><time>2025-11-30T09:07:36Z</time></trkpt>
    <trkpt lat="34.946470" lon="32.445719"><ele>416.6</ele><time>2025-11-30T09:07:51Z</time></trkpt>
    <trkpt lat="34.947529" lon="32.445896"><ele>408.6</ele><time>2025-11-30T09:08:01Z</time></trkpt>
    <trkpt lat="34.948838" lon="32.446703"><ele>395.2</ele><time>2025-11-30T09:08:17Z</time></trkpt>
    <trkpt lat="34.949852" lon="32.446574"><ele>386.8</ele><time>2025-11-30T09:08:28Z</time></trkpt>
    <trkpt lat="34.950629" lon="32.446764"><ele>378.0</ele><time>2025-11-30T09:08:36Z</time></trkpt>
    <trkpt lat="34.951003" lon="32.447091"><ele>373.0</ele><time>2025-11-30T09:08:41Z</time></trkpt>
    <trkpt lat="34.951310" lon="32.447706"><ele>366.8</ele><time>2025-11-30T09:08:48Z</time></trkpt>
    <trkpt lat="34.952238" lon="32.448442"><ele>355.6</ele><time>2025-11-30T09:09:00Z</time></trkpt>
    <trkpt lat="34.952574" lon="32.448713"><ele>351.8</ele><time>2025-11-30T09:09:06Z</time></trkpt>
    <trkpt lat="34.952487" lon="32.448862"><ele>349.8</ele><time>2025-11-30T09:09:10Z</time></trkpt>
    <trkpt lat="34.951732" lon="32.448501"><ele>345.8</ele><time>2025-11-30T09:09:23Z</time></trkpt>
    <trkpt lat="34.951177" lon="32.448579"><ele>341.2</ele><time>2025-11-30T09:09:35Z</time></trkpt>
    <trkpt lat="34.951239" lon="32.448671"><ele>340.6</ele><time>2025-11-30T09:09:37Z</time></trkpt>
    <trkpt lat="34.952056" lon="32.449389"><ele>331.2</ele><time>2025-11-30T09:09:52Z</time></trkpt>
    <trkpt lat="34.952036" lon="32.450769"><ele>317.0</ele><time>2025-11-30T09:10:09Z</time></trkpt>
    <trkpt lat="34.952493" lon="32.451134"><ele>312.4</ele><time>2025-11-30T09:10:27Z</time></trkpt>
    <trkpt lat="34.954906" lon="32.450956"><ele>307.8</ele><time>2025-11-30T09:11:21Z</time></trkpt>
    <trkpt lat="34.955390" lon="32.450815"><ele>301.8</ele><time>2025-11-30T09:11:28Z</time></trkpt>
    <trkpt lat="34.956368" lon="32.451097"><ele>285.8</ele><time>2025-11-30T09:11:43Z</time></trkpt>
    <trkpt lat="34.956404" lon="32.450918"><ele>283.4</ele><time>2025-11-30T09:11:47Z</time></trkpt>
    <trkpt lat="34.956214" lon="32.450648"><ele>279.0</ele><time>2025-11-30T09:11:53Z</time></trkpt>
    <trkpt lat="34.956283" lon="32.450540"><ele>277.6</ele><time>2025-11-30T09:11:56Z</time></trkpt>
    <trkpt lat="34.956994" lon="32.450823"><ele>269.2</ele><time>2025-11-30T09:12:07Z</time></trkpt>
    <trkpt lat="34.957661" lon="32.450846"><ele>261.0</ele><time>2025-11-30T09:12:15Z</time></trkpt>
    <trkpt lat="34.958394" lon="32.451251"><ele>250.6</ele><time>2025-11-30T09:12:23Z</time></trkpt>
    <trkpt lat="34.959230" lon="32.451149"><ele>242.2</ele><time>2025-11-30T09:12:32Z</time></trkpt>
    <trkpt lat="34.961260" lon="32.452494"><ele>222.6</ele><time>2025-11-30T09:12:57Z</time></trkpt>
    <trkpt lat="34.962476" lon="32.453782"><ele>206.0</ele><time>2025-11-30T09:13:14Z</time></trkpt>
    <trkpt lat="34.962962" lon="32.454859"><ele>195.0</ele><time>2025-11-30T09:13:26Z</time></trkpt>
    <trkpt lat="34.963337" lon="32.454705"><ele>189.8</ele><time>2025-11-30T09:13:31Z</time></trkpt>
    <trkpt lat="34.964004" lon="32.454252"><ele>184.4</ele><time>2025-11-30T09:13:39Z</time></trkpt>
    <trkpt lat="34.965497" lon="32.454272"><ele>171.6</ele><time>2025-11-30T09:13:56Z</time></trkpt>
    <trkpt lat="34.965546" lon="32.454424"><ele>169.2</ele><time>2025-11-30T09:13:59Z</time></trkpt>
    <trkpt lat="34.965271" lon="32.454849"><ele>164.8</ele><time>2025-11-30T09:14:05Z</time></trkpt>
    <trkpt lat="34.965260" lon="32.455446"><ele>158.8</ele><time>2025-11-30T09:14:12Z</time></trkpt>
    <trkpt lat="34.965077" lon="32.455868"><ele>154.6</ele><time>2025-11-30T09:14:17Z</time></trkpt>
    <trkpt lat="34.964627" lon="32.456233"><ele>149.8</ele><time>2025-11-30T09:14:24Z</time></trkpt>
    <trkpt lat="34.963963" lon="32.456384"><ele>141.0</ele><time>2025-11-30T09:14:36Z</time></trkpt>
    <trkpt lat="34.963941" lon="32.456439"><ele>139.8</ele><time>2025-11-30T09:14:38Z</time></trkpt>
    <trkpt lat="34.963986" lon="32.456501"><ele>139.0</ele><time>2025-11-30T09:14:40Z</time></trkpt>
    <trkpt lat="34.964834" lon="32.456402"><ele>137.2</ele><time>2025-11-30T09:14:56Z</time></trkpt>
    <trkpt lat="34.965685" lon="32.455801"><ele>134.4</ele><time>2025-11-30T09:15:11Z</time></trkpt>
    <trkpt lat="34.965840" lon="32.455726"><ele>133.8</ele><time>2025-11-30T09:15:13Z</time></trkpt>
    <trkpt lat="34.966587" lon="32.455435"><ele>129.4</ele><time>2025-11-30T09:15:22Z</time></trkpt>
    <trkpt lat="34.967938" lon="32.454217"><ele>120.2</ele><time>2025-11-30T09:15:37Z</time></trkpt>
    <trkpt lat="34.968738" lon="32.453838"><ele>117.2</ele><time>2025-11-30T09:15:45Z</time></trkpt>
    <trkpt lat="34.969801" lon="32.453341"><ele>115.6</ele><time>2025-11-30T09:15:58Z</time></trkpt>
    <trkpt lat="34.973877" lon="32.450593"><ele>108.8</ele><time>2025-11-30T09:17:01Z</time></trkpt>
    <trkpt lat="34.974616" lon="32.450510"><ele>107.8</ele><time>2025-11-30T09:17:10Z</time></trkpt>
    <trkpt lat="34.976299" lon="32.450399"><ele>100.2</ele><time>2025-11-30T09:17:28Z</time></trkpt>
    <trkpt lat="34.977478" lon="32.449993"><ele>95.6</ele><time>2025-11-30T09:17:40Z</time></trkpt>
    <trkpt lat="34.977661" lon="32.449952"><ele>95.4</ele><time>2025-11-30T09:17:42Z</time></trkpt>
    <trkpt lat="34.979229" lon="32.450181"><ele>94.2</ele><time>2025-11-30T09:18:00Z</time></trkpt>
    <trkpt lat="34.980448" lon="32.451096"><ele>92.0</ele><time>2025-11-30T09:18:18Z</time></trkpt>
    <trkpt lat="34.983814" lon="32.452727"><ele>86.2</ele><time>2025-11-30T09:19:07Z</time></trkpt>
    <trkpt lat="34.983979" lon="32.453139"><ele>86.2</ele><time>2025-11-30T09:27:14Z</time></trkpt>
    <trkpt lat="34.983864" lon="32.453303"><ele>86.2</ele><time>2025-11-30T09:27:20Z</time></trkpt>
    <trkpt lat="34.982235" lon="32.455283"><ele>91.4</ele><time>2025-11-30T09:28:21Z</time></trkpt>
    <trkpt lat="34.981441" lon="32.457707"><ele>93.8</ele><time>2025-11-30T09:29:10Z</time></trkpt>
    <trkpt lat="34.980667" lon="32.459043"><ele>96.2</ele><time>2025-11-30T09:29:40Z</time></trkpt>
    <trkpt lat="34.980348" lon="32.460600"><ele>98.4</ele><time>2025-11-30T09:30:07Z</time></trkpt>
    <trkpt lat="34.979330" lon="32.462545"><ele>99.6</ele><time>2025-11-30T09:30:45Z</time></trkpt>
    <trkpt lat="34.979006" lon="32.463660"><ele>102.0</ele><time>2025-11-30T09:31:07Z</time></trkpt>
    <trkpt lat="34.979074" lon="32.463776"><ele>102.2</ele><time>2025-11-30T09:31:10Z</time></trkpt>
    <trkpt lat="34.979453" lon="32.463932"><ele>104.8</ele><time>2025-11-30T09:31:23Z</time></trkpt>
    <trkpt lat="34.980315" lon="32.463729"><ele>114.0</ele><time>2025-11-30T09:32:06Z</time></trkpt>
    <trkpt lat="34.981695" lon="32.464440"><ele>126.6</ele><time>2025-11-30T09:33:18Z</time></trkpt>
    <trkpt lat="34.982151" lon="32.464825"><ele>132.4</ele><time>2025-11-30T09:33:48Z</time></trkpt>
    <trkpt lat="34.982540" lon="32.465949"><ele>142.8</ele><time>2025-11-30T09:34:45Z</time></trkpt>
    <trkpt lat="34.982911" lon="32.466518"><ele>149.2</ele><time>2025-11-30T09:35:17Z</time></trkpt>
    <trkpt lat="34.982987" lon="32.467239"><ele>153.2</ele><time>2025-11-30T09:35:43Z</time></trkpt>
    <trkpt lat="34.983470" lon="32.468339"><ele>159.0</ele><time>2025-11-30T09:36:21Z</time></trkpt>
    <trkpt lat="34.984763" lon="32.470309"><ele>173.4</ele><time>2025-11-30T09:37:47Z</time></trkpt>
    <trkpt lat="34.985276" lon="32.470855"><ele>179.6</ele><time>2025-11-30T09:38:20Z</time></trkpt>
    <trkpt lat="34.985292" lon="32.470864"><ele>179.8</ele><time>2025-11-30T09:38:21Z</time></trkpt>
    <trkpt lat="34.986514" lon="32.471433"><ele>185.2</ele><time>2025-11-30T09:40:53Z</time></trkpt>
    <trkpt lat="34.987393" lon="32.472470"><ele>187.2</ele><time>2025-11-30T09:41:27Z</time></trkpt>
    <trkpt lat="34.988057" lon="32.473361"><ele>194.6</ele><time>2025-11-30T09:42:00Z</time></trkpt>
    <trkpt lat="34.988270" lon="32.474278"><ele>197.8</ele><time>2025-11-30T09:42:26Z</time></trkpt>
    <trkpt lat="34.987842" lon="32.475596"><ele>209.8</ele><time>2025-11-30T09:43:27Z</time></trkpt>
    <trkpt lat="34.988573" lon="32.477336"><ele>224.6</ele><time>2025-11-30T09:44:50Z</time></trkpt>
    <trkpt lat="34.988844" lon="32.478680"><ele>237.4</ele><time>2025-11-30T09:46:00Z</time></trkpt>
    <trkpt lat="34.989068" lon="32.478856"><ele>242.2</ele><time>2025-11-30T09:46:20Z</time></trkpt>
    <trkpt lat="34.989900" lon="32.478942"><ele>252.2</ele><time>2025-11-30T09:47:14Z</time></trkpt>
    <trkpt lat="34.987223" lon="32.481548"><ele>279.6</ele><time>2025-11-30T09:50:03Z</time></trkpt>
    <trkpt lat="34.986929" lon="32.483627"><ele>295.2</ele><time>2025-11-30T09:51:35Z</time></trkpt>
    <trkpt lat="34.986342" lon="32.485676"><ele>313.2</ele><time>2025-11-30T09:53:16Z</time></trkpt>
    <trkpt lat="34.985741" lon="32.486307"><ele>321.2</ele><time>2025-11-30T09:53:59Z</time></trkpt>
    <trkpt lat="34.985084" lon="32.486734"><ele>328.6</ele><time>2025-11-30T09:54:31Z</time></trkpt>
    <trkpt lat="34.984946" lon="32.486678"><ele>330.8</ele><time>2025-11-30T09:54:41Z</time></trkpt>
    <trkpt lat="34.984414" lon="32.487372"><ele>338.2</ele><time>2025-11-30T09:59:16Z</time></trkpt>
    <trkpt lat="34.984653" lon="32.487773"><ele>342.4</ele><time>2025-11-30T09:59:36Z</time></trkpt>
    <trkpt lat="34.986522" lon="32.488583"><ele>355.4</ele><time>2025-11-30T10:00:59Z</time></trkpt>
    <trkpt lat="34.986844" lon="32.488588"><ele>357.4</ele><time>2025-11-30T10:01:12Z</time></trkpt>
    <trkpt lat="34.987484" lon="32.487839"><ele>363.4</ele><time>2025-11-30T10:01:47Z</time></trkpt>
    <trkpt lat="34.988007" lon="32.486307"><ele>372.8</ele><time>2025-11-30T10:02:42Z</time></trkpt>
    <trkpt lat="34.988315" lon="32.486163"><ele>375.4</ele><time>2025-11-30T10:02:56Z</time></trkpt>
    <trkpt lat="34.989141" lon="32.487469"><ele>385.4</ele><time>2025-11-30T10:03:56Z</time></trkpt>
    <trkpt lat="34.990284" lon="32.487678"><ele>395.4</ele><time>2025-11-30T10:04:50Z</time></trkpt>
    <trkpt lat="34.990174" lon="32.488031"><ele>398.0</ele><time>2025-11-30T10:05:06Z</time></trkpt>
    <trkpt lat="34.990323" lon="32.488578"><ele>402.4</ele><time>2025-11-30T10:05:28Z</time></trkpt>
    <trkpt lat="34.990410" lon="32.488939"><ele>403.6</ele><time>2025-11-30T10:05:39Z</time></trkpt>
    <trkpt lat="34.990413" lon="32.489633"><ele>405.0</ele><time>2025-11-30T10:05:59Z</time></trkpt>
    <trkpt lat="34.990525" lon="32.490042"><ele>405.2</ele><time>2025-11-30T10:06:10Z</time></trkpt>
    <trkpt lat="34.990808" lon="32.490294"><ele>404.8</ele><time>2025-11-30T10:06:19Z</time></trkpt>
    <trkpt lat="34.990747" lon="32.490566"><ele>405.2</ele><time>2025-11-30T10:06:28Z</time></trkpt>
    <trkpt lat="34.990610" lon="32.490998"><ele>409.0</ele><time>2025-11-30T10:06:48Z</time></trkpt>
    <trkpt lat="34.990765" lon="32.491510"><ele>413.0</ele><time>2025-11-30T10:07:10Z</time></trkpt>
    <trkpt lat="34.990747" lon="32.491995"><ele>415.6</ele><time>2025-11-30T10:07:25Z</time></trkpt>
    <trkpt lat="34.990612" lon="32.492004"><ele>416.2</ele><time>2025-11-30T10:07:30Z</time></trkpt>
    <trkpt lat="34.990097" lon="32.491395"><ele>420.8</ele><time>2025-11-30T10:07:55Z</time></trkpt>
    <trkpt lat="34.989492" lon="32.491938"><ele>427.0</ele><time>2025-11-30T10:08:30Z</time></trkpt>
    <trkpt lat="34.988279" lon="32.494779"><ele>447.2</ele><time>2025-11-30T10:10:29Z</time></trkpt>
    <trkpt lat="34.986249" lon="32.496716"><ele>470.2</ele><time>2025-11-30T10:12:45Z</time></trkpt>
    <trkpt lat="34.985837" lon="32.497325"><ele>476.2</ele><time>2025-11-30T10:13:22Z</time></trkpt>
    <trkpt lat="34.985592" lon="32.498016"><ele>482.0</ele><time>2025-11-30T10:13:58Z</time></trkpt>
    <trkpt lat="34.985513" lon="32.499079"><ele>489.6</ele><time>2025-11-30T10:14:43Z</time></trkpt>
    <trkpt lat="34.985910" lon="32.500986"><ele>501.0</ele><time>2025-11-30T10:15:58Z</time></trkpt>
    <trkpt lat="34.986999" lon="32.502895"><ele>517.6</ele><time>2025-11-30T10:17:29Z</time></trkpt>
    <trkpt lat="34.987138" lon="32.504200"><ele>526.2</ele><time>2025-11-30T10:18:21Z</time></trkpt>
    <trkpt lat="34.987327" lon="32.504810"><ele>530.0</ele><time>2025-11-30T10:18:44Z</time></trkpt>
    <trkpt lat="34.987646" lon="32.505307"><ele>533.6</ele><time>2025-11-30T10:19:04Z</time></trkpt>
    <trkpt lat="34.988503" lon="32.506131"><ele>540.0</ele><time>2025-11-30T10:19:41Z</time></trkpt>
    <trkpt lat="34.988559" lon="32.506169"><ele>540.2</ele><time>2025-11-30T10:19:43Z</time></trkpt>
    <trkpt lat="34.989260" lon="32.506330"><ele>540.2</ele><time>2025-11-30T10:20:00Z</time></trkpt>
    <trkpt lat="34.990071" lon="32.506878"><ele>538.2</ele><time>2025-11-30T10:20:14Z</time></trkpt>
    <trkpt lat="34.990343" lon="32.506933"><ele>538.2</ele><time>2025-11-30T10:20:19Z</time></trkpt>
    <trkpt lat="34.991276" lon="32.507023"><ele>542.2</ele><time>2025-11-30T10:20:41Z</time></trkpt>
    <trkpt lat="34.992602" lon="32.507896"><ele>542.6</ele><time>2025-11-30T10:21:09Z</time></trkpt>
    <trkpt lat="34.993360" lon="32.508664"><ele>547.2</ele><time>2025-11-30T10:21:32Z</time></trkpt>
    <trkpt lat="34.993639" lon="32.509183"><ele>549.4</ele><time>2025-11-30T10:21:45Z</time></trkpt>
    <trkpt lat="34.993994" lon="32.511493"><ele>553.8</ele><time>2025-11-30T10:22:33Z</time></trkpt>
    <trkpt lat="34.994201" lon="32.511699"><ele>553.8</ele><time>2025-11-30T10:22:44Z</time></trkpt>
    <trkpt lat="34.994223" lon="32.511703"><ele>553.8</ele><time>2025-11-30T10:22:45Z</time></trkpt>
    <trkpt lat="34.995432" lon="32.511927"><ele>545.2</ele><time>2025-11-30T10:24:24Z</time></trkpt>
    <trkpt lat="34.995412" lon="32.511917"><ele>544.8</ele><time>2025-11-30T10:25:43Z</time></trkpt>
    <trkpt lat="34.995153" lon="32.511856"><ele>546.0</ele><time>2025-11-30T10:26:08Z</time></trkpt>
    <trkpt lat="34.995418" lon="32.511970"><ele>546.0</ele><time>2025-11-30T11:20:50Z</time></trkpt>
    <trkpt lat="34.995757" lon="32.512407"><ele>546.0</ele><time>2025-11-30T11:21:05Z</time></trkpt>
    <trkpt lat="34.995853" lon="32.512495"><ele>544.8</ele><time>2025-11-30T11:21:08Z</time></trkpt>
    <trkpt lat="34.996055" lon="32.513816"><ele>539.4</ele><time>2025-11-30T11:21:23Z</time></trkpt>
    <trkpt lat="34.996320" lon="32.514423"><ele>536.2</ele><time>2025-11-30T11:21:29Z</time></trkpt>
    <trkpt lat="34.996985" lon="32.514715"><ele>533.8</ele><time>2025-11-30T11:21:37Z</time></trkpt>
    <trkpt lat="34.997893" lon="32.514559"><ele>530.8</ele><time>2025-11-30T11:21:47Z</time></trkpt>
    <trkpt lat="34.998240" lon="32.514687"><ele>529.0</ele><time>2025-11-30T11:21:51Z</time></trkpt>
    <trkpt lat="34.999248" lon="32.515669"><ele>531.0</ele><time>2025-11-30T11:22:10Z</time></trkpt>
    <trkpt lat="35.000077" lon="32.516139"><ele>532.2</ele><time>2025-11-30T11:22:27Z</time></trkpt>
    <trkpt lat="35.002000" lon="32.518659"><ele>539.2</ele><time>2025-11-30T11:23:31Z</time></trkpt>
    <trkpt lat="35.002058" lon="32.519846"><ele>538.6</ele><time>2025-11-30T11:23:49Z</time></trkpt>
    <trkpt lat="35.002039" lon="32.519922"><ele>538.6</ele><time>2025-11-30T11:23:50Z</time></trkpt>
    <trkpt lat="35.001547" lon="32.520792"><ele>536.2</ele><time>2025-11-30T11:24:02Z</time></trkpt>
    <trkpt lat="35.001459" lon="32.521222"><ele>535.8</ele><time>2025-11-30T11:24:07Z</time></trkpt>
    <trkpt lat="35.001689" lon="32.522365"><ele>533.8</ele><time>2025-11-30T11:24:20Z</time></trkpt>
    <trkpt lat="35.001582" lon="32.523527"><ele>532.4</ele><time>2025-11-30T11:24:33Z</time></trkpt>
    <trkpt lat="35.001048" lon="32.524467"><ele>530.4</ele><time>2025-11-30T11:24:46Z</time></trkpt>
    <trkpt lat="34.999505" lon="32.524678"><ele>525.4</ele><time>2025-11-30T11:25:07Z</time></trkpt>
    <trkpt lat="34.999553" lon="32.526162"><ele>522.0</ele><time>2025-11-30T11:25:25Z</time></trkpt>
    <trkpt lat="34.998549" lon="32.526493"><ele>517.8</ele><time>2025-11-30T11:25:40Z</time></trkpt>
    <trkpt lat="34.998434" lon="32.527196"><ele>516.0</ele><time>2025-11-30T11:25:48Z</time></trkpt>
    <trkpt lat="34.998549" lon="32.528331"><ele>513.8</ele><time>2025-11-30T11:26:00Z</time></trkpt>
    <trkpt lat="34.997938" lon="32.529157"><ele>511.2</ele><time>2025-11-30T11:26:12Z</time></trkpt>
    <trkpt lat="34.998450" lon="32.530048"><ele>509.2</ele><time>2025-11-30T11:26:24Z</time></trkpt>
    <trkpt lat="34.998529" lon="32.530403"><ele>508.8</ele><time>2025-11-30T11:26:28Z</time></trkpt>
    <trkpt lat="34.998758" lon="32.531317"><ele>508.8</ele><time>2025-11-30T11:26:40Z</time></trkpt>
    <trkpt lat="34.999476" lon="32.531876"><ele>510.0</ele><time>2025-11-30T11:26:55Z</time></trkpt>
    <trkpt lat="34.998950" lon="32.533645"><ele>511.4</ele><time>2025-11-30T11:27:24Z</time></trkpt>
    <trkpt lat="34.999267" lon="32.534234"><ele>511.8</ele><time>2025-11-30T11:27:35Z</time></trkpt>
    <trkpt lat="34.999457" lon="32.535485"><ele>513.0</ele><time>2025-11-30T11:27:55Z</time></trkpt>
    <trkpt lat="35.000028" lon="32.536366"><ele>515.0</ele><time>2025-11-30T11:28:13Z</time></trkpt>
    <trkpt lat="35.000728" lon="32.536536"><ele>514.4</ele><time>2025-11-30T11:28:26Z</time></trkpt>
    <trkpt lat="35.000870" lon="32.536711"><ele>514.2</ele><time>2025-11-30T11:28:29Z</time></trkpt>
    <trkpt lat="35.001069" lon="32.537647"><ele>513.8</ele><time>2025-11-30T11:28:42Z</time></trkpt>
    <trkpt lat="35.000972" lon="32.538755"><ele>514.2</ele><time>2025-11-30T11:29:00Z</time></trkpt>
    <trkpt lat="35.001009" lon="32.538859"><ele>514.4</ele><time>2025-11-30T11:29:02Z</time></trkpt>
    <trkpt lat="35.001417" lon="32.539053"><ele>515.6</ele><time>2025-11-30T11:29:12Z</time></trkpt>
    <trkpt lat="35.002158" lon="32.538753"><ele>518.2</ele><time>2025-11-30T11:29:29Z</time></trkpt>
    <trkpt lat="35.004064" lon="32.538688"><ele>522.8</ele><time>2025-11-30T11:30:13Z</time></trkpt>
    <trkpt lat="35.004547" lon="32.539158"><ele>523.6</ele><time>2025-11-30T11:30:28Z</time></trkpt>
    <trkpt lat="35.004941" lon="32.539980"><ele>526.6</ele><time>2025-11-30T11:30:50Z</time></trkpt>
    <trkpt lat="35.005560" lon="32.540818"><ele>528.2</ele><time>2025-11-30T11:42:55Z</time></trkpt>
    <trkpt lat="35.005512" lon="32.541065"><ele>529.0</ele><time>2025-11-30T11:43:06Z</time></trkpt>
    <trkpt lat="35.004718" lon="32.541806"><ele>533.4</ele><time>2025-11-30T11:59:40Z</time></trkpt>
    <trkpt lat="35.004584" lon="32.542060"><ele>534.0</ele><time>2025-11-30T11:59:49Z</time></trkpt>
    <trkpt lat="35.004475" lon="32.542462"><ele>534.8</ele><time>2025-11-30T12:04:45Z</time></trkpt>
    <trkpt lat="35.004992" lon="32.543991"><ele>536.2</ele><time>2025-11-30T12:05:30Z</time></trkpt>
    <trkpt lat="35.004932" lon="32.544215"><ele>536.0</ele><time>2025-11-30T12:05:34Z</time></trkpt>
    <trkpt lat="35.004434" lon="32.544440"><ele>535.2</ele><time>2025-11-30T12:05:44Z</time></trkpt>
    <trkpt lat="35.004345" lon="32.544649"><ele>534.8</ele><time>2025-11-30T12:05:48Z</time></trkpt>
    <trkpt lat="35.004886" lon="32.545832"><ele>534.6</ele><time>2025-11-30T12:06:09Z</time></trkpt>
    <trkpt lat="35.005027" lon="32.546740"><ele>534.8</ele><time>2025-11-30T12:07:00Z</time></trkpt>
    <trkpt lat="35.005004" lon="32.546803"><ele>534.6</ele><time>2025-11-30T12:07:01Z</time></trkpt>
    <trkpt lat="35.004447" lon="32.547314"><ele>533.4</ele><time>2025-11-30T12:07:13Z</time></trkpt>
    <trkpt lat="35.003365" lon="32.547489"><ele>531.2</ele><time>2025-11-30T12:07:31Z</time></trkpt>
    <trkpt lat="35.002952" lon="32.547896"><ele>530.6</ele><time>2025-11-30T12:07:39Z</time></trkpt>
    <trkpt lat="35.002398" lon="32.548840"><ele>530.0</ele><time>2025-11-30T12:07:54Z</time></trkpt>
    <trkpt lat="35.002906" lon="32.549276"><ele>529.8</ele><time>2025-11-30T12:08:04Z</time></trkpt>
    <trkpt lat="35.002960" lon="32.549580"><ele>529.8</ele><time>2025-11-30T12:08:08Z</time></trkpt>
    <trkpt lat="35.002329" lon="32.550097"><ele>528.6</ele><time>2025-11-30T12:08:19Z</time></trkpt>
    <trkpt lat="35.001789" lon="32.550948"><ele>527.2</ele><time>2025-11-30T12:08:31Z</time></trkpt>
    <trkpt lat="35.001984" lon="32.551232"><ele>527.0</ele><time>2025-11-30T12:08:36Z</time></trkpt>
    <trkpt lat="35.002507" lon="32.551151"><ele>527.0</ele><time>2025-11-30T12:08:45Z</time></trkpt>
    <trkpt lat="35.002734" lon="32.551286"><ele>527.0</ele><time>2025-11-30T12:08:49Z</time></trkpt>
    <trkpt lat="35.002682" lon="32.552159"><ele>525.6</ele><time>2025-11-30T12:08:59Z</time></trkpt>
    <trkpt lat="35.002696" lon="32.552247"><ele>525.4</ele><time>2025-11-30T12:09:00Z</time></trkpt>
    <trkpt lat="35.002857" lon="32.552513"><ele>525.4</ele><time>2025-11-30T12:09:04Z</time></trkpt>
    <trkpt lat="35.004156" lon="32.552680"><ele>528.0</ele><time>2025-11-30T12:09:28Z</time></trkpt>
    <trkpt lat="35.004740" lon="32.553312"><ele>529.4</ele><time>2025-11-30T12:09:44Z</time></trkpt>
    <trkpt lat="35.005807" lon="32.552903"><ele>531.4</ele><time>2025-11-30T12:10:07Z</time></trkpt>
    <trkpt lat="35.006091" lon="32.552949"><ele>531.6</ele><time>2025-11-30T12:10:13Z</time></trkpt>
    <trkpt lat="35.006218" lon="32.553132"><ele>531.6</ele><time>2025-11-30T12:10:17Z</time></trkpt>
    <trkpt lat="35.006213" lon="32.553194"><ele>531.4</ele><time>2025-11-30T12:10:18Z</time></trkpt>
    <trkpt lat="35.005846" lon="32.554601"><ele>523.6</ele><time>2025-11-30T12:10:36Z</time></trkpt>
    <trkpt lat="35.005723" lon="32.554723"><ele>522.8</ele><time>2025-11-30T12:10:38Z</time></trkpt>
    <trkpt lat="35.005057" lon="32.555162"><ele>516.6</ele><time>2025-11-30T12:10:47Z</time></trkpt>
    <trkpt lat="35.004220" lon="32.555392"><ele>509.2</ele><time>2025-11-30T12:10:56Z</time></trkpt>
    <trkpt lat="35.003121" lon="32.556675"><ele>497.6</ele><time>2025-11-30T12:11:12Z</time></trkpt>
    <trkpt lat="35.002853" lon="32.558004"><ele>488.2</ele><time>2025-11-30T12:11:26Z</time></trkpt>
    <trkpt lat="35.003046" lon="32.558274"><ele>486.2</ele><time>2025-11-30T12:11:30Z</time></trkpt>
    <trkpt lat="35.003753" lon="32.558630"><ele>479.0</ele><time>2025-11-30T12:11:39Z</time></trkpt>
    <trkpt lat="35.003811" lon="32.558719"><ele>478.2</ele><time>2025-11-30T12:11:40Z</time></trkpt>
    <trkpt lat="35.004262" lon="32.559572"><ele>476.6</ele><time>2025-11-30T12:11:50Z</time></trkpt>
    <trkpt lat="35.005006" lon="32.561084"><ele>491.2</ele><time>2025-11-30T12:12:55Z</time></trkpt>
    <trkpt lat="35.005615" lon="32.561241"><ele>496.6</ele><time>2025-11-30T12:13:27Z</time></trkpt>
    <trkpt lat="35.005983" lon="32.561517"><ele>500.6</ele><time>2025-11-30T12:13:52Z</time></trkpt>
    <trkpt lat="35.006149" lon="32.562820"><ele>513.4</ele><time>2025-11-30T12:14:52Z</time></trkpt>
    <trkpt lat="35.006256" lon="32.563258"><ele>516.8</ele><time>2025-11-30T12:15:13Z</time></trkpt>
    <trkpt lat="35.006215" lon="32.563993"><ele>521.8</ele><time>2025-11-30T12:15:46Z</time></trkpt>
    <trkpt lat="35.006560" lon="32.564481"><ele>526.0</ele><time>2025-11-30T12:16:09Z</time></trkpt>
    <trkpt lat="35.006779" lon="32.565129"><ele>529.4</ele><time>2025-11-30T12:16:32Z</time></trkpt>
    <trkpt lat="35.007414" lon="32.565624"><ele>535.0</ele><time>2025-11-30T12:18:04Z</time></trkpt>
    <trkpt lat="35.006977" lon="32.566195"><ele>537.2</ele><time>2025-11-30T12:18:29Z</time></trkpt>
    <trkpt lat="35.007248" lon="32.566748"><ele>540.4</ele><time>2025-11-30T12:18:49Z</time></trkpt>
    <trkpt lat="35.007960" lon="32.567524"><ele>544.8</ele><time>2025-11-30T12:19:22Z</time></trkpt>
    <trkpt lat="35.008534" lon="32.567677"><ele>547.4</ele><time>2025-11-30T12:19:41Z</time></trkpt>
    <trkpt lat="35.008912" lon="32.568268"><ele>550.8</ele><time>2025-11-30T12:20:03Z</time></trkpt>
    <trkpt lat="35.009565" lon="32.568384"><ele>553.8</ele><time>2025-11-30T12:20:25Z</time></trkpt>
    <trkpt lat="35.009634" lon="32.569007"><ele>557.8</ele><time>2025-11-30T12:20:46Z</time></trkpt>
    <trkpt lat="35.009902" lon="32.569084"><ele>559.6</ele><time>2025-11-30T12:20:57Z</time></trkpt>
    <trkpt lat="35.010569" lon="32.569449"><ele>562.2</ele><time>2025-11-30T12:21:24Z</time></trkpt>
    <trkpt lat="35.011175" lon="32.570715"><ele>567.2</ele><time>2025-11-30T12:22:06Z</time></trkpt>
    <trkpt lat="35.011617" lon="32.570829"><ele>569.2</ele><time>2025-11-30T12:22:22Z</time></trkpt>
    <trkpt lat="35.012170" lon="32.570612"><ele>570.6</ele><time>2025-11-30T12:22:40Z</time></trkpt>
    <trkpt lat="35.012493" lon="32.571310"><ele>573.0</ele><time>2025-11-30T12:23:00Z</time></trkpt>
    <trkpt lat="35.012789" lon="32.571494"><ele>573.8</ele><time>2025-11-30T12:23:10Z</time></trkpt>
    <trkpt lat="35.013024" lon="32.572063"><ele>577.0</ele><time>2025-11-30T12:23:32Z</time></trkpt>
    <trkpt lat="35.013904" lon="32.572202"><ele>580.6</ele><time>2025-11-30T12:24:05Z</time></trkpt>
    <trkpt lat="35.014155" lon="32.572690"><ele>583.2</ele><time>2025-11-30T12:24:23Z</time></trkpt>
    <trkpt lat="35.014981" lon="32.572709"><ele>586.2</ele><time>2025-11-30T12:24:51Z</time></trkpt>
    <trkpt lat="35.015615" lon="32.573757"><ele>589.4</ele><time>2025-11-30T12:25:25Z</time></trkpt>
    <trkpt lat="35.016347" lon="32.573750"><ele>591.8</ele><time>2025-11-30T12:25:47Z</time></trkpt>
    <trkpt lat="35.016891" lon="32.573355"><ele>594.0</ele><time>2025-11-30T12:26:05Z</time></trkpt>
    <trkpt lat="35.017461" lon="32.573663"><ele>596.4</ele><time>2025-11-30T12:26:22Z</time></trkpt>
    <trkpt lat="35.017584" lon="32.574057"><ele>598.8</ele><time>2025-11-30T12:26:36Z</time></trkpt>
    <trkpt lat="35.017914" lon="32.574404"><ele>602.2</ele><time>2025-11-30T12:26:57Z</time></trkpt>
    <trkpt lat="35.018755" lon="32.573946"><ele>605.6</ele><time>2025-11-30T12:27:34Z</time></trkpt>
    <trkpt lat="35.018845" lon="32.574317"><ele>607.6</ele><time>2025-11-30T12:27:47Z</time></trkpt>
    <trkpt lat="35.018637" lon="32.575535"><ele>614.2</ele><time>2025-11-30T12:28:32Z</time></trkpt>
    <trkpt lat="35.018874" lon="32.575917"><ele>616.4</ele><time>2025-11-30T12:28:48Z</time></trkpt>
    <trkpt lat="35.019595" lon="32.576216"><ele>619.4</ele><time>2025-11-30T12:29:16Z</time></trkpt>
    <trkpt lat="35.019939" lon="32.576878"><ele>623.4</ele><time>2025-11-30T12:29:41Z</time></trkpt>
    <trkpt lat="35.020221" lon="32.577130"><ele>625.0</ele><time>2025-11-30T12:29:55Z</time></trkpt>
    <trkpt lat="35.020143" lon="32.577760"><ele>627.8</ele><time>2025-11-30T12:30:17Z</time></trkpt>
    <trkpt lat="35.020211" lon="32.578115"><ele>628.8</ele><time>2025-11-30T12:30:29Z</time></trkpt>
    <trkpt lat="35.020778" lon="32.578852"><ele>631.4</ele><time>2025-11-30T12:31:02Z</time></trkpt>
    <trkpt lat="35.022006" lon="32.579337"><ele>635.2</ele><time>2025-11-30T12:31:47Z</time></trkpt>
    <trkpt lat="35.022615" lon="32.579777"><ele>637.0</ele><time>2025-11-30T12:32:11Z</time></trkpt>
    <trkpt lat="35.022658" lon="32.579994"><ele>637.4</ele><time>2025-11-30T12:32:17Z</time></trkpt>
    <trkpt lat="35.022595" lon="32.580133"><ele>638.2</ele><time>2025-11-30T12:32:22Z</time></trkpt>
    <trkpt lat="35.022025" lon="32.580215"><ele>644.8</ele><time>2025-11-30T12:32:57Z</time></trkpt>
    <trkpt lat="35.021677" lon="32.580744"><ele>650.6</ele><time>2025-11-30T12:33:32Z</time></trkpt>
    <trkpt lat="35.021707" lon="32.582271"><ele>660.8</ele><time>2025-11-30T12:34:43Z</time></trkpt>
    <trkpt lat="35.022176" lon="32.582913"><ele>665.4</ele><time>2025-11-30T12:35:18Z</time></trkpt>
    <trkpt lat="35.022405" lon="32.583968"><ele>674.6</ele><time>2025-11-30T12:36:07Z</time></trkpt>
    <trkpt lat="35.023523" lon="32.584361"><ele>683.0</ele><time>2025-11-30T12:37:00Z</time></trkpt>
    <trkpt lat="35.024056" lon="32.584893"><ele>687.8</ele><time>2025-11-30T12:37:33Z</time></trkpt>
    <trkpt lat="35.024680" lon="32.585227"><ele>692.2</ele><time>2025-11-30T12:38:05Z</time></trkpt>
    <trkpt lat="35.024603" lon="32.585450"><ele>694.2</ele><time>2025-11-30T12:38:15Z</time></trkpt>
    <trkpt lat="35.024378" lon="32.585542"><ele>696.6</ele><time>2025-11-30T12:38:29Z</time></trkpt>
    <trkpt lat="35.023824" lon="32.585572"><ele>702.2</ele><time>2025-11-30T12:39:04Z</time></trkpt>
    <trkpt lat="35.023244" lon="32.585369"><ele>708.4</ele><time>2025-11-30T12:39:43Z</time></trkpt>
    <trkpt lat="35.023089" lon="32.585634"><ele>711.0</ele><time>2025-11-30T12:40:02Z</time></trkpt>
    <trkpt lat="35.023118" lon="32.586011"><ele>713.8</ele><time>2025-11-30T12:40:23Z</time></trkpt>
    <trkpt lat="35.023711" lon="32.587480"><ele>724.2</ele><time>2025-11-30T12:41:36Z</time></trkpt>
    <trkpt lat="35.023596" lon="32.587702"><ele>725.8</ele><time>2025-11-30T12:41:47Z</time></trkpt>
    <trkpt lat="35.023097" lon="32.587835"><ele>730.6</ele><time>2025-11-30T12:42:16Z</time></trkpt>
    <trkpt lat="35.022916" lon="32.588471"><ele>735.4</ele><time>2025-11-30T12:42:48Z</time></trkpt>
    <trkpt lat="35.023336" lon="32.589759"><ele>745.6</ele><time>2025-11-30T12:43:52Z</time></trkpt>
    <trkpt lat="35.023143" lon="32.590391"><ele>751.8</ele><time>2025-11-30T12:44:26Z</time></trkpt>
    <trkpt lat="35.023495" lon="32.590785"><ele>756.2</ele><time>2025-11-30T12:44:56Z</time></trkpt>
    <trkpt lat="35.023393" lon="32.591361"><ele>763.0</ele><time>2025-11-30T12:46:41Z</time></trkpt>
    <trkpt lat="35.023633" lon="32.591918"><ele>767.8</ele><time>2025-11-30T12:47:11Z</time></trkpt>
    <trkpt lat="35.023599" lon="32.592640"><ele>773.6</ele><time>2025-11-30T12:47:46Z</time></trkpt>
    <trkpt lat="35.024108" lon="32.593254"><ele>779.8</ele><time>2025-11-30T12:48:26Z</time></trkpt>
    <trkpt lat="35.024720" lon="32.593469"><ele>784.2</ele><time>2025-11-30T12:48:57Z</time></trkpt>
    <trkpt lat="35.024923" lon="32.593973"><ele>788.0</ele><time>2025-11-30T12:49:20Z</time></trkpt>
    <trkpt lat="35.025504" lon="32.594248"><ele>793.0</ele><time>2025-11-30T12:49:53Z</time></trkpt>
    <trkpt lat="35.025818" lon="32.594833"><ele>799.0</ele><time>2025-11-30T12:50:29Z</time></trkpt>
    <trkpt lat="35.026754" lon="32.595121"><ele>809.0</ele><time>2025-11-30T12:51:28Z</time></trkpt>
    <trkpt lat="35.026865" lon="32.595288"><ele>810.6</ele><time>2025-11-30T12:51:38Z</time></trkpt>
    <trkpt lat="35.026576" lon="32.595983"><ele>817.8</ele><time>2025-11-30T12:52:21Z</time></trkpt>
    <trkpt lat="35.026005" lon="32.596326"><ele>824.2</ele><time>2025-11-30T12:53:00Z</time></trkpt>
    <trkpt lat="35.025891" lon="32.596810"><ele>827.4</ele><time>2025-11-30T12:53:25Z</time></trkpt>
    <trkpt lat="35.025061" lon="32.596569"><ele>836.8</ele><time>2025-11-30T12:54:19Z</time></trkpt>
    <trkpt lat="35.024324" lon="32.597053"><ele>843.2</ele><time>2025-11-30T12:55:03Z</time></trkpt>
    <trkpt lat="35.023878" lon="32.596981"><ele>847.8</ele><time>2025-11-30T12:55:29Z</time></trkpt>
    <trkpt lat="35.023424" lon="32.597840"><ele>856.2</ele><time>2025-11-30T12:56:22Z</time></trkpt>
    <trkpt lat="35.022908" lon="32.597756"><ele>860.2</ele><time>2025-11-30T12:56:49Z</time></trkpt>
    <trkpt lat="35.021878" lon="32.598002"><ele>869.4</ele><time>2025-11-30T12:57:42Z</time></trkpt>
    <trkpt lat="35.021122" lon="32.597498"><ele>876.8</ele><time>2025-11-30T12:58:23Z</time></trkpt>
    <trkpt lat="35.021094" lon="32.597545"><ele>877.4</ele><time>2025-11-30T12:58:25Z</time></trkpt>
    <trkpt lat="35.021109" lon="32.598994"><ele>876.0</ele><time>2025-11-30T12:59:04Z</time></trkpt>
    <trkpt lat="35.021517" lon="32.599732"><ele>873.6</ele><time>2025-11-30T12:59:24Z</time></trkpt>
    <trkpt lat="35.021201" lon="32.600059"><ele>873.6</ele><time>2025-11-30T12:59:43Z</time></trkpt>
    <trkpt lat="35.021119" lon="32.600871"><ele>872.0</ele><time>2025-11-30T12:59:57Z</time></trkpt>
    <trkpt lat="35.021288" lon="32.601091"><ele>871.2</ele><time>2025-11-30T13:00:02Z</time></trkpt>
    <trkpt lat="35.021488" lon="32.601230"><ele>869.8</ele><time>2025-11-30T13:00:06Z</time></trkpt>
    <trkpt lat="35.021518" lon="32.601488"><ele>868.6</ele><time>2025-11-30T13:00:09Z</time></trkpt>
    <trkpt lat="35.021349" lon="32.602008"><ele>866.4</ele><time>2025-11-30T13:00:15Z</time></trkpt>
    <trkpt lat="35.020724" lon="32.602791"><ele>860.8</ele><time>2025-11-30T13:00:28Z</time></trkpt>
    <trkpt lat="35.020891" lon="32.603005"><ele>859.0</ele><time>2025-11-30T13:00:32Z</time></trkpt>
    <trkpt lat="35.021447" lon="32.603074"><ele>856.6</ele><time>2025-11-30T13:00:40Z</time></trkpt>
    <trkpt lat="35.021969" lon="32.603557"><ele>853.0</ele><time>2025-11-30T13:00:50Z</time></trkpt>
    <trkpt lat="35.022233" lon="32.603626"><ele>852.0</ele><time>2025-11-30T13:00:54Z</time></trkpt>
    <trkpt lat="35.022841" lon="32.603125"><ele>847.8</ele><time>2025-11-30T13:01:04Z</time></trkpt>
    <trkpt lat="35.023288" lon="32.602196"><ele>843.6</ele><time>2025-11-30T13:01:15Z</time></trkpt>
    <trkpt lat="35.023873" lon="32.602111"><ele>843.0</ele><time>2025-11-30T13:01:24Z</time></trkpt>
    <trkpt lat="35.024216" lon="32.602133"><ele>844.0</ele><time>2025-11-30T13:01:30Z</time></trkpt>
    <trkpt lat="35.024319" lon="32.602315"><ele>844.8</ele><time>2025-11-30T13:01:34Z</time></trkpt>
    <trkpt lat="35.024026" lon="32.602801"><ele>847.6</ele><time>2025-11-30T13:01:46Z</time></trkpt>
    <trkpt lat="35.024010" lon="32.603655"><ele>851.0</ele><time>2025-11-30T13:02:08Z</time></trkpt>
    <trkpt lat="35.024112" lon="32.604150"><ele>852.4</ele><time>2025-11-30T13:02:21Z</time></trkpt>
    <trkpt lat="35.024486" lon="32.604661"><ele>853.2</ele><time>2025-11-30T13:02:37Z</time></trkpt>
    <trkpt lat="35.025104" lon="32.605155"><ele>857.6</ele><time>2025-11-30T13:03:02Z</time></trkpt>
    <trkpt lat="35.025900" lon="32.605089"><ele>860.4</ele><time>2025-11-30T13:03:28Z</time></trkpt>
    <trkpt lat="35.026292" lon="32.605434"><ele>861.2</ele><time>2025-11-30T13:03:40Z</time></trkpt>
    <trkpt lat="35.026751" lon="32.605351"><ele>862.6</ele><time>2025-11-30T13:03:52Z</time></trkpt>
    <trkpt lat="35.026946" lon="32.605594"><ele>863.4</ele><time>2025-11-30T13:03:59Z</time></trkpt>
    <trkpt lat="35.026910" lon="32.605979"><ele>864.2</ele><time>2025-11-30T13:04:07Z</time></trkpt>
    <trkpt lat="35.025786" lon="32.606967"><ele>871.8</ele><time>2025-11-30T13:04:59Z</time></trkpt>
    <trkpt lat="35.026342" lon="32.607952"><ele>874.2</ele><time>2025-11-30T13:05:32Z</time></trkpt>
    <trkpt lat="35.026310" lon="32.608497"><ele>875.8</ele><time>2025-11-30T13:05:45Z</time></trkpt>
    <trkpt lat="35.025831" lon="32.608926"><ele>879.2</ele><time>2025-11-30T13:06:04Z</time></trkpt>
    <trkpt lat="35.025785" lon="32.609153"><ele>880.4</ele><time>2025-11-30T13:06:11Z</time></trkpt>
    <trkpt lat="35.025802" lon="32.609216"><ele>880.4</ele><time>2025-11-30T13:06:13Z</time></trkpt>
    <trkpt lat="35.026603" lon="32.609718"><ele>877.0</ele><time>2025-11-30T13:06:37Z</time></trkpt>
    <trkpt lat="35.026784" lon="32.610622"><ele>873.2</ele><time>2025-11-30T13:06:53Z</time></trkpt>
    <trkpt lat="35.026879" lon="32.610667"><ele>872.8</ele><time>2025-11-30T13:06:55Z</time></trkpt>
    <trkpt lat="35.027426" lon="32.610748"><ele>868.4</ele><time>2025-11-30T13:07:03Z</time></trkpt>
    <trkpt lat="35.027813" lon="32.611203"><ele>863.8</ele><time>2025-11-30T13:07:10Z</time></trkpt>
    <trkpt lat="35.028215" lon="32.611111"><ele>860.8</ele><time>2025-11-30T13:07:15Z</time></trkpt>
    <trkpt lat="35.028462" lon="32.611234"><ele>859.0</ele><time>2025-11-30T13:07:18Z</time></trkpt>
    <trkpt lat="35.028635" lon="32.611738"><ele>859.0</ele><time>2025-11-30T13:07:25Z</time></trkpt>
    <trkpt lat="35.028668" lon="32.612329"><ele>863.6</ele><time>2025-11-30T13:07:41Z</time></trkpt>
    <trkpt lat="35.029174" lon="32.612428"><ele>866.6</ele><time>2025-11-30T13:08:01Z</time></trkpt>
    <trkpt lat="35.029268" lon="32.612678"><ele>868.8</ele><time>2025-11-30T13:08:12Z</time></trkpt>
    <trkpt lat="35.029129" lon="32.613197"><ele>873.8</ele><time>2025-11-30T13:08:38Z</time></trkpt>
    <trkpt lat="35.028337" lon="32.614182"><ele>883.0</ele><time>2025-11-30T13:09:38Z</time></trkpt>
    <trkpt lat="35.028312" lon="32.614711"><ele>886.2</ele><time>2025-11-30T13:09:58Z</time></trkpt>
    <trkpt lat="35.027691" lon="32.615343"><ele>892.2</ele><time>2025-11-30T13:10:38Z</time></trkpt>
    <trkpt lat="35.026938" lon="32.615705"><ele>899.0</ele><time>2025-11-30T13:11:20Z</time></trkpt>
    <trkpt lat="35.026655" lon="32.616190"><ele>903.4</ele><time>2025-11-30T13:11:49Z</time></trkpt>
    <trkpt lat="35.026839" lon="32.616442"><ele>903.8</ele><time>2025-11-30T13:12:01Z</time></trkpt>
    <trkpt lat="35.027878" lon="32.617502"><ele>898.2</ele><time>2025-11-30T13:12:25Z</time></trkpt>
    <trkpt lat="35.027862" lon="32.618062"><ele>895.6</ele><time>2025-11-30T13:12:31Z</time></trkpt>
    <trkpt lat="35.027457" lon="32.618623"><ele>893.2</ele><time>2025-11-30T13:12:39Z</time></trkpt>
    <trkpt lat="35.027575" lon="32.619012"><ele>891.8</ele><time>2025-11-30T13:12:44Z</time></trkpt>
    <trkpt lat="35.027916" lon="32.619284"><ele>889.8</ele><time>2025-11-30T13:12:49Z</time></trkpt>
    <trkpt lat="35.028209" lon="32.619564"><ele>887.2</ele><time>2025-11-30T13:12:53Z</time></trkpt>
    <trkpt lat="35.029574" lon="32.620093"><ele>877.6</ele><time>2025-11-30T13:13:09Z</time></trkpt>
    <trkpt lat="35.029919" lon="32.620448"><ele>874.6</ele><time>2025-11-30T13:13:15Z</time></trkpt>
    <trkpt lat="35.029759" lon="32.621030"><ele>871.2</ele><time>2025-11-30T13:13:23Z</time></trkpt>
    <trkpt lat="35.030337" lon="32.621693"><ele>864.8</ele><time>2025-11-30T13:13:35Z</time></trkpt>
    <trkpt lat="35.029917" lon="32.622179"><ele>861.8</ele><time>2025-11-30T13:13:44Z</time></trkpt>
    <trkpt lat="35.030000" lon="32.623849"><ele>854.2</ele><time>2025-11-30T13:14:02Z</time></trkpt>
    <trkpt lat="35.029899" lon="32.624090"><ele>853.0</ele><time>2025-11-30T13:14:05Z</time></trkpt>
    <trkpt lat="35.029831" lon="32.624132"><ele>852.8</ele><time>2025-11-30T13:14:06Z</time></trkpt>
    <trkpt lat="35.029688" lon="32.624114"><ele>852.8</ele><time>2025-11-30T13:14:08Z</time></trkpt>
    <trkpt lat="35.028548" lon="32.623016"><ele>859.8</ele><time>2025-11-30T13:14:43Z</time></trkpt>
    <trkpt lat="35.027658" lon="32.623019"><ele>864.0</ele><time>2025-11-30T13:15:12Z</time></trkpt>
    <trkpt lat="35.027185" lon="32.623690"><ele>868.0</ele><time>2025-11-30T13:15:42Z</time></trkpt>
    <trkpt lat="35.026873" lon="32.623628"><ele>870.2</ele><time>2025-11-30T13:15:55Z</time></trkpt>
    <trkpt lat="35.026343" lon="32.622973"><ele>873.6</ele><time>2025-11-30T13:16:22Z</time></trkpt>
    <trkpt lat="35.026022" lon="32.623209"><ele>875.2</ele><time>2025-11-30T13:16:36Z</time></trkpt>
    <trkpt lat="35.025717" lon="32.623699"><ele>877.0</ele><time>2025-11-30T13:16:54Z</time></trkpt>
    <trkpt lat="35.025002" lon="32.623440"><ele>880.8</ele><time>2025-11-30T13:17:19Z</time></trkpt>
    <trkpt lat="35.024609" lon="32.623562"><ele>882.2</ele><time>2025-11-30T13:17:36Z</time></trkpt>
    <trkpt lat="35.024562" lon="32.623794"><ele>882.0</ele><time>2025-11-30T13:17:47Z</time></trkpt>
    <trkpt lat="35.025381" lon="32.624680"><ele>874.0</ele><time>2025-11-30T13:18:10Z</time></trkpt>
    <trkpt lat="35.025499" lon="32.625066"><ele>870.8</ele><time>2025-11-30T13:18:16Z</time></trkpt>
    <trkpt lat="35.025403" lon="32.625421"><ele>868.2</ele><time>2025-11-30T13:18:22Z</time></trkpt>
    <trkpt lat="35.024829" lon="32.625814"><ele>863.8</ele><time>2025-11-30T13:18:33Z</time></trkpt>
    <trkpt lat="35.024758" lon="32.626194"><ele>860.6</ele><time>2025-11-30T13:18:39Z</time></trkpt>
    <trkpt lat="35.025087" lon="32.626735"><ele>855.2</ele><time>2025-11-30T13:18:48Z</time></trkpt>
    <trkpt lat="35.025193" lon="32.627280"><ele>851.2</ele><time>2025-11-30T13:18:55Z</time></trkpt>
    <trkpt lat="35.025536" lon="32.627982"><ele>845.6</ele><time>2025-11-30T13:19:05Z</time></trkpt>
    <trkpt lat="35.025788" lon="32.629367"><ele>835.2</ele><time>2025-11-30T13:19:22Z</time></trkpt>
    <trkpt lat="35.026231" lon="32.629939"><ele>829.8</ele><time>2025-11-30T13:19:31Z</time></trkpt>
    <trkpt lat="35.026678" lon="32.630978"><ele>821.2</ele><time>2025-11-30T13:19:48Z</time></trkpt>
    <trkpt lat="35.024803" lon="32.630343"><ele>808.0</ele><time>2025-11-30T13:20:21Z</time></trkpt>
    <trkpt lat="35.024350" lon="32.630527"><ele>808.2</ele><time>2025-11-30T13:21:26Z</time></trkpt>
    <trkpt lat="35.024526" lon="32.630454"><ele>808.6</ele><time>2025-11-30T13:30:56Z</time></trkpt>
    <trkpt lat="35.024355" lon="32.630531"><ele>809.4</ele><time>2025-11-30T13:31:22Z</time></trkpt>
    <trkpt lat="35.024372" lon="32.630556"><ele>809.4</ele><time>2025-11-30T13:31:28Z</time></trkpt>
    <trkpt lat="35.024367" lon="32.631078"><ele>814.6</ele><time>2025-11-30T13:55:04Z</time></trkpt>
    <trkpt lat="35.024043" lon="32.631069"><ele>818.4</ele><time>2025-11-30T13:55:20Z</time></trkpt>
    <trkpt lat="35.023675" lon="32.631448"><ele>823.8</ele><time>2025-11-30T13:55:47Z</time></trkpt>
    <trkpt lat="35.024065" lon="32.631229"><ele>827.6</ele><time>2025-11-30T13:56:12Z</time></trkpt>
    <trkpt lat="35.024202" lon="32.631402"><ele>830.0</ele><time>2025-11-30T13:56:24Z</time></trkpt>
    <trkpt lat="35.023305" lon="32.631951"><ele>838.4</ele><time>2025-11-30T13:57:14Z</time></trkpt>
    <trkpt lat="35.023208" lon="32.631799"><ele>839.6</ele><time>2025-11-30T13:57:22Z</time></trkpt>
    <trkpt lat="35.023258" lon="32.630668"><ele>846.6</ele><time>2025-11-30T13:58:04Z</time></trkpt>
    <trkpt lat="35.022777" lon="32.630325"><ele>849.0</ele><time>2025-11-30T13:58:28Z</time></trkpt>
    <trkpt lat="35.022248" lon="32.630444"><ele>853.2</ele><time>2025-11-30T13:58:53Z</time></trkpt>
    <trkpt lat="35.021588" lon="32.630915"><ele>860.2</ele><time>2025-11-30T13:59:36Z</time></trkpt>
    <trkpt lat="35.020544" lon="32.631347"><ele>871.8</ele><time>2025-11-30T14:00:43Z</time></trkpt>
    <trkpt lat="35.020761" lon="32.631375"><ele>874.4</ele><time>2025-11-30T14:00:54Z</time></trkpt>
    <trkpt lat="35.022238" lon="32.631115"><ele>884.6</ele><time>2025-11-30T14:02:04Z</time></trkpt>
    <trkpt lat="35.022515" lon="32.631210"><ele>886.6</ele><time>2025-11-30T14:02:19Z</time></trkpt>
    <trkpt lat="35.022148" lon="32.633606"><ele>903.4</ele><time>2025-11-30T14:04:08Z</time></trkpt>
    <trkpt lat="35.022774" lon="32.634363"><ele>911.2</ele><time>2025-11-30T14:04:57Z</time></trkpt>
    <trkpt lat="35.023178" lon="32.634158"><ele>914.8</ele><time>2025-11-30T14:05:20Z</time></trkpt>
    <trkpt lat="35.023576" lon="32.634348"><ele>919.0</ele><time>2025-11-30T14:05:46Z</time></trkpt>
    <trkpt lat="35.024024" lon="32.633663"><ele>924.2</ele><time>2025-11-30T14:06:24Z</time></trkpt>
    <trkpt lat="35.024255" lon="32.633526"><ele>925.6</ele><time>2025-11-30T14:06:36Z</time></trkpt>
    <trkpt lat="35.024614" lon="32.634490"><ele>935.2</ele><time>2025-11-30T14:07:33Z</time></trkpt>
    <trkpt lat="35.024939" lon="32.634806"><ele>941.0</ele><time>2025-11-30T14:08:04Z</time></trkpt>
    <trkpt lat="35.025267" lon="32.634455"><ele>944.6</ele><time>2025-11-30T14:08:29Z</time></trkpt>
    <trkpt lat="35.025686" lon="32.634355"><ele>948.2</ele><time>2025-11-30T14:08:52Z</time></trkpt>
    <trkpt lat="35.026379" lon="32.633534"><ele>956.0</ele><time>2025-11-30T14:09:47Z</time></trkpt>
    <trkpt lat="35.026626" lon="32.634169"><ele>961.0</ele><time>2025-11-30T14:10:26Z</time></trkpt>
    <trkpt lat="35.027251" lon="32.634537"><ele>968.2</ele><time>2025-11-30T14:11:15Z</time></trkpt>
    <trkpt lat="35.027850" lon="32.635645"><ele>980.8</ele><time>2025-11-30T14:13:27Z</time></trkpt>
    <trkpt lat="35.028467" lon="32.635660"><ele>988.2</ele><time>2025-11-30T14:14:10Z</time></trkpt>
    <trkpt lat="35.029034" lon="32.635928"><ele>994.8</ele><time>2025-11-30T14:14:52Z</time></trkpt>
    <trkpt lat="35.029422" lon="32.635665"><ele>1000.2</ele><time>2025-11-30T14:15:23Z</time></trkpt>
    <trkpt lat="35.029680" lon="32.635664"><ele>1003.0</ele><time>2025-11-30T14:15:41Z</time></trkpt>
    <trkpt lat="35.030130" lon="32.635957"><ele>1008.4</ele><time>2025-11-30T14:16:18Z</time></trkpt>
    <trkpt lat="35.030485" lon="32.636497"><ele>1015.6</ele><time>2025-11-30T14:17:01Z</time></trkpt>
    <trkpt lat="35.031605" lon="32.636683"><ele>1027.2</ele><time>2025-11-30T14:18:16Z</time></trkpt>
    <trkpt lat="35.031816" lon="32.636588"><ele>1029.6</ele><time>2025-11-30T14:18:31Z</time></trkpt>
    <trkpt lat="35.031846" lon="32.636541"><ele>1029.8</ele><time>2025-11-30T14:18:34Z</time></trkpt>
    <trkpt lat="35.032171" lon="32.635240"><ele>1036.4</ele><time>2025-11-30T14:19:31Z</time></trkpt>
    <trkpt lat="35.032978" lon="32.635127"><ele>1040.6</ele><time>2025-11-30T14:20:15Z</time></trkpt>
    <trkpt lat="35.033176" lon="32.636571"><ele>1046.8</ele><time>2025-11-30T14:21:47Z</time></trkpt>
    <trkpt lat="35.032907" lon="32.637247"><ele>1050.0</ele><time>2025-11-30T14:22:23Z</time></trkpt>
    <trkpt lat="35.032889" lon="32.637629"><ele>1052.0</ele><time>2025-11-30T14:22:41Z</time></trkpt>
    <trkpt lat="35.032897" lon="32.637665"><ele>1052.2</ele><time>2025-11-30T14:22:43Z</time></trkpt>
    <trkpt lat="35.033109" lon="32.638177"><ele>1057.2</ele><time>2025-11-30T14:23:12Z</time></trkpt>
    <trkpt lat="35.033868" lon="32.638298"><ele>1064.2</ele><time>2025-11-30T14:23:55Z</time></trkpt>
    <trkpt lat="35.034367" lon="32.638795"><ele>1068.0</ele><time>2025-11-30T14:24:28Z</time></trkpt>
    <trkpt lat="35.035070" lon="32.638973"><ele>1075.2</ele><time>2025-11-30T14:25:15Z</time></trkpt>
    <trkpt lat="35.035447" lon="32.639770"><ele>1081.8</ele><time>2025-11-30T14:26:01Z</time></trkpt>
    <trkpt lat="35.034609" lon="32.640508"><ele>1089.2</ele><time>2025-11-30T14:26:54Z</time></trkpt>
    <trkpt lat="35.034440" lon="32.641392"><ele>1095.4</ele><time>2025-11-30T14:27:38Z</time></trkpt>
    <trkpt lat="35.034021" lon="32.642471"><ele>1104.0</ele><time>2025-11-30T14:28:33Z</time></trkpt>
    <trkpt lat="35.033184" lon="32.642586"><ele>1110.0</ele><time>2025-11-30T14:29:23Z</time></trkpt>
    <trkpt lat="35.033139" lon="32.643582"><ele>1116.2</ele><time>2025-11-30T14:30:09Z</time></trkpt>
    <trkpt lat="35.032707" lon="32.644585"><ele>1123.6</ele><time>2025-11-30T14:31:05Z</time></trkpt>
    <trkpt lat="35.032832" lon="32.645067"><ele>1127.8</ele><time>2025-11-30T14:31:31Z</time></trkpt>
    <trkpt lat="35.033578" lon="32.645670"><ele>1134.4</ele><time>2025-11-30T14:32:25Z</time></trkpt>
    <trkpt lat="35.033695" lon="32.645944"><ele>1136.2</ele><time>2025-11-30T14:32:38Z</time></trkpt>
    <trkpt lat="35.033088" lon="32.646909"><ele>1141.6</ele><time>2025-11-30T14:33:35Z</time></trkpt>
    <trkpt lat="35.032949" lon="32.648352"><ele>1152.0</ele><time>2025-11-30T14:36:09Z</time></trkpt>
    <trkpt lat="35.033690" lon="32.649079"><ele>1160.0</ele><time>2025-11-30T14:37:01Z</time></trkpt>
    <trkpt lat="35.033652" lon="32.649936"><ele>1165.8</ele><time>2025-11-30T14:37:38Z</time></trkpt>
    <trkpt lat="35.033307" lon="32.650468"><ele>1169.0</ele><time>2025-11-30T14:38:07Z</time></trkpt>
    <trkpt lat="35.033494" lon="32.651087"><ele>1172.6</ele><time>2025-11-30T14:38:34Z</time></trkpt>
    <trkpt lat="35.034265" lon="32.651887"><ele>1181.8</ele><time>2025-11-30T14:39:27Z</time></trkpt>
    <trkpt lat="35.034336" lon="32.652215"><ele>1183.8</ele><time>2025-11-30T14:39:39Z</time></trkpt>
    <trkpt lat="35.034327" lon="32.652258"><ele>1183.8</ele><time>2025-11-30T14:39:41Z</time></trkpt>
    <trkpt lat="35.033433" lon="32.652457"><ele>1187.8</ele><time>2025-11-30T14:41:52Z</time></trkpt>
    <trkpt lat="35.032627" lon="32.652060"><ele>1193.6</ele><time>2025-11-30T14:42:39Z</time></trkpt>
    <trkpt lat="35.032133" lon="32.652261"><ele>1198.0</ele><time>2025-11-30T14:43:09Z</time></trkpt>
    <trkpt lat="35.031496" lon="32.652138"><ele>1201.2</ele><time>2025-11-30T14:43:41Z</time></trkpt>
    <trkpt lat="35.029439" lon="32.652780"><ele>1214.8</ele><time>2025-11-30T14:45:27Z</time></trkpt>
    <trkpt lat="35.028240" lon="32.653785"><ele>1225.2</ele><time>2025-11-30T14:46:58Z</time></trkpt>
    <trkpt lat="35.028049" lon="32.654552"><ele>1229.6</ele><time>2025-11-30T14:47:39Z</time></trkpt>
    <trkpt lat="35.027906" lon="32.654993"><ele>1230.6</ele><time>2025-11-30T14:47:57Z</time></trkpt>
    <trkpt lat="35.026553" lon="32.656079"><ele>1234.2</ele><time>2025-11-30T14:51:31Z</time></trkpt>
    <trkpt lat="35.026262" lon="32.656753"><ele>1235.2</ele><time>2025-11-30T14:51:49Z</time></trkpt>
    <trkpt lat="35.026264" lon="32.657718"><ele>1235.4</ele><time>2025-11-30T14:52:08Z</time></trkpt>
    <trkpt lat="35.026074" lon="32.658165"><ele>1235.4</ele><time>2025-11-30T14:52:17Z</time></trkpt>
    <trkpt lat="35.025879" lon="32.658216"><ele>1235.4</ele><time>2025-11-30T14:52:21Z</time></trkpt>
    <trkpt lat="35.025331" lon="32.657933"><ele>1236.2</ele><time>2025-11-30T14:52:35Z</time></trkpt>
    <trkpt lat="35.024873" lon="32.657833"><ele>1238.0</ele><time>2025-11-30T14:52:47Z</time></trkpt>
    <trkpt lat="35.024311" lon="32.658946"><ele>1241.2</ele><time>2025-11-30T14:53:16Z</time></trkpt>
    <trkpt lat="35.023465" lon="32.659078"><ele>1245.8</ele><time>2025-11-30T14:53:44Z</time></trkpt>
    <trkpt lat="35.023317" lon="32.659225"><ele>1246.4</ele><time>2025-11-30T14:53:50Z</time></trkpt>
    <trkpt lat="35.023154" lon="32.659615"><ele>1246.8</ele><time>2025-11-30T14:54:01Z</time></trkpt>
    <trkpt lat="35.022483" lon="32.659549"><ele>1247.6</ele><time>2025-11-30T14:54:19Z</time></trkpt>
    <trkpt lat="35.021533" lon="32.659212"><ele>1245.2</ele><time>2025-11-30T14:54:42Z</time></trkpt>
    <trkpt lat="35.021230" lon="32.659326"><ele>1243.4</ele><time>2025-11-30T14:54:53Z</time></trkpt>
    <trkpt lat="35.020276" lon="32.659574"><ele>1236.2</ele><time>2025-11-30T14:56:25Z</time></trkpt>
    <trkpt lat="35.019205" lon="32.660703"><ele>1224.8</ele><time>2025-11-30T14:56:41Z</time></trkpt>
    <trkpt lat="35.017230" lon="32.662411"><ele>1212.6</ele><time>2025-11-30T14:57:06Z</time></trkpt>
    <trkpt lat="35.016884" lon="32.662370"><ele>1211.2</ele><time>2025-11-30T14:57:11Z</time></trkpt>
    <trkpt lat="35.015971" lon="32.661808"><ele>1206.8</ele><time>2025-11-30T14:57:26Z</time></trkpt>
    <trkpt lat="35.015715" lon="32.661948"><ele>1205.4</ele><time>2025-11-30T14:57:30Z</time></trkpt>
    <trkpt lat="35.015035" lon="32.662956"><ele>1200.4</ele><time>2025-11-30T14:57:45Z</time></trkpt>
    <trkpt lat="35.014339" lon="32.663098"><ele>1197.0</ele><time>2025-11-30T14:57:54Z</time></trkpt>
    <trkpt lat="35.013817" lon="32.662823"><ele>1194.8</ele><time>2025-11-30T14:58:02Z</time></trkpt>
    <trkpt lat="35.012407" lon="32.663436"><ele>1187.6</ele><time>2025-11-30T14:58:22Z</time></trkpt>
    <trkpt lat="35.011351" lon="32.663633"><ele>1181.8</ele><time>2025-11-30T14:58:36Z</time></trkpt>
    <trkpt lat="35.010842" lon="32.663667"><ele>1179.4</ele><time>2025-11-30T14:58:44Z</time></trkpt>
    <trkpt lat="35.010854" lon="32.663826"><ele>1178.6</ele><time>2025-11-30T14:58:47Z</time></trkpt>
    <trkpt lat="35.011367" lon="32.664168"><ele>1175.2</ele><time>2025-11-30T14:58:58Z</time></trkpt>
    <trkpt lat="35.011496" lon="32.664425"><ele>1173.4</ele><time>2025-11-30T14:59:04Z</time></trkpt>
    <trkpt lat="35.011159" lon="32.665351"><ele>1170.6</ele><time>2025-11-30T14:59:19Z</time></trkpt>
    <trkpt lat="35.010756" lon="32.665900"><ele>1168.6</ele><time>2025-11-30T14:59:29Z</time></trkpt>
    <trkpt lat="35.011258" lon="32.667566"><ele>1165.0</ele><time>2025-11-30T14:59:52Z</time></trkpt>
    <trkpt lat="35.011240" lon="32.668846"><ele>1162.8</ele><time>2025-11-30T15:00:12Z</time></trkpt>
    <trkpt lat="35.011450" lon="32.669381"><ele>1161.6</ele><time>2025-11-30T15:00:21Z</time></trkpt>
    <trkpt lat="35.011298" lon="32.670095"><ele>1159.2</ele><time>2025-11-30T15:00:32Z</time></trkpt>
    <trkpt lat="35.011836" lon="32.670504"><ele>1155.8</ele><time>2025-11-30T15:00:42Z</time></trkpt>
    <trkpt lat="35.012217" lon="32.671126"><ele>1152.4</ele><time>2025-11-30T15:00:51Z</time></trkpt>
    <trkpt lat="35.011960" lon="32.671939"><ele>1149.2</ele><time>2025-11-30T15:01:02Z</time></trkpt>
    <trkpt lat="35.012329" lon="32.672530"><ele>1147.0</ele><time>2025-11-30T15:01:11Z</time></trkpt>
    <trkpt lat="35.012152" lon="32.672803"><ele>1146.2</ele><time>2025-11-30T15:01:15Z</time></trkpt>
    <trkpt lat="35.011754" lon="32.673147"><ele>1145.6</ele><time>2025-11-30T15:01:21Z</time></trkpt>
    <trkpt lat="35.011051" lon="32.673623"><ele>1145.2</ele><time>2025-11-30T15:01:32Z</time></trkpt>
    <trkpt lat="35.010995" lon="32.674123"><ele>1144.2</ele><time>2025-11-30T15:01:38Z</time></trkpt>
    <trkpt lat="35.010552" lon="32.674650"><ele>1143.6</ele><time>2025-11-30T15:01:47Z</time></trkpt>
    <trkpt lat="35.011572" lon="32.675554"><ele>1142.0</ele><time>2025-11-30T15:02:05Z</time></trkpt>
    <trkpt lat="35.011600" lon="32.676183"><ele>1141.0</ele><time>2025-11-30T15:02:13Z</time></trkpt>
    <trkpt lat="35.011352" lon="32.677140"><ele>1140.8</ele><time>2025-11-30T15:02:26Z</time></trkpt>
    <trkpt lat="35.011750" lon="32.677926"><ele>1140.8</ele><time>2025-11-30T15:02:38Z</time></trkpt>
    <trkpt lat="35.012077" lon="32.678234"><ele>1140.6</ele><time>2025-11-30T15:02:44Z</time></trkpt>
    <trkpt lat="35.012124" lon="32.678922"><ele>1140.6</ele><time>2025-11-30T15:02:52Z</time></trkpt>
    <trkpt lat="35.012519" lon="32.679501"><ele>1141.4</ele><time>2025-11-30T15:03:01Z</time></trkpt>
    <trkpt lat="35.012177" lon="32.680075"><ele>1141.8</ele><time>2025-11-30T15:03:10Z</time></trkpt>
    <trkpt lat="35.012090" lon="32.680871"><ele>1140.8</ele><time>2025-11-30T15:03:19Z</time></trkpt>
    <trkpt lat="35.011299" lon="32.681401"><ele>1139.0</ele><time>2025-11-30T15:03:32Z</time></trkpt>
    <trkpt lat="35.010712" lon="32.682607"><ele>1139.0</ele><time>2025-11-30T15:03:49Z</time></trkpt>
    <trkpt lat="35.010104" lon="32.683098"><ele>1138.8</ele><time>2025-11-30T15:04:01Z</time></trkpt>
    <trkpt lat="35.009693" lon="32.683033"><ele>1138.8</ele><time>2025-11-30T15:04:10Z</time></trkpt>
    <trkpt lat="35.009152" lon="32.682952"><ele>1140.2</ele><time>2025-11-30T15:04:22Z</time></trkpt>
    <trkpt lat="35.008756" lon="32.683055"><ele>1142.2</ele><time>2025-11-30T15:04:34Z</time></trkpt>
    <trkpt lat="35.008447" lon="32.682684"><ele>1145.2</ele><time>2025-11-30T15:04:49Z</time></trkpt>
    <trkpt lat="35.008444" lon="32.681941"><ele>1147.0</ele><time>2025-11-30T15:05:09Z</time></trkpt>
    <trkpt lat="35.008298" lon="32.681578"><ele>1149.0</ele><time>2025-11-30T15:05:20Z</time></trkpt>
    <trkpt lat="35.007614" lon="32.680990"><ele>1153.0</ele><time>2025-11-30T15:05:50Z</time></trkpt>
    <trkpt lat="35.007329" lon="32.681223"><ele>1153.8</ele><time>2025-11-30T15:06:03Z</time></trkpt>
    <trkpt lat="35.007173" lon="32.681186"><ele>1154.4</ele><time>2025-11-30T15:06:09Z</time></trkpt>
    <trkpt lat="35.006782" lon="32.680470"><ele>1157.2</ele><time>2025-11-30T15:06:36Z</time></trkpt>
    <trkpt lat="35.006523" lon="32.680014"><ele>1157.4</ele><time>2025-11-30T15:06:52Z</time></trkpt>
    <trkpt lat="35.006353" lon="32.680062"><ele>1157.8</ele><time>2025-11-30T15:06:57Z</time></trkpt>
    <trkpt lat="35.006012" lon="32.680826"><ele>1157.0</ele><time>2025-11-30T15:07:15Z</time></trkpt>
    <trkpt lat="35.005640" lon="32.681183"><ele>1156.0</ele><time>2025-11-30T15:07:26Z</time></trkpt>
    <trkpt lat="35.005341" lon="32.682063"><ele>1155.6</ele><time>2025-11-30T15:07:56Z</time></trkpt>
    <trkpt lat="35.005082" lon="32.682370"><ele>1155.2</ele><time>2025-11-30T15:08:03Z</time></trkpt>
    <trkpt lat="35.004277" lon="32.682541"><ele>1154.6</ele><time>2025-11-30T15:08:18Z</time></trkpt>
    <trkpt lat="35.003705" lon="32.681388"><ele>1153.6</ele><time>2025-11-30T15:08:37Z</time></trkpt>
    <trkpt lat="35.003664" lon="32.681327"><ele>1153.4</ele><time>2025-11-30T15:08:38Z</time></trkpt>
    <trkpt lat="35.003415" lon="32.681328"><ele>1152.8</ele><time>2025-11-30T15:08:42Z</time></trkpt>
    <trkpt lat="35.003022" lon="32.683336"><ele>1143.6</ele><time>2025-11-30T15:09:04Z</time></trkpt>
    <trkpt lat="35.002913" lon="32.683468"><ele>1142.6</ele><time>2025-11-30T15:09:06Z</time></trkpt>
    <trkpt lat="35.001744" lon="32.683963"><ele>1141.6</ele><time>2025-11-30T15:09:24Z</time></trkpt>
    <trkpt lat="35.002175" lon="32.685115"><ele>1138.2</ele><time>2025-11-30T15:09:38Z</time></trkpt>
    <trkpt lat="35.002014" lon="32.685697"><ele>1136.6</ele><time>2025-11-30T15:09:45Z</time></trkpt>
    <trkpt lat="35.002634" lon="32.686420"><ele>1134.2</ele><time>2025-11-30T15:09:56Z</time></trkpt>
    <trkpt lat="35.002599" lon="32.687230"><ele>1132.4</ele><time>2025-11-30T15:10:05Z</time></trkpt>
    <trkpt lat="35.002717" lon="32.687647"><ele>1131.4</ele><time>2025-11-30T15:10:10Z</time></trkpt>
    <trkpt lat="35.003436" lon="32.688455"><ele>1128.2</ele><time>2025-11-30T15:10:23Z</time></trkpt>
    <trkpt lat="35.003670" lon="32.689281"><ele>1126.6</ele><time>2025-11-30T15:10:33Z</time></trkpt>
    <trkpt lat="35.004295" lon="32.690039"><ele>1124.6</ele><time>2025-11-30T15:10:45Z</time></trkpt>
    <trkpt lat="35.004418" lon="32.690648"><ele>1123.0</ele><time>2025-11-30T15:10:52Z</time></trkpt>
    <trkpt lat="35.004935" lon="32.691379"><ele>1121.6</ele><time>2025-11-30T15:11:03Z</time></trkpt>
    <trkpt lat="35.005352" lon="32.691574"><ele>1120.8</ele><time>2025-11-30T15:11:09Z</time></trkpt>
    <trkpt lat="35.005554" lon="32.691959"><ele>1120.4</ele><time>2025-11-30T15:11:14Z</time></trkpt>
    <trkpt lat="35.006117" lon="32.692419"><ele>1118.8</ele><time>2025-11-30T15:11:23Z</time></trkpt>
    <trkpt lat="35.006116" lon="32.692893"><ele>1117.8</ele><time>2025-11-30T15:11:29Z</time></trkpt>
    <trkpt lat="35.005386" lon="32.693440"><ele>1114.4</ele><time>2025-11-30T15:11:40Z</time></trkpt>
    <trkpt lat="35.004423" lon="32.692834"><ele>1112.6</ele><time>2025-11-30T15:11:55Z</time></trkpt>
    <trkpt lat="35.004136" lon="32.692818"><ele>1112.0</ele><time>2025-11-30T15:11:59Z</time></trkpt>
    <trkpt lat="35.003227" lon="32.693159"><ele>1109.6</ele><time>2025-11-30T15:12:12Z</time></trkpt>
    <trkpt lat="35.002703" lon="32.693817"><ele>1106.6</ele><time>2025-11-30T15:12:23Z</time></trkpt>
    <trkpt lat="35.002494" lon="32.693467"><ele>1105.4</ele><time>2025-11-30T15:12:30Z</time></trkpt>
    <trkpt lat="35.002384" lon="32.693309"><ele>1105.4</ele><time>2025-11-30T15:12:33Z</time></trkpt>
    <trkpt lat="35.000911" lon="32.692518"><ele>1106.6</ele><time>2025-11-30T15:13:00Z</time></trkpt>
    <trkpt lat="35.000444" lon="32.692729"><ele>1107.0</ele><time>2025-11-30T15:13:08Z</time></trkpt>
    <trkpt lat="34.999853" lon="32.693610"><ele>1106.0</ele><time>2025-11-30T15:13:22Z</time></trkpt>
    <trkpt lat="34.999481" lon="32.693632"><ele>1106.0</ele><time>2025-11-30T15:13:28Z</time></trkpt>
    <trkpt lat="34.998917" lon="32.693263"><ele>1106.6</ele><time>2025-11-30T15:13:40Z</time></trkpt>
    <trkpt lat="34.997889" lon="32.693813"><ele>1107.2</ele><time>2025-11-30T15:14:00Z</time></trkpt>
    <trkpt lat="34.998066" lon="32.694865"><ele>1106.4</ele><time>2025-11-30T15:14:16Z</time></trkpt>
    <trkpt lat="34.997811" lon="32.695890"><ele>1105.2</ele><time>2025-11-30T15:14:31Z</time></trkpt>
    <trkpt lat="34.998090" lon="32.696825"><ele>1104.0</ele><time>2025-11-30T15:14:44Z</time></trkpt>
    <trkpt lat="34.996835" lon="32.697435"><ele>1104.8</ele><time>2025-11-30T15:15:08Z</time></trkpt>
    <trkpt lat="34.996432" lon="32.697882"><ele>1105.0</ele><time>2025-11-30T15:15:17Z</time></trkpt>
    <trkpt lat="34.996663" lon="32.698373"><ele>1104.4</ele><time>2025-11-30T15:15:24Z</time></trkpt>
    <trkpt lat="34.996971" lon="32.698800"><ele>1102.8</ele><time>2025-11-30T15:15:31Z</time></trkpt>
    <trkpt lat="34.996991" lon="32.699457"><ele>1101.4</ele><time>2025-11-30T15:15:39Z</time></trkpt>
    <trkpt lat="34.997254" lon="32.700200"><ele>1099.8</ele><time>2025-11-30T15:15:48Z</time></trkpt>
    <trkpt lat="34.997975" lon="32.701549"><ele>1094.4</ele><time>2025-11-30T15:16:07Z</time></trkpt>
    <trkpt lat="34.997890" lon="32.702141"><ele>1093.4</ele><time>2025-11-30T15:16:15Z</time></trkpt>
    <trkpt lat="34.998004" lon="32.703287"><ele>1090.8</ele><time>2025-11-30T15:16:32Z</time></trkpt>
    <trkpt lat="34.998730" lon="32.704137"><ele>1086.6</ele><time>2025-11-30T15:17:20Z</time></trkpt>
    <trkpt lat="34.999680" lon="32.704232"><ele>1083.8</ele><time>2025-11-30T15:17:34Z</time></trkpt>
    <trkpt lat="34.999975" lon="32.704277"><ele>1082.0</ele><time>2025-11-30T15:17:38Z</time></trkpt>
    <trkpt lat="35.000202" lon="32.704900"><ele>1079.8</ele><time>2025-11-30T15:17:46Z</time></trkpt>
    <trkpt lat="35.000493" lon="32.705114"><ele>1078.8</ele><time>2025-11-30T15:17:50Z</time></trkpt>
    <trkpt lat="35.001311" lon="32.705079"><ele>1075.2</ele><time>2025-11-30T15:18:00Z</time></trkpt>
    <trkpt lat="35.002318" lon="32.704049"><ele>1068.0</ele><time>2025-11-30T15:18:16Z</time></trkpt>
    <trkpt lat="35.003868" lon="32.705148"><ele>1058.0</ele><time>2025-11-30T15:18:36Z</time></trkpt>
    <trkpt lat="35.004967" lon="32.705132"><ele>1054.2</ele><time>2025-11-30T15:18:47Z</time></trkpt>
    <trkpt lat="35.005803" lon="32.705489"><ele>1051.8</ele><time>2025-11-30T15:18:57Z</time></trkpt>
    <trkpt lat="35.005853" lon="32.705541"><ele>1051.6</ele><time>2025-11-30T15:18:58Z</time></trkpt>
    <trkpt lat="35.005904" lon="32.705681"><ele>1051.6</ele><time>2025-11-30T15:19:00Z</time></trkpt>
    <trkpt lat="35.005678" lon="32.705974"><ele>1051.0</ele><time>2025-11-30T15:19:06Z</time></trkpt>
    <trkpt lat="35.004433" lon="32.706172"><ele>1050.8</ele><time>2025-11-30T15:19:27Z</time></trkpt>
    <trkpt lat="35.003645" lon="32.706641"><ele>1051.4</ele><time>2025-11-30T15:19:41Z</time></trkpt>
    <trkpt lat="35.003293" lon="32.707091"><ele>1051.0</ele><time>2025-11-30T15:19:48Z</time></trkpt>
    <trkpt lat="35.002684" lon="32.708295"><ele>1050.6</ele><time>2025-11-30T15:20:06Z</time></trkpt>
    <trkpt lat="35.002646" lon="32.708455"><ele>1050.2</ele><time>2025-11-30T15:20:08Z</time></trkpt>
    <trkpt lat="35.002672" lon="32.709794"><ele>1047.0</ele><time>2025-11-30T15:20:25Z</time></trkpt>
    <trkpt lat="35.002924" lon="32.710503"><ele>1043.6</ele><time>2025-11-30T15:20:34Z</time></trkpt>
    <trkpt lat="35.002767" lon="32.711212"><ele>1041.4</ele><time>2025-11-30T15:20:57Z</time></trkpt>
    <trkpt lat="35.002830" lon="32.712400"><ele>1039.8</ele><time>2025-11-30T15:21:13Z</time></trkpt>
    <trkpt lat="35.002712" lon="32.713844"><ele>1036.2</ele><time>2025-11-30T15:21:32Z</time></trkpt>
    <trkpt lat="35.002855" lon="32.714077"><ele>1035.8</ele><time>2025-11-30T15:21:36Z</time></trkpt>
    <trkpt lat="35.003227" lon="32.714590"><ele>1035.8</ele><time>2025-11-30T15:21:45Z</time></trkpt>
    <trkpt lat="35.003996" lon="32.715281"><ele>1037.8</ele><time>2025-11-30T15:22:01Z</time></trkpt>
    <trkpt lat="35.004934" lon="32.715792"><ele>1040.2</ele><time>2025-11-30T15:22:20Z</time></trkpt>
    <trkpt lat="35.003802" lon="32.716768"><ele>1044.4</ele><time>2025-11-30T15:22:51Z</time></trkpt>
    <trkpt lat="35.003508" lon="32.717846"><ele>1047.0</ele><time>2025-11-30T15:23:13Z</time></trkpt>
    <trkpt lat="35.002887" lon="32.719058"><ele>1048.6</ele><time>2025-11-30T15:23:37Z</time></trkpt>
    <trkpt lat="35.002909" lon="32.719477"><ele>1049.6</ele><time>2025-11-30T15:23:45Z</time></trkpt>
    <trkpt lat="35.003000" lon="32.719870"><ele>1049.8</ele><time>2025-11-30T15:23:52Z</time></trkpt>
    <trkpt lat="35.003499" lon="32.721195"><ele>1049.6</ele><time>2025-11-30T15:24:14Z</time></trkpt>
    <trkpt lat="35.003333" lon="32.722052"><ele>1050.8</ele><time>2025-11-30T15:24:29Z</time></trkpt>
    <trkpt lat="35.003401" lon="32.723298"><ele>1052.0</ele><time>2025-11-30T15:24:50Z</time></trkpt>
    <trkpt lat="35.004305" lon="32.724205"><ele>1051.4</ele><time>2025-11-30T15:25:13Z</time></trkpt>
    <trkpt lat="35.004339" lon="32.724265"><ele>1051.4</ele><time>2025-11-30T15:25:14Z</time></trkpt>
    <trkpt lat="35.004676" lon="32.725132"><ele>1049.0</ele><time>2025-11-30T15:25:26Z</time></trkpt>
    <trkpt lat="35.005632" lon="32.726238"><ele>1044.0</ele><time>2025-11-30T15:25:43Z</time></trkpt>
    <trkpt lat="35.005924" lon="32.726453"><ele>1042.4</ele><time>2025-11-30T15:25:47Z</time></trkpt>
    <trkpt lat="35.006521" lon="32.726501"><ele>1039.8</ele><time>2025-11-30T15:25:55Z</time></trkpt>
    <trkpt lat="35.006574" lon="32.726706"><ele>1039.2</ele><time>2025-11-30T15:25:58Z</time></trkpt>
    <trkpt lat="35.006645" lon="32.727133"><ele>1038.6</ele><time>2025-11-30T15:26:04Z</time></trkpt>
    <trkpt lat="35.007589" lon="32.727997"><ele>1036.6</ele><time>2025-11-30T15:26:27Z</time></trkpt>
    <trkpt lat="35.008122" lon="32.727972"><ele>1035.6</ele><time>2025-11-30T15:29:30Z</time></trkpt>
    <trkpt lat="35.008217" lon="32.727982"><ele>1035.2</ele><time>2025-11-30T15:29:32Z</time></trkpt>
    <trkpt lat="35.008977" lon="32.728235"><ele>1032.6</ele><time>2025-11-30T15:29:49Z</time></trkpt>
    <trkpt lat="35.009695" lon="32.728068"><ele>1030.4</ele><time>2025-11-30T15:30:03Z</time></trkpt>
    <trkpt lat="35.010139" lon="32.727806"><ele>1028.8</ele><time>2025-11-30T15:30:12Z</time></trkpt>
    <trkpt lat="35.010981" lon="32.726684"><ele>1022.8</ele><time>2025-11-30T15:30:33Z</time></trkpt>
    <trkpt lat="35.011912" lon="32.727464"><ele>1018.8</ele><time>2025-11-30T15:30:49Z</time></trkpt>
    <trkpt lat="35.012116" lon="32.727572"><ele>1018.0</ele><time>2025-11-30T15:30:52Z</time></trkpt>
    <trkpt lat="35.012425" lon="32.727698"><ele>1018.0</ele><time>2025-11-30T15:30:57Z</time></trkpt>
    <trkpt lat="35.013443" lon="32.727445"><ele>1019.0</ele><time>2025-11-30T15:31:16Z</time></trkpt>
    <trkpt lat="35.013572" lon="32.727667"><ele>1019.0</ele><time>2025-11-30T15:31:21Z</time></trkpt>
    <trkpt lat="35.013597" lon="32.728258"><ele>1017.4</ele><time>2025-11-30T15:31:31Z</time></trkpt>
    <trkpt lat="35.013221" lon="32.728708"><ele>1014.4</ele><time>2025-11-30T15:31:45Z</time></trkpt>
    <trkpt lat="35.012680" lon="32.728633"><ele>1012.4</ele><time>2025-11-30T15:32:12Z</time></trkpt>
    <trkpt lat="35.012419" lon="32.728634"><ele>1011.0</ele><time>2025-11-30T15:32:16Z</time></trkpt>
    <trkpt lat="35.011410" lon="32.729002"><ele>1004.0</ele><time>2025-11-30T15:32:34Z</time></trkpt>
    <trkpt lat="35.011271" lon="32.729748"><ele>999.6</ele><time>2025-11-30T15:32:44Z</time></trkpt>
    <trkpt lat="35.010949" lon="32.730278"><ele>994.2</ele><time>2025-11-30T15:32:52Z</time></trkpt>
    <trkpt lat="35.010698" lon="32.731117"><ele>985.4</ele><time>2025-11-30T15:33:05Z</time></trkpt>
    <trkpt lat="35.009417" lon="32.730826"><ele>973.2</ele><time>2025-11-30T15:33:26Z</time></trkpt>
    <trkpt lat="35.009090" lon="32.730302"><ele>968.0</ele><time>2025-11-30T15:33:37Z</time></trkpt>
    <trkpt lat="35.009003" lon="32.730226"><ele>966.8</ele><time>2025-11-30T15:33:41Z</time></trkpt>
    <trkpt lat="35.008437" lon="32.730506"><ele>967.6</ele><time>2025-11-30T15:34:45Z</time></trkpt>
    <trkpt lat="34.968140" lon="32.828239"><ele>968.0</ele><time>2025-11-30T17:55:49Z</time></trkpt>
    </trkseg>
  </trk>
</gpx>
