<?xml version="1.0" encoding="UTF-8"?>
<gpx version="1.1" creator="tripplanner (simplified from Strava export)" xmlns="http://www.topografix.com/GPX/1/1">
  <metadata>
    <name>Around Cyprus — Pedoulas → Templos</name>
    <time>2025-12-01T10:45:24Z</time>
  </metadata>
  <trk>
    <name>Around Cyprus — Pedoulas → Templos</name>
    <trkseg>
    <trkpt lat="34.968152" lon="32.827961"><ele>1107.2</ele><time>2025-12-01T10:45:24Z</time></trkpt>
    <trkpt lat="34.968515" lon="32.828073"><ele>1106.0</ele><time>2025-12-01T10:45:39Z</time></trkpt>
    <trkpt lat="34.968657" lon="32.827760"><ele>1103.4</ele><time>2025-12-01T10:46:04Z</time></trkpt>
    <trkpt lat="34.968676" lon="32.827119"><ele>1101.6</ele><time>2025-12-01T10:46:16Z</time></trkpt>
    <trkpt lat="34.969050" lon="32.826925"><ele>1100.2</ele><time>2025-12-01T10:46:26Z</time></trkpt>
    <trkpt lat="34.968864" lon="32.827414"><ele>1097.0</ele><time>2025-12-01T10:46:40Z</time></trkpt>
    <trkpt lat="34.968841" lon="32.828026"><ele>1096.2</ele><time>2025-12-01T10:46:52Z</time></trkpt>
    <trkpt lat="34.968509" lon="32.828648"><ele>1095.6</ele><time>2025-12-01T10:47:09Z</time></trkpt>
    <trkpt lat="34.967984" lon="32.828519"><ele>1093.8</ele><time>2025-12-01T10:47:25Z</time></trkpt>
    <trkpt lat="34.967929" lon="32.828641"><ele>1093.6</ele><time>2025-12-01T10:47:29Z</time></trkpt>
    <trkpt lat="34.967837" lon="32.829145"><ele>1086.2</ele><time>2025-12-01T10:47:44Z</time></trkpt>
    <trkpt lat="34.967295" lon="32.829048"><ele>1082.2</ele><time>2025-12-01T10:47:58Z</time></trkpt>
    <trkpt lat="34.967216" lon="32.829024"><ele>1081.6</ele><time>2025-12-01T10:48:01Z</time></trkpt>
    <trkpt lat="34.966974" lon="32.829207"><ele>1079.8</ele><time>2025-12-01T10:48:10Z</time></trkpt>
    <trkpt lat="34.966902" lon="32.829495"><ele>1078.4</ele><time>2025-12-01T10:48:16Z</time></trkpt>
    <trkpt lat="34.967236" lon="32.829766"><ele>1075.6</ele><time>2025-12-01T10:48:29Z</time></trkpt>
    <trkpt lat="34.967771" lon="32.829714"><ele>1074.6</ele><time>2025-12-01T10:48:43Z</time></trkpt>
    <trkpt lat="34.968462" lon="32.829898"><ele>1073.0</ele><time>2025-12-01T10:48:59Z</time></trkpt>
    <trkpt lat="34.968553" lon="32.829860"><ele>1072.4</ele><time>2025-12-01T10:49:01Z</time></trkpt>
    <trkpt lat="34.969423" lon="32.829540"><ele>1059.2</ele><time>2025-12-01T10:49:21Z</time></trkpt>
    <trkpt lat="34.969640" lon="32.828289"><ele>1049.0</ele><time>2025-12-01T10:49:42Z</time></trkpt>
    <trkpt lat="34.970184" lon="32.828153"><ele>1044.2</ele><time>2025-12-01T10:49:51Z</time></trkpt>
    <trkpt lat="34.970406" lon="32.827499"><ele>1037.0</ele><time>2025-12-01T10:50:00Z</time></trkpt>
    <trkpt lat="34.971137" lon="32.827822"><ele>1029.6</ele><time>2025-12-01T10:50:12Z</time></trkpt>
    <trkpt lat="34.971504" lon="32.827606"><ele>1026.0</ele><time>2025-12-01T10:50:17Z</time></trkpt>
    <trkpt lat="34.971701" lon="32.827169"><ele>1021.2</ele><time>2025-12-01T10:50:23Z</time></trkpt>
    <trkpt lat="34.972332" lon="32.827184"><ele>1016.0</ele><time>2025-12-01T10:50:31Z</time></trkpt>
    <trkpt lat="34.972669" lon="32.826915"><ele>1011.4</ele><time>2025-12-01T10:50:37Z</time></trkpt>
    <trkpt lat="34.972780" lon="32.826892"><ele>1010.2</ele><time>2025-12-01T10:50:40Z</time></trkpt>
    <trkpt lat="34.972437" lon="32.827287"><ele>1008.2</ele><time>2025-12-01T10:50:50Z</time></trkpt>
    <trkpt lat="34.971912" lon="32.827539"><ele>1005.2</ele><time>2025-12-01T10:50:58Z</time></trkpt>
    <trkpt lat="34.971830" lon="32.827814"><ele>1003.4</ele><time>2025-12-01T10:51:01Z</time></trkpt>
    <trkpt lat="34.971539" lon="32.828559"><ele>997.4</ele><time>2025-12-01T10:51:09Z</time></trkpt>
    <trkpt lat="34.971159" lon="32.828929"><ele>993.8</ele><time>2025-12-01T10:51:14Z</time></trkpt>
    <trkpt lat="34.970792" lon="32.829737"><ele>985.8</ele><time>2025-12-01T10:51:23Z</time></trkpt>
    <trkpt lat="34.971416" lon="32.830711"><ele>976.6</ele><time>2025-12-01T10:51:36Z</time></trkpt>
    <trkpt lat="34.971175" lon="32.831591"><ele>972.0</ele><time>2025-12-01T10:51:46Z</time></trkpt>
    <trkpt lat="34.971489" lon="32.832491"><ele>966.2</ele><time>2025-12-01T10:51:57Z</time></trkpt>
    <trkpt lat="34.971338" lon="32.831585"><ele>961.2</ele><time>2025-12-01T10:52:10Z</time></trkpt>
    <trkpt lat="34.971842" lon="32.830894"><ele>956.0</ele><time>2025-12-01T10:52:19Z</time></trkpt>
    <trkpt lat="34.971550" lon="32.830108"><ele>950.2</ele><time>2025-12-01T10:52:28Z</time></trkpt>
    <trkpt lat="34.971684" lon="32.829795"><ele>948.8</ele><time>2025-12-01T10:52:32Z</time></trkpt>
    <trkpt lat="34.972401" lon="32.829245"><ele>945.2</ele><time>2025-12-01T10:52:41Z</time></trkpt>
    <trkpt lat="34.972863" lon="32.828904"><ele>940.6</ele><time>2025-12-01T10:52:47Z</time></trkpt>
    <trkpt lat="34.973953" lon="32.829396"><ele>931.8</ele><time>2025-12-01T10:52:59Z</time></trkpt>
    <trkpt lat="34.974332" lon="32.828856"><ele>926.6</ele><time>2025-12-01T10:53:05Z</time></trkpt>
    <trkpt lat="34.974916" lon="32.828853"><ele>922.0</ele><time>2025-12-01T10:53:11Z</time></trkpt>
    <trkpt lat="34.975384" lon="32.828337"><ele>916.2</ele><time>2025-12-01T10:53:18Z</time></trkpt>
    <trkpt lat="34.976318" lon="32.828949"><ele>908.6</ele><time>2025-12-01T10:53:28Z</time></trkpt>
    <trkpt lat="34.976878" lon="32.828544"><ele>902.6</ele><time>2025-12-01T10:53:35Z</time></trkpt>
    <trkpt lat="34.977652" lon="32.828850"><ele>896.0</ele><time>2025-12-01T10:53:44Z</time></trkpt>
    <trkpt lat="34.977897" lon="32.828092"><ele>890.6</ele><time>2025-12-01T10:53:51Z</time></trkpt>
    <trkpt lat="34.977809" lon="32.826957"><ele>884.6</ele><time>2025-12-01T10:54:00Z</time></trkpt>
    <trkpt lat="34.978012" lon="32.826655"><ele>882.2</ele><time>2025-12-01T10:54:04Z</time></trkpt>
    <trkpt lat="34.978272" lon="32.826671"><ele>880.6</ele><time>2025-12-01T10:54:07Z</time></trkpt>
    <trkpt lat="34.979288" lon="32.827285"><ele>874.2</ele><time>2025-12-01T10:54:18Z</time></trkpt>
    <trkpt lat="34.979783" lon="32.827268"><ele>870.4</ele><time>2025-12-01T10:54:23Z</time></trkpt>
    <trkpt lat="34.980175" lon="32.828007"><ele>863.8</ele><time>2025-12-01T10:54:31Z</time></trkpt>
    <trkpt lat="34.981120" lon="32.828035"><ele>855.4</ele><time>2025-12-01T10:54:40Z</time></trkpt>
    <trkpt lat="34.981511" lon="32.828359"><ele>851.4</ele><time>2025-12-01T10:54:45Z</time></trkpt>
    <trkpt lat="34.982206" lon="32.828079"><ele>844.2</ele><time>2025-12-01T10:54:53Z</time></trkpt>
    <trkpt lat="34.982325" lon="32.827345"><ele>838.4</ele><time>2025-12-01T10:55:01Z</time></trkpt>
    <trkpt lat="34.983222" lon="32.826947"><ele>831.0</ele><time>2025-12-01T10:55:12Z</time></trkpt>
    <trkpt lat="34.983250" lon="32.825950"><ele>824.8</ele><time>2025-12-01T10:55:23Z</time></trkpt>
    <trkpt lat="34.983292" lon="32.825878"><ele>824.2</ele><time>2025-12-01T10:55:24Z</time></trkpt>
    <trkpt lat="34.983769" lon="32.825577"><ele>821.2</ele><time>2025-12-01T10:55:33Z</time></trkpt>
    <trkpt lat="34.983641" lon="32.824987"><ele>817.8</ele><time>2025-12-01T10:55:40Z</time></trkpt>
    <trkpt lat="34.983274" lon="32.824484"><ele>813.8</ele><time>2025-12-01T10:55:49Z</time></trkpt>
    <trkpt lat="34.983330" lon="32.823658"><ele>809.6</ele><time>2025-12-01T10:56:00Z</time></trkpt>
    <trkpt lat="34.982683" lon="32.822858"><ele>802.8</ele><time>2025-12-01T10:56:14Z</time></trkpt>
    <trkpt lat="34.982686" lon="32.822575"><ele>801.4</ele><time>2025-12-01T10:56:17Z</time></trkpt>
    <trkpt lat="34.982969" lon="32.822387"><ele>799.6</ele><time>2025-12-01T10:56:21Z</time></trkpt>
    <trkpt lat="34.983600" lon="32.822509"><ele>798.0</ele><time>2025-12-01T10:56:29Z</time></trkpt>
    <trkpt lat="34.984556" lon="32.823185"><ele>792.4</ele><time>2025-12-01T10:56:44Z</time></trkpt>
    <trkpt lat="34.985045" lon="32.822949"><ele>790.0</ele><time>2025-12-01T10:56:53Z</time></trkpt>
    <trkpt lat="34.985905" lon="32.824039"><ele>786.2</ele><time>2025-12-01T10:57:09Z</time></trkpt>
    <trkpt lat="34.985989" lon="32.824426"><ele>785.2</ele><time>2025-12-01T10:57:13Z</time></trkpt>
    <trkpt lat="34.986366" lon="32.824888"><ele>782.0</ele><time>2025-12-01T10:57:20Z</time></trkpt>
    <trkpt lat="34.986673" lon="32.824644"><ele>780.0</ele><time>2025-12-01T10:57:25Z</time></trkpt>
    <trkpt lat="34.987671" lon="32.824390"><ele>775.6</ele><time>2025-12-01T10:57:37Z</time></trkpt>
    <trkpt lat="34.987949" lon="32.824732"><ele>774.0</ele><time>2025-12-01T10:57:42Z</time></trkpt>
    <trkpt lat="34.988398" lon="32.825214"><ele>770.4</ele><time>2025-12-01T10:57:49Z</time></trkpt>
    <trkpt lat="34.988327" lon="32.826929"><ele>762.0</ele><time>2025-12-01T10:58:06Z</time></trkpt>
    <trkpt lat="34.988595" lon="32.827015"><ele>760.0</ele><time>2025-12-01T10:58:10Z</time></trkpt>
    <trkpt lat="34.988991" lon="32.827450"><ele>756.8</ele><time>2025-12-01T10:58:16Z</time></trkpt>
    <trkpt lat="34.989324" lon="32.827516"><ele>754.0</ele><time>2025-12-01T10:58:20Z</time></trkpt>
    <trkpt lat="34.989647" lon="32.827211"><ele>750.6</ele><time>2025-12-01T10:58:25Z</time></trkpt>
    <trkpt lat="34.989911" lon="32.826623"><ele>746.6</ele><time>2025-12-01T10:58:32Z</time></trkpt>
    <trkpt lat="34.990376" lon="32.826382"><ele>744.0</ele><time>2025-12-01T10:58:39Z</time></trkpt>
    <trkpt lat="34.990482" lon="32.826525"><ele>743.0</ele><time>2025-12-01T10:58:42Z</time></trkpt>
    <trkpt lat="34.990533" lon="32.827550"><ele>737.6</ele><time>2025-12-01T10:58:56Z</time></trkpt>
    <trkpt lat="34.991969" lon="32.828523"><ele>726.0</ele><time>2025-12-01T10:59:19Z</time></trkpt>
    <trkpt lat="34.993298" lon="32.827883"><ele>717.8</ele><time>2025-12-01T10:59:37Z</time></trkpt>
    <trkpt lat="34.993499" lon="32.827979"><ele>716.2</ele><time>2025-12-01T10:59:40Z</time></trkpt>
    <trkpt lat="34.993989" lon="32.828283"><ele>716.0</ele><time>2025-12-01T10:59:49Z</time></trkpt>
    <trkpt lat="34.994542" lon="32.827654"><ele>714.0</ele><time>2025-12-01T11:00:00Z</time></trkpt>
    <trkpt lat="34.995017" lon="32.827020"><ele>708.6</ele><time>2025-12-01T11:00:09Z</time></trkpt>
    <trkpt lat="34.995850" lon="32.827054"><ele>702.6</ele><time>2025-12-01T11:00:20Z</time></trkpt>
    <trkpt lat="34.996431" lon="32.826546"><ele>695.8</ele><time>2025-12-01T11:00:30Z</time></trkpt>
    <trkpt lat="34.996855" lon="32.826762"><ele>692.2</ele><time>2025-12-01T11:00:37Z</time></trkpt>
    <trkpt lat="34.997055" lon="32.826534"><ele>690.0</ele><time>2025-12-01T11:00:41Z</time></trkpt>
    <trkpt lat="34.997068" lon="32.826126"><ele>687.2</ele><time>2025-12-01T11:00:46Z</time></trkpt>
    <trkpt lat="34.997199" lon="32.825990"><ele>685.4</ele><time>2025-12-01T11:00:49Z</time></trkpt>
    <trkpt lat="34.997742" lon="32.826299"><ele>680.6</ele><time>2025-12-01T11:00:58Z</time></trkpt>
    <trkpt lat="34.998096" lon="32.825759"><ele>674.8</ele><time>2025-12-01T11:01:06Z</time></trkpt>
    <trkpt lat="34.998411" lon="32.825651"><ele>671.6</ele><time>2025-12-01T11:01:11Z</time></trkpt>
    <trkpt lat="34.998725" lon="32.825112"><ele>667.4</ele><time>2025-12-01T11:01:18Z</time></trkpt>
    <trkpt lat="34.999780" lon="32.824978"><ele>663.0</ele><time>2025-12-01T11:01:32Z</time></trkpt>
    <trkpt lat="35.000456" lon="32.824223"><ele>656.0</ele><time>2025-12-01T11:01:44Z</time></trkpt>
    <trkpt lat="35.000863" lon="32.824087"><ele>652.8</ele><time>2025-12-01T11:01:50Z</time></trkpt>
    <trkpt lat="35.001032" lon="32.823794"><ele>649.8</ele><time>2025-12-01T11:01:55Z</time></trkpt>
    <trkpt lat="35.001166" lon="32.823860"><ele>648.2</ele><time>2025-12-01T11:01:58Z</time></trkpt>
    <trkpt lat="35.001130" lon="32.824068"><ele>646.6</ele><time>2025-12-01T11:02:01Z</time></trkpt>
    <trkpt lat="34.999792" lon="32.825495"><ele>633.0</ele><time>2025-12-01T11:02:25Z</time></trkpt>
    <trkpt lat="34.999860" lon="32.825624"><ele>631.6</ele><time>2025-12-01T11:02:28Z</time></trkpt>
    <trkpt lat="35.000690" lon="32.824955"><ele>625.8</ele><time>2025-12-01T11:02:41Z</time></trkpt>
    <trkpt lat="35.001535" lon="32.824631"><ele>618.2</ele><time>2025-12-01T11:02:53Z</time></trkpt>
    <trkpt lat="35.001517" lon="32.824809"><ele>616.8</ele><time>2025-12-01T11:02:56Z</time></trkpt>
    <trkpt lat="35.000356" lon="32.826018"><ele>608.4</ele><time>2025-12-01T11:03:16Z</time></trkpt>
    <trkpt lat="35.000291" lon="32.826529"><ele>605.4</ele><time>2025-12-01T11:03:22Z</time></trkpt>
    <trkpt lat="35.000644" lon="32.826895"><ele>600.2</ele><time>2025-12-01T11:03:28Z</time></trkpt>
    <trkpt lat="35.001069" lon="32.826759"><ele>596.2</ele><time>2025-12-01T11:03:33Z</time></trkpt>
    <trkpt lat="35.001971" lon="32.826275"><ele>598.4</ele><time>2025-12-01T11:03:50Z</time></trkpt>
    <trkpt lat="35.002477" lon="32.826539"><ele>598.6</ele><time>2025-12-01T11:03:59Z</time></trkpt>
    <trkpt lat="35.003849" lon="32.827241"><ele>594.8</ele><time>2025-12-01T11:04:20Z</time></trkpt>
    <trkpt lat="35.004840" lon="32.826748"><ele>595.0</ele><time>2025-12-01T11:04:35Z</time></trkpt>
    <trkpt lat="35.006094" lon="32.826606"><ele>591.0</ele><time>2025-12-01T11:04:50Z</time></trkpt>
    <trkpt lat="35.006547" lon="32.826425"><ele>589.0</ele><time>2025-12-01T11:04:55Z</time></trkpt>
    <trkpt lat="35.007656" lon="32.825960"><ele>580.6</ele><time>2025-12-01T11:05:06Z</time></trkpt>
    <trkpt lat="35.008223" lon="32.825872"><ele>575.4</ele><time>2025-12-01T11:05:11Z</time></trkpt>
    <trkpt lat="35.009987" lon="32.826085"><ele>561.2</ele><time>2025-12-01T11:05:25Z</time></trkpt>
    <trkpt lat="35.013360" lon="32.826320"><ele>531.6</ele><time>2025-12-01T11:05:49Z</time></trkpt>
    <trkpt lat="35.014160" lon="32.826082"><ele>525.0</ele><time>2025-12-01T11:05:55Z</time></trkpt>
    <trkpt lat="35.015424" lon="32.825349"><ele>513.4</ele><time>2025-12-01T11:06:05Z</time></trkpt>
    <trkpt lat="35.015554" lon="32.825299"><ele>512.6</ele><time>2025-12-01T11:06:06Z</time></trkpt>
    <trkpt lat="35.016320" lon="32.825214"><ele>508.2</ele><time>2025-12-01T11:06:12Z</time></trkpt>
    <trkpt lat="35.017508" lon="32.825445"><ele>503.0</ele><time>2025-12-01T11:06:22Z</time></trkpt>
    <trkpt lat="35.019921" lon="32.826588"><ele>489.2</ele><time>2025-12-01T11:06:43Z</time></trkpt>
    <trkpt lat="35.021453" lon="32.826758"><ele>479.4</ele><time>2025-12-01T11:06:55Z</time></trkpt>
    <trkpt lat="35.022392" lon="32.826811"><ele>476.6</ele><time>2025-12-01T11:07:03Z</time></trkpt>
    <trkpt lat="35.024339" lon="32.826413"><ele>473.0</ele><time>2025-12-01T11:07:22Z</time></trkpt>
    <trkpt lat="35.025180" lon="32.826397"><ele>471.2</ele><time>2025-12-01T11:07:30Z</time></trkpt>
    <trkpt lat="35.026809" lon="32.826137"><ele>461.2</ele><time>2025-12-01T11:07:44Z</time></trkpt>
    <trkpt lat="35.027626" lon="32.826179"><ele>457.2</ele><time>2025-12-01T11:07:51Z</time></trkpt>
    <trkpt lat="35.028163" lon="32.826190"><ele>455.6</ele><time>2025-12-01T11:07:56Z</time></trkpt>
    <trkpt lat="35.030300" lon="32.824816"><ele>447.6</ele><time>2025-12-01T11:08:17Z</time></trkpt>
    <trkpt lat="35.031554" lon="32.824300"><ele>443.8</ele><time>2025-12-01T11:08:29Z</time></trkpt>
    <trkpt lat="35.033413" lon="32.823517"><ele>433.6</ele><time>2025-12-01T11:08:47Z</time></trkpt>
    <trkpt lat="35.033735" lon="32.823472"><ele>431.8</ele><time>2025-12-01T11:08:50Z</time></trkpt>
    <trkpt lat="35.034192" lon="32.823812"><ele>430.2</ele><time>2025-12-01T11:08:55Z</time></trkpt>
    <trkpt lat="35.034535" lon="32.823785"><ele>428.2</ele><time>2025-12-01T11:08:58Z</time></trkpt>
    <trkpt lat="35.035276" lon="32.823038"><ele>421.4</ele><time>2025-12-01T11:09:06Z</time></trkpt>
    <trkpt lat="35.035915" lon="32.822807"><ele>416.0</ele><time>2025-12-01T11:09:12Z</time></trkpt>
    <trkpt lat="35.036309" lon="32.822457"><ele>411.4</ele><time>2025-12-01T11:09:18Z</time></trkpt>
    <trkpt lat="35.036373" lon="32.822493"><ele>410.8</ele><time>2025-12-01T11:09:19Z</time></trkpt>
    <trkpt lat="35.036470" lon="32.822710"><ele>410.8</ele><time>2025-12-01T11:09:22Z</time></trkpt>
    <trkpt lat="35.036620" lon="32.823561"><ele>412.0</ele><time>2025-12-01T11:09:33Z</time></trkpt>
    <trkpt lat="35.037241" lon="32.824090"><ele>412.4</ele><time>2025-12-01T11:09:44Z</time></trkpt>
    <trkpt lat="35.037648" lon="32.824419"><ele>410.8</ele><time>2025-12-01T11:09:50Z</time></trkpt>
    <trkpt lat="35.038310" lon="32.824543"><ele>407.8</ele><time>2025-12-01T11:09:57Z</time></trkpt>
    <trkpt lat="35.039122" lon="32.824281"><ele>405.4</ele><time>2025-12-01T11:10:06Z</time></trkpt>
    <trkpt lat="35.039732" lon="32.824510"><ele>404.2</ele><time>2025-12-01T11:10:13Z</time></trkpt>
    <trkpt lat="35.040443" lon="32.824361"><ele>402.8</ele><time>2025-12-01T11:10:21Z</time></trkpt>
    <trkpt lat="35.040889" lon="32.824518"><ele>401.6</ele><time>2025-12-01T11:10:26Z</time></trkpt>
    <trkpt lat="35.041579" lon="32.824504"><ele>399.4</ele><time>2025-12-01T11:10:33Z</time></trkpt>
    <trkpt lat="35.042466" lon="32.824787"><ele>396.2</ele><time>2025-12-01T11:10:42Z</time></trkpt>
    <trkpt lat="35.043515" lon="32.825329"><ele>389.8</ele><time>2025-12-01T11:10:52Z</time></trkpt>
    <trkpt lat="35.045276" lon="32.827061"><ele>377.6</ele><time>2025-12-01T11:11:10Z</time></trkpt>
    <trkpt lat="35.046298" lon="32.827512"><ele>373.0</ele><time>2025-12-01T11:11:19Z</time></trkpt>
    <trkpt lat="35.048152" lon="32.829212"><ele>362.4</ele><time>2025-12-01T11:11:39Z</time></trkpt>
    <trkpt lat="35.049092" lon="32.830640"><ele>354.8</ele><time>2025-12-01T11:11:51Z</time></trkpt>
    <trkpt lat="35.049198" lon="32.830729"><ele>354.2</ele><time>2025-12-01T11:11:52Z</time></trkpt>
    <trkpt lat="35.050753" lon="32.831442"><ele>350.0</ele><time>2025-12-01T11:12:06Z</time></trkpt>
    <trkpt lat="35.051049" lon="32.831809"><ele>349.0</ele><time>2025-12-01T11:12:10Z</time></trkpt>
    <trkpt lat="35.051366" lon="32.832800"><ele>347.2</ele><time>2025-12-01T11:12:20Z</time></trkpt>
    <trkpt lat="35.051743" lon="32.833414"><ele>344.8</ele><time>2025-12-01T11:12:27Z</time></trkpt>
    <trkpt lat="35.053146" lon="32.834513"><ele>336.4</ele><time>2025-12-01T11:12:44Z</time></trkpt>
    <trkpt lat="35.053685" lon="32.834895"><ele>332.2</ele><time>2025-12-01T11:12:50Z</time></trkpt>
    <trkpt lat="35.055825" lon="32.835813"><ele>314.2</ele><time>2025-12-01T11:13:07Z</time></trkpt>
    <trkpt lat="35.056042" lon="32.836003"><ele>312.4</ele><time>2025-12-01T11:13:09Z</time></trkpt>
    <trkpt lat="35.056872" lon="32.837086"><ele>317.2</ele><time>2025-12-01T11:13:36Z</time></trkpt>
    <trkpt lat="35.056725" lon="32.836875"><ele>317.2</ele><time>2025-12-01T11:13:42Z</time></trkpt>
    <trkpt lat="35.055690" lon="32.835741"><ele>310.0</ele><time>2025-12-01T11:14:00Z</time></trkpt>
    <trkpt lat="35.055767" lon="32.835588"><ele>309.8</ele><time>2025-12-01T11:14:04Z</time></trkpt>
    <trkpt lat="35.056512" lon="32.835541"><ele>307.2</ele><time>2025-12-01T11:14:14Z</time></trkpt>
    <trkpt lat="35.057706" lon="32.836136"><ele>300.0</ele><time>2025-12-01T11:14:26Z</time></trkpt>
    <trkpt lat="35.059109" lon="32.836489"><ele>295.6</ele><time>2025-12-01T11:14:40Z</time></trkpt>
    <trkpt lat="35.060231" lon="32.837229"><ele>293.0</ele><time>2025-12-01T11:14:55Z</time></trkpt>
    <trkpt lat="35.060328" lon="32.837240"><ele>292.8</ele><time>2025-12-01T11:14:56Z</time></trkpt>
    <trkpt lat="35.061441" lon="32.836886"><ele>294.0</ele><time>2025-12-01T11:15:11Z</time></trkpt>
    <trkpt lat="35.062910" lon="32.837297"><ele>296.6</ele><time>2025-12-01T11:15:37Z</time></trkpt>
    <trkpt lat="35.063223" lon="32.837170"><ele>297.2</ele><time>2025-12-01T11:15:43Z</time></trkpt>
    <trkpt lat="35.064627" lon="32.835841"><ele>297.8</ele><time>2025-12-01T11:16:12Z</time></trkpt>
    <trkpt lat="35.065059" lon="32.835707"><ele>297.0</ele><time>2025-12-01T11:16:18Z</time></trkpt>
    <trkpt lat="35.065140" lon="32.835721"><ele>296.8</ele><time>2025-12-01T11:16:19Z</time></trkpt>
    <trkpt lat="35.065457" lon="32.835886"><ele>295.4</ele><time>2025-12-01T11:16:23Z</time></trkpt>
    <trkpt lat="35.066494" lon="32.837028"><ele>287.0</ele><time>2025-12-01T11:16:36Z</time></trkpt>
    <trkpt lat="35.067141" lon="32.837146"><ele>283.4</ele><time>2025-12-01T11:16:42Z</time></trkpt>
    <trkpt lat="35.067236" lon="32.837190"><ele>283.0</ele><time>2025-12-01T11:16:43Z</time></trkpt>
    <trkpt lat="35.067720" lon="32.837567"><ele>281.8</ele><time>2025-12-01T11:16:49Z</time></trkpt>
    <trkpt lat="35.068163" lon="32.837499"><ele>281.2</ele><time>2025-12-01T11:16:54Z</time></trkpt>
    <trkpt lat="35.068468" lon="32.837173"><ele>280.6</ele><time>2025-12-01T11:16:59Z</time></trkpt>
    <trkpt lat="35.069094" lon="32.837650"><ele>278.4</ele><time>2025-12-01T11:17:07Z</time></trkpt>
    <trkpt lat="35.069408" lon="32.837664"><ele>276.4</ele><time>2025-12-01T11:17:10Z</time></trkpt>
    <trkpt lat="35.069954" lon="32.837485"><ele>271.8</ele><time>2025-12-01T11:17:15Z</time></trkpt>
    <trkpt lat="35.070274" lon="32.837051"><ele>266.6</ele><time>2025-12-01T11:17:20Z</time></trkpt>
    <trkpt lat="35.070782" lon="32.837392"><ele>261.8</ele><time>2025-12-01T11:17:26Z</time></trkpt>
    <trkpt lat="35.071366" lon="32.837182"><ele>256.0</ele><time>2025-12-01T11:17:32Z</time></trkpt>
    <trkpt lat="35.071823" lon="32.837323"><ele>252.4</ele><time>2025-12-01T11:17:36Z</time></trkpt>
    <trkpt lat="35.072361" lon="32.837481"><ele>249.6</ele><time>2025-12-01T11:17:41Z</time></trkpt>
    <trkpt lat="35.072759" lon="32.837763"><ele>247.0</ele><time>2025-12-01T11:17:46Z</time></trkpt>
    <trkpt lat="35.073474" lon="32.837380"><ele>242.2</ele><time>2025-12-01T11:17:54Z</time></trkpt>
    <trkpt lat="35.075297" lon="32.837751"><ele>226.4</ele><time>2025-12-01T11:18:15Z</time></trkpt>
    <trkpt lat="35.075356" lon="32.837788"><ele>225.8</ele><time>2025-12-01T11:18:17Z</time></trkpt>
    <trkpt lat="35.076011" lon="32.838077"><ele>224.8</ele><time>2025-12-01T11:22:42Z</time></trkpt>
    <trkpt lat="35.077289" lon="32.837875"><ele>223.0</ele><time>2025-12-01T11:23:11Z</time></trkpt>
    <trkpt lat="35.078942" lon="32.838369"><ele>219.0</ele><time>2025-12-01T11:23:34Z</time></trkpt>
    <trkpt lat="35.079891" lon="32.839385"><ele>217.2</ele><time>2025-12-01T11:23:51Z</time></trkpt>
    <trkpt lat="35.081247" lon="32.840070"><ele>216.2</ele><time>2025-12-01T11:24:12Z</time></trkpt>
    <trkpt lat="35.081799" lon="32.840146"><ele>215.6</ele><time>2025-12-01T11:24:20Z</time></trkpt>
    <trkpt lat="35.082816" lon="32.839867"><ele>216.0</ele><time>2025-12-01T11:24:46Z</time></trkpt>
    <trkpt lat="35.083346" lon="32.840366"><ele>215.8</ele><time>2025-12-01T11:29:02Z</time></trkpt>
    <trkpt lat="35.083751" lon="32.840844"><ele>212.8</ele><time>2025-12-01T11:29:12Z</time></trkpt>
    <trkpt lat="35.084900" lon="32.840937"><ele>206.8</ele><time>2025-12-01T11:29:25Z</time></trkpt>
    <trkpt lat="35.086458" lon="32.841499"><ele>200.6</ele><time>2025-12-01T11:29:43Z</time></trkpt>
    <trkpt lat="35.087029" lon="32.842057"><ele>198.0</ele><time>2025-12-01T11:29:51Z</time></trkpt>
    <trkpt lat="35.088205" lon="32.842508"><ele>194.6</ele><time>2025-12-01T11:30:05Z</time></trkpt>
    <trkpt lat="35.089832" lon="32.843269"><ele>197.0</ele><time>2025-12-01T11:30:33Z</time></trkpt>
    <trkpt lat="35.090335" lon="32.843326"><ele>194.6</ele><time>2025-12-01T11:30:40Z</time></trkpt>
    <trkpt lat="35.090728" lon="32.843012"><ele>193.4</ele><time>2025-12-01T11:30:47Z</time></trkpt>
    <trkpt lat="35.091055" lon="32.843010"><ele>192.8</ele><time>2025-12-01T11:30:52Z</time></trkpt>
    <trkpt lat="35.092364" lon="32.844313"><ele>193.0</ele><time>2025-12-01T11:31:21Z</time></trkpt>
    <trkpt lat="35.093120" lon="32.844613"><ele>195.8</ele><time>2025-12-01T11:31:39Z</time></trkpt>
    <trkpt lat="35.093290" lon="32.844621"><ele>195.8</ele><time>2025-12-01T11:31:42Z</time></trkpt>
    <trkpt lat="35.094152" lon="32.844618"><ele>192.0</ele><time>2025-12-01T11:31:54Z</time></trkpt>
    <trkpt lat="35.094710" lon="32.844966"><ele>190.2</ele><time>2025-12-01T11:32:02Z</time></trkpt>
    <trkpt lat="35.095449" lon="32.845707"><ele>190.0</ele><time>2025-12-01T11:32:17Z</time></trkpt>
    <trkpt lat="35.097188" lon="32.845211"><ele>188.4</ele><time>2025-12-01T11:32:44Z</time></trkpt>
    <trkpt lat="35.099065" lon="32.845648"><ele>186.6</ele><time>2025-12-01T11:33:12Z</time></trkpt>
    <trkpt lat="35.099195" lon="32.845667"><ele>186.2</ele><time>2025-12-01T11:33:14Z</time></trkpt>
    <trkpt lat="35.099565" lon="32.845142"><ele>183.8</ele><time>2025-12-01T11:33:23Z</time></trkpt>
    <trkpt lat="35.100074" lon="32.845083"><ele>179.8</ele><time>2025-12-01T11:33:29Z</time></trkpt>
    <trkpt lat="35.100244" lon="32.845296"><ele>178.8</ele><time>2025-12-01T11:33:32Z</time></trkpt>
    <trkpt lat="35.100468" lon="32.846272"><ele>173.0</ele><time>2025-12-01T11:33:42Z</time></trkpt>
    <trkpt lat="35.101297" lon="32.846685"><ele>168.0</ele><time>2025-12-01T11:33:51Z</time></trkpt>
    <trkpt lat="35.102155" lon="32.848322"><ele>158.0</ele><time>2025-12-01T11:34:08Z</time></trkpt>
    <trkpt lat="35.102767" lon="32.848217"><ele>154.2</ele><time>2025-12-01T11:34:16Z</time></trkpt>
    <trkpt lat="35.103083" lon="32.848223"><ele>153.6</ele><time>2025-12-01T11:34:20Z</time></trkpt>
    <trkpt lat="35.103743" lon="32.848947"><ele>153.6</ele><time>2025-12-01T11:34:33Z</time></trkpt>
    <trkpt lat="35.104111" lon="32.849137"><ele>153.6</ele><time>2025-12-01T11:34:39Z</time></trkpt>
    <trkpt lat="35.106769" lon="32.848956"><ele>151.2</ele><time>2025-12-01T11:35:17Z</time></trkpt>
    <trkpt lat="35.108025" lon="32.849813"><ele>153.2</ele><time>2025-12-01T11:35:42Z</time></trkpt>
    <trkpt lat="35.108248" lon="32.849806"><ele>153.2</ele><time>2025-12-01T11:35:46Z</time></trkpt>
    <trkpt lat="35.109100" lon="32.849553"><ele>149.2</ele><time>2025-12-01T11:35:58Z</time></trkpt>
    <trkpt lat="35.111469" lon="32.849791"><ele>137.4</ele><time>2025-12-01T11:36:25Z</time></trkpt>
    <trkpt lat="35.114543" lon="32.849522"><ele>119.4</ele><time>2025-12-01T11:37:10Z</time></trkpt>
    <trkpt lat="35.115628" lon="32.848756"><ele>114.0</ele><time>2025-12-01T11:37:24Z</time></trkpt>
    <trkpt lat="35.116115" lon="32.848586"><ele>111.2</ele><time>2025-12-01T11:37:30Z</time></trkpt>
    <trkpt lat="35.116758" lon="32.848892"><ele>106.6</ele><time>2025-12-01T11:37:37Z</time></trkpt>
    <trkpt lat="35.116971" lon="32.849140"><ele>105.2</ele><time>2025-12-01T11:37:40Z</time></trkpt>
    <trkpt lat="35.117513" lon="32.849857"><ele>105.4</ele><time>2025-12-01T11:37:50Z</time></trkpt>
    <trkpt lat="35.117938" lon="32.850063"><ele>106.0</ele><time>2025-12-01T11:38:02Z</time></trkpt>
    <trkpt lat="35.117863" lon="32.850316"><ele>106.0</ele><time>2025-12-01T11:38:25Z</time></trkpt>
    <trkpt lat="35.116690" lon="32.848838"><ele>103.8</ele><time>2025-12-01T11:38:58Z</time></trkpt>
    <trkpt lat="35.116017" lon="32.848566"><ele>107.2</ele><time>2025-12-01T11:39:17Z</time></trkpt>
    <trkpt lat="35.116219" lon="32.848395"><ele>107.2</ele><time>2025-12-01T11:39:22Z</time></trkpt>
    <trkpt lat="35.118704" lon="32.846333"><ele>89.8</ele><time>2025-12-01T11:40:00Z</time></trkpt>
    <trkpt lat="35.118715" lon="32.846344"><ele>89.6</ele><time>2025-12-01T11:40:01Z</time></trkpt>
    <trkpt lat="35.116090" lon="32.848543"><ele>104.6</ele><time>2025-12-01T11:42:20Z</time></trkpt>
    <trkpt lat="35.116106" lon="32.848587"><ele>105.2</ele><time>2025-12-01T11:42:22Z</time></trkpt>
    <trkpt lat="35.116750" lon="32.848880"><ele>103.6</ele><time>2025-12-01T11:42:34Z</time></trkpt>
    <trkpt lat="35.117745" lon="32.849992"><ele>104.0</ele><time>2025-12-01T11:42:56Z</time></trkpt>
    <trkpt lat="35.117912" lon="32.849983"><ele>104.6</ele><time>2025-12-01T11:43:01Z</time></trkpt>
    <trkpt lat="35.118208" lon="32.849506"><ele>106.0</ele><time>2025-12-01T11:43:35Z</time></trkpt>
    <trkpt lat="35.117998" lon="32.849962"><ele>105.2</ele><time>2025-12-01T11:45:28Z</time></trkpt>
    <trkpt lat="35.118026" lon="32.850353"><ele>104.8</ele><time>2025-12-01T11:45:34Z</time></trkpt>
    <trkpt lat="35.118051" lon="32.850426"><ele>104.6</ele><time>2025-12-01T11:45:35Z</time></trkpt>
    <trkpt lat="35.118878" lon="32.851300"><ele>100.0</ele><time>2025-12-01T11:45:50Z</time></trkpt>
    <trkpt lat="35.119368" lon="32.851600"><ele>96.2</ele><time>2025-12-01T11:45:56Z</time></trkpt>
    <trkpt lat="35.119645" lon="32.851565"><ele>95.0</ele><time>2025-12-01T11:45:59Z</time></trkpt>
    <trkpt lat="35.119874" lon="32.851427"><ele>95.0</ele><time>2025-12-01T11:46:02Z</time></trkpt>
    <trkpt lat="35.120298" lon="32.850792"><ele>97.6</ele><time>2025-12-01T11:46:13Z</time></trkpt>
    <trkpt lat="35.120273" lon="32.850315"><ele>100.2</ele><time>2025-12-01T11:46:22Z</time></trkpt>
    <trkpt lat="35.120089" lon="32.850024"><ele>100.2</ele><time>2025-12-01T11:46:27Z</time></trkpt>
    <trkpt lat="35.119943" lon="32.849822"><ele>99.4</ele><time>2025-12-01T11:46:30Z</time></trkpt>
    <trkpt lat="35.119911" lon="32.849542"><ele>98.2</ele><time>2025-12-01T11:46:33Z</time></trkpt>
    <trkpt lat="35.121101" lon="32.846802"><ele>81.8</ele><time>2025-12-01T11:46:57Z</time></trkpt>
    <trkpt lat="35.122182" lon="32.845766"><ele>74.0</ele><time>2025-12-01T11:47:08Z</time></trkpt>
    <trkpt lat="35.122863" lon="32.844945"><ele>71.2</ele><time>2025-12-01T11:47:17Z</time></trkpt>
    <trkpt lat="35.124135" lon="32.842983"><ele>67.0</ele><time>2025-12-01T11:47:39Z</time></trkpt>
    <trkpt lat="35.125158" lon="32.841443"><ele>55.8</ele><time>2025-12-01T11:47:54Z</time></trkpt>
    <trkpt lat="35.126708" lon="32.839667"><ele>42.8</ele><time>2025-12-01T11:48:13Z</time></trkpt>
    <trkpt lat="35.128396" lon="32.837791"><ele>40.0</ele><time>2025-12-01T11:48:40Z</time></trkpt>
    <trkpt lat="35.130155" lon="32.836736"><ele>34.4</ele><time>2025-12-01T11:49:04Z</time></trkpt>
    <trkpt lat="35.130467" lon="32.836252"><ele>32.6</ele><time>2025-12-01T11:49:32Z</time></trkpt>
    <trkpt lat="35.131047" lon="32.836265"><ele>32.0</ele><time>2025-12-01T11:49:45Z</time></trkpt>
    <trkpt lat="35.133621" lon="32.834899"><ele>26.2</ele><time>2025-12-01T11:50:23Z</time></trkpt>
    <trkpt lat="35.135097" lon="32.833816"><ele>22.8</ele><time>2025-12-01T11:50:43Z</time></trkpt>
    <trkpt lat="35.135529" lon="32.833737"><ele>21.8</ele><time>2025-12-01T11:50:49Z</time></trkpt>
    <trkpt lat="35.136046" lon="32.834015"><ele>20.8</ele><time>2025-12-01T11:50:57Z</time></trkpt>
    <trkpt lat="35.136520" lon="32.834053"><ele>19.4</ele><time>2025-12-01T11:51:03Z</time></trkpt>
    <trkpt lat="35.141451" lon="32.833836"><ele>7.6</ele><time>2025-12-01T11:52:19Z</time></trkpt>
    <trkpt lat="35.141487" lon="32.833847"><ele>7.4</ele><time>2025-12-01T11:52:22Z</time></trkpt>
    <trkpt lat="35.141675" lon="32.835999"><ele>9.2</ele><time>2025-12-01T11:53:15Z</time></trkpt>
    <trkpt lat="35.142827" lon="32.839166"><ele>8.6</ele><time>2025-12-01T11:53:59Z</time></trkpt>
    <trkpt lat="35.144643" lon="32.842752"><ele>7.6</ele><time>2025-12-01T11:54:48Z</time></trkpt>
    <trkpt lat="35.146379" lon="32.845707"><ele>7.8</ele><time>2025-12-01T11:55:33Z</time></trkpt>
    <trkpt lat="35.147708" lon="32.851065"><ele>8.0</ele><time>2025-12-01T11:59:48Z</time></trkpt>
    <trkpt lat="35.148333" lon="32.852950"><ele>7.6</ele><time>2025-12-01T12:00:12Z</time></trkpt>
    <trkpt lat="35.149156" lon="32.854644"><ele>8.0</ele><time>2025-12-01T12:00:35Z</time></trkpt>
    <trkpt lat="35.152010" lon="32.859237"><ele>6.0</ele><time>2025-12-01T12:01:45Z</time></trkpt>
    <trkpt lat="35.152824" lon="32.861912"><ele>6.0</ele><time>2025-12-01T12:02:20Z</time></trkpt>
    <trkpt lat="35.153381" lon="32.864140"><ele>6.6</ele><time>2025-12-01T12:02:50Z</time></trkpt>
    <trkpt lat="35.154229" lon="32.867702"><ele>13.6</ele><time>2025-12-01T12:03:47Z</time></trkpt>
    <trkpt lat="35.153989" lon="32.871522"><ele>18.6</ele><time>2025-12-01T12:04:49Z</time></trkpt>
    <trkpt lat="35.154048" lon="32.872318"><ele>19.4</ele><time>2025-12-01T12:05:00Z</time></trkpt>
    <trkpt lat="35.154331" lon="32.875564"><ele>20.2</ele><time>2025-12-01T12:05:45Z</time></trkpt>
    <trkpt lat="35.153686" lon="32.877467"><ele>20.4</ele><time>2025-12-01T12:06:12Z</time></trkpt>
    <trkpt lat="35.153632" lon="32.878666"><ele>20.8</ele><time>2025-12-01T12:06:28Z</time></trkpt>
    <trkpt lat="35.153987" lon="32.880785"><ele>22.4</ele><time>2025-12-01T12:06:57Z</time></trkpt>
    <trkpt lat="35.155417" lon="32.885460"><ele>24.0</ele><time>2025-12-01T12:08:04Z</time></trkpt>
    <trkpt lat="35.156655" lon="32.891765"><ele>26.0</ele><time>2025-12-01T12:09:29Z</time></trkpt>
    <trkpt lat="35.156685" lon="32.891922"><ele>26.0</ele><time>2025-12-01T12:09:31Z</time></trkpt>
    <trkpt lat="35.157717" lon="32.896437"><ele>24.4</ele><time>2025-12-01T12:10:28Z</time></trkpt>
    <trkpt lat="35.158959" lon="32.898456"><ele>23.8</ele><time>2025-12-01T12:10:59Z</time></trkpt>
    <trkpt lat="35.165078" lon="32.906035"><ele>23.2</ele><time>2025-12-01T12:13:11Z</time></trkpt>
    <trkpt lat="35.165694" lon="32.906985"><ele>22.6</ele><time>2025-12-01T12:13:25Z</time></trkpt>
    <trkpt lat="35.166527" lon="32.907762"><ele>20.2</ele><time>2025-12-01T12:13:38Z</time></trkpt>
    <trkpt lat="35.167741" lon="32.909707"><ele>17.8</ele><time>2025-12-01T12:14:02Z</time></trkpt>
    <trkpt lat="35.168242" lon="32.912411"><ele>17.2</ele><time>2025-12-01T12:14:30Z</time></trkpt>
    <trkpt lat="35.169138" lon="32.914333"><ele>17.2</ele><time>2025-12-01T12:14:54Z</time></trkpt>
    <trkpt lat="35.169635" lon="32.916258"><ele>19.0</ele><time>2025-12-01T12:15:17Z</time></trkpt>
    <trkpt lat="35.170674" lon="32.918340"><ele>19.2</ele><time>2025-12-01T12:15:44Z</time></trkpt>
    <trkpt lat="35.170778" lon="32.921083"><ele>17.2</ele><time>2025-12-01T12:16:11Z</time></trkpt>
    <trkpt lat="35.170830" lon="32.921270"><ele>17.2</ele><time>2025-12-01T12:16:13Z</time></trkpt>
    <trkpt lat="35.171689" lon="32.922988"><ele>19.0</ele><time>2025-12-01T12:16:35Z</time></trkpt>
    <trkpt lat="35.172584" lon="32.925588"><ele>21.6</ele><time>2025-12-01T12:17:08Z</time></trkpt>
    <trkpt lat="35.173221" lon="32.928640"><ele>20.4</ele><time>2025-12-01T12:17:41Z</time></trkpt>
    <trkpt lat="35.173799" lon="32.930475"><ele>20.8</ele><time>2025-12-01T12:18:03Z</time></trkpt>
    <trkpt lat="35.175525" lon="32.932783"><ele>24.6</ele><time>2025-12-01T12:18:46Z</time></trkpt>
    <trkpt lat="35.176006" lon="32.933530"><ele>24.6</ele><time>2025-12-01T12:18:58Z</time></trkpt>
    <trkpt lat="35.176674" lon="32.936946"><ele>25.0</ele><time>2025-12-01T12:19:42Z</time></trkpt>
    <trkpt lat="35.177703" lon="32.938721"><ele>25.4</ele><time>2025-12-01T12:20:10Z</time></trkpt>
    <trkpt lat="35.177737" lon="32.940424"><ele>23.2</ele><time>2025-12-01T12:20:29Z</time></trkpt>
    <trkpt lat="35.177964" lon="32.941187"><ele>22.8</ele><time>2025-12-01T12:20:38Z</time></trkpt>
    <trkpt lat="35.178725" lon="32.942338"><ele>22.6</ele><time>2025-12-01T12:20:55Z</time></trkpt>
    <trkpt lat="35.179742" lon="32.943289"><ele>22.8</ele><time>2025-12-01T12:21:15Z</time></trkpt>
    <trkpt lat="35.180056" lon="32.943619"><ele>23.4</ele><time>2025-12-01T12:21:22Z</time></trkpt>
    <trkpt lat="35.181052" lon="32.945269"><ele>26.0</ele><time>2025-12-01T12:21:52Z</time></trkpt>
    <trkpt lat="35.181886" lon="32.948706"><ele>27.4</ele><time>2025-12-01T12:22:37Z</time></trkpt>
    <trkpt lat="35.183207" lon="32.951814"><ele>28.6</ele><time>2025-12-01T12:23:21Z</time></trkpt>
    <trkpt lat="35.183743" lon="32.953943"><ele>29.8</ele><time>2025-12-01T12:23:54Z</time></trkpt>
    <trkpt lat="35.185762" lon="32.958954"><ele>32.0</ele><time>2025-12-01T12:25:08Z</time></trkpt>
    <trkpt lat="35.186932" lon="32.961020"><ele>34.6</ele><time>2025-12-01T12:25:40Z</time></trkpt>
    <trkpt lat="35.187235" lon="32.962648"><ele>35.4</ele><time>2025-12-01T12:26:01Z</time></trkpt>
    <trkpt lat="35.186955" lon="32.964848"><ele>36.2</ele><time>2025-12-01T12:26:29Z</time></trkpt>
    <trkpt lat="35.187268" lon="32.965129"><ele>36.4</ele><time>2025-12-01T12:26:36Z</time></trkpt>
    <trkpt lat="35.188225" lon="32.967700"><ele>38.0</ele><time>2025-12-01T12:27:14Z</time></trkpt>
    <trkpt lat="35.189012" lon="32.968894"><ele>38.8</ele><time>2025-12-01T12:27:34Z</time></trkpt>
    <trkpt lat="35.189645" lon="32.970544"><ele>40.2</ele><time>2025-12-01T12:27:57Z</time></trkpt>
    <trkpt lat="35.190251" lon="32.973290"><ele>43.4</ele><time>2025-12-01T12:28:36Z</time></trkpt>
    <trkpt lat="35.190717" lon="32.975160"><ele>43.2</ele><time>2025-12-01T12:29:01Z</time></trkpt>
    <trkpt lat="35.192742" lon="32.979769"><ele>44.0</ele><time>2025-12-01T12:30:05Z</time></trkpt>
    <trkpt lat="35.193637" lon="32.981388"><ele>43.6</ele><time>2025-12-01T12:30:27Z</time></trkpt>
    <trkpt lat="35.196555" lon="32.985711"><ele>46.4</ele><time>2025-12-01T12:31:40Z</time></trkpt>
    <trkpt lat="35.197272" lon="32.986509"><ele>47.0</ele><time>2025-12-01T12:32:04Z</time></trkpt>
    <trkpt lat="35.197297" lon="32.986553"><ele>47.0</ele><time>2025-12-01T12:32:05Z</time></trkpt>
    <trkpt lat="35.198048" lon="32.988031"><ele>46.6</ele><time>2025-12-01T12:32:36Z</time></trkpt>
    <trkpt lat="35.198552" lon="32.988631"><ele>46.4</ele><time>2025-12-01T12:32:50Z</time></trkpt>
    <trkpt lat="35.198664" lon="32.989135"><ele>46.4</ele><time>2025-12-01T12:32:59Z</time></trkpt>
    <trkpt lat="35.200070" lon="32.990104"><ele>45.6</ele><time>2025-12-01T12:33:28Z</time></trkpt>
    <trkpt lat="35.200399" lon="32.990054"><ele>45.4</ele><time>2025-12-01T12:33:34Z</time></trkpt>
    <trkpt lat="35.201001" lon="32.989560"><ele>44.6</ele><time>2025-12-01T12:33:49Z</time></trkpt>
    <trkpt lat="35.201333" lon="32.989767"><ele>44.2</ele><time>2025-12-01T12:33:58Z</time></trkpt>
    <trkpt lat="35.201074" lon="32.990756"><ele>44.8</ele><time>2025-12-01T12:34:30Z</time></trkpt>
    <trkpt lat="35.201474" lon="32.991278"><ele>44.4</ele><time>2025-12-01T12:34:43Z</time></trkpt>
    <trkpt lat="35.201295" lon="32.991654"><ele>44.2</ele><time>2025-12-01T12:34:51Z</time></trkpt>
    <trkpt lat="35.201082" lon="32.991648"><ele>44.2</ele><time>2025-12-01T12:35:14Z</time></trkpt>
    <trkpt lat="35.201279" lon="32.991670"><ele>44.4</ele><time>2025-12-01T13:10:35Z</time></trkpt>
    <trkpt lat="35.201536" lon="32.991242"><ele>44.4</ele><time>2025-12-01T13:10:50Z</time></trkpt>
    <trkpt lat="35.202518" lon="32.992060"><ele>41.6</ele><time>2025-12-01T13:11:11Z</time></trkpt>
    <trkpt lat="35.203073" lon="32.995036"><ele>40.8</ele><time>2025-12-01T13:11:52Z</time></trkpt>
    <trkpt lat="35.203246" lon="32.995385"><ele>41.4</ele><time>2025-12-01T13:11:58Z</time></trkpt>
    <trkpt lat="35.206608" lon="32.998438"><ele>50.2</ele><time>2025-12-01T13:13:15Z</time></trkpt>
    <trkpt lat="35.207221" lon="32.999204"><ele>52.2</ele><time>2025-12-01T13:13:33Z</time></trkpt>
    <trkpt lat="35.208012" lon="33.000055"><ele>52.0</ele><time>2025-12-01T13:13:51Z</time></trkpt>
    <trkpt lat="35.215893" lon="33.004454"><ele>47.0</ele><time>2025-12-01T13:16:06Z</time></trkpt>
    <trkpt lat="35.218586" lon="33.006396"><ele>43.4</ele><time>2025-12-01T13:16:53Z</time></trkpt>
    <trkpt lat="35.224115" lon="33.010191"><ele>48.0</ele><time>2025-12-01T13:18:43Z</time></trkpt>
    <trkpt lat="35.228139" lon="33.012960"><ele>64.0</ele><time>2025-12-01T13:20:26Z</time></trkpt>
    <trkpt lat="35.229413" lon="33.014004"><ele>67.2</ele><time>2025-12-01T13:20:59Z</time></trkpt>
    <trkpt lat="35.230806" lon="33.015527"><ele>71.4</ele><time>2025-12-01T13:21:37Z</time></trkpt>
    <trkpt lat="35.239909" lon="33.025427"><ele>76.2</ele><time>2025-12-01T13:25:07Z</time></trkpt>
    <trkpt lat="35.240213" lon="33.025726"><ele>76.6</ele><time>2025-12-01T13:25:14Z</time></trkpt>
    <trkpt lat="35.240915" lon="33.026426"><ele>78.8</ele><time>2025-12-01T13:25:31Z</time></trkpt>
    <trkpt lat="35.241355" lon="33.026633"><ele>80.4</ele><time>2025-12-01T13:25:41Z</time></trkpt>
    <trkpt lat="35.241603" lon="33.027159"><ele>81.6</ele><time>2025-12-01T13:25:52Z</time></trkpt>
    <trkpt lat="35.243271" lon="33.029018"><ele>95.4</ele><time>2025-12-01T13:27:04Z</time></trkpt>
    <trkpt lat="35.243639" lon="33.029664"><ele>101.0</ele><time>2025-12-01T13:27:34Z</time></trkpt>
    <trkpt lat="35.244676" lon="33.032428"><ele>120.8</ele><time>2025-12-01T13:29:26Z</time></trkpt>
    <trkpt lat="35.244591" lon="33.033906"><ele>129.4</ele><time>2025-12-01T13:30:18Z</time></trkpt>
    <trkpt lat="35.244930" lon="33.035108"><ele>137.2</ele><time>2025-12-01T13:30:58Z</time></trkpt>
    <trkpt lat="35.245030" lon="33.035248"><ele>138.2</ele><time>2025-12-01T13:31:03Z</time></trkpt>
    <trkpt lat="35.247278" lon="33.037475"><ele>138.6</ele><time>2025-12-01T13:31:59Z</time></trkpt>
    <trkpt lat="35.248226" lon="33.037748"><ele>139.6</ele><time>2025-12-01T13:32:19Z</time></trkpt>
    <trkpt lat="35.248787" lon="33.037521"><ele>140.2</ele><time>2025-12-01T13:32:31Z</time></trkpt>
    <trkpt lat="35.250446" lon="33.036679"><ele>146.4</ele><time>2025-12-01T13:33:16Z</time></trkpt>
    <trkpt lat="35.250741" lon="33.036093"><ele>147.0</ele><time>2025-12-01T13:33:28Z</time></trkpt>
    <trkpt lat="35.250723" lon="33.034600"><ele>150.4</ele><time>2025-12-01T13:33:54Z</time></trkpt>
    <trkpt lat="35.250733" lon="33.034539"><ele>150.6</ele><time>2025-12-01T13:33:55Z</time></trkpt>
    <trkpt lat="35.251052" lon="33.033547"><ele>149.8</ele><time>2025-12-01T13:34:11Z</time></trkpt>
    <trkpt lat="35.251772" lon="33.032411"><ele>146.4</ele><time>2025-12-01T13:34:28Z</time></trkpt>
    <trkpt lat="35.252603" lon="33.032350"><ele>143.0</ele><time>2025-12-01T13:34:37Z</time></trkpt>
    <trkpt lat="35.252710" lon="33.032369"><ele>142.4</ele><time>2025-12-01T13:34:38Z</time></trkpt>
    <trkpt lat="35.253228" lon="33.032602"><ele>139.0</ele><time>2025-12-01T13:34:43Z</time></trkpt>
    <trkpt lat="35.253595" lon="33.032981"><ele>135.2</ele><time>2025-12-01T13:34:47Z</time></trkpt>
    <trkpt lat="35.253948" lon="33.034354"><ele>128.4</ele><time>2025-12-01T13:34:56Z</time></trkpt>
    <trkpt lat="35.254358" lon="33.035042"><ele>124.2</ele><time>2025-12-01T13:35:01Z</time></trkpt>
    <trkpt lat="35.255076" lon="33.036609"><ele>114.0</ele><time>2025-12-01T13:35:11Z</time></trkpt>
    <trkpt lat="35.255113" lon="33.037127"><ele>110.6</ele><time>2025-12-01T13:35:14Z</time></trkpt>
    <trkpt lat="35.254752" lon="33.038918"><ele>100.0</ele><time>2025-12-01T13:35:24Z</time></trkpt>
    <trkpt lat="35.255123" lon="33.040570"><ele>89.0</ele><time>2025-12-01T13:35:33Z</time></trkpt>
    <trkpt lat="35.255416" lon="33.040896"><ele>87.4</ele><time>2025-12-01T13:35:36Z</time></trkpt>
    <trkpt lat="35.256136" lon="33.041205"><ele>87.4</ele><time>2025-12-01T13:35:43Z</time></trkpt>
    <trkpt lat="35.256570" lon="33.041364"><ele>88.6</ele><time>2025-12-01T13:35:49Z</time></trkpt>
    <trkpt lat="35.257105" lon="33.041464"><ele>90.4</ele><time>2025-12-01T13:35:58Z</time></trkpt>
    <trkpt lat="35.257648" lon="33.041267"><ele>92.0</ele><time>2025-12-01T13:36:11Z</time></trkpt>
    <trkpt lat="35.258858" lon="33.038311"><ele>114.2</ele><time>2025-12-01T13:38:07Z</time></trkpt>
    <trkpt lat="35.259171" lon="33.037986"><ele>117.2</ele><time>2025-12-01T13:38:27Z</time></trkpt>
    <trkpt lat="35.259843" lon="33.037731"><ele>122.4</ele><time>2025-12-01T13:39:01Z</time></trkpt>
    <trkpt lat="35.260107" lon="33.037881"><ele>124.0</ele><time>2025-12-01T13:39:14Z</time></trkpt>
    <trkpt lat="35.260426" lon="33.038416"><ele>127.0</ele><time>2025-12-01T13:39:35Z</time></trkpt>
    <trkpt lat="35.260465" lon="33.038512"><ele>127.2</ele><time>2025-12-01T13:39:38Z</time></trkpt>
    <trkpt lat="35.260713" lon="33.040116"><ele>129.4</ele><time>2025-12-01T13:40:14Z</time></trkpt>
    <trkpt lat="35.261895" lon="33.041443"><ele>132.2</ele><time>2025-12-01T13:40:48Z</time></trkpt>
    <trkpt lat="35.262713" lon="33.041668"><ele>135.2</ele><time>2025-12-01T13:41:07Z</time></trkpt>
    <trkpt lat="35.264581" lon="33.041655"><ele>139.6</ele><time>2025-12-01T13:41:47Z</time></trkpt>
    <trkpt lat="35.265164" lon="33.042121"><ele>141.0</ele><time>2025-12-01T13:42:04Z</time></trkpt>
    <trkpt lat="35.266134" lon="33.043339"><ele>145.0</ele><time>2025-12-01T13:42:37Z</time></trkpt>
    <trkpt lat="35.266645" lon="33.043629"><ele>144.6</ele><time>2025-12-01T13:42:48Z</time></trkpt>
    <trkpt lat="35.266975" lon="33.043519"><ele>143.8</ele><time>2025-12-01T13:42:53Z</time></trkpt>
    <trkpt lat="35.267436" lon="33.042444"><ele>147.0</ele><time>2025-12-01T13:43:15Z</time></trkpt>
    <trkpt lat="35.267636" lon="33.042344"><ele>147.6</ele><time>2025-12-01T13:43:20Z</time></trkpt>
    <trkpt lat="35.268183" lon="33.042359"><ele>147.6</ele><time>2025-12-01T13:43:31Z</time></trkpt>
    <trkpt lat="35.268696" lon="33.042650"><ele>146.8</ele><time>2025-12-01T13:43:41Z</time></trkpt>
    <trkpt lat="35.270413" lon="33.044320"><ele>144.8</ele><time>2025-12-01T13:44:16Z</time></trkpt>
    <trkpt lat="35.270662" lon="33.044230"><ele>143.6</ele><time>2025-12-01T13:44:19Z</time></trkpt>
    <trkpt lat="35.270723" lon="33.043856"><ele>143.0</ele><time>2025-12-01T13:44:23Z</time></trkpt>
    <trkpt lat="35.270602" lon="33.043462"><ele>143.0</ele><time>2025-12-01T13:44:29Z</time></trkpt>
    <trkpt lat="35.270335" lon="33.042330"><ele>149.0</ele><time>2025-12-01T13:44:57Z</time></trkpt>
    <trkpt lat="35.269776" lon="33.041543"><ele>154.4</ele><time>2025-12-01T13:45:26Z</time></trkpt>
    <trkpt lat="35.269594" lon="33.040755"><ele>159.0</ele><time>2025-12-01T13:45:50Z</time></trkpt>
    <trkpt lat="35.269739" lon="33.040464"><ele>160.2</ele><time>2025-12-01T13:46:01Z</time></trkpt>
    <trkpt lat="35.270696" lon="33.040082"><ele>165.8</ele><time>2025-12-01T13:46:37Z</time></trkpt>
    <trkpt lat="35.271358" lon="33.040153"><ele>169.2</ele><time>2025-12-01T13:46:59Z</time></trkpt>
    <trkpt lat="35.271389" lon="33.040167"><ele>169.4</ele><time>2025-12-01T13:47:00Z</time></trkpt>
    <trkpt lat="35.273044" lon="33.041196"><ele>172.4</ele><time>2025-12-01T13:47:53Z</time></trkpt>
    <trkpt lat="35.273621" lon="33.041373"><ele>174.0</ele><time>2025-12-01T13:50:06Z</time></trkpt>
    <trkpt lat="35.276054" lon="33.041121"><ele>182.4</ele><time>2025-12-01T13:51:02Z</time></trkpt>
    <trkpt lat="35.277530" lon="33.041390"><ele>184.6</ele><time>2025-12-01T13:51:31Z</time></trkpt>
    <trkpt lat="35.280237" lon="33.040435"><ele>190.6</ele><time>2025-12-01T13:52:30Z</time></trkpt>
    <trkpt lat="35.281559" lon="33.040977"><ele>194.4</ele><time>2025-12-01T13:53:01Z</time></trkpt>
    <trkpt lat="35.285111" lon="33.040715"><ele>203.0</ele><time>2025-12-01T13:54:19Z</time></trkpt>
    <trkpt lat="35.287230" lon="33.041391"><ele>206.8</ele><time>2025-12-01T13:55:03Z</time></trkpt>
    <trkpt lat="35.288262" lon="33.041182"><ele>210.0</ele><time>2025-12-01T13:55:25Z</time></trkpt>
    <trkpt lat="35.289203" lon="33.041094"><ele>211.2</ele><time>2025-12-01T13:55:45Z</time></trkpt>
    <trkpt lat="35.293916" lon="33.042497"><ele>218.0</ele><time>2025-12-01T13:57:18Z</time></trkpt>
    <trkpt lat="35.296110" lon="33.044022"><ele>222.4</ele><time>2025-12-01T13:58:09Z</time></trkpt>
    <trkpt lat="35.297488" lon="33.044633"><ele>223.6</ele><time>2025-12-01T13:58:36Z</time></trkpt>
    <trkpt lat="35.302145" lon="33.046076"><ele>229.2</ele><time>2025-12-01T13:59:56Z</time></trkpt>
    <trkpt lat="35.302494" lon="33.046121"><ele>229.8</ele><time>2025-12-01T14:02:20Z</time></trkpt>
    <trkpt lat="35.302614" lon="33.046043"><ele>231.0</ele><time>2025-12-01T14:02:28Z</time></trkpt>
    <trkpt lat="35.302712" lon="33.045950"><ele>231.2</ele><time>2025-12-01T14:02:37Z</time></trkpt>
    <trkpt lat="35.303118" lon="33.046358"><ele>231.4</ele><time>2025-12-01T14:07:50Z</time></trkpt>
    <trkpt lat="35.310558" lon="33.048652"><ele>228.0</ele><time>2025-12-01T14:09:38Z</time></trkpt>
    <trkpt lat="35.311628" lon="33.049014"><ele>230.6</ele><time>2025-12-01T14:09:55Z</time></trkpt>
    <trkpt lat="35.312603" lon="33.049800"><ele>233.8</ele><time>2025-12-01T14:10:16Z</time></trkpt>
    <trkpt lat="35.313182" lon="33.050878"><ele>238.4</ele><time>2025-12-01T14:10:41Z</time></trkpt>
    <trkpt lat="35.313824" lon="33.054453"><ele>257.0</ele><time>2025-12-01T14:12:31Z</time></trkpt>
    <trkpt lat="35.313749" lon="33.055758"><ele>265.2</ele><time>2025-12-01T14:13:19Z</time></trkpt>
    <trkpt lat="35.313466" lon="33.056592"><ele>270.8</ele><time>2025-12-01T14:13:49Z</time></trkpt>
    <trkpt lat="35.312947" lon="33.057393"><ele>276.4</ele><time>2025-12-01T14:14:21Z</time></trkpt>
    <trkpt lat="35.311275" lon="33.058738"><ele>281.6</ele><time>2025-12-01T14:15:15Z</time></trkpt>
    <trkpt lat="35.309628" lon="33.060078"><ele>279.4</ele><time>2025-12-01T14:15:51Z</time></trkpt>
    <trkpt lat="35.309239" lon="33.060857"><ele>278.2</ele><time>2025-12-01T14:16:02Z</time></trkpt>
    <trkpt lat="35.309139" lon="33.061746"><ele>276.8</ele><time>2025-12-01T14:16:11Z</time></trkpt>
    <trkpt lat="35.309264" lon="33.062418"><ele>274.6</ele><time>2025-12-01T14:16:17Z</time></trkpt>
    <trkpt lat="35.309575" lon="33.063039"><ele>273.0</ele><time>2025-12-01T14:16:23Z</time></trkpt>
    <trkpt lat="35.311419" lon="33.065270"><ele>270.0</ele><time>2025-12-01T14:16:52Z</time></trkpt>
    <trkpt lat="35.314275" lon="33.068639"><ele>271.0</ele><time>2025-12-01T14:17:43Z</time></trkpt>
    <trkpt lat="35.314660" lon="33.069281"><ele>272.4</ele><time>2025-12-01T14:17:53Z</time></trkpt>
    <trkpt lat="35.314727" lon="33.070087"><ele>272.8</ele><time>2025-12-01T14:18:03Z</time></trkpt>
    <trkpt lat="35.314417" lon="33.071109"><ele>272.2</ele><time>2025-12-01T14:18:15Z</time></trkpt>
    <trkpt lat="35.313989" lon="33.071889"><ele>271.8</ele><time>2025-12-01T14:18:25Z</time></trkpt>
    <trkpt lat="35.312571" lon="33.073521"><ele>271.4</ele><time>2025-12-01T14:18:50Z</time></trkpt>
    <trkpt lat="35.312472" lon="33.073947"><ele>271.4</ele><time>2025-12-01T14:18:55Z</time></trkpt>
    <trkpt lat="35.312602" lon="33.074251"><ele>271.4</ele><time>2025-12-01T14:18:59Z</time></trkpt>
    <trkpt lat="35.312792" lon="33.074231"><ele>271.6</ele><time>2025-12-01T14:19:02Z</time></trkpt>
    <trkpt lat="35.314434" lon="33.072936"><ele>269.6</ele><time>2025-12-01T14:19:28Z</time></trkpt>
    <trkpt lat="35.315172" lon="33.072273"><ele>265.0</ele><time>2025-12-01T14:19:37Z</time></trkpt>
    <trkpt lat="35.315569" lon="33.071744"><ele>261.6</ele><time>2025-12-01T14:19:42Z</time></trkpt>
    <trkpt lat="35.316517" lon="33.069828"><ele>248.0</ele><time>2025-12-01T14:19:56Z</time></trkpt>
    <trkpt lat="35.316670" lon="33.069559"><ele>245.4</ele><time>2025-12-01T14:19:58Z</time></trkpt>
    <trkpt lat="35.317198" lon="33.069048"><ele>239.2</ele><time>2025-12-01T14:20:03Z</time></trkpt>
    <trkpt lat="35.317993" lon="33.069010"><ele>232.4</ele><time>2025-12-01T14:20:09Z</time></trkpt>
    <trkpt lat="35.320685" lon="33.070212"><ele>206.4</ele><time>2025-12-01T14:20:30Z</time></trkpt>
    <trkpt lat="35.323083" lon="33.068616"><ele>180.4</ele><time>2025-12-01T14:20:49Z</time></trkpt>
    <trkpt lat="35.324406" lon="33.067957"><ele>166.4</ele><time>2025-12-01T14:20:58Z</time></trkpt>
    <trkpt lat="35.324725" lon="33.067536"><ele>162.0</ele><time>2025-12-01T14:21:01Z</time></trkpt>
    <trkpt lat="35.325411" lon="33.065591"><ele>146.6</ele><time>2025-12-01T14:21:13Z</time></trkpt>
    <trkpt lat="35.326067" lon="33.064983"><ele>138.2</ele><time>2025-12-01T14:21:20Z</time></trkpt>
    <trkpt lat="35.326714" lon="33.064367"><ele>129.4</ele><time>2025-12-01T14:21:32Z</time></trkpt>
    <trkpt lat="35.327094" lon="33.062830"><ele>120.0</ele><time>2025-12-01T14:21:45Z</time></trkpt>
    <trkpt lat="35.327346" lon="33.062573"><ele>117.2</ele><time>2025-12-01T14:21:48Z</time></trkpt>
    <trkpt lat="35.327675" lon="33.062530"><ele>113.8</ele><time>2025-12-01T14:21:51Z</time></trkpt>
    <trkpt lat="35.328045" lon="33.062806"><ele>109.8</ele><time>2025-12-01T14:21:55Z</time></trkpt>
    <trkpt lat="35.328708" lon="33.064142"><ele>99.2</ele><time>2025-12-01T14:22:05Z</time></trkpt>
    <trkpt lat="35.330001" lon="33.065767"><ele>82.4</ele><time>2025-12-01T14:22:18Z</time></trkpt>
    <trkpt lat="35.330222" lon="33.066540"><ele>76.8</ele><time>2025-12-01T14:22:23Z</time></trkpt>
    <trkpt lat="35.330256" lon="33.066858"><ele>75.4</ele><time>2025-12-01T14:22:25Z</time></trkpt>
    <trkpt lat="35.330239" lon="33.068232"><ele>68.6</ele><time>2025-12-01T14:22:34Z</time></trkpt>
    <trkpt lat="35.330661" lon="33.069003"><ele>63.8</ele><time>2025-12-01T14:22:40Z</time></trkpt>
    <trkpt lat="35.330904" lon="33.069132"><ele>62.0</ele><time>2025-12-01T14:22:42Z</time></trkpt>
    <trkpt lat="35.332693" lon="33.068967"><ele>50.0</ele><time>2025-12-01T14:22:55Z</time></trkpt>
    <trkpt lat="35.333941" lon="33.068369"><ele>43.2</ele><time>2025-12-01T14:23:06Z</time></trkpt>
    <trkpt lat="35.334557" lon="33.068185"><ele>41.4</ele><time>2025-12-01T14:23:12Z</time></trkpt>
    <trkpt lat="35.337504" lon="33.068750"><ele>36.0</ele><time>2025-12-01T14:23:45Z</time></trkpt>
    <trkpt lat="35.338939" lon="33.070237"><ele>35.0</ele><time>2025-12-01T14:24:09Z</time></trkpt>
    <trkpt lat="35.339540" lon="33.070654"><ele>33.8</ele><time>2025-12-01T14:24:17Z</time></trkpt>
    <trkpt lat="35.339599" lon="33.070972"><ele>33.0</ele><time>2025-12-01T14:24:20Z</time></trkpt>
    <trkpt lat="35.339397" lon="33.071639"><ele>32.8</ele><time>2025-12-01T14:24:27Z</time></trkpt>
    <trkpt lat="35.339634" lon="33.072197"><ele>34.2</ele><time>2025-12-01T14:24:35Z</time></trkpt>
    <trkpt lat="35.339525" lon="33.072844"><ele>34.2</ele><time>2025-12-01T14:24:43Z</time></trkpt>
    <trkpt lat="35.339496" lon="33.073054"><ele>33.6</ele><time>2025-12-01T14:24:45Z</time></trkpt>
    <trkpt lat="35.339681" lon="33.073601"><ele>31.2</ele><time>2025-12-01T14:24:50Z</time></trkpt>
    <trkpt lat="35.340992" lon="33.074057"><ele>27.0</ele><time>2025-12-01T14:25:03Z</time></trkpt>
    <trkpt lat="35.342661" lon="33.075574"><ele>29.0</ele><time>2025-12-01T14:25:36Z</time></trkpt>
    <trkpt lat="35.342752" lon="33.075719"><ele>28.4</ele><time>2025-12-01T14:25:38Z</time></trkpt>
    <trkpt lat="35.343305" lon="33.078265"><ele>22.4</ele><time>2025-12-01T14:26:02Z</time></trkpt>
    <trkpt lat="35.343941" lon="33.079470"><ele>21.4</ele><time>2025-12-01T14:26:16Z</time></trkpt>
    <trkpt lat="35.344696" lon="33.080174"><ele>21.4</ele><time>2025-12-01T14:26:28Z</time></trkpt>
    <trkpt lat="35.349009" lon="33.083247"><ele>12.6</ele><time>2025-12-01T14:27:25Z</time></trkpt>
    <trkpt lat="35.350110" lon="33.084246"><ele>9.8</ele><time>2025-12-01T14:27:40Z</time></trkpt>
    <trkpt lat="35.350249" lon="33.084380"><ele>9.8</ele><time>2025-12-01T14:27:42Z</time></trkpt>
    <trkpt lat="35.351558" lon="33.085863"><ele>11.2</ele><time>2025-12-01T14:28:04Z</time></trkpt>
    <trkpt lat="35.352124" lon="33.086837"><ele>10.8</ele><time>2025-12-01T14:28:16Z</time></trkpt>
    <trkpt lat="35.352488" lon="33.088193"><ele>8.0</ele><time>2025-12-01T14:28:29Z</time></trkpt>
    <trkpt lat="35.352727" lon="33.091239"><ele>6.6</ele><time>2025-12-01T14:30:39Z</time></trkpt>
    <trkpt lat="35.353120" lon="33.093737"><ele>7.4</ele><time>2025-12-01T14:31:21Z</time></trkpt>
    <trkpt lat="35.353341" lon="33.096057"><ele>8.4</ele><time>2025-12-01T14:31:52Z</time></trkpt>
    <trkpt lat="35.353773" lon="33.100350"><ele>21.8</ele><time>2025-12-01T14:33:23Z</time></trkpt>
    <trkpt lat="35.354000" lon="33.102788"><ele>29.0</ele><time>2025-12-01T14:34:18Z</time></trkpt>
    <trkpt lat="35.354181" lon="33.105722"><ele>31.6</ele><time>2025-12-01T14:35:05Z</time></trkpt>
    <trkpt lat="35.354765" lon="33.110471"><ele>39.4</ele><time>2025-12-01T14:36:17Z</time></trkpt>
    <trkpt lat="35.354152" lon="33.114210"><ele>44.6</ele><time>2025-12-01T14:37:17Z</time></trkpt>
    <trkpt lat="35.353763" lon="33.117069"><ele>44.2</ele><time>2025-12-01T14:37:52Z</time></trkpt>
    <trkpt lat="35.353197" lon="33.119487"><ele>40.8</ele><time>2025-12-01T14:38:18Z</time></trkpt>
    <trkpt lat="35.353130" lon="33.120122"><ele>40.2</ele><time>2025-12-01T14:38:24Z</time></trkpt>
    <trkpt lat="35.352051" lon="33.129671"><ele>24.4</ele><time>2025-12-01T14:39:47Z</time></trkpt>
    <trkpt lat="35.351617" lon="33.133445"><ele>26.0</ele><time>2025-12-01T14:40:27Z</time></trkpt>
    <trkpt lat="35.351234" lon="33.140338"><ele>28.6</ele><time>2025-12-01T14:41:49Z</time></trkpt>
    <trkpt lat="35.350941" lon="33.142311"><ele>28.0</ele><time>2025-12-01T14:42:11Z</time></trkpt>
    <trkpt lat="35.350888" lon="33.145641"><ele>27.8</ele><time>2025-12-01T14:42:44Z</time></trkpt>
    <trkpt lat="35.349566" lon="33.150220"><ele>26.2</ele><time>2025-12-01T14:43:31Z</time></trkpt>
    <trkpt lat="35.349457" lon="33.150684"><ele>26.2</ele><time>2025-12-01T14:43:36Z</time></trkpt>
    <trkpt lat="35.349354" lon="33.151612"><ele>25.4</ele><time>2025-12-01T14:43:46Z</time></trkpt>
    <trkpt lat="35.349430" lon="33.153121"><ele>23.6</ele><time>2025-12-01T14:44:01Z</time></trkpt>
    <trkpt lat="35.351079" lon="33.161801"><ele>11.4</ele><time>2025-12-01T14:45:15Z</time></trkpt>
    <trkpt lat="35.351220" lon="33.163655"><ele>10.8</ele><time>2025-12-01T14:45:30Z</time></trkpt>
    <trkpt lat="35.350921" lon="33.168728"><ele>7.0</ele><time>2025-12-01T14:46:13Z</time></trkpt>
    <trkpt lat="35.350367" lon="33.176951"><ele>10.8</ele><time>2025-12-01T14:47:42Z</time></trkpt>
    <trkpt lat="35.349940" lon="33.178234"><ele>12.6</ele><time>2025-12-01T14:47:59Z</time></trkpt>
    <trkpt lat="35.348165" lon="33.181853"><ele>15.8</ele><time>2025-12-01T14:48:55Z</time></trkpt>
    <trkpt lat="35.347844" lon="33.183090"><ele>19.0</ele><time>2025-12-01T14:49:15Z</time></trkpt>
    <trkpt lat="35.347813" lon="33.183873"><ele>21.2</ele><time>2025-12-01T14:51:34Z</time></trkpt>
    <trkpt lat="35.348398" lon="33.191000"><ele>26.0</ele><time>2025-12-01T14:53:16Z</time></trkpt>
    <trkpt lat="35.348419" lon="33.192844"><ele>29.0</ele><time>2025-12-01T14:53:41Z</time></trkpt>
    <trkpt lat="35.348393" lon="33.193589"><ele>30.0</ele><time>2025-12-01T14:53:51Z</time></trkpt>
    <trkpt lat="35.347960" lon="33.197846"><ele>29.2</ele><time>2025-12-01T14:54:55Z</time></trkpt>
    <trkpt lat="35.347617" lon="33.200160"><ele>28.8</ele><time>2025-12-01T14:55:27Z</time></trkpt>
    <trkpt lat="35.347606" lon="33.200296"><ele>28.8</ele><time>2025-12-01T14:55:29Z</time></trkpt>
    <trkpt lat="35.347293" lon="33.206130"><ele>36.4</ele><time>2025-12-01T14:57:59Z</time></trkpt>
    <trkpt lat="35.347309" lon="33.207060"><ele>37.2</ele><time>2025-12-01T14:58:12Z</time></trkpt>
    <trkpt lat="35.347520" lon="33.209767"><ele>35.8</ele><time>2025-12-01T14:58:51Z</time></trkpt>
    <trkpt lat="35.347641" lon="33.211300"><ele>32.6</ele><time>2025-12-01T14:59:08Z</time></trkpt>
    <trkpt lat="35.349357" lon="33.215670"><ele>24.6</ele><time>2025-12-01T14:59:49Z</time></trkpt>
    <trkpt lat="35.349536" lon="33.216987"><ele>21.0</ele><time>2025-12-01T14:59:59Z</time></trkpt>
    <trkpt lat="35.349519" lon="33.217510"><ele>20.0</ele><time>2025-12-01T15:00:03Z</time></trkpt>
    <trkpt lat="35.349480" lon="33.218528"><ele>20.4</ele><time>2025-12-01T15:00:21Z</time></trkpt>
    <trkpt lat="35.349175" lon="33.220448"><ele>22.6</ele><time>2025-12-01T15:00:47Z</time></trkpt>
    <trkpt lat="35.348101" lon="33.224885"><ele>21.4</ele><time>2025-12-01T15:01:45Z</time></trkpt>
    <trkpt lat="35.346703" lon="33.228556"><ele>21.2</ele><time>2025-12-01T15:02:35Z</time></trkpt>
    <trkpt lat="35.346046" lon="33.231848"><ele>24.8</ele><time>2025-12-01T15:03:17Z</time></trkpt>
    <trkpt lat="35.345616" lon="33.233342"><ele>24.0</ele><time>2025-12-01T15:03:36Z</time></trkpt>
    <trkpt lat="35.345634" lon="33.233785"><ele>23.2</ele><time>2025-12-01T15:03:41Z</time></trkpt>
    <trkpt lat="35.345314" lon="33.234488"><ele>22.2</ele><time>2025-12-01T15:03:49Z</time></trkpt>
    <trkpt lat="35.344301" lon="33.238346"><ele>26.0</ele><time>2025-12-01T15:04:42Z</time></trkpt>
    <trkpt lat="35.344122" lon="33.239017"><ele>25.2</ele><time>2025-12-01T15:04:50Z</time></trkpt>
    <trkpt lat="35.343121" lon="33.243715"><ele>23.2</ele><time>2025-12-01T15:05:45Z</time></trkpt>
    <trkpt lat="35.343050" lon="33.245669"><ele>22.0</ele><time>2025-12-01T15:06:07Z</time></trkpt>
    <trkpt lat="35.342751" lon="33.246784"><ele>23.0</ele><time>2025-12-01T15:06:24Z</time></trkpt>
    <trkpt lat="35.343020" lon="33.247711"><ele>23.6</ele><time>2025-12-01T15:06:38Z</time></trkpt>
    <trkpt lat="35.343247" lon="33.251122"><ele>23.4</ele><time>2025-12-01T15:07:19Z</time></trkpt>
    <trkpt lat="35.343787" lon="33.253529"><ele>22.2</ele><time>2025-12-01T15:07:46Z</time></trkpt>
    <trkpt lat="35.344369" lon="33.258180"><ele>20.6</ele><time>2025-12-01T15:08:39Z</time></trkpt>
    <trkpt lat="35.343739" lon="33.261145"><ele>20.0</ele><time>2025-12-01T15:09:15Z</time></trkpt>
    <trkpt lat="35.343366" lon="33.266036"><ele>17.8</ele><time>2025-12-01T15:10:11Z</time></trkpt>
    <trkpt lat="35.342034" lon="33.273384"><ele>14.6</ele><time>2025-12-01T15:12:20Z</time></trkpt>
    <trkpt lat="35.342002" lon="33.273735"><ele>14.6</ele><time>2025-12-01T15:12:25Z</time></trkpt>
    <trkpt lat="35.341863" lon="33.276834"><ele>16.4</ele><time>2025-12-01T15:13:15Z</time></trkpt>
    <trkpt lat="35.341414" lon="33.276953"><ele>17.4</ele><time>2025-12-01T15:13:33Z</time></trkpt>
    <trkpt lat="35.341581" lon="33.277035"><ele>17.4</ele><time>2025-12-01T15:13:44Z</time></trkpt>
    <trkpt lat="35.341595" lon="33.277210"><ele>17.2</ele><time>2025-12-01T15:13:50Z</time></trkpt>
    <trkpt lat="35.340129" lon="33.279904"><ele>22.8</ele><time>2025-12-01T15:14:59Z</time></trkpt>
    <trkpt lat="35.339914" lon="33.282950"><ele>25.4</ele><time>2025-12-01T15:16:02Z</time></trkpt>
    <trkpt lat="35.339732" lon="33.283414"><ele>26.2</ele><time>2025-12-01T15:16:13Z</time></trkpt>
    <trkpt lat="35.337076" lon="33.287440"><ele>29.4</ele><time>2025-12-01T15:17:40Z</time></trkpt>
    <trkpt lat="35.336520" lon="33.288175"><ele>31.6</ele><time>2025-12-01T15:17:59Z</time></trkpt>
    <trkpt lat="35.334763" lon="33.289829"><ele>35.6</ele><time>2025-12-01T15:18:51Z</time></trkpt>
    <trkpt lat="35.333402" lon="33.291435"><ele>38.4</ele><time>2025-12-01T15:19:31Z</time></trkpt>
    <trkpt lat="35.333125" lon="33.291955"><ele>40.6</ele><time>2025-12-01T15:19:49Z</time></trkpt>
    <trkpt lat="35.333301" lon="33.292543"><ele>41.2</ele><time>2025-12-01T15:20:06Z</time></trkpt>
    <trkpt lat="35.333058" lon="33.292110"><ele>41.4</ele><time>2025-12-01T15:21:27Z</time></trkpt>
    <trkpt lat="35.333026" lon="33.292533"><ele>42.4</ele><time>2025-12-01T15:21:43Z</time></trkpt>
    <trkpt lat="35.332868" lon="33.292678"><ele>42.8</ele><time>2025-12-01T15:22:01Z</time></trkpt>
    <trkpt lat="35.332517" lon="33.293374"><ele>48.6</ele><time>2025-12-01T15:22:27Z</time></trkpt>
    <trkpt lat="35.331919" lon="33.294122"><ele>55.0</ele><time>2025-12-01T15:23:11Z</time></trkpt>
    <trkpt lat="35.331709" lon="33.294287"><ele>55.0</ele><time>2025-12-01T15:23:23Z</time></trkpt>
    <trkpt lat="35.331703" lon="33.294496"><ele>54.4</ele><time>2025-12-01T15:23:30Z</time></trkpt>
    <trkpt lat="35.332422" lon="33.294910"><ele>49.8</ele><time>2025-12-01T15:24:57Z</time></trkpt>
    <trkpt lat="35.332355" lon="33.294920"><ele>49.8</ele><time>2025-12-01T15:25:06Z</time></trkpt>
    <trkpt lat="35.331942" lon="33.294568"><ele>52.4</ele><time>2025-12-01T15:25:24Z</time></trkpt>
    <trkpt lat="35.331688" lon="33.294561"><ele>54.2</ele><time>2025-12-01T15:25:34Z</time></trkpt>
    <trkpt lat="35.331618" lon="33.294848"><ele>55.8</ele><time>2025-12-01T15:25:46Z</time></trkpt>
    <trkpt lat="35.331280" lon="33.295067"><ele>58.4</ele><time>2025-12-01T15:26:09Z</time></trkpt>
    <trkpt lat="35.331252" lon="33.295276"><ele>59.2</ele><time>2025-12-01T15:26:15Z</time></trkpt>
    <trkpt lat="35.331006" lon="33.296233"><ele>59.6</ele><time>2025-12-01T15:26:42Z</time></trkpt>
    <trkpt lat="35.330343" lon="33.296391"><ele>59.2</ele><time>2025-12-01T15:28:06Z</time></trkpt>
    </trkseg>
  </trk>
</gpx>
