<?xml version="1.0" encoding="UTF-8"?>
<gpx version="1.1" creator="tripplanner (simplified from Strava export)" xmlns="http://www.topografix.com/GPX/1/1">
  <metadata>
    <name>Around Cyprus — Rizokarpaso → Ayia Napa</name>
    <time>2025-12-03T06:32:56Z</time>
  </metadata>
  <trk>
    <name>Around Cyprus — Rizokarpaso → Ayia Napa</name>
    <trkseg>
    <trkpt lat="35.602838" lon="34.386483"><ele>158.6</ele><time>2025-12-03T06:32:56Z</time></trkpt>
    <trkpt lat="35.602021" lon="34.384475"><ele>157.2</ele><time>2025-12-03T06:33:32Z</time></trkpt>
    <trkpt lat="35.600614" lon="34.382457"><ele>157.0</ele><time>2025-12-03T06:34:23Z</time></trkpt>
    <trkpt lat="35.600458" lon="34.381915"><ele>156.6</ele><time>2025-12-03T06:34:34Z</time></trkpt>
    <trkpt lat="35.600387" lon="34.381867"><ele>156.6</ele><time>2025-12-03T06:34:36Z</time></trkpt>
    <trkpt lat="35.599456" lon="34.381565"><ele>146.2</ele><time>2025-12-03T06:34:54Z</time></trkpt>
    <trkpt lat="35.598766" lon="34.380928"><ele>139.2</ele><time>2025-12-03T06:35:11Z</time></trkpt>
    <trkpt lat="35.598558" lon="34.380512"><ele>138.4</ele><time>2025-12-03T06:35:25Z</time></trkpt>
    <trkpt lat="35.598693" lon="34.380542"><ele>139.0</ele><time>2025-12-03T06:36:22Z</time></trkpt>
    <trkpt lat="35.598538" lon="34.380595"><ele>139.0</ele><time>2025-12-03T06:49:32Z</time></trkpt>
    <trkpt lat="35.598602" lon="34.380498"><ele>138.8</ele><time>2025-12-03T06:52:03Z</time></trkpt>
    <trkpt lat="35.598156" lon="34.379211"><ele>139.6</ele><time>2025-12-03T06:52:31Z</time></trkpt>
    <trkpt lat="35.598083" lon="34.379063"><ele>139.6</ele><time>2025-12-03T06:52:34Z</time></trkpt>
    <trkpt lat="35.597421" lon="34.377687"><ele>136.4</ele><time>2025-12-03T06:52:58Z</time></trkpt>
    <trkpt lat="35.595621" lon="34.378037"><ele>127.6</ele><time>2025-12-03T06:53:26Z</time></trkpt>
    <trkpt lat="35.594943" lon="34.377874"><ele>125.4</ele><time>2025-12-03T06:53:35Z</time></trkpt>
    <trkpt lat="35.594337" lon="34.377968"><ele>125.0</ele><time>2025-12-03T06:53:47Z</time></trkpt>
    <trkpt lat="35.594290" lon="34.377958"><ele>125.0</ele><time>2025-12-03T06:53:48Z</time></trkpt>
    <trkpt lat="35.593640" lon="34.377685"><ele>126.0</ele><time>2025-12-03T06:54:03Z</time></trkpt>
    <trkpt lat="35.591739" lon="34.378368"><ele>133.0</ele><time>2025-12-03T06:54:56Z</time></trkpt>
    <trkpt lat="35.590996" lon="34.378181"><ele>132.6</ele><time>2025-12-03T06:55:15Z</time></trkpt>
    <trkpt lat="35.589592" lon="34.379356"><ele>134.0</ele><time>2025-12-03T06:55:50Z</time></trkpt>
    <trkpt lat="35.589432" lon="34.379875"><ele>137.4</ele><time>2025-12-03T06:56:04Z</time></trkpt>
    <trkpt lat="35.588924" lon="34.380294"><ele>139.4</ele><time>2025-12-03T06:56:21Z</time></trkpt>
    <trkpt lat="35.588806" lon="34.380822"><ele>140.6</ele><time>2025-12-03T06:56:34Z</time></trkpt>
    <trkpt lat="35.587311" lon="34.381503"><ele>141.0</ele><time>2025-12-03T06:57:10Z</time></trkpt>
    <trkpt lat="35.587074" lon="34.381675"><ele>141.2</ele><time>2025-12-03T06:57:16Z</time></trkpt>
    <trkpt lat="35.585049" lon="34.383247"><ele>159.8</ele><time>2025-12-03T06:58:53Z</time></trkpt>
    <trkpt lat="35.584736" lon="34.383605"><ele>160.4</ele><time>2025-12-03T06:59:05Z</time></trkpt>
    <trkpt lat="35.584487" lon="34.383859"><ele>159.0</ele><time>2025-12-03T06:59:11Z</time></trkpt>
    <trkpt lat="35.583225" lon="34.384473"><ele>145.8</ele><time>2025-12-03T06:59:31Z</time></trkpt>
    <trkpt lat="35.580984" lon="34.384829"><ele>125.4</ele><time>2025-12-03T07:00:11Z</time></trkpt>
    <trkpt lat="35.578901" lon="34.384784"><ele>112.6</ele><time>2025-12-03T07:00:28Z</time></trkpt>
    <trkpt lat="35.578334" lon="34.384967"><ele>110.4</ele><time>2025-12-03T07:00:35Z</time></trkpt>
    <trkpt lat="35.577978" lon="34.384622"><ele>107.0</ele><time>2025-12-03T07:00:41Z</time></trkpt>
    <trkpt lat="35.577740" lon="34.383668"><ele>101.4</ele><time>2025-12-03T07:00:52Z</time></trkpt>
    <trkpt lat="35.577526" lon="34.383623"><ele>100.0</ele><time>2025-12-03T07:00:55Z</time></trkpt>
    <trkpt lat="35.577455" lon="34.383653"><ele>100.0</ele><time>2025-12-03T07:00:56Z</time></trkpt>
    <trkpt lat="35.577153" lon="34.384259"><ele>100.8</ele><time>2025-12-03T07:01:06Z</time></trkpt>
    <trkpt lat="35.576825" lon="34.386212"><ele>106.4</ele><time>2025-12-03T07:01:49Z</time></trkpt>
    <trkpt lat="35.576806" lon="34.386277"><ele>106.4</ele><time>2025-12-03T07:01:50Z</time></trkpt>
    <trkpt lat="35.576387" lon="34.387431"><ele>103.4</ele><time>2025-12-03T07:02:06Z</time></trkpt>
    <trkpt lat="35.572345" lon="34.389493"><ele>95.2</ele><time>2025-12-03T07:03:11Z</time></trkpt>
    <trkpt lat="35.572064" lon="34.389459"><ele>93.8</ele><time>2025-12-03T07:03:17Z</time></trkpt>
    <trkpt lat="35.571825" lon="34.389146"><ele>91.8</ele><time>2025-12-03T07:03:23Z</time></trkpt>
    <trkpt lat="35.571719" lon="34.388986"><ele>90.0</ele><time>2025-12-03T07:03:26Z</time></trkpt>
    <trkpt lat="35.571415" lon="34.388436"><ele>82.4</ele><time>2025-12-03T07:03:37Z</time></trkpt>
    <trkpt lat="35.571253" lon="34.387778"><ele>75.0</ele><time>2025-12-03T07:03:48Z</time></trkpt>
    <trkpt lat="35.570671" lon="34.386944"><ele>63.0</ele><time>2025-12-03T07:04:01Z</time></trkpt>
    <trkpt lat="35.570407" lon="34.386292"><ele>57.0</ele><time>2025-12-03T07:04:09Z</time></trkpt>
    <trkpt lat="35.569975" lon="34.386129"><ele>52.6</ele><time>2025-12-03T07:04:14Z</time></trkpt>
    <trkpt lat="35.569575" lon="34.386275"><ele>49.4</ele><time>2025-12-03T07:04:18Z</time></trkpt>
    <trkpt lat="35.569347" lon="34.386557"><ele>46.8</ele><time>2025-12-03T07:04:21Z</time></trkpt>
    <trkpt lat="35.568124" lon="34.389090"><ele>29.8</ele><time>2025-12-03T07:04:45Z</time></trkpt>
    <trkpt lat="35.567995" lon="34.389256"><ele>29.2</ele><time>2025-12-03T07:04:47Z</time></trkpt>
    <trkpt lat="35.567328" lon="34.389657"><ele>26.6</ele><time>2025-12-03T07:04:55Z</time></trkpt>
    <trkpt lat="35.566985" lon="34.389588"><ele>25.6</ele><time>2025-12-03T07:05:00Z</time></trkpt>
    <trkpt lat="35.566810" lon="34.389240"><ele>24.6</ele><time>2025-12-03T07:05:05Z</time></trkpt>
    <trkpt lat="35.566379" lon="34.388299"><ele>24.6</ele><time>2025-12-03T07:05:20Z</time></trkpt>
    <trkpt lat="35.564735" lon="34.385785"><ele>24.4</ele><time>2025-12-03T07:06:05Z</time></trkpt>
    <trkpt lat="35.563178" lon="34.384059"><ele>25.2</ele><time>2025-12-03T07:06:46Z</time></trkpt>
    <trkpt lat="35.562266" lon="34.382367"><ele>26.0</ele><time>2025-12-03T07:07:21Z</time></trkpt>
    <trkpt lat="35.560409" lon="34.380291"><ele>23.4</ele><time>2025-12-03T07:08:01Z</time></trkpt>
    <trkpt lat="35.560339" lon="34.380088"><ele>23.4</ele><time>2025-12-03T07:08:05Z</time></trkpt>
    <trkpt lat="35.559784" lon="34.377891"><ele>29.8</ele><time>2025-12-03T07:08:52Z</time></trkpt>
    <trkpt lat="35.559293" lon="34.376651"><ele>32.6</ele><time>2025-12-03T07:09:20Z</time></trkpt>
    <trkpt lat="35.559245" lon="34.376482"><ele>32.6</ele><time>2025-12-03T07:09:24Z</time></trkpt>
    <trkpt lat="35.559315" lon="34.376208"><ele>32.0</ele><time>2025-12-03T07:10:33Z</time></trkpt>
    <trkpt lat="35.559711" lon="34.375916"><ele>33.0</ele><time>2025-12-03T07:10:47Z</time></trkpt>
    <trkpt lat="35.559833" lon="34.375643"><ele>33.8</ele><time>2025-12-03T07:10:54Z</time></trkpt>
    <trkpt lat="35.559478" lon="34.374035"><ele>33.2</ele><time>2025-12-03T07:11:20Z</time></trkpt>
    <trkpt lat="35.557685" lon="34.372495"><ele>36.2</ele><time>2025-12-03T07:12:06Z</time></trkpt>
    <trkpt lat="35.555737" lon="34.370497"><ele>37.8</ele><time>2025-12-03T07:12:52Z</time></trkpt>
    <trkpt lat="35.555611" lon="34.370285"><ele>38.2</ele><time>2025-12-03T07:12:57Z</time></trkpt>
    <trkpt lat="35.555109" lon="34.368766"><ele>37.0</ele><time>2025-12-03T07:13:20Z</time></trkpt>
    <trkpt lat="35.554400" lon="34.368157"><ele>35.6</ele><time>2025-12-03T07:13:33Z</time></trkpt>
    <trkpt lat="35.554041" lon="34.367641"><ele>35.0</ele><time>2025-12-03T07:13:42Z</time></trkpt>
    <trkpt lat="35.553668" lon="34.366157"><ele>33.0</ele><time>2025-12-03T07:13:59Z</time></trkpt>
    <trkpt lat="35.553243" lon="34.364668"><ele>37.8</ele><time>2025-12-03T07:14:26Z</time></trkpt>
    <trkpt lat="35.552890" lon="34.362641"><ele>40.8</ele><time>2025-12-03T07:15:05Z</time></trkpt>
    <trkpt lat="35.551958" lon="34.360531"><ele>40.6</ele><time>2025-12-03T07:15:39Z</time></trkpt>
    <trkpt lat="35.551747" lon="34.357521"><ele>46.8</ele><time>2025-12-03T07:16:35Z</time></trkpt>
    <trkpt lat="35.551697" lon="34.356797"><ele>45.4</ele><time>2025-12-03T07:16:46Z</time></trkpt>
    <trkpt lat="35.551069" lon="34.354169"><ele>40.2</ele><time>2025-12-03T07:17:20Z</time></trkpt>
    <trkpt lat="35.550272" lon="34.352226"><ele>39.0</ele><time>2025-12-03T07:17:48Z</time></trkpt>
    <trkpt lat="35.549115" lon="34.349986"><ele>38.8</ele><time>2025-12-03T07:18:22Z</time></trkpt>
    <trkpt lat="35.547216" lon="34.348080"><ele>37.4</ele><time>2025-12-03T07:19:00Z</time></trkpt>
    <trkpt lat="35.547133" lon="34.347948"><ele>37.4</ele><time>2025-12-03T07:19:02Z</time></trkpt>
    <trkpt lat="35.546127" lon="34.346613"><ele>32.4</ele><time>2025-12-03T07:19:19Z</time></trkpt>
    <trkpt lat="35.543511" lon="34.345936"><ele>27.6</ele><time>2025-12-03T07:19:51Z</time></trkpt>
    <trkpt lat="35.542481" lon="34.345036"><ele>24.2</ele><time>2025-12-03T07:20:06Z</time></trkpt>
    <trkpt lat="35.542174" lon="34.344701"><ele>23.2</ele><time>2025-12-03T07:20:11Z</time></trkpt>
    <trkpt lat="35.539280" lon="34.341552"><ele>19.6</ele><time>2025-12-03T07:21:06Z</time></trkpt>
    <trkpt lat="35.538638" lon="34.340676"><ele>17.8</ele><time>2025-12-03T07:21:20Z</time></trkpt>
    <trkpt lat="35.532393" lon="34.331956"><ele>13.4</ele><time>2025-12-03T07:23:53Z</time></trkpt>
    <trkpt lat="35.530587" lon="34.329562"><ele>13.6</ele><time>2025-12-03T07:24:41Z</time></trkpt>
    <trkpt lat="35.528428" lon="34.327843"><ele>15.2</ele><time>2025-12-03T07:25:31Z</time></trkpt>
    <trkpt lat="35.526433" lon="34.326350"><ele>31.0</ele><time>2025-12-03T07:27:04Z</time></trkpt>
    <trkpt lat="35.526196" lon="34.325956"><ele>33.6</ele><time>2025-12-03T07:27:20Z</time></trkpt>
    <trkpt lat="35.524709" lon="34.322772"><ele>29.6</ele><time>2025-12-03T07:28:09Z</time></trkpt>
    <trkpt lat="35.524672" lon="34.322684"><ele>30.2</ele><time>2025-12-03T07:28:11Z</time></trkpt>
    <trkpt lat="35.524573" lon="34.321539"><ele>39.0</ele><time>2025-12-03T07:28:53Z</time></trkpt>
    <trkpt lat="35.523748" lon="34.320467"><ele>50.0</ele><time>2025-12-03T07:29:52Z</time></trkpt>
    <trkpt lat="35.521894" lon="34.319732"><ele>68.2</ele><time>2025-12-03T07:31:34Z</time></trkpt>
    <trkpt lat="35.521131" lon="34.318747"><ele>75.0</ele><time>2025-12-03T07:32:23Z</time></trkpt>
    <trkpt lat="35.521024" lon="34.318624"><ele>75.0</ele><time>2025-12-03T07:32:28Z</time></trkpt>
    <trkpt lat="35.520050" lon="34.317848"><ele>72.0</ele><time>2025-12-03T07:32:51Z</time></trkpt>
    <trkpt lat="35.519590" lon="34.317452"><ele>67.6</ele><time>2025-12-03T07:32:59Z</time></trkpt>
    <trkpt lat="35.519353" lon="34.316864"><ele>63.6</ele><time>2025-12-03T07:33:06Z</time></trkpt>
    <trkpt lat="35.519087" lon="34.315363"><ele>53.8</ele><time>2025-12-03T07:33:19Z</time></trkpt>
    <trkpt lat="35.518320" lon="34.313323"><ele>47.4</ele><time>2025-12-03T07:33:36Z</time></trkpt>
    <trkpt lat="35.518268" lon="34.313227"><ele>47.0</ele><time>2025-12-03T07:33:37Z</time></trkpt>
    <trkpt lat="35.516677" lon="34.311152"><ele>44.2</ele><time>2025-12-03T07:34:07Z</time></trkpt>
    <trkpt lat="35.515934" lon="34.308394"><ele>37.0</ele><time>2025-12-03T07:34:46Z</time></trkpt>
    <trkpt lat="35.515872" lon="34.305636"><ele>33.8</ele><time>2025-12-03T07:35:25Z</time></trkpt>
    <trkpt lat="35.515750" lon="34.303978"><ele>35.0</ele><time>2025-12-03T07:35:52Z</time></trkpt>
    <trkpt lat="35.515936" lon="34.303725"><ele>36.0</ele><time>2025-12-03T07:36:05Z</time></trkpt>
    <trkpt lat="35.515840" lon="34.303656"><ele>35.8</ele><time>2025-12-03T07:36:34Z</time></trkpt>
    <trkpt lat="35.515865" lon="34.302839"><ele>35.2</ele><time>2025-12-03T07:36:50Z</time></trkpt>
    <trkpt lat="35.515336" lon="34.299170"><ele>36.8</ele><time>2025-12-03T07:37:49Z</time></trkpt>
    <trkpt lat="35.515286" lon="34.298771"><ele>37.4</ele><time>2025-12-03T07:37:56Z</time></trkpt>
    <trkpt lat="35.514927" lon="34.294297"><ele>43.2</ele><time>2025-12-03T07:39:14Z</time></trkpt>
    <trkpt lat="35.514011" lon="34.292297"><ele>47.2</ele><time>2025-12-03T07:39:52Z</time></trkpt>
    <trkpt lat="35.512942" lon="34.287911"><ele>55.8</ele><time>2025-12-03T07:41:08Z</time></trkpt>
    <trkpt lat="35.512900" lon="34.287801"><ele>56.0</ele><time>2025-12-03T07:41:10Z</time></trkpt>
    <trkpt lat="35.512369" lon="34.286683"><ele>53.6</ele><time>2025-12-03T07:41:26Z</time></trkpt>
    <trkpt lat="35.511334" lon="34.281427"><ele>44.8</ele><time>2025-12-03T07:42:15Z</time></trkpt>
    <trkpt lat="35.511446" lon="34.280555"><ele>44.8</ele><time>2025-12-03T07:42:24Z</time></trkpt>
    <trkpt lat="35.511783" lon="34.280281"><ele>45.0</ele><time>2025-12-03T07:42:30Z</time></trkpt>
    <trkpt lat="35.512145" lon="34.280178"><ele>46.8</ele><time>2025-12-03T07:42:37Z</time></trkpt>
    <trkpt lat="35.512288" lon="34.279956"><ele>47.6</ele><time>2025-12-03T07:42:42Z</time></trkpt>
    <trkpt lat="35.512239" lon="34.278626"><ele>53.4</ele><time>2025-12-03T07:43:14Z</time></trkpt>
    <trkpt lat="35.512402" lon="34.278512"><ele>54.8</ele><time>2025-12-03T07:43:20Z</time></trkpt>
    <trkpt lat="35.512732" lon="34.278804"><ele>58.6</ele><time>2025-12-03T07:43:36Z</time></trkpt>
    <trkpt lat="35.513003" lon="34.278751"><ele>60.2</ele><time>2025-12-03T07:43:47Z</time></trkpt>
    <trkpt lat="35.513234" lon="34.277968"><ele>64.6</ele><time>2025-12-03T07:44:17Z</time></trkpt>
    <trkpt lat="35.512854" lon="34.277066"><ele>71.4</ele><time>2025-12-03T07:44:56Z</time></trkpt>
    <trkpt lat="35.513245" lon="34.275782"><ele>80.0</ele><time>2025-12-03T07:45:47Z</time></trkpt>
    <trkpt lat="35.513227" lon="34.275669"><ele>80.4</ele><time>2025-12-03T07:45:51Z</time></trkpt>
    <trkpt lat="35.511567" lon="34.272929"><ele>82.4</ele><time>2025-12-03T07:47:16Z</time></trkpt>
    <trkpt lat="35.511523" lon="34.272786"><ele>82.4</ele><time>2025-12-03T07:47:22Z</time></trkpt>
    <trkpt lat="35.511479" lon="34.271276"><ele>82.6</ele><time>2025-12-03T07:49:02Z</time></trkpt>
    <trkpt lat="35.511725" lon="34.270741"><ele>82.0</ele><time>2025-12-03T07:49:11Z</time></trkpt>
    <trkpt lat="35.512123" lon="34.269682"><ele>75.4</ele><time>2025-12-03T07:49:21Z</time></trkpt>
    <trkpt lat="35.512227" lon="34.268782"><ele>69.6</ele><time>2025-12-03T07:49:27Z</time></trkpt>
    <trkpt lat="35.511539" lon="34.267416"><ele>60.6</ele><time>2025-12-03T07:49:37Z</time></trkpt>
    <trkpt lat="35.511058" lon="34.266508"><ele>60.6</ele><time>2025-12-03T07:49:46Z</time></trkpt>
    <trkpt lat="35.509219" lon="34.265917"><ele>64.6</ele><time>2025-12-03T07:50:16Z</time></trkpt>
    <trkpt lat="35.508896" lon="34.265607"><ele>65.6</ele><time>2025-12-03T07:50:24Z</time></trkpt>
    <trkpt lat="35.508830" lon="34.265479"><ele>65.6</ele><time>2025-12-03T07:50:26Z</time></trkpt>
    <trkpt lat="35.506680" lon="34.260013"><ele>61.4</ele><time>2025-12-03T07:51:31Z</time></trkpt>
    <trkpt lat="35.506440" lon="34.257887"><ele>60.0</ele><time>2025-12-03T07:51:57Z</time></trkpt>
    <trkpt lat="35.506727" lon="34.257152"><ele>60.2</ele><time>2025-12-03T07:52:07Z</time></trkpt>
    <trkpt lat="35.507351" lon="34.255945"><ele>64.0</ele><time>2025-12-03T07:52:34Z</time></trkpt>
    <trkpt lat="35.507416" lon="34.255409"><ele>65.2</ele><time>2025-12-03T07:52:46Z</time></trkpt>
    <trkpt lat="35.507055" lon="34.253409"><ele>67.0</ele><time>2025-12-03T07:53:20Z</time></trkpt>
    <trkpt lat="35.505923" lon="34.251010"><ele>79.2</ele><time>2025-12-03T07:54:35Z</time></trkpt>
    <trkpt lat="35.505877" lon="34.248535"><ele>80.0</ele><time>2025-12-03T07:55:18Z</time></trkpt>
    <trkpt lat="35.505867" lon="34.248028"><ele>79.4</ele><time>2025-12-03T07:55:25Z</time></trkpt>
    <trkpt lat="35.505986" lon="34.247188"><ele>78.4</ele><time>2025-12-03T07:55:38Z</time></trkpt>
    <trkpt lat="35.506704" lon="34.245874"><ele>73.6</ele><time>2025-12-03T07:55:56Z</time></trkpt>
    <trkpt lat="35.506704" lon="34.245652"><ele>73.2</ele><time>2025-12-03T07:55:58Z</time></trkpt>
    <trkpt lat="35.506635" lon="34.245296"><ele>71.8</ele><time>2025-12-03T07:56:01Z</time></trkpt>
    <trkpt lat="35.505456" lon="34.242716"><ele>56.4</ele><time>2025-12-03T07:56:20Z</time></trkpt>
    <trkpt lat="35.505401" lon="34.242574"><ele>56.0</ele><time>2025-12-03T07:56:21Z</time></trkpt>
    <trkpt lat="35.504601" lon="34.240439"><ele>55.6</ele><time>2025-12-03T07:56:39Z</time></trkpt>
    <trkpt lat="35.504458" lon="34.239945"><ele>55.6</ele><time>2025-12-03T07:56:44Z</time></trkpt>
    <trkpt lat="35.503751" lon="34.237261"><ele>62.8</ele><time>2025-12-03T07:57:28Z</time></trkpt>
    <trkpt lat="35.502133" lon="34.235339"><ele>66.6</ele><time>2025-12-03T07:58:17Z</time></trkpt>
    <trkpt lat="35.501511" lon="34.234963"><ele>68.4</ele><time>2025-12-03T07:58:33Z</time></trkpt>
    <trkpt lat="35.500770" lon="34.233768"><ele>69.4</ele><time>2025-12-03T07:58:58Z</time></trkpt>
    <trkpt lat="35.500473" lon="34.232950"><ele>70.4</ele><time>2025-12-03T07:59:13Z</time></trkpt>
    <trkpt lat="35.500228" lon="34.231279"><ele>74.6</ele><time>2025-12-03T07:59:43Z</time></trkpt>
    <trkpt lat="35.499620" lon="34.230555"><ele>78.0</ele><time>2025-12-03T08:00:06Z</time></trkpt>
    <trkpt lat="35.497311" lon="34.226070"><ele>98.4</ele><time>2025-12-03T08:02:32Z</time></trkpt>
    <trkpt lat="35.497280" lon="34.226017"><ele>99.0</ele><time>2025-12-03T08:02:34Z</time></trkpt>
    <trkpt lat="35.496459" lon="34.225104"><ele>107.8</ele><time>2025-12-03T08:03:25Z</time></trkpt>
    <trkpt lat="35.496254" lon="34.225056"><ele>109.8</ele><time>2025-12-03T08:03:36Z</time></trkpt>
    <trkpt lat="35.495677" lon="34.225720"><ele>118.4</ele><time>2025-12-03T08:04:18Z</time></trkpt>
    <trkpt lat="35.494379" lon="34.226320"><ele>131.0</ele><time>2025-12-03T08:05:31Z</time></trkpt>
    <trkpt lat="35.494008" lon="34.226291"><ele>134.2</ele><time>2025-12-03T08:05:49Z</time></trkpt>
    <trkpt lat="35.493622" lon="34.225876"><ele>137.2</ele><time>2025-12-03T08:06:12Z</time></trkpt>
    <trkpt lat="35.493224" lon="34.224685"><ele>147.4</ele><time>2025-12-03T08:07:08Z</time></trkpt>
    <trkpt lat="35.492013" lon="34.223446"><ele>162.2</ele><time>2025-12-03T08:08:36Z</time></trkpt>
    <trkpt lat="35.490603" lon="34.222344"><ele>179.0</ele><time>2025-12-03T08:10:15Z</time></trkpt>
    <trkpt lat="35.490298" lon="34.221895"><ele>184.6</ele><time>2025-12-03T08:10:43Z</time></trkpt>
    <trkpt lat="35.490268" lon="34.221595"><ele>186.4</ele><time>2025-12-03T08:10:55Z</time></trkpt>
    <trkpt lat="35.490295" lon="34.219842"><ele>185.8</ele><time>2025-12-03T08:11:37Z</time></trkpt>
    <trkpt lat="35.490615" lon="34.218688"><ele>186.8</ele><time>2025-12-03T08:12:02Z</time></trkpt>
    <trkpt lat="35.490310" lon="34.217484"><ele>187.4</ele><time>2025-12-03T08:12:42Z</time></trkpt>
    <trkpt lat="35.490303" lon="34.215594"><ele>186.4</ele><time>2025-12-03T08:15:33Z</time></trkpt>
    <trkpt lat="35.489868" lon="34.213070"><ele>191.4</ele><time>2025-12-03T08:16:23Z</time></trkpt>
    <trkpt lat="35.489384" lon="34.209252"><ele>189.8</ele><time>2025-12-03T08:17:15Z</time></trkpt>
    <trkpt lat="35.488738" lon="34.207419"><ele>189.4</ele><time>2025-12-03T08:17:40Z</time></trkpt>
    <trkpt lat="35.488665" lon="34.207263"><ele>189.4</ele><time>2025-12-03T08:17:42Z</time></trkpt>
    <trkpt lat="35.487524" lon="34.204919"><ele>184.6</ele><time>2025-12-03T08:18:08Z</time></trkpt>
    <trkpt lat="35.485253" lon="34.199153"><ele>180.0</ele><time>2025-12-03T08:19:06Z</time></trkpt>
    <trkpt lat="35.484564" lon="34.197715"><ele>178.6</ele><time>2025-12-03T08:19:21Z</time></trkpt>
    <trkpt lat="35.483605" lon="34.194895"><ele>174.2</ele><time>2025-12-03T08:19:48Z</time></trkpt>
    <trkpt lat="35.482880" lon="34.193460"><ele>172.0</ele><time>2025-12-03T08:20:04Z</time></trkpt>
    <trkpt lat="35.482899" lon="34.192163"><ele>171.8</ele><time>2025-12-03T08:20:18Z</time></trkpt>
    <trkpt lat="35.483218" lon="34.191139"><ele>170.2</ele><time>2025-12-03T08:20:29Z</time></trkpt>
    <trkpt lat="35.483220" lon="34.191045"><ele>170.0</ele><time>2025-12-03T08:20:30Z</time></trkpt>
    <trkpt lat="35.482967" lon="34.189970"><ele>170.0</ele><time>2025-12-03T08:20:44Z</time></trkpt>
    <trkpt lat="35.483258" lon="34.186985"><ele>168.0</ele><time>2025-12-03T08:21:36Z</time></trkpt>
    <trkpt lat="35.482168" lon="34.184384"><ele>168.6</ele><time>2025-12-03T08:22:54Z</time></trkpt>
    <trkpt lat="35.481616" lon="34.182362"><ele>167.4</ele><time>2025-12-03T08:23:30Z</time></trkpt>
    <trkpt lat="35.481317" lon="34.180250"><ele>165.8</ele><time>2025-12-03T08:24:00Z</time></trkpt>
    <trkpt lat="35.480843" lon="34.176397"><ele>160.8</ele><time>2025-12-03T08:24:45Z</time></trkpt>
    <trkpt lat="35.479925" lon="34.171571"><ele>156.0</ele><time>2025-12-03T08:25:39Z</time></trkpt>
    <trkpt lat="35.478942" lon="34.168985"><ele>152.2</ele><time>2025-12-03T08:26:11Z</time></trkpt>
    <trkpt lat="35.478735" lon="34.167354"><ele>151.4</ele><time>2025-12-03T08:26:30Z</time></trkpt>
    <trkpt lat="35.478081" lon="34.164770"><ele>148.0</ele><time>2025-12-03T08:27:01Z</time></trkpt>
    <trkpt lat="35.477252" lon="34.163452"><ele>144.2</ele><time>2025-12-03T08:27:19Z</time></trkpt>
    <trkpt lat="35.476587" lon="34.161482"><ele>140.2</ele><time>2025-12-03T08:27:39Z</time></trkpt>
    <trkpt lat="35.475014" lon="34.157828"><ele>136.2</ele><time>2025-12-03T08:28:19Z</time></trkpt>
    <trkpt lat="35.472478" lon="34.151933"><ele>135.6</ele><time>2025-12-03T08:29:50Z</time></trkpt>
    <trkpt lat="35.472337" lon="34.150115"><ele>137.6</ele><time>2025-12-03T08:43:11Z</time></trkpt>
    <trkpt lat="35.471585" lon="34.146521"><ele>137.8</ele><time>2025-12-03T08:44:09Z</time></trkpt>
    <trkpt lat="35.471164" lon="34.145437"><ele>137.4</ele><time>2025-12-03T08:44:27Z</time></trkpt>
    <trkpt lat="35.470759" lon="34.143787"><ele>136.6</ele><time>2025-12-03T08:45:14Z</time></trkpt>
    <trkpt lat="35.470231" lon="34.143471"><ele>136.2</ele><time>2025-12-03T08:45:25Z</time></trkpt>
    <trkpt lat="35.470039" lon="34.141675"><ele>135.4</ele><time>2025-12-03T08:45:51Z</time></trkpt>
    <trkpt lat="35.469966" lon="34.141451"><ele>135.4</ele><time>2025-12-03T08:45:54Z</time></trkpt>
    <trkpt lat="35.469057" lon="34.139118"><ele>137.4</ele><time>2025-12-03T08:46:30Z</time></trkpt>
    <trkpt lat="35.469258" lon="34.138355"><ele>139.0</ele><time>2025-12-03T08:46:44Z</time></trkpt>
    <trkpt lat="35.470450" lon="34.138351"><ele>141.4</ele><time>2025-12-03T08:47:09Z</time></trkpt>
    <trkpt lat="35.471336" lon="34.138680"><ele>141.8</ele><time>2025-12-03T08:47:29Z</time></trkpt>
    <trkpt lat="35.471569" lon="34.133085"><ele>150.0</ele><time>2025-12-03T08:49:08Z</time></trkpt>
    <trkpt lat="35.471808" lon="34.132836"><ele>151.2</ele><time>2025-12-03T08:49:20Z</time></trkpt>
    <trkpt lat="35.472535" lon="34.132656"><ele>154.0</ele><time>2025-12-03T08:49:49Z</time></trkpt>
    <trkpt lat="35.473482" lon="34.132512"><ele>147.6</ele><time>2025-12-03T08:50:18Z</time></trkpt>
    <trkpt lat="35.472990" lon="34.132197"><ele>142.0</ele><time>2025-12-03T08:50:34Z</time></trkpt>
    <trkpt lat="35.472430" lon="34.130325"><ele>128.4</ele><time>2025-12-03T08:51:16Z</time></trkpt>
    <trkpt lat="35.472530" lon="34.130270"><ele>126.6</ele><time>2025-12-03T08:51:21Z</time></trkpt>
    <trkpt lat="35.472809" lon="34.130945"><ele>121.8</ele><time>2025-12-03T08:51:40Z</time></trkpt>
    <trkpt lat="35.472987" lon="34.131015"><ele>120.6</ele><time>2025-12-03T08:51:49Z</time></trkpt>
    <trkpt lat="35.472792" lon="34.130416"><ele>114.8</ele><time>2025-12-03T08:52:08Z</time></trkpt>
    <trkpt lat="35.472912" lon="34.130036"><ele>111.8</ele><time>2025-12-03T08:52:20Z</time></trkpt>
    <trkpt lat="35.472656" lon="34.129620"><ele>107.8</ele><time>2025-12-03T08:52:34Z</time></trkpt>
    <trkpt lat="35.472915" lon="34.129124"><ele>103.4</ele><time>2025-12-03T08:52:48Z</time></trkpt>
    <trkpt lat="35.472830" lon="34.128649"><ele>98.8</ele><time>2025-12-03T08:52:59Z</time></trkpt>
    <trkpt lat="35.473039" lon="34.128218"><ele>94.8</ele><time>2025-12-03T08:53:12Z</time></trkpt>
    <trkpt lat="35.473481" lon="34.128533"><ele>90.6</ele><time>2025-12-03T08:53:29Z</time></trkpt>
    <trkpt lat="35.473745" lon="34.128099"><ele>86.8</ele><time>2025-12-03T08:53:42Z</time></trkpt>
    <trkpt lat="35.473785" lon="34.127936"><ele>85.2</ele><time>2025-12-03T08:53:46Z</time></trkpt>
    <trkpt lat="35.474247" lon="34.126336"><ele>81.8</ele><time>2025-12-03T08:54:14Z</time></trkpt>
    <trkpt lat="35.474252" lon="34.124399"><ele>78.6</ele><time>2025-12-03T08:54:42Z</time></trkpt>
    <trkpt lat="35.474486" lon="34.123435"><ele>75.0</ele><time>2025-12-03T08:54:57Z</time></trkpt>
    <trkpt lat="35.474889" lon="34.123078"><ele>72.6</ele><time>2025-12-03T08:55:07Z</time></trkpt>
    <trkpt lat="35.474908" lon="34.123019"><ele>72.6</ele><time>2025-12-03T08:55:08Z</time></trkpt>
    <trkpt lat="35.475123" lon="34.121202"><ele>76.2</ele><time>2025-12-03T08:55:55Z</time></trkpt>
    <trkpt lat="35.475748" lon="34.119318"><ele>79.6</ele><time>2025-12-03T08:56:51Z</time></trkpt>
    <trkpt lat="35.475828" lon="34.119180"><ele>80.6</ele><time>2025-12-03T08:56:57Z</time></trkpt>
    <trkpt lat="35.476727" lon="34.117885"><ele>79.8</ele><time>2025-12-03T08:57:39Z</time></trkpt>
    <trkpt lat="35.477389" lon="34.117238"><ele>82.4</ele><time>2025-12-03T08:58:04Z</time></trkpt>
    <trkpt lat="35.477862" lon="34.115901"><ele>80.2</ele><time>2025-12-03T08:58:26Z</time></trkpt>
    <trkpt lat="35.478476" lon="34.114665"><ele>79.8</ele><time>2025-12-03T08:58:45Z</time></trkpt>
    <trkpt lat="35.479795" lon="34.111892"><ele>90.6</ele><time>2025-12-03T08:59:49Z</time></trkpt>
    <trkpt lat="35.480074" lon="34.110699"><ele>98.4</ele><time>2025-12-03T09:00:36Z</time></trkpt>
    <trkpt lat="35.480343" lon="34.109854"><ele>97.4</ele><time>2025-12-03T09:00:54Z</time></trkpt>
    <trkpt lat="35.480295" lon="34.109657"><ele>97.4</ele><time>2025-12-03T09:00:57Z</time></trkpt>
    <trkpt lat="35.479679" lon="34.109016"><ele>98.4</ele><time>2025-12-03T09:01:15Z</time></trkpt>
    <trkpt lat="35.479378" lon="34.108720"><ele>97.8</ele><time>2025-12-03T09:01:22Z</time></trkpt>
    <trkpt lat="35.479178" lon="34.108190"><ele>96.8</ele><time>2025-12-03T09:01:32Z</time></trkpt>
    <trkpt lat="35.479023" lon="34.108221"><ele>96.8</ele><time>2025-12-03T09:01:36Z</time></trkpt>
    <trkpt lat="35.478494" lon="34.108235"><ele>90.6</ele><time>2025-12-03T09:01:45Z</time></trkpt>
    <trkpt lat="35.478266" lon="34.107892"><ele>86.0</ele><time>2025-12-03T09:01:51Z</time></trkpt>
    <trkpt lat="35.477955" lon="34.107793"><ele>81.8</ele><time>2025-12-03T09:01:57Z</time></trkpt>
    <trkpt lat="35.477902" lon="34.107046"><ele>77.8</ele><time>2025-12-03T09:02:07Z</time></trkpt>
    <trkpt lat="35.477879" lon="34.106657"><ele>77.8</ele><time>2025-12-03T09:02:12Z</time></trkpt>
    <trkpt lat="35.477555" lon="34.106080"><ele>78.8</ele><time>2025-12-03T09:02:24Z</time></trkpt>
    <trkpt lat="35.477393" lon="34.105855"><ele>76.8</ele><time>2025-12-03T09:02:28Z</time></trkpt>
    <trkpt lat="35.476854" lon="34.105970"><ele>72.2</ele><time>2025-12-03T09:02:36Z</time></trkpt>
    <trkpt lat="35.476096" lon="34.105889"><ele>65.8</ele><time>2025-12-03T09:02:43Z</time></trkpt>
    <trkpt lat="35.473537" lon="34.105041"><ele>52.0</ele><time>2025-12-03T09:03:04Z</time></trkpt>
    <trkpt lat="35.471131" lon="34.104399"><ele>51.6</ele><time>2025-12-03T09:03:27Z</time></trkpt>
    <trkpt lat="35.470123" lon="34.103724"><ele>51.0</ele><time>2025-12-03T09:03:40Z</time></trkpt>
    <trkpt lat="35.469379" lon="34.103019"><ele>50.2</ele><time>2025-12-03T09:03:51Z</time></trkpt>
    <trkpt lat="35.468190" lon="34.101970"><ele>45.8</ele><time>2025-12-03T09:04:06Z</time></trkpt>
    <trkpt lat="35.467015" lon="34.101327"><ele>42.0</ele><time>2025-12-03T09:04:18Z</time></trkpt>
    <trkpt lat="35.466011" lon="34.100742"><ele>42.0</ele><time>2025-12-03T09:04:30Z</time></trkpt>
    <trkpt lat="35.462946" lon="34.098047"><ele>47.4</ele><time>2025-12-03T09:05:29Z</time></trkpt>
    <trkpt lat="35.460290" lon="34.097012"><ele>50.0</ele><time>2025-12-03T09:06:16Z</time></trkpt>
    <trkpt lat="35.457332" lon="34.096340"><ele>51.6</ele><time>2025-12-03T09:07:05Z</time></trkpt>
    <trkpt lat="35.456630" lon="34.096239"><ele>53.6</ele><time>2025-12-03T09:07:18Z</time></trkpt>
    <trkpt lat="35.454595" lon="34.095420"><ele>56.6</ele><time>2025-12-03T09:07:58Z</time></trkpt>
    <trkpt lat="35.452394" lon="34.095227"><ele>65.4</ele><time>2025-12-03T09:08:50Z</time></trkpt>
    <trkpt lat="35.452175" lon="34.095171"><ele>65.4</ele><time>2025-12-03T09:08:56Z</time></trkpt>
    <trkpt lat="35.450588" lon="34.093989"><ele>59.6</ele><time>2025-12-03T09:09:20Z</time></trkpt>
    <trkpt lat="35.449343" lon="34.093582"><ele>55.2</ele><time>2025-12-03T09:09:32Z</time></trkpt>
    <trkpt lat="35.448474" lon="34.092764"><ele>53.4</ele><time>2025-12-03T09:09:43Z</time></trkpt>
    <trkpt lat="35.447551" lon="34.092635"><ele>49.6</ele><time>2025-12-03T09:09:52Z</time></trkpt>
    <trkpt lat="35.446840" lon="34.092452"><ele>49.2</ele><time>2025-12-03T09:10:00Z</time></trkpt>
    <trkpt lat="35.444819" lon="34.089948"><ele>49.6</ele><time>2025-12-03T09:10:41Z</time></trkpt>
    <trkpt lat="35.443820" lon="34.089226"><ele>50.0</ele><time>2025-12-03T09:10:58Z</time></trkpt>
    <trkpt lat="35.443171" lon="34.088477"><ele>46.6</ele><time>2025-12-03T09:11:08Z</time></trkpt>
    <trkpt lat="35.441892" lon="34.088239"><ele>45.2</ele><time>2025-12-03T09:11:23Z</time></trkpt>
    <trkpt lat="35.440629" lon="34.088098"><ele>46.0</ele><time>2025-12-03T09:11:39Z</time></trkpt>
    <trkpt lat="35.439045" lon="34.087239"><ele>48.6</ele><time>2025-12-03T09:12:05Z</time></trkpt>
    <trkpt lat="35.437201" lon="34.084913"><ele>57.4</ele><time>2025-12-03T09:13:03Z</time></trkpt>
    <trkpt lat="35.436724" lon="34.083946"><ele>61.4</ele><time>2025-12-03T09:13:30Z</time></trkpt>
    <trkpt lat="35.436101" lon="34.082865"><ele>60.6</ele><time>2025-12-03T09:17:37Z</time></trkpt>
    <trkpt lat="35.433465" lon="34.080186"><ele>55.4</ele><time>2025-12-03T09:18:28Z</time></trkpt>
    <trkpt lat="35.430591" lon="34.078723"><ele>55.2</ele><time>2025-12-03T09:19:11Z</time></trkpt>
    <trkpt lat="35.428467" lon="34.077269"><ele>55.6</ele><time>2025-12-03T09:19:47Z</time></trkpt>
    <trkpt lat="35.428106" lon="34.077083"><ele>55.8</ele><time>2025-12-03T09:19:53Z</time></trkpt>
    <trkpt lat="35.426614" lon="34.076295"><ele>59.4</ele><time>2025-12-03T09:20:22Z</time></trkpt>
    <trkpt lat="35.425749" lon="34.075488"><ele>64.6</ele><time>2025-12-03T09:20:53Z</time></trkpt>
    <trkpt lat="35.424787" lon="34.074045"><ele>77.2</ele><time>2025-12-03T09:22:02Z</time></trkpt>
    <trkpt lat="35.423987" lon="34.073388"><ele>86.6</ele><time>2025-12-03T09:22:57Z</time></trkpt>
    <trkpt lat="35.422781" lon="34.073217"><ele>93.0</ele><time>2025-12-03T09:23:38Z</time></trkpt>
    <trkpt lat="35.422755" lon="34.073189"><ele>93.0</ele><time>2025-12-03T09:23:39Z</time></trkpt>
    <trkpt lat="35.421614" lon="34.071494"><ele>94.6</ele><time>2025-12-03T09:24:27Z</time></trkpt>
    <trkpt lat="35.421258" lon="34.070582"><ele>95.2</ele><time>2025-12-03T09:24:43Z</time></trkpt>
    <trkpt lat="35.420081" lon="34.069488"><ele>96.4</ele><time>2025-12-03T09:25:12Z</time></trkpt>
    <trkpt lat="35.419649" lon="34.068781"><ele>97.0</ele><time>2025-12-03T09:25:26Z</time></trkpt>
    <trkpt lat="35.417539" lon="34.063870"><ele>98.8</ele><time>2025-12-03T09:26:50Z</time></trkpt>
    <trkpt lat="35.417141" lon="34.063100"><ele>99.0</ele><time>2025-12-03T09:27:04Z</time></trkpt>
    <trkpt lat="35.416588" lon="34.062253"><ele>97.6</ele><time>2025-12-03T09:27:18Z</time></trkpt>
    <trkpt lat="35.410780" lon="34.054698"><ele>94.4</ele><time>2025-12-03T09:29:20Z</time></trkpt>
    <trkpt lat="35.410046" lon="34.053749"><ele>95.4</ele><time>2025-12-03T09:29:37Z</time></trkpt>
    <trkpt lat="35.409227" lon="34.052882"><ele>97.6</ele><time>2025-12-03T09:29:58Z</time></trkpt>
    <trkpt lat="35.407178" lon="34.051234"><ele>105.8</ele><time>2025-12-03T09:30:59Z</time></trkpt>
    <trkpt lat="35.405886" lon="34.049481"><ele>106.0</ele><time>2025-12-03T09:31:34Z</time></trkpt>
    <trkpt lat="35.405664" lon="34.049272"><ele>105.8</ele><time>2025-12-03T09:31:39Z</time></trkpt>
    <trkpt lat="35.404527" lon="34.048833"><ele>105.4</ele><time>2025-12-03T09:31:58Z</time></trkpt>
    <trkpt lat="35.403494" lon="34.049003"><ele>104.8</ele><time>2025-12-03T09:32:14Z</time></trkpt>
    <trkpt lat="35.399923" lon="34.049591"><ele>94.2</ele><time>2025-12-03T09:32:56Z</time></trkpt>
    <trkpt lat="35.399390" lon="34.049924"><ele>92.4</ele><time>2025-12-03T09:33:02Z</time></trkpt>
    <trkpt lat="35.399245" lon="34.050108"><ele>92.2</ele><time>2025-12-03T09:33:03Z</time></trkpt>
    <trkpt lat="35.398597" lon="34.051063"><ele>83.6</ele><time>2025-12-03T09:33:14Z</time></trkpt>
    <trkpt lat="35.398009" lon="34.051395"><ele>76.6</ele><time>2025-12-03T09:33:20Z</time></trkpt>
    <trkpt lat="35.397362" lon="34.051326"><ele>71.4</ele><time>2025-12-03T09:33:26Z</time></trkpt>
    <trkpt lat="35.397157" lon="34.051242"><ele>70.6</ele><time>2025-12-03T09:33:27Z</time></trkpt>
    <trkpt lat="35.395843" lon="34.050695"><ele>66.8</ele><time>2025-12-03T09:33:41Z</time></trkpt>
    <trkpt lat="35.389235" lon="34.045989"><ele>37.6</ele><time>2025-12-03T09:34:46Z</time></trkpt>
    <trkpt lat="35.385248" lon="34.043109"><ele>34.8</ele><time>2025-12-03T09:35:41Z</time></trkpt>
    <trkpt lat="35.382279" lon="34.041522"><ele>28.8</ele><time>2025-12-03T09:36:37Z</time></trkpt>
    <trkpt lat="35.382185" lon="34.041432"><ele>28.4</ele><time>2025-12-03T09:36:39Z</time></trkpt>
    <trkpt lat="35.379179" lon="34.038572"><ele>33.6</ele><time>2025-12-03T09:37:39Z</time></trkpt>
    <trkpt lat="35.377195" lon="34.036066"><ele>36.6</ele><time>2025-12-03T09:38:24Z</time></trkpt>
    <trkpt lat="35.377057" lon="34.035917"><ele>36.8</ele><time>2025-12-03T09:38:27Z</time></trkpt>
    <trkpt lat="35.373625" lon="34.032250"><ele>28.4</ele><time>2025-12-03T09:39:20Z</time></trkpt>
    <trkpt lat="35.373176" lon="34.032261"><ele>28.0</ele><time>2025-12-03T09:39:26Z</time></trkpt>
    <trkpt lat="35.372290" lon="34.033498"><ele>26.2</ele><time>2025-12-03T09:39:43Z</time></trkpt>
    <trkpt lat="35.372117" lon="34.033506"><ele>26.2</ele><time>2025-12-03T09:39:46Z</time></trkpt>
    <trkpt lat="35.371378" lon="34.032799"><ele>26.2</ele><time>2025-12-03T09:39:59Z</time></trkpt>
    <trkpt lat="35.369418" lon="34.030772"><ele>30.0</ele><time>2025-12-03T09:40:39Z</time></trkpt>
    <trkpt lat="35.368746" lon="34.030468"><ele>30.6</ele><time>2025-12-03T09:40:51Z</time></trkpt>
    <trkpt lat="35.368451" lon="34.030025"><ele>31.2</ele><time>2025-12-03T09:40:59Z</time></trkpt>
    <trkpt lat="35.368125" lon="34.029173"><ele>34.4</ele><time>2025-12-03T09:41:17Z</time></trkpt>
    <trkpt lat="35.368087" lon="34.028973"><ele>34.4</ele><time>2025-12-03T09:41:22Z</time></trkpt>
    <trkpt lat="35.367643" lon="34.028897"><ele>33.8</ele><time>2025-12-03T09:41:30Z</time></trkpt>
    <trkpt lat="35.367467" lon="34.028711"><ele>33.6</ele><time>2025-12-03T09:41:35Z</time></trkpt>
    <trkpt lat="35.366886" lon="34.026860"><ele>34.4</ele><time>2025-12-03T09:42:02Z</time></trkpt>
    <trkpt lat="35.365761" lon="34.024059"><ele>35.4</ele><time>2025-12-03T09:42:44Z</time></trkpt>
    <trkpt lat="35.364192" lon="34.021513"><ele>35.0</ele><time>2025-12-03T09:43:24Z</time></trkpt>
    <trkpt lat="35.362932" lon="34.018147"><ele>37.4</ele><time>2025-12-03T09:44:14Z</time></trkpt>
    <trkpt lat="35.362805" lon="34.017798"><ele>37.2</ele><time>2025-12-03T09:44:19Z</time></trkpt>
    <trkpt lat="35.362263" lon="34.016966"><ele>36.0</ele><time>2025-12-03T09:44:33Z</time></trkpt>
    <trkpt lat="35.362225" lon="34.016358"><ele>35.8</ele><time>2025-12-03T09:44:41Z</time></trkpt>
    <trkpt lat="35.362054" lon="34.015922"><ele>35.2</ele><time>2025-12-03T09:44:47Z</time></trkpt>
    <trkpt lat="35.359616" lon="34.012323"><ele>28.4</ele><time>2025-12-03T09:45:32Z</time></trkpt>
    <trkpt lat="35.357467" lon="34.009842"><ele>25.0</ele><time>2025-12-03T09:46:06Z</time></trkpt>
    <trkpt lat="35.355885" lon="34.008076"><ele>25.2</ele><time>2025-12-03T09:46:32Z</time></trkpt>
    <trkpt lat="35.355149" lon="34.006985"><ele>25.6</ele><time>2025-12-03T09:46:47Z</time></trkpt>
    <trkpt lat="35.352382" lon="33.999148"><ele>25.6</ele><time>2025-12-03T09:48:19Z</time></trkpt>
    <trkpt lat="35.351680" lon="33.997706"><ele>25.4</ele><time>2025-12-03T09:48:38Z</time></trkpt>
    <trkpt lat="35.351118" lon="33.996662"><ele>26.2</ele><time>2025-12-03T09:48:52Z</time></trkpt>
    <trkpt lat="35.350670" lon="33.996381"><ele>26.4</ele><time>2025-12-03T09:48:59Z</time></trkpt>
    <trkpt lat="35.349598" lon="33.996277"><ele>34.6</ele><time>2025-12-03T09:49:28Z</time></trkpt>
    <trkpt lat="35.349194" lon="33.996471"><ele>38.6</ele><time>2025-12-03T09:49:49Z</time></trkpt>
    <trkpt lat="35.348654" lon="33.996929"><ele>41.2</ele><time>2025-12-03T09:50:19Z</time></trkpt>
    <trkpt lat="35.348032" lon="33.997549"><ele>37.4</ele><time>2025-12-03T09:50:35Z</time></trkpt>
    <trkpt lat="35.346917" lon="33.997656"><ele>30.2</ele><time>2025-12-03T09:50:46Z</time></trkpt>
    <trkpt lat="35.345829" lon="33.998317"><ele>25.8</ele><time>2025-12-03T09:50:57Z</time></trkpt>
    <trkpt lat="35.345455" lon="33.998537"><ele>25.2</ele><time>2025-12-03T09:51:01Z</time></trkpt>
    <trkpt lat="35.344707" lon="33.998649"><ele>25.4</ele><time>2025-12-03T09:51:10Z</time></trkpt>
    <trkpt lat="35.343685" lon="33.999363"><ele>26.2</ele><time>2025-12-03T09:51:29Z</time></trkpt>
    <trkpt lat="35.343297" lon="33.999250"><ele>26.6</ele><time>2025-12-03T09:51:39Z</time></trkpt>
    <trkpt lat="35.342906" lon="33.997136"><ele>18.6</ele><time>2025-12-03T09:52:02Z</time></trkpt>
    <trkpt lat="35.342825" lon="33.995881"><ele>16.6</ele><time>2025-12-03T09:52:15Z</time></trkpt>
    <trkpt lat="35.342778" lon="33.994354"><ele>15.8</ele><time>2025-12-03T09:52:31Z</time></trkpt>
    <trkpt lat="35.342451" lon="33.992853"><ele>14.8</ele><time>2025-12-03T09:52:48Z</time></trkpt>
    <trkpt lat="35.341141" lon="33.989808"><ele>15.8</ele><time>2025-12-03T09:53:27Z</time></trkpt>
    <trkpt lat="35.340066" lon="33.986727"><ele>16.4</ele><time>2025-12-03T09:54:09Z</time></trkpt>
    <trkpt lat="35.339222" lon="33.985269"><ele>17.2</ele><time>2025-12-03T09:54:31Z</time></trkpt>
    <trkpt lat="35.338854" lon="33.984240"><ele>18.8</ele><time>2025-12-03T09:54:46Z</time></trkpt>
    <trkpt lat="35.337543" lon="33.982173"><ele>17.8</ele><time>2025-12-03T09:55:14Z</time></trkpt>
    <trkpt lat="35.336163" lon="33.980443"><ele>18.0</ele><time>2025-12-03T09:55:39Z</time></trkpt>
    <trkpt lat="35.335821" lon="33.980003"><ele>17.6</ele><time>2025-12-03T09:55:45Z</time></trkpt>
    <trkpt lat="35.333229" lon="33.977680"><ele>12.2</ele><time>2025-12-03T09:56:18Z</time></trkpt>
    <trkpt lat="35.331329" lon="33.974882"><ele>9.2</ele><time>2025-12-03T09:56:48Z</time></trkpt>
    <trkpt lat="35.329114" lon="33.971571"><ele>10.0</ele><time>2025-12-03T09:57:30Z</time></trkpt>
    <trkpt lat="35.328698" lon="33.971366"><ele>9.2</ele><time>2025-12-03T09:58:07Z</time></trkpt>
    <trkpt lat="35.328691" lon="33.971569"><ele>9.0</ele><time>2025-12-03T09:58:12Z</time></trkpt>
    <trkpt lat="35.328922" lon="33.971698"><ele>9.0</ele><time>2025-12-03T09:58:42Z</time></trkpt>
    <trkpt lat="35.328689" lon="33.971544"><ele>8.4</ele><time>2025-12-03T10:41:48Z</time></trkpt>
    <trkpt lat="35.328510" lon="33.970728"><ele>9.4</ele><time>2025-12-03T10:42:10Z</time></trkpt>
    <trkpt lat="35.327183" lon="33.969424"><ele>9.2</ele><time>2025-12-03T10:43:05Z</time></trkpt>
    <trkpt lat="35.324988" lon="33.966367"><ele>8.4</ele><time>2025-12-03T10:44:15Z</time></trkpt>
    <trkpt lat="35.323258" lon="33.964395"><ele>8.4</ele><time>2025-12-03T10:44:48Z</time></trkpt>
    <trkpt lat="35.321324" lon="33.961891"><ele>8.4</ele><time>2025-12-03T10:45:25Z</time></trkpt>
    <trkpt lat="35.319557" lon="33.959140"><ele>7.0</ele><time>2025-12-03T10:46:03Z</time></trkpt>
    <trkpt lat="35.318713" lon="33.957211"><ele>6.2</ele><time>2025-12-03T10:46:25Z</time></trkpt>
    <trkpt lat="35.317555" lon="33.955354"><ele>5.0</ele><time>2025-12-03T10:46:49Z</time></trkpt>
    <trkpt lat="35.316016" lon="33.954008"><ele>5.4</ele><time>2025-12-03T10:47:13Z</time></trkpt>
    <trkpt lat="35.314502" lon="33.953044"><ele>6.4</ele><time>2025-12-03T10:47:36Z</time></trkpt>
    <trkpt lat="35.313352" lon="33.951893"><ele>6.6</ele><time>2025-12-03T10:47:56Z</time></trkpt>
    <trkpt lat="35.311336" lon="33.950229"><ele>6.4</ele><time>2025-12-03T10:48:28Z</time></trkpt>
    <trkpt lat="35.309954" lon="33.949371"><ele>6.6</ele><time>2025-12-03T10:48:49Z</time></trkpt>
    <trkpt lat="35.309435" lon="33.948610"><ele>6.6</ele><time>2025-12-03T10:49:00Z</time></trkpt>
    <trkpt lat="35.308897" lon="33.947041"><ele>6.8</ele><time>2025-12-03T10:49:19Z</time></trkpt>
    <trkpt lat="35.306731" lon="33.944776"><ele>4.4</ele><time>2025-12-03T10:49:56Z</time></trkpt>
    <trkpt lat="35.305162" lon="33.942242"><ele>5.6</ele><time>2025-12-03T10:50:32Z</time></trkpt>
    <trkpt lat="35.304476" lon="33.941498"><ele>6.0</ele><time>2025-12-03T10:50:45Z</time></trkpt>
    <trkpt lat="35.302419" lon="33.940105"><ele>6.2</ele><time>2025-12-03T10:51:18Z</time></trkpt>
    <trkpt lat="35.295083" lon="33.934093"><ele>6.4</ele><time>2025-12-03T10:53:16Z</time></trkpt>
    <trkpt lat="35.291875" lon="33.932218"><ele>6.6</ele><time>2025-12-03T10:54:06Z</time></trkpt>
    <trkpt lat="35.289000" lon="33.930770"><ele>7.2</ele><time>2025-12-03T10:54:49Z</time></trkpt>
    <trkpt lat="35.288303" lon="33.930119"><ele>7.2</ele><time>2025-12-03T10:55:01Z</time></trkpt>
    <trkpt lat="35.285260" lon="33.926204"><ele>4.8</ele><time>2025-12-03T10:55:58Z</time></trkpt>
    <trkpt lat="35.282901" lon="33.923880"><ele>4.8</ele><time>2025-12-03T10:56:35Z</time></trkpt>
    <trkpt lat="35.278979" lon="33.920564"><ele>5.0</ele><time>2025-12-03T10:57:32Z</time></trkpt>
    <trkpt lat="35.278619" lon="33.920466"><ele>5.0</ele><time>2025-12-03T10:57:37Z</time></trkpt>
    <trkpt lat="35.278110" lon="33.919965"><ele>5.0</ele><time>2025-12-03T10:57:46Z</time></trkpt>
    <trkpt lat="35.274231" lon="33.917254"><ele>4.2</ele><time>2025-12-03T10:58:45Z</time></trkpt>
    <trkpt lat="35.268657" lon="33.914520"><ele>4.6</ele><time>2025-12-03T11:00:05Z</time></trkpt>
    <trkpt lat="35.268289" lon="33.914576"><ele>4.4</ele><time>2025-12-03T11:00:12Z</time></trkpt>
    <trkpt lat="35.267824" lon="33.914080"><ele>4.6</ele><time>2025-12-03T11:00:24Z</time></trkpt>
    <trkpt lat="35.264177" lon="33.912388"><ele>5.4</ele><time>2025-12-03T11:01:24Z</time></trkpt>
    <trkpt lat="35.261110" lon="33.909837"><ele>5.8</ele><time>2025-12-03T11:02:17Z</time></trkpt>
    <trkpt lat="35.260640" lon="33.909645"><ele>5.8</ele><time>2025-12-03T11:02:24Z</time></trkpt>
    <trkpt lat="35.260327" lon="33.909194"><ele>6.0</ele><time>2025-12-03T11:02:31Z</time></trkpt>
    <trkpt lat="35.257535" lon="33.906633"><ele>4.8</ele><time>2025-12-03T11:03:18Z</time></trkpt>
    <trkpt lat="35.254998" lon="33.905015"><ele>4.0</ele><time>2025-12-03T11:03:59Z</time></trkpt>
    <trkpt lat="35.254600" lon="33.904950"><ele>4.0</ele><time>2025-12-03T11:04:06Z</time></trkpt>
    <trkpt lat="35.253916" lon="33.904572"><ele>3.8</ele><time>2025-12-03T11:05:40Z</time></trkpt>
    <trkpt lat="35.253362" lon="33.904268"><ele>4.2</ele><time>2025-12-03T11:05:51Z</time></trkpt>
    <trkpt lat="35.251984" lon="33.904118"><ele>4.4</ele><time>2025-12-03T11:06:13Z</time></trkpt>
    <trkpt lat="35.251375" lon="33.903602"><ele>4.4</ele><time>2025-12-03T11:06:24Z</time></trkpt>
    <trkpt lat="35.250751" lon="33.903801"><ele>4.4</ele><time>2025-12-03T11:06:33Z</time></trkpt>
    <trkpt lat="35.250385" lon="33.903727"><ele>4.4</ele><time>2025-12-03T11:06:38Z</time></trkpt>
    <trkpt lat="35.249543" lon="33.903175"><ele>4.6</ele><time>2025-12-03T11:06:51Z</time></trkpt>
    <trkpt lat="35.249311" lon="33.903474"><ele>4.4</ele><time>2025-12-03T11:06:57Z</time></trkpt>
    <trkpt lat="35.249063" lon="33.903435"><ele>4.2</ele><time>2025-12-03T11:07:03Z</time></trkpt>
    <trkpt lat="35.248838" lon="33.901497"><ele>4.2</ele><time>2025-12-03T11:07:42Z</time></trkpt>
    <trkpt lat="35.248357" lon="33.901169"><ele>4.4</ele><time>2025-12-03T11:08:35Z</time></trkpt>
    <trkpt lat="35.247121" lon="33.901064"><ele>4.6</ele><time>2025-12-03T11:09:04Z</time></trkpt>
    <trkpt lat="35.246753" lon="33.901405"><ele>4.4</ele><time>2025-12-03T11:12:05Z</time></trkpt>
    <trkpt lat="35.246516" lon="33.901082"><ele>5.0</ele><time>2025-12-03T11:12:25Z</time></trkpt>
    <trkpt lat="35.244571" lon="33.900926"><ele>6.8</ele><time>2025-12-03T11:13:08Z</time></trkpt>
    <trkpt lat="35.239324" lon="33.899269"><ele>6.2</ele><time>2025-12-03T11:14:16Z</time></trkpt>
    <trkpt lat="35.236277" lon="33.898649"><ele>7.0</ele><time>2025-12-03T11:14:55Z</time></trkpt>
    <trkpt lat="35.233162" lon="33.898988"><ele>9.4</ele><time>2025-12-03T11:15:37Z</time></trkpt>
    <trkpt lat="35.232327" lon="33.898892"><ele>10.0</ele><time>2025-12-03T11:15:49Z</time></trkpt>
    <trkpt lat="35.230361" lon="33.898022"><ele>8.4</ele><time>2025-12-03T11:16:24Z</time></trkpt>
    <trkpt lat="35.229908" lon="33.897981"><ele>8.2</ele><time>2025-12-03T11:16:35Z</time></trkpt>
    <trkpt lat="35.225327" lon="33.895314"><ele>8.2</ele><time>2025-12-03T11:17:56Z</time></trkpt>
    <trkpt lat="35.223526" lon="33.894769"><ele>8.2</ele><time>2025-12-03T11:18:20Z</time></trkpt>
    <trkpt lat="35.219862" lon="33.894505"><ele>11.6</ele><time>2025-12-03T11:19:12Z</time></trkpt>
    <trkpt lat="35.219193" lon="33.894463"><ele>11.2</ele><time>2025-12-03T11:19:21Z</time></trkpt>
    <trkpt lat="35.216820" lon="33.894577"><ele>10.4</ele><time>2025-12-03T11:19:52Z</time></trkpt>
    <trkpt lat="35.213855" lon="33.893792"><ele>8.2</ele><time>2025-12-03T11:20:32Z</time></trkpt>
    <trkpt lat="35.213283" lon="33.893955"><ele>8.0</ele><time>2025-12-03T11:20:42Z</time></trkpt>
    <trkpt lat="35.212400" lon="33.893618"><ele>7.6</ele><time>2025-12-03T11:20:55Z</time></trkpt>
    <trkpt lat="35.210882" lon="33.893555"><ele>7.0</ele><time>2025-12-03T11:21:18Z</time></trkpt>
    <trkpt lat="35.206006" lon="33.894287"><ele>7.8</ele><time>2025-12-03T11:22:24Z</time></trkpt>
    <trkpt lat="35.205749" lon="33.894370"><ele>7.8</ele><time>2025-12-03T11:22:28Z</time></trkpt>
    <trkpt lat="35.205400" lon="33.894763"><ele>8.0</ele><time>2025-12-03T11:22:36Z</time></trkpt>
    <trkpt lat="35.205164" lon="33.894789"><ele>7.8</ele><time>2025-12-03T11:22:41Z</time></trkpt>
    <trkpt lat="35.204943" lon="33.894207"><ele>7.6</ele><time>2025-12-03T11:22:52Z</time></trkpt>
    <trkpt lat="35.205135" lon="33.893720"><ele>7.8</ele><time>2025-12-03T11:22:59Z</time></trkpt>
    <trkpt lat="35.205073" lon="33.892773"><ele>6.6</ele><time>2025-12-03T11:23:11Z</time></trkpt>
    <trkpt lat="35.204518" lon="33.892601"><ele>6.2</ele><time>2025-12-03T11:23:21Z</time></trkpt>
    <trkpt lat="35.204327" lon="33.890855"><ele>5.2</ele><time>2025-12-03T11:23:42Z</time></trkpt>
    <trkpt lat="35.204294" lon="33.890697"><ele>5.2</ele><time>2025-12-03T11:23:44Z</time></trkpt>
    <trkpt lat="35.203829" lon="33.888490"><ele>7.0</ele><time>2025-12-03T11:24:12Z</time></trkpt>
    <trkpt lat="35.203105" lon="33.886373"><ele>7.8</ele><time>2025-12-03T11:24:39Z</time></trkpt>
    <trkpt lat="35.201736" lon="33.884411"><ele>8.4</ele><time>2025-12-03T11:25:08Z</time></trkpt>
    <trkpt lat="35.199787" lon="33.880996"><ele>8.4</ele><time>2025-12-03T11:25:52Z</time></trkpt>
    <trkpt lat="35.199381" lon="33.880134"><ele>8.4</ele><time>2025-12-03T11:26:02Z</time></trkpt>
    <trkpt lat="35.198931" lon="33.878072"><ele>8.8</ele><time>2025-12-03T11:26:26Z</time></trkpt>
    <trkpt lat="35.197901" lon="33.877475"><ele>9.0</ele><time>2025-12-03T11:26:44Z</time></trkpt>
    <trkpt lat="35.197654" lon="33.876907"><ele>9.2</ele><time>2025-12-03T11:26:52Z</time></trkpt>
    <trkpt lat="35.197133" lon="33.876394"><ele>9.6</ele><time>2025-12-03T11:27:02Z</time></trkpt>
    <trkpt lat="35.197005" lon="33.875535"><ele>10.2</ele><time>2025-12-03T11:27:15Z</time></trkpt>
    <trkpt lat="35.196870" lon="33.875579"><ele>10.4</ele><time>2025-12-03T11:27:19Z</time></trkpt>
    <trkpt lat="35.196518" lon="33.875669"><ele>10.2</ele><time>2025-12-03T11:27:27Z</time></trkpt>
    <trkpt lat="35.196385" lon="33.876013"><ele>9.8</ele><time>2025-12-03T11:27:34Z</time></trkpt>
    <trkpt lat="35.195153" lon="33.875912"><ele>9.2</ele><time>2025-12-03T11:28:03Z</time></trkpt>
    <trkpt lat="35.194903" lon="33.876061"><ele>9.0</ele><time>2025-12-03T11:28:09Z</time></trkpt>
    <trkpt lat="35.191432" lon="33.876045"><ele>9.6</ele><time>2025-12-03T11:29:01Z</time></trkpt>
    <trkpt lat="35.189116" lon="33.875568"><ele>10.0</ele><time>2025-12-03T11:29:32Z</time></trkpt>
    <trkpt lat="35.187656" lon="33.875581"><ele>9.4</ele><time>2025-12-03T11:29:57Z</time></trkpt>
    <trkpt lat="35.186530" lon="33.878689"><ele>9.0</ele><time>2025-12-03T11:31:11Z</time></trkpt>
    <trkpt lat="35.185623" lon="33.880726"><ele>8.2</ele><time>2025-12-03T11:31:51Z</time></trkpt>
    <trkpt lat="35.184526" lon="33.880344"><ele>8.4</ele><time>2025-12-03T11:32:34Z</time></trkpt>
    <trkpt lat="35.181819" lon="33.879971"><ele>8.0</ele><time>2025-12-03T11:33:45Z</time></trkpt>
    <trkpt lat="35.180978" lon="33.880301"><ele>8.8</ele><time>2025-12-03T11:34:04Z</time></trkpt>
    <trkpt lat="35.180421" lon="33.880204"><ele>8.8</ele><time>2025-12-03T11:34:16Z</time></trkpt>
    <trkpt lat="35.176987" lon="33.880672"><ele>9.0</ele><time>2025-12-03T11:35:29Z</time></trkpt>
    <trkpt lat="35.176556" lon="33.880781"><ele>9.0</ele><time>2025-12-03T11:35:39Z</time></trkpt>
    <trkpt lat="35.175068" lon="33.881240"><ele>11.6</ele><time>2025-12-03T11:36:16Z</time></trkpt>
    <trkpt lat="35.174635" lon="33.880690"><ele>13.2</ele><time>2025-12-03T11:36:36Z</time></trkpt>
    <trkpt lat="35.174275" lon="33.881324"><ele>13.4</ele><time>2025-12-03T11:36:52Z</time></trkpt>
    <trkpt lat="35.174168" lon="33.881256"><ele>13.6</ele><time>2025-12-03T11:37:02Z</time></trkpt>
    <trkpt lat="35.174232" lon="33.881366"><ele>13.6</ele><time>2025-12-03T11:39:34Z</time></trkpt>
    <trkpt lat="35.173580" lon="33.880483"><ele>14.0</ele><time>2025-12-03T11:39:57Z</time></trkpt>
    <trkpt lat="35.168228" lon="33.875212"><ele>14.6</ele><time>2025-12-03T11:41:32Z</time></trkpt>
    <trkpt lat="35.167582" lon="33.874664"><ele>15.0</ele><time>2025-12-03T11:41:43Z</time></trkpt>
    <trkpt lat="35.166176" lon="33.873840"><ele>17.2</ele><time>2025-12-03T11:42:07Z</time></trkpt>
    <trkpt lat="35.165803" lon="33.874390"><ele>17.2</ele><time>2025-12-03T11:42:16Z</time></trkpt>
    <trkpt lat="35.164545" lon="33.876287"><ele>14.8</ele><time>2025-12-03T11:42:43Z</time></trkpt>
    <trkpt lat="35.163528" lon="33.878269"><ele>14.2</ele><time>2025-12-03T11:43:09Z</time></trkpt>
    <trkpt lat="35.162720" lon="33.880187"><ele>12.8</ele><time>2025-12-03T11:43:32Z</time></trkpt>
    <trkpt lat="35.162029" lon="33.883390"><ele>10.0</ele><time>2025-12-03T11:44:13Z</time></trkpt>
    <trkpt lat="35.161537" lon="33.884024"><ele>7.4</ele><time>2025-12-03T11:44:27Z</time></trkpt>
    <trkpt lat="35.160567" lon="33.882666"><ele>6.0</ele><time>2025-12-03T11:44:54Z</time></trkpt>
    <trkpt lat="35.158948" lon="33.882464"><ele>4.4</ele><time>2025-12-03T11:45:20Z</time></trkpt>
    <trkpt lat="35.158533" lon="33.882490"><ele>4.4</ele><time>2025-12-03T11:45:26Z</time></trkpt>
    <trkpt lat="35.152945" lon="33.884883"><ele>5.2</ele><time>2025-12-03T11:46:53Z</time></trkpt>
    <trkpt lat="35.151669" lon="33.885120"><ele>5.4</ele><time>2025-12-03T11:47:10Z</time></trkpt>
    <trkpt lat="35.148575" lon="33.885330"><ele>5.4</ele><time>2025-12-03T11:47:52Z</time></trkpt>
    <trkpt lat="35.147102" lon="33.885730"><ele>5.6</ele><time>2025-12-03T11:48:17Z</time></trkpt>
    <trkpt lat="35.144626" lon="33.894533"><ele>5.8</ele><time>2025-12-03T11:50:05Z</time></trkpt>
    <trkpt lat="35.144417" lon="33.895871"><ele>5.4</ele><time>2025-12-03T11:50:23Z</time></trkpt>
    <trkpt lat="35.144104" lon="33.896437"><ele>5.2</ele><time>2025-12-03T11:50:32Z</time></trkpt>
    <trkpt lat="35.142219" lon="33.903164"><ele>4.4</ele><time>2025-12-03T11:51:49Z</time></trkpt>
    <trkpt lat="35.141401" lon="33.906087"><ele>5.0</ele><time>2025-12-03T11:52:28Z</time></trkpt>
    <trkpt lat="35.140577" lon="33.908084"><ele>5.0</ele><time>2025-12-03T11:52:55Z</time></trkpt>
    <trkpt lat="35.139637" lon="33.909633"><ele>5.2</ele><time>2025-12-03T11:53:15Z</time></trkpt>
    <trkpt lat="35.138660" lon="33.910813"><ele>5.2</ele><time>2025-12-03T11:53:33Z</time></trkpt>
    <trkpt lat="35.131277" lon="33.917767"><ele>10.0</ele><time>2025-12-03T11:55:44Z</time></trkpt>
    <trkpt lat="35.128599" lon="33.920962"><ele>11.8</ele><time>2025-12-03T11:56:44Z</time></trkpt>
    <trkpt lat="35.121040" lon="33.935362"><ele>11.8</ele><time>2025-12-03T12:00:48Z</time></trkpt>
    <trkpt lat="35.120656" lon="33.936618"><ele>12.4</ele><time>2025-12-03T12:01:03Z</time></trkpt>
    <trkpt lat="35.120551" lon="33.937683"><ele>12.8</ele><time>2025-12-03T12:01:18Z</time></trkpt>
    <trkpt lat="35.120799" lon="33.938396"><ele>13.8</ele><time>2025-12-03T12:01:33Z</time></trkpt>
    <trkpt lat="35.120603" lon="33.938912"><ele>14.0</ele><time>2025-12-03T12:01:42Z</time></trkpt>
    <trkpt lat="35.120751" lon="33.940108"><ele>16.0</ele><time>2025-12-03T12:02:00Z</time></trkpt>
    <trkpt lat="35.120556" lon="33.941644"><ele>16.4</ele><time>2025-12-03T12:02:21Z</time></trkpt>
    <trkpt lat="35.120530" lon="33.942858"><ele>15.0</ele><time>2025-12-03T12:02:35Z</time></trkpt>
    <trkpt lat="35.120699" lon="33.944205"><ele>12.6</ele><time>2025-12-03T12:02:50Z</time></trkpt>
    <trkpt lat="35.121257" lon="33.945998"><ele>9.2</ele><time>2025-12-03T12:03:10Z</time></trkpt>
    <trkpt lat="35.122478" lon="33.948340"><ele>3.6</ele><time>2025-12-03T12:03:46Z</time></trkpt>
    <trkpt lat="35.122480" lon="33.948386"><ele>3.4</ele><time>2025-12-03T12:03:47Z</time></trkpt>
    <trkpt lat="35.122063" lon="33.949205"><ele>3.2</ele><time>2025-12-03T12:04:03Z</time></trkpt>
    <trkpt lat="35.122138" lon="33.950257"><ele>3.2</ele><time>2025-12-03T12:04:18Z</time></trkpt>
    <trkpt lat="35.121957" lon="33.951887"><ele>2.8</ele><time>2025-12-03T12:04:39Z</time></trkpt>
    <trkpt lat="35.121527" lon="33.952710"><ele>2.2</ele><time>2025-12-03T12:04:53Z</time></trkpt>
    <trkpt lat="35.121499" lon="33.952769"><ele>2.2</ele><time>2025-12-03T12:04:54Z</time></trkpt>
    <trkpt lat="35.121183" lon="33.953824"><ele>2.4</ele><time>2025-12-03T12:05:09Z</time></trkpt>
    <trkpt lat="35.120760" lon="33.954294"><ele>2.2</ele><time>2025-12-03T12:05:18Z</time></trkpt>
    <trkpt lat="35.120025" lon="33.954581"><ele>2.2</ele><time>2025-12-03T12:05:32Z</time></trkpt>
    <trkpt lat="35.119583" lon="33.954358"><ele>2.0</ele><time>2025-12-03T12:05:40Z</time></trkpt>
    <trkpt lat="35.118167" lon="33.954301"><ele>2.2</ele><time>2025-12-03T12:06:05Z</time></trkpt>
    <trkpt lat="35.117707" lon="33.954531"><ele>2.4</ele><time>2025-12-03T12:06:17Z</time></trkpt>
    <trkpt lat="35.117912" lon="33.955062"><ele>2.6</ele><time>2025-12-03T12:06:32Z</time></trkpt>
    <trkpt lat="35.117717" lon="33.954816"><ele>2.6</ele><time>2025-12-03T12:06:51Z</time></trkpt>
    <trkpt lat="35.117626" lon="33.954336"><ele>2.8</ele><time>2025-12-03T12:07:40Z</time></trkpt>
    <trkpt lat="35.116640" lon="33.955149"><ele>3.2</ele><time>2025-12-03T12:12:47Z</time></trkpt>
    <trkpt lat="35.115861" lon="33.956246"><ele>4.2</ele><time>2025-12-03T12:14:44Z</time></trkpt>
    <trkpt lat="35.115767" lon="33.957042"><ele>5.6</ele><time>2025-12-03T12:15:38Z</time></trkpt>
    <trkpt lat="35.116005" lon="33.957727"><ele>6.0</ele><time>2025-12-03T12:16:36Z</time></trkpt>
    <trkpt lat="35.116047" lon="33.958565"><ele>6.0</ele><time>2025-12-03T12:17:48Z</time></trkpt>
    <trkpt lat="35.115996" lon="33.957738"><ele>5.6</ele><time>2025-12-03T12:19:49Z</time></trkpt>
    <trkpt lat="35.115506" lon="33.956335"><ele>5.4</ele><time>2025-12-03T12:22:37Z</time></trkpt>
    <trkpt lat="35.115019" lon="33.955868"><ele>6.2</ele><time>2025-12-03T12:23:41Z</time></trkpt>
    <trkpt lat="35.114068" lon="33.954201"><ele>7.6</ele><time>2025-12-03T12:26:53Z</time></trkpt>
    <trkpt lat="35.112914" lon="33.952082"><ele>11.8</ele><time>2025-12-03T12:30:51Z</time></trkpt>
    <trkpt lat="35.113517" lon="33.953528"><ele>9.4</ele><time>2025-12-03T12:32:46Z</time></trkpt>
    <trkpt lat="35.114386" lon="33.954550"><ele>9.0</ele><time>2025-12-03T12:34:29Z</time></trkpt>
    <trkpt lat="35.115191" lon="33.956072"><ele>7.6</ele><time>2025-12-03T12:36:46Z</time></trkpt>
    <trkpt lat="35.115710" lon="33.956388"><ele>7.4</ele><time>2025-12-03T12:37:34Z</time></trkpt>
    <trkpt lat="35.116825" lon="33.955028"><ele>6.0</ele><time>2025-12-03T12:39:40Z</time></trkpt>
    <trkpt lat="35.117636" lon="33.954374"><ele>5.6</ele><time>2025-12-03T12:41:06Z</time></trkpt>
    <trkpt lat="35.118675" lon="33.954250"><ele>5.4</ele><time>2025-12-03T12:49:19Z</time></trkpt>
    <trkpt lat="35.120314" lon="33.954444"><ele>5.2</ele><time>2025-12-03T12:49:54Z</time></trkpt>
    <trkpt lat="35.120908" lon="33.954112"><ele>5.0</ele><time>2025-12-03T12:50:07Z</time></trkpt>
    <trkpt lat="35.121182" lon="33.953664"><ele>4.8</ele><time>2025-12-03T12:50:16Z</time></trkpt>
    <trkpt lat="35.121402" lon="33.952758"><ele>4.6</ele><time>2025-12-03T12:50:30Z</time></trkpt>
    <trkpt lat="35.121686" lon="33.952304"><ele>4.6</ele><time>2025-12-03T12:50:39Z</time></trkpt>
    <trkpt lat="35.121895" lon="33.951885"><ele>4.8</ele><time>2025-12-03T12:50:47Z</time></trkpt>
    <trkpt lat="35.122097" lon="33.950041"><ele>5.2</ele><time>2025-12-03T12:51:13Z</time></trkpt>
    <trkpt lat="35.122037" lon="33.949441"><ele>5.4</ele><time>2025-12-03T12:51:22Z</time></trkpt>
    <trkpt lat="35.121790" lon="33.949346"><ele>5.6</ele><time>2025-12-03T12:51:34Z</time></trkpt>
    <trkpt lat="35.122168" lon="33.948844"><ele>5.4</ele><time>2025-12-03T12:51:49Z</time></trkpt>
    <trkpt lat="35.122279" lon="33.948363"><ele>5.4</ele><time>2025-12-03T12:51:59Z</time></trkpt>
    <trkpt lat="35.122206" lon="33.948026"><ele>5.8</ele><time>2025-12-03T12:52:06Z</time></trkpt>
    <trkpt lat="35.121250" lon="33.946302"><ele>8.6</ele><time>2025-12-03T12:52:40Z</time></trkpt>
    <trkpt lat="35.120562" lon="33.944296"><ele>12.4</ele><time>2025-12-03T12:53:16Z</time></trkpt>
    <trkpt lat="35.117978" lon="33.944139"><ele>15.6</ele><time>2025-12-03T12:54:11Z</time></trkpt>
    <trkpt lat="35.117436" lon="33.943453"><ele>18.4</ele><time>2025-12-03T12:54:31Z</time></trkpt>
    <trkpt lat="35.114885" lon="33.946044"><ele>18.0</ele><time>2025-12-03T12:55:33Z</time></trkpt>
    <trkpt lat="35.113969" lon="33.945167"><ele>22.6</ele><time>2025-12-03T12:55:56Z</time></trkpt>
    <trkpt lat="35.113506" lon="33.944749"><ele>22.4</ele><time>2025-12-03T12:56:07Z</time></trkpt>
    <trkpt lat="35.113278" lon="33.944623"><ele>21.2</ele><time>2025-12-03T12:56:11Z</time></trkpt>
    <trkpt lat="35.112958" lon="33.944707"><ele>19.4</ele><time>2025-12-03T12:56:16Z</time></trkpt>
    <trkpt lat="35.112684" lon="33.944840"><ele>19.0</ele><time>2025-12-03T12:56:21Z</time></trkpt>
    <trkpt lat="35.112306" lon="33.945352"><ele>19.6</ele><time>2025-12-03T12:56:33Z</time></trkpt>
    <trkpt lat="35.110062" lon="33.947018"><ele>17.8</ele><time>2025-12-03T12:57:13Z</time></trkpt>
    <trkpt lat="35.108576" lon="33.947773"><ele>17.0</ele><time>2025-12-03T12:57:35Z</time></trkpt>
    <trkpt lat="35.106854" lon="33.949548"><ele>18.8</ele><time>2025-12-03T12:58:10Z</time></trkpt>
    <trkpt lat="35.106081" lon="33.948501"><ele>14.8</ele><time>2025-12-03T13:12:25Z</time></trkpt>
    <trkpt lat="35.105738" lon="33.948375"><ele>14.4</ele><time>2025-12-03T13:12:40Z</time></trkpt>
    <trkpt lat="35.105387" lon="33.948242"><ele>14.4</ele><time>2025-12-03T13:13:28Z</time></trkpt>
    <trkpt lat="35.103498" lon="33.946969"><ele>16.4</ele><time>2025-12-03T13:14:14Z</time></trkpt>
    <trkpt lat="35.098979" lon="33.950018"><ele>16.2</ele><time>2025-12-03T13:23:36Z</time></trkpt>
    <trkpt lat="35.083589" lon="33.956156"><ele>22.2</ele><time>2025-12-03T13:27:46Z</time></trkpt>
    <trkpt lat="35.075683" lon="33.959308"><ele>33.6</ele><time>2025-12-03T13:30:09Z</time></trkpt>
    <trkpt lat="35.074993" lon="33.959447"><ele>35.4</ele><time>2025-12-03T13:30:24Z</time></trkpt>
    <trkpt lat="35.073420" lon="33.960213"><ele>39.6</ele><time>2025-12-03T13:34:11Z</time></trkpt>
    <trkpt lat="35.072518" lon="33.960398"><ele>42.0</ele><time>2025-12-03T13:34:30Z</time></trkpt>
    <trkpt lat="35.072197" lon="33.960646"><ele>43.4</ele><time>2025-12-03T13:35:09Z</time></trkpt>
    <trkpt lat="35.071499" lon="33.960465"><ele>44.8</ele><time>2025-12-03T13:35:41Z</time></trkpt>
    <trkpt lat="35.070917" lon="33.960530"><ele>46.2</ele><time>2025-12-03T13:36:04Z</time></trkpt>
    <trkpt lat="35.067489" lon="33.960915"><ele>58.2</ele><time>2025-12-03T13:37:26Z</time></trkpt>
    <trkpt lat="35.066249" lon="33.960861"><ele>63.6</ele><time>2025-12-03T13:37:56Z</time></trkpt>
    <trkpt lat="35.065240" lon="33.961174"><ele>65.4</ele><time>2025-12-03T13:38:19Z</time></trkpt>
    <trkpt lat="35.064264" lon="33.960989"><ele>66.0</ele><time>2025-12-03T13:38:38Z</time></trkpt>
    <trkpt lat="35.063578" lon="33.960650"><ele>68.0</ele><time>2025-12-03T13:38:53Z</time></trkpt>
    <trkpt lat="35.062928" lon="33.960705"><ele>69.8</ele><time>2025-12-03T13:39:12Z</time></trkpt>
    <trkpt lat="35.062847" lon="33.960926"><ele>70.4</ele><time>2025-12-03T13:39:18Z</time></trkpt>
    <trkpt lat="35.062671" lon="33.961669"><ele>70.8</ele><time>2025-12-03T13:39:32Z</time></trkpt>
    <trkpt lat="35.062371" lon="33.962224"><ele>70.8</ele><time>2025-12-03T13:39:43Z</time></trkpt>
    <trkpt lat="35.060089" lon="33.965560"><ele>71.0</ele><time>2025-12-03T13:40:44Z</time></trkpt>
    <trkpt lat="35.058292" lon="33.967864"><ele>73.6</ele><time>2025-12-03T13:42:01Z</time></trkpt>
    <trkpt lat="35.056996" lon="33.970341"><ele>75.2</ele><time>2025-12-03T13:42:42Z</time></trkpt>
    <trkpt lat="35.056356" lon="33.970997"><ele>75.6</ele><time>2025-12-03T13:42:56Z</time></trkpt>
    <trkpt lat="35.054296" lon="33.972544"><ele>77.4</ele><time>2025-12-03T13:43:35Z</time></trkpt>
    <trkpt lat="35.054161" lon="33.972687"><ele>77.6</ele><time>2025-12-03T13:43:38Z</time></trkpt>
    <trkpt lat="35.053864" lon="33.973074"><ele>77.6</ele><time>2025-12-03T13:43:45Z</time></trkpt>
    <trkpt lat="35.053436" lon="33.973846"><ele>76.6</ele><time>2025-12-03T13:43:56Z</time></trkpt>
    <trkpt lat="35.053481" lon="33.974752"><ele>75.0</ele><time>2025-12-03T13:44:07Z</time></trkpt>
    <trkpt lat="35.053300" lon="33.975106"><ele>75.0</ele><time>2025-12-03T13:44:12Z</time></trkpt>
    <trkpt lat="35.052932" lon="33.975189"><ele>74.4</ele><time>2025-12-03T13:44:17Z</time></trkpt>
    <trkpt lat="35.052568" lon="33.974970"><ele>73.2</ele><time>2025-12-03T13:44:22Z</time></trkpt>
    <trkpt lat="35.052258" lon="33.974975"><ele>72.8</ele><time>2025-12-03T13:44:26Z</time></trkpt>
    <trkpt lat="35.050877" lon="33.975849"><ele>72.2</ele><time>2025-12-03T13:44:47Z</time></trkpt>
    <trkpt lat="35.049818" lon="33.976777"><ele>71.8</ele><time>2025-12-03T13:45:06Z</time></trkpt>
    <trkpt lat="35.049077" lon="33.977379"><ele>71.8</ele><time>2025-12-03T13:45:19Z</time></trkpt>
    <trkpt lat="35.048474" lon="33.977604"><ele>71.8</ele><time>2025-12-03T13:45:28Z</time></trkpt>
    <trkpt lat="35.035025" lon="33.978350"><ele>73.0</ele><time>2025-12-03T13:48:45Z</time></trkpt>
    <trkpt lat="35.034115" lon="33.978780"><ele>74.8</ele><time>2025-12-03T13:49:02Z</time></trkpt>
    <trkpt lat="35.030399" lon="33.981790"><ele>75.2</ele><time>2025-12-03T13:50:15Z</time></trkpt>
    <trkpt lat="35.029842" lon="33.981832"><ele>74.8</ele><time>2025-12-03T13:50:33Z</time></trkpt>
    <trkpt lat="35.030150" lon="33.981568"><ele>74.8</ele><time>2025-12-03T13:50:52Z</time></trkpt>
    <trkpt lat="35.029801" lon="33.981098"><ele>74.4</ele><time>2025-12-03T13:51:10Z</time></trkpt>
    <trkpt lat="35.030446" lon="33.981512"><ele>74.8</ele><time>2025-12-03T13:51:30Z</time></trkpt>
    <trkpt lat="35.030396" lon="33.981788"><ele>75.0</ele><time>2025-12-03T13:51:36Z</time></trkpt>
    <trkpt lat="35.029263" lon="33.982012"><ele>74.8</ele><time>2025-12-03T13:52:04Z</time></trkpt>
    <trkpt lat="35.028534" lon="33.982212"><ele>75.8</ele><time>2025-12-03T13:52:20Z</time></trkpt>
    <trkpt lat="35.028270" lon="33.982095"><ele>76.4</ele><time>2025-12-03T13:52:44Z</time></trkpt>
    <trkpt lat="35.027705" lon="33.982414"><ele>77.0</ele><time>2025-12-03T13:53:09Z</time></trkpt>
    <trkpt lat="35.025320" lon="33.983055"><ele>80.0</ele><time>2025-12-03T13:53:53Z</time></trkpt>
    <trkpt lat="35.024843" lon="33.983265"><ele>80.2</ele><time>2025-12-03T13:54:02Z</time></trkpt>
    <trkpt lat="35.024433" lon="33.983847"><ele>80.6</ele><time>2025-12-03T13:54:14Z</time></trkpt>
    <trkpt lat="35.023977" lon="33.983659"><ele>80.8</ele><time>2025-12-03T13:54:22Z</time></trkpt>
    <trkpt lat="35.023927" lon="33.983087"><ele>80.6</ele><time>2025-12-03T13:54:34Z</time></trkpt>
    <trkpt lat="35.023701" lon="33.983442"><ele>80.8</ele><time>2025-12-03T13:55:01Z</time></trkpt>
    <trkpt lat="35.022381" lon="33.984440"><ele>81.4</ele><time>2025-12-03T13:55:36Z</time></trkpt>
    <trkpt lat="35.021726" lon="33.984813"><ele>82.0</ele><time>2025-12-03T13:55:54Z</time></trkpt>
    <trkpt lat="35.021338" lon="33.984732"><ele>82.2</ele><time>2025-12-03T13:56:04Z</time></trkpt>
    <trkpt lat="35.021189" lon="33.985020"><ele>82.6</ele><time>2025-12-03T13:56:12Z</time></trkpt>
    <trkpt lat="35.021114" lon="33.985305"><ele>83.4</ele><time>2025-12-03T13:56:19Z</time></trkpt>
    <trkpt lat="35.018650" lon="33.986886"><ele>91.2</ele><time>2025-12-03T13:57:26Z</time></trkpt>
    <trkpt lat="35.016026" lon="33.987769"><ele>99.0</ele><time>2025-12-03T13:58:30Z</time></trkpt>
    <trkpt lat="35.015383" lon="33.988109"><ele>101.2</ele><time>2025-12-03T13:58:48Z</time></trkpt>
    <trkpt lat="35.014812" lon="33.988486"><ele>101.8</ele><time>2025-12-03T13:59:05Z</time></trkpt>
    <trkpt lat="35.014530" lon="33.988564"><ele>102.0</ele><time>2025-12-03T13:59:13Z</time></trkpt>
    <trkpt lat="35.014037" lon="33.988394"><ele>102.0</ele><time>2025-12-03T13:59:26Z</time></trkpt>
    <trkpt lat="35.014378" lon="33.988791"><ele>101.6</ele><time>2025-12-03T13:59:43Z</time></trkpt>
    <trkpt lat="35.014325" lon="33.989157"><ele>102.2</ele><time>2025-12-03T13:59:53Z</time></trkpt>
    <trkpt lat="35.012368" lon="33.992206"><ele>103.8</ele><time>2025-12-03T14:00:59Z</time></trkpt>
    <trkpt lat="35.012334" lon="33.992256"><ele>104.0</ele><time>2025-12-03T14:01:00Z</time></trkpt>
    <trkpt lat="35.011568" lon="33.993099"><ele>106.6</ele><time>2025-12-03T14:01:23Z</time></trkpt>
    <trkpt lat="35.007534" lon="33.995097"><ele>117.8</ele><time>2025-12-03T14:05:25Z</time></trkpt>
    <trkpt lat="35.006471" lon="33.995774"><ele>118.8</ele><time>2025-12-03T14:05:46Z</time></trkpt>
    <trkpt lat="35.005558" lon="33.996414"><ele>116.6</ele><time>2025-12-03T14:06:02Z</time></trkpt>
    <trkpt lat="35.005112" lon="33.996461"><ele>114.6</ele><time>2025-12-03T14:06:09Z</time></trkpt>
    <trkpt lat="35.004911" lon="33.996925"><ele>113.0</ele><time>2025-12-03T14:06:18Z</time></trkpt>
    <trkpt lat="35.004360" lon="33.997271"><ele>111.0</ele><time>2025-12-03T14:06:27Z</time></trkpt>
    <trkpt lat="35.004233" lon="33.997346"><ele>110.0</ele><time>2025-12-03T14:06:29Z</time></trkpt>
    <trkpt lat="35.003763" lon="33.997338"><ele>106.4</ele><time>2025-12-03T14:06:36Z</time></trkpt>
    <trkpt lat="35.003432" lon="33.997010"><ele>101.0</ele><time>2025-12-03T14:06:44Z</time></trkpt>
    <trkpt lat="35.003319" lon="33.997040"><ele>98.8</ele><time>2025-12-03T14:06:50Z</time></trkpt>
    <trkpt lat="35.003279" lon="33.997031"><ele>98.6</ele><time>2025-12-03T14:06:53Z</time></trkpt>
    <trkpt lat="35.003176" lon="33.997121"><ele>98.4</ele><time>2025-12-03T14:06:54Z</time></trkpt>
    <trkpt lat="35.003277" lon="33.997820"><ele>101.4</ele><time>2025-12-03T14:07:14Z</time></trkpt>
    <trkpt lat="35.003171" lon="33.998176"><ele>103.4</ele><time>2025-12-03T14:07:24Z</time></trkpt>
    <trkpt lat="35.003126" lon="33.998256"><ele>103.4</ele><time>2025-12-03T14:07:26Z</time></trkpt>
    <trkpt lat="35.002739" lon="33.998639"><ele>103.4</ele><time>2025-12-03T14:07:36Z</time></trkpt>
    <trkpt lat="35.001905" lon="33.999065"><ele>102.8</ele><time>2025-12-03T14:07:51Z</time></trkpt>
    <trkpt lat="34.999736" lon="33.999665"><ele>99.8</ele><time>2025-12-03T14:08:25Z</time></trkpt>
    <trkpt lat="34.999268" lon="33.999759"><ele>99.2</ele><time>2025-12-03T14:08:32Z</time></trkpt>
    <trkpt lat="34.995133" lon="34.000511"><ele>74.6</ele><time>2025-12-03T14:09:32Z</time></trkpt>
    <trkpt lat="34.994066" lon="34.000834"><ele>64.2</ele><time>2025-12-03T14:09:46Z</time></trkpt>
    <trkpt lat="34.993657" lon="34.000700"><ele>58.4</ele><time>2025-12-03T14:10:01Z</time></trkpt>
    <trkpt lat="34.993299" lon="34.000581"><ele>57.2</ele><time>2025-12-03T14:10:11Z</time></trkpt>
    <trkpt lat="34.992951" lon="34.000253"><ele>54.8</ele><time>2025-12-03T14:10:19Z</time></trkpt>
    <trkpt lat="34.992959" lon="34.000113"><ele>54.4</ele><time>2025-12-03T14:10:21Z</time></trkpt>
    <trkpt lat="34.993112" lon="34.000094"><ele>54.4</ele><time>2025-12-03T14:10:25Z</time></trkpt>
    <trkpt lat="34.993061" lon="34.000324"><ele>54.0</ele><time>2025-12-03T14:10:30Z</time></trkpt>
    <trkpt lat="34.992938" lon="34.000166"><ele>54.0</ele><time>2025-12-03T14:10:34Z</time></trkpt>
    <trkpt lat="34.993896" lon="33.996053"><ele>49.4</ele><time>2025-12-03T14:11:40Z</time></trkpt>
    <trkpt lat="34.993528" lon="33.995759"><ele>46.0</ele><time>2025-12-03T14:11:47Z</time></trkpt>
    <trkpt lat="34.992404" lon="33.995321"><ele>35.2</ele><time>2025-12-03T14:12:07Z</time></trkpt>
    <trkpt lat="34.992387" lon="33.995318"><ele>34.8</ele><time>2025-12-03T14:12:10Z</time></trkpt>
    <trkpt lat="34.992560" lon="33.994263"><ele>33.6</ele><time>2025-12-03T14:12:31Z</time></trkpt>
    <trkpt lat="34.991832" lon="33.994023"><ele>31.0</ele><time>2025-12-03T14:12:55Z</time></trkpt>
    <trkpt lat="34.991621" lon="33.993217"><ele>29.2</ele><time>2025-12-03T14:13:09Z</time></trkpt>
    <trkpt lat="34.990844" lon="33.992244"><ele>23.4</ele><time>2025-12-03T14:14:19Z</time></trkpt>
    </trkseg>
  </trk>
</gpx>
