<?xml version="1.0" encoding="UTF-8"?>
<gpx version="1.1" creator="tripplanner (simplified from Strava export)" xmlns="http://www.topografix.com/GPX/1/1">
  <metadata>
    <name>Around Cyprus — Templos → Rizokarpaso</name>
    <time>2025-12-02T07:17:49Z</time>
  </metadata>
  <trk>
    <name>Around Cyprus — Templos → Rizokarpaso</name>
    <trkseg>
    <trkpt lat="35.331793" lon="33.299203"><ele>53.0</ele><time>2025-12-02T07:17:49Z</time></trkpt>
    <trkpt lat="35.331846" lon="33.299756"><ele>51.6</ele><time>2025-12-02T07:17:55Z</time></trkpt>
    <trkpt lat="35.332419" lon="33.301267"><ele>49.6</ele><time>2025-12-02T07:18:18Z</time></trkpt>
    <trkpt lat="35.332419" lon="33.302730"><ele>46.0</ele><time>2025-12-02T07:18:41Z</time></trkpt>
    <trkpt lat="35.332981" lon="33.304074"><ele>42.2</ele><time>2025-12-02T07:19:01Z</time></trkpt>
    <trkpt lat="35.334581" lon="33.305974"><ele>34.8</ele><time>2025-12-02T07:19:32Z</time></trkpt>
    <trkpt lat="35.336035" lon="33.308273"><ele>27.8</ele><time>2025-12-02T07:20:11Z</time></trkpt>
    <trkpt lat="35.336129" lon="33.308558"><ele>26.6</ele><time>2025-12-02T07:20:16Z</time></trkpt>
    <trkpt lat="35.336340" lon="33.309000"><ele>26.4</ele><time>2025-12-02T07:20:25Z</time></trkpt>
    <trkpt lat="35.337142" lon="33.310145"><ele>25.4</ele><time>2025-12-02T07:20:49Z</time></trkpt>
    <trkpt lat="35.337976" lon="33.312399"><ele>23.8</ele><time>2025-12-02T07:21:27Z</time></trkpt>
    <trkpt lat="35.338196" lon="33.312781"><ele>23.0</ele><time>2025-12-02T07:21:35Z</time></trkpt>
    <trkpt lat="35.339174" lon="33.314274"><ele>15.6</ele><time>2025-12-02T07:22:01Z</time></trkpt>
    <trkpt lat="35.340045" lon="33.313970"><ele>10.6</ele><time>2025-12-02T07:22:18Z</time></trkpt>
    <trkpt lat="35.340461" lon="33.314061"><ele>8.0</ele><time>2025-12-02T07:22:25Z</time></trkpt>
    <trkpt lat="35.340484" lon="33.314412"><ele>6.8</ele><time>2025-12-02T07:22:30Z</time></trkpt>
    <trkpt lat="35.340500" lon="33.315082"><ele>6.4</ele><time>2025-12-02T07:22:42Z</time></trkpt>
    <trkpt lat="35.340886" lon="33.315325"><ele>6.8</ele><time>2025-12-02T07:22:52Z</time></trkpt>
    <trkpt lat="35.341127" lon="33.315739"><ele>7.4</ele><time>2025-12-02T07:23:00Z</time></trkpt>
    <trkpt lat="35.341665" lon="33.317322"><ele>6.6</ele><time>2025-12-02T07:23:36Z</time></trkpt>
    <trkpt lat="35.342372" lon="33.317845"><ele>6.4</ele><time>2025-12-02T07:23:57Z</time></trkpt>
    <trkpt lat="35.342833" lon="33.318567"><ele>5.8</ele><time>2025-12-02T07:24:18Z</time></trkpt>
    <trkpt lat="35.342667" lon="33.319198"><ele>5.8</ele><time>2025-12-02T07:24:35Z</time></trkpt>
    <trkpt lat="35.342272" lon="33.319530"><ele>4.6</ele><time>2025-12-02T07:25:00Z</time></trkpt>
    <trkpt lat="35.342243" lon="33.319536"><ele>4.4</ele><time>2025-12-02T07:25:01Z</time></trkpt>
    <trkpt lat="35.341770" lon="33.319639"><ele>4.4</ele><time>2025-12-02T07:25:20Z</time></trkpt>
    <trkpt lat="35.341586" lon="33.319972"><ele>4.6</ele><time>2025-12-02T07:25:33Z</time></trkpt>
    <trkpt lat="35.341604" lon="33.320555"><ele>4.8</ele><time>2025-12-02T07:25:48Z</time></trkpt>
    <trkpt lat="35.341790" lon="33.320974"><ele>5.4</ele><time>2025-12-02T07:25:59Z</time></trkpt>
    <trkpt lat="35.342193" lon="33.321190"><ele>6.0</ele><time>2025-12-02T07:26:10Z</time></trkpt>
    <trkpt lat="35.342166" lon="33.321453"><ele>6.2</ele><time>2025-12-02T07:26:19Z</time></trkpt>
    <trkpt lat="35.341414" lon="33.321707"><ele>7.4</ele><time>2025-12-02T07:26:42Z</time></trkpt>
    <trkpt lat="35.341373" lon="33.321693"><ele>7.4</ele><time>2025-12-02T07:26:43Z</time></trkpt>
    <trkpt lat="35.340765" lon="33.321530"><ele>11.2</ele><time>2025-12-02T07:27:03Z</time></trkpt>
    <trkpt lat="35.340942" lon="33.321187"><ele>16.2</ele><time>2025-12-02T07:27:24Z</time></trkpt>
    <trkpt lat="35.340503" lon="33.321110"><ele>20.8</ele><time>2025-12-02T07:27:49Z</time></trkpt>
    <trkpt lat="35.340450" lon="33.321068"><ele>21.2</ele><time>2025-12-02T07:27:52Z</time></trkpt>
    <trkpt lat="35.340145" lon="33.320748"><ele>21.4</ele><time>2025-12-02T07:28:07Z</time></trkpt>
    <trkpt lat="35.339558" lon="33.320779"><ele>21.8</ele><time>2025-12-02T07:28:28Z</time></trkpt>
    <trkpt lat="35.339188" lon="33.321518"><ele>23.8</ele><time>2025-12-02T07:28:57Z</time></trkpt>
    <trkpt lat="35.338623" lon="33.323502"><ele>25.4</ele><time>2025-12-02T07:29:42Z</time></trkpt>
    <trkpt lat="35.337586" lon="33.325060"><ele>25.6</ele><time>2025-12-02T07:30:12Z</time></trkpt>
    <trkpt lat="35.336954" lon="33.325631"><ele>25.6</ele><time>2025-12-02T07:30:26Z</time></trkpt>
    <trkpt lat="35.335227" lon="33.326354"><ele>27.4</ele><time>2025-12-02T07:30:58Z</time></trkpt>
    <trkpt lat="35.334679" lon="33.327016"><ele>28.8</ele><time>2025-12-02T07:31:13Z</time></trkpt>
    <trkpt lat="35.334392" lon="33.327384"><ele>28.8</ele><time>2025-12-02T07:31:21Z</time></trkpt>
    <trkpt lat="35.334107" lon="33.331250"><ele>27.0</ele><time>2025-12-02T07:33:23Z</time></trkpt>
    <trkpt lat="35.333704" lon="33.332815"><ele>27.2</ele><time>2025-12-02T07:33:45Z</time></trkpt>
    <trkpt lat="35.332742" lon="33.335056"><ele>26.8</ele><time>2025-12-02T07:34:17Z</time></trkpt>
    <trkpt lat="35.331944" lon="33.337885"><ele>24.6</ele><time>2025-12-02T07:34:54Z</time></trkpt>
    <trkpt lat="35.331801" lon="33.339265"><ele>26.2</ele><time>2025-12-02T07:35:13Z</time></trkpt>
    <trkpt lat="35.331891" lon="33.340597"><ele>27.2</ele><time>2025-12-02T07:35:32Z</time></trkpt>
    <trkpt lat="35.332090" lon="33.340819"><ele>25.8</ele><time>2025-12-02T07:35:48Z</time></trkpt>
    <trkpt lat="35.331894" lon="33.340962"><ele>26.4</ele><time>2025-12-02T07:36:03Z</time></trkpt>
    <trkpt lat="35.331884" lon="33.341728"><ele>26.4</ele><time>2025-12-02T07:36:18Z</time></trkpt>
    <trkpt lat="35.331539" lon="33.343473"><ele>25.6</ele><time>2025-12-02T07:36:44Z</time></trkpt>
    <trkpt lat="35.330760" lon="33.345160"><ele>26.2</ele><time>2025-12-02T07:37:13Z</time></trkpt>
    <trkpt lat="35.330511" lon="33.346026"><ele>27.6</ele><time>2025-12-02T07:37:27Z</time></trkpt>
    <trkpt lat="35.329537" lon="33.352741"><ele>27.2</ele><time>2025-12-02T07:39:03Z</time></trkpt>
    <trkpt lat="35.329751" lon="33.357017"><ele>27.6</ele><time>2025-12-02T07:40:04Z</time></trkpt>
    <trkpt lat="35.330468" lon="33.361708"><ele>28.0</ele><time>2025-12-02T07:41:36Z</time></trkpt>
    <trkpt lat="35.330172" lon="33.366046"><ele>27.2</ele><time>2025-12-02T07:42:35Z</time></trkpt>
    <trkpt lat="35.329681" lon="33.370575"><ele>25.6</ele><time>2025-12-02T07:43:30Z</time></trkpt>
    <trkpt lat="35.329348" lon="33.373642"><ele>28.2</ele><time>2025-12-02T07:44:12Z</time></trkpt>
    <trkpt lat="35.329179" lon="33.377151"><ele>30.4</ele><time>2025-12-02T07:45:08Z</time></trkpt>
    <trkpt lat="35.328959" lon="33.378048"><ele>30.4</ele><time>2025-12-02T07:45:22Z</time></trkpt>
    <trkpt lat="35.327878" lon="33.380022"><ele>30.6</ele><time>2025-12-02T07:45:57Z</time></trkpt>
    <trkpt lat="35.327304" lon="33.382031"><ele>30.8</ele><time>2025-12-02T07:46:28Z</time></trkpt>
    <trkpt lat="35.327097" lon="33.389619"><ele>32.0</ele><time>2025-12-02T07:49:38Z</time></trkpt>
    <trkpt lat="35.327015" lon="33.390957"><ele>33.8</ele><time>2025-12-02T07:49:57Z</time></trkpt>
    <trkpt lat="35.324643" lon="33.400062"><ele>42.4</ele><time>2025-12-02T07:52:31Z</time></trkpt>
    <trkpt lat="35.324702" lon="33.401525"><ele>44.6</ele><time>2025-12-02T07:52:57Z</time></trkpt>
    <trkpt lat="35.325070" lon="33.403052"><ele>47.2</ele><time>2025-12-02T07:53:25Z</time></trkpt>
    <trkpt lat="35.325756" lon="33.405858"><ele>46.0</ele><time>2025-12-02T07:54:11Z</time></trkpt>
    <trkpt lat="35.325899" lon="33.409671"><ele>38.4</ele><time>2025-12-02T07:54:56Z</time></trkpt>
    <trkpt lat="35.326068" lon="33.410761"><ele>36.8</ele><time>2025-12-02T07:55:08Z</time></trkpt>
    <trkpt lat="35.326599" lon="33.413774"><ele>43.4</ele><time>2025-12-02T07:55:57Z</time></trkpt>
    <trkpt lat="35.326898" lon="33.414200"><ele>43.6</ele><time>2025-12-02T07:56:07Z</time></trkpt>
    <trkpt lat="35.328890" lon="33.416891"><ele>39.4</ele><time>2025-12-02T07:56:57Z</time></trkpt>
    <trkpt lat="35.329297" lon="33.417770"><ele>40.2</ele><time>2025-12-02T07:57:14Z</time></trkpt>
    <trkpt lat="35.329299" lon="33.418747"><ele>39.8</ele><time>2025-12-02T07:57:28Z</time></trkpt>
    <trkpt lat="35.328712" lon="33.420799"><ele>35.0</ele><time>2025-12-02T07:57:52Z</time></trkpt>
    <trkpt lat="35.328738" lon="33.422674"><ele>32.0</ele><time>2025-12-02T07:58:13Z</time></trkpt>
    <trkpt lat="35.329406" lon="33.425555"><ele>31.2</ele><time>2025-12-02T07:58:49Z</time></trkpt>
    <trkpt lat="35.329578" lon="33.428839"><ele>29.8</ele><time>2025-12-02T07:59:30Z</time></trkpt>
    <trkpt lat="35.329611" lon="33.429006"><ele>29.4</ele><time>2025-12-02T07:59:32Z</time></trkpt>
    <trkpt lat="35.329867" lon="33.429818"><ele>27.0</ele><time>2025-12-02T07:59:41Z</time></trkpt>
    <trkpt lat="35.330867" lon="33.431799"><ele>17.4</ele><time>2025-12-02T08:00:00Z</time></trkpt>
    <trkpt lat="35.331082" lon="33.432908"><ele>13.0</ele><time>2025-12-02T08:00:08Z</time></trkpt>
    <trkpt lat="35.331072" lon="33.433440"><ele>12.0</ele><time>2025-12-02T08:00:12Z</time></trkpt>
    <trkpt lat="35.331016" lon="33.433921"><ele>12.0</ele><time>2025-12-02T08:00:16Z</time></trkpt>
    <trkpt lat="35.330271" lon="33.436317"><ele>13.4</ele><time>2025-12-02T08:00:44Z</time></trkpt>
    <trkpt lat="35.330228" lon="33.441253"><ele>36.6</ele><time>2025-12-02T08:02:54Z</time></trkpt>
    <trkpt lat="35.330235" lon="33.441288"><ele>36.8</ele><time>2025-12-02T08:02:55Z</time></trkpt>
    <trkpt lat="35.330613" lon="33.442734"><ele>38.0</ele><time>2025-12-02T08:03:28Z</time></trkpt>
    <trkpt lat="35.332924" lon="33.448343"><ele>26.4</ele><time>2025-12-02T08:04:42Z</time></trkpt>
    <trkpt lat="35.333174" lon="33.449285"><ele>26.2</ele><time>2025-12-02T08:04:53Z</time></trkpt>
    <trkpt lat="35.333246" lon="33.450231"><ele>26.2</ele><time>2025-12-02T08:05:04Z</time></trkpt>
    <trkpt lat="35.333038" lon="33.451908"><ele>24.8</ele><time>2025-12-02T08:05:24Z</time></trkpt>
    <trkpt lat="35.332306" lon="33.454151"><ele>23.6</ele><time>2025-12-02T08:05:52Z</time></trkpt>
    <trkpt lat="35.330882" lon="33.458551"><ele>39.6</ele><time>2025-12-02T08:07:32Z</time></trkpt>
    <trkpt lat="35.330217" lon="33.460692"><ele>42.8</ele><time>2025-12-02T08:08:42Z</time></trkpt>
    <trkpt lat="35.330120" lon="33.461649"><ele>43.4</ele><time>2025-12-02T08:08:58Z</time></trkpt>
    <trkpt lat="35.330131" lon="33.462140"><ele>43.4</ele><time>2025-12-02T08:09:06Z</time></trkpt>
    <trkpt lat="35.330545" lon="33.463980"><ele>41.4</ele><time>2025-12-02T08:09:32Z</time></trkpt>
    <trkpt lat="35.330554" lon="33.464082"><ele>41.2</ele><time>2025-12-02T08:09:33Z</time></trkpt>
    <trkpt lat="35.330448" lon="33.464833"><ele>38.0</ele><time>2025-12-02T08:09:40Z</time></trkpt>
    <trkpt lat="35.330048" lon="33.465427"><ele>34.8</ele><time>2025-12-02T08:09:46Z</time></trkpt>
    <trkpt lat="35.329540" lon="33.465707"><ele>31.8</ele><time>2025-12-02T08:09:51Z</time></trkpt>
    <trkpt lat="35.327948" lon="33.465468"><ele>26.0</ele><time>2025-12-02T08:10:06Z</time></trkpt>
    <trkpt lat="35.327750" lon="33.465438"><ele>26.0</ele><time>2025-12-02T08:10:08Z</time></trkpt>
    <trkpt lat="35.327184" lon="33.465534"><ele>25.6</ele><time>2025-12-02T08:10:14Z</time></trkpt>
    <trkpt lat="35.326621" lon="33.465980"><ele>25.2</ele><time>2025-12-02T08:10:22Z</time></trkpt>
    <trkpt lat="35.326290" lon="33.466754"><ele>24.2</ele><time>2025-12-02T08:10:31Z</time></trkpt>
    <trkpt lat="35.326301" lon="33.467609"><ele>23.6</ele><time>2025-12-02T08:10:40Z</time></trkpt>
    <trkpt lat="35.326627" lon="33.468333"><ele>23.0</ele><time>2025-12-02T08:10:49Z</time></trkpt>
    <trkpt lat="35.327230" lon="33.468817"><ele>22.6</ele><time>2025-12-02T08:10:59Z</time></trkpt>
    <trkpt lat="35.328473" lon="33.469171"><ele>23.0</ele><time>2025-12-02T08:11:18Z</time></trkpt>
    <trkpt lat="35.328950" lon="33.469489"><ele>23.2</ele><time>2025-12-02T08:11:26Z</time></trkpt>
    <trkpt lat="35.329422" lon="33.470207"><ele>22.8</ele><time>2025-12-02T08:11:37Z</time></trkpt>
    <trkpt lat="35.329586" lon="33.471122"><ele>22.6</ele><time>2025-12-02T08:11:48Z</time></trkpt>
    <trkpt lat="35.329332" lon="33.472137"><ele>22.4</ele><time>2025-12-02T08:12:01Z</time></trkpt>
    <trkpt lat="35.328963" lon="33.472788"><ele>22.2</ele><time>2025-12-02T08:12:11Z</time></trkpt>
    <trkpt lat="35.326224" lon="33.477607"><ele>51.6</ele><time>2025-12-02T08:15:11Z</time></trkpt>
    <trkpt lat="35.326042" lon="33.478085"><ele>51.6</ele><time>2025-12-02T08:15:21Z</time></trkpt>
    <trkpt lat="35.326006" lon="33.479085"><ele>50.8</ele><time>2025-12-02T08:15:36Z</time></trkpt>
    <trkpt lat="35.326364" lon="33.480303"><ele>47.8</ele><time>2025-12-02T08:15:51Z</time></trkpt>
    <trkpt lat="35.326385" lon="33.480399"><ele>47.4</ele><time>2025-12-02T08:15:52Z</time></trkpt>
    <trkpt lat="35.326442" lon="33.481132"><ele>44.2</ele><time>2025-12-02T08:15:59Z</time></trkpt>
    <trkpt lat="35.325890" lon="33.484467"><ele>29.0</ele><time>2025-12-02T08:16:24Z</time></trkpt>
    <trkpt lat="35.325918" lon="33.484764"><ele>27.2</ele><time>2025-12-02T08:16:26Z</time></trkpt>
    <trkpt lat="35.326111" lon="33.485406"><ele>26.4</ele><time>2025-12-02T08:16:31Z</time></trkpt>
    <trkpt lat="35.326494" lon="33.485913"><ele>26.4</ele><time>2025-12-02T08:16:37Z</time></trkpt>
    <trkpt lat="35.326674" lon="33.486067"><ele>27.4</ele><time>2025-12-02T08:16:40Z</time></trkpt>
    <trkpt lat="35.327150" lon="33.486280"><ele>32.0</ele><time>2025-12-02T08:16:53Z</time></trkpt>
    <trkpt lat="35.328440" lon="33.486392"><ele>42.0</ele><time>2025-12-02T08:17:42Z</time></trkpt>
    <trkpt lat="35.328902" lon="33.486648"><ele>44.4</ele><time>2025-12-02T08:18:00Z</time></trkpt>
    <trkpt lat="35.329244" lon="33.487021"><ele>45.8</ele><time>2025-12-02T08:18:14Z</time></trkpt>
    <trkpt lat="35.329558" lon="33.487698"><ele>47.0</ele><time>2025-12-02T08:18:30Z</time></trkpt>
    <trkpt lat="35.330594" lon="33.491808"><ele>49.0</ele><time>2025-12-02T08:19:43Z</time></trkpt>
    <trkpt lat="35.330639" lon="33.493198"><ele>50.4</ele><time>2025-12-02T08:20:05Z</time></trkpt>
    <trkpt lat="35.330628" lon="33.493392"><ele>50.4</ele><time>2025-12-02T08:20:08Z</time></trkpt>
    <trkpt lat="35.330157" lon="33.497238"><ele>51.4</ele><time>2025-12-02T08:21:05Z</time></trkpt>
    <trkpt lat="35.330123" lon="33.497378"><ele>51.4</ele><time>2025-12-02T08:21:07Z</time></trkpt>
    <trkpt lat="35.329732" lon="33.498427"><ele>49.6</ele><time>2025-12-02T08:21:21Z</time></trkpt>
    <trkpt lat="35.328213" lon="33.501047"><ele>39.6</ele><time>2025-12-02T08:21:51Z</time></trkpt>
    <trkpt lat="35.328030" lon="33.502152"><ele>37.4</ele><time>2025-12-02T08:22:01Z</time></trkpt>
    <trkpt lat="35.328044" lon="33.502627"><ele>37.4</ele><time>2025-12-02T08:22:06Z</time></trkpt>
    <trkpt lat="35.328181" lon="33.503378"><ele>40.2</ele><time>2025-12-02T08:22:17Z</time></trkpt>
    <trkpt lat="35.328478" lon="33.504087"><ele>44.0</ele><time>2025-12-02T08:22:34Z</time></trkpt>
    <trkpt lat="35.329853" lon="33.506277"><ele>57.0</ele><time>2025-12-02T08:23:49Z</time></trkpt>
    <trkpt lat="35.330519" lon="33.508022"><ele>60.6</ele><time>2025-12-02T08:24:26Z</time></trkpt>
    <trkpt lat="35.331266" lon="33.509798"><ele>59.8</ele><time>2025-12-02T08:24:54Z</time></trkpt>
    <trkpt lat="35.333383" lon="33.513256"><ele>53.2</ele><time>2025-12-02T08:25:42Z</time></trkpt>
    <trkpt lat="35.337274" lon="33.522318"><ele>37.6</ele><time>2025-12-02T08:27:27Z</time></trkpt>
    <trkpt lat="35.337759" lon="33.523948"><ele>35.6</ele><time>2025-12-02T08:27:47Z</time></trkpt>
    <trkpt lat="35.337811" lon="33.524191"><ele>35.2</ele><time>2025-12-02T08:27:50Z</time></trkpt>
    <trkpt lat="35.338017" lon="33.525528"><ele>34.8</ele><time>2025-12-02T08:28:07Z</time></trkpt>
    <trkpt lat="35.337984" lon="33.530280"><ele>36.8</ele><time>2025-12-02T08:29:18Z</time></trkpt>
    <trkpt lat="35.338169" lon="33.531460"><ele>37.2</ele><time>2025-12-02T08:29:36Z</time></trkpt>
    <trkpt lat="35.340110" lon="33.536094"><ele>39.8</ele><time>2025-12-02T08:31:00Z</time></trkpt>
    <trkpt lat="35.340306" lon="33.536687"><ele>39.8</ele><time>2025-12-02T08:31:09Z</time></trkpt>
    <trkpt lat="35.341482" lon="33.540398"><ele>34.0</ele><time>2025-12-02T08:31:58Z</time></trkpt>
    <trkpt lat="35.343115" lon="33.543272"><ele>28.8</ele><time>2025-12-02T08:32:38Z</time></trkpt>
    <trkpt lat="35.343341" lon="33.543781"><ele>28.0</ele><time>2025-12-02T08:32:45Z</time></trkpt>
    <trkpt lat="35.343774" lon="33.545272"><ele>26.8</ele><time>2025-12-02T08:33:04Z</time></trkpt>
    <trkpt lat="35.344880" lon="33.552156"><ele>22.4</ele><time>2025-12-02T08:34:35Z</time></trkpt>
    <trkpt lat="35.345036" lon="33.554203"><ele>21.0</ele><time>2025-12-02T08:35:03Z</time></trkpt>
    <trkpt lat="35.344974" lon="33.556106"><ele>21.0</ele><time>2025-12-02T08:35:29Z</time></trkpt>
    <trkpt lat="35.344378" lon="33.561760"><ele>28.8</ele><time>2025-12-02T08:37:01Z</time></trkpt>
    <trkpt lat="35.344369" lon="33.562627"><ele>29.2</ele><time>2025-12-02T08:37:14Z</time></trkpt>
    <trkpt lat="35.344427" lon="33.563328"><ele>28.8</ele><time>2025-12-02T08:37:24Z</time></trkpt>
    <trkpt lat="35.345112" lon="33.566067"><ele>26.4</ele><time>2025-12-02T08:38:01Z</time></trkpt>
    <trkpt lat="35.346267" lon="33.568842"><ele>23.4</ele><time>2025-12-02T08:38:38Z</time></trkpt>
    <trkpt lat="35.347910" lon="33.572833"><ele>12.8</ele><time>2025-12-02T08:39:24Z</time></trkpt>
    <trkpt lat="35.348421" lon="33.574874"><ele>8.0</ele><time>2025-12-02T08:39:45Z</time></trkpt>
    <trkpt lat="35.349556" lon="33.579640"><ele>7.0</ele><time>2025-12-02T08:40:51Z</time></trkpt>
    <trkpt lat="35.349870" lon="33.581847"><ele>6.4</ele><time>2025-12-02T08:41:23Z</time></trkpt>
    <trkpt lat="35.349894" lon="33.582113"><ele>6.8</ele><time>2025-12-02T08:41:27Z</time></trkpt>
    <trkpt lat="35.349918" lon="33.585162"><ele>15.6</ele><time>2025-12-02T08:42:34Z</time></trkpt>
    <trkpt lat="35.350910" lon="33.588539"><ele>28.8</ele><time>2025-12-02T08:44:06Z</time></trkpt>
    <trkpt lat="35.351058" lon="33.589068"><ele>29.4</ele><time>2025-12-02T08:44:18Z</time></trkpt>
    <trkpt lat="35.351341" lon="33.590657"><ele>30.8</ele><time>2025-12-02T08:44:50Z</time></trkpt>
    <trkpt lat="35.351409" lon="33.592079"><ele>32.0</ele><time>2025-12-02T08:45:15Z</time></trkpt>
    <trkpt lat="35.351225" lon="33.597876"><ele>35.6</ele><time>2025-12-02T08:46:54Z</time></trkpt>
    <trkpt lat="35.351226" lon="33.597935"><ele>35.6</ele><time>2025-12-02T08:46:55Z</time></trkpt>
    <trkpt lat="35.351345" lon="33.599656"><ele>39.4</ele><time>2025-12-02T08:47:29Z</time></trkpt>
    <trkpt lat="35.352553" lon="33.605298"><ele>57.2</ele><time>2025-12-02T08:49:42Z</time></trkpt>
    <trkpt lat="35.352807" lon="33.606383"><ele>56.6</ele><time>2025-12-02T08:50:04Z</time></trkpt>
    <trkpt lat="35.352691" lon="33.606482"><ele>56.6</ele><time>2025-12-02T08:50:08Z</time></trkpt>
    <trkpt lat="35.352398" lon="33.606107"><ele>57.2</ele><time>2025-12-02T08:50:26Z</time></trkpt>
    <trkpt lat="35.352871" lon="33.606698"><ele>56.8</ele><time>2025-12-02T09:17:05Z</time></trkpt>
    <trkpt lat="35.353166" lon="33.608029"><ele>53.8</ele><time>2025-12-02T09:17:24Z</time></trkpt>
    <trkpt lat="35.354203" lon="33.612939"><ele>33.8</ele><time>2025-12-02T09:18:08Z</time></trkpt>
    <trkpt lat="35.354162" lon="33.616372"><ele>19.8</ele><time>2025-12-02T09:18:36Z</time></trkpt>
    <trkpt lat="35.354082" lon="33.617673"><ele>18.8</ele><time>2025-12-02T09:18:49Z</time></trkpt>
    <trkpt lat="35.354052" lon="33.617909"><ele>18.8</ele><time>2025-12-02T09:18:52Z</time></trkpt>
    <trkpt lat="35.352726" lon="33.624326"><ele>35.8</ele><time>2025-12-02T09:21:10Z</time></trkpt>
    <trkpt lat="35.352610" lon="33.626145"><ele>40.0</ele><time>2025-12-02T09:21:53Z</time></trkpt>
    <trkpt lat="35.352621" lon="33.626440"><ele>40.4</ele><time>2025-12-02T09:21:59Z</time></trkpt>
    <trkpt lat="35.352835" lon="33.628221"><ele>39.4</ele><time>2025-12-02T09:22:32Z</time></trkpt>
    <trkpt lat="35.353210" lon="33.628727"><ele>38.4</ele><time>2025-12-02T09:22:49Z</time></trkpt>
    <trkpt lat="35.352965" lon="33.628965"><ele>36.6</ele><time>2025-12-02T09:34:36Z</time></trkpt>
    <trkpt lat="35.353799" lon="33.634180"><ele>29.0</ele><time>2025-12-02T09:35:45Z</time></trkpt>
    <trkpt lat="35.353834" lon="33.635404"><ele>28.4</ele><time>2025-12-02T09:35:59Z</time></trkpt>
    <trkpt lat="35.353822" lon="33.635794"><ele>29.0</ele><time>2025-12-02T09:36:04Z</time></trkpt>
    <trkpt lat="35.353362" lon="33.642570"><ele>43.0</ele><time>2025-12-02T09:37:56Z</time></trkpt>
    <trkpt lat="35.353380" lon="33.642880"><ele>43.8</ele><time>2025-12-02T09:38:01Z</time></trkpt>
    <trkpt lat="35.353555" lon="33.644607"><ele>45.0</ele><time>2025-12-02T09:38:27Z</time></trkpt>
    <trkpt lat="35.354046" lon="33.647760"><ele>45.0</ele><time>2025-12-02T09:39:10Z</time></trkpt>
    <trkpt lat="35.354528" lon="33.650790"><ele>56.8</ele><time>2025-12-02T09:40:10Z</time></trkpt>
    <trkpt lat="35.355014" lon="33.652311"><ele>60.6</ele><time>2025-12-02T09:40:46Z</time></trkpt>
    <trkpt lat="35.355321" lon="33.652974"><ele>61.8</ele><time>2025-12-02T09:41:00Z</time></trkpt>
    <trkpt lat="35.356627" lon="33.655655"><ele>59.6</ele><time>2025-12-02T09:41:44Z</time></trkpt>
    <trkpt lat="35.357877" lon="33.658374"><ele>49.2</ele><time>2025-12-02T09:42:13Z</time></trkpt>
    <trkpt lat="35.359060" lon="33.661791"><ele>37.6</ele><time>2025-12-02T09:42:42Z</time></trkpt>
    <trkpt lat="35.359943" lon="33.664802"><ele>40.0</ele><time>2025-12-02T09:43:17Z</time></trkpt>
    <trkpt lat="35.360587" lon="33.666555"><ele>40.6</ele><time>2025-12-02T09:43:42Z</time></trkpt>
    <trkpt lat="35.362266" lon="33.671243"><ele>37.8</ele><time>2025-12-02T09:44:45Z</time></trkpt>
    <trkpt lat="35.362638" lon="33.673051"><ele>36.4</ele><time>2025-12-02T09:45:07Z</time></trkpt>
    <trkpt lat="35.363013" lon="33.677346"><ele>33.6</ele><time>2025-12-02T09:45:55Z</time></trkpt>
    <trkpt lat="35.363147" lon="33.678193"><ele>34.4</ele><time>2025-12-02T09:46:05Z</time></trkpt>
    <trkpt lat="35.365606" lon="33.687879"><ele>43.2</ele><time>2025-12-02T09:48:29Z</time></trkpt>
    <trkpt lat="35.365816" lon="33.688699"><ele>42.8</ele><time>2025-12-02T09:48:40Z</time></trkpt>
    <trkpt lat="35.367484" lon="33.692875"><ele>40.8</ele><time>2025-12-02T09:49:40Z</time></trkpt>
    <trkpt lat="35.368115" lon="33.694381"><ele>38.0</ele><time>2025-12-02T09:50:00Z</time></trkpt>
    <trkpt lat="35.369342" lon="33.696819"><ele>31.2</ele><time>2025-12-02T09:50:30Z</time></trkpt>
    <trkpt lat="35.370254" lon="33.698580"><ele>35.6</ele><time>2025-12-02T09:50:59Z</time></trkpt>
    <trkpt lat="35.370692" lon="33.699801"><ele>42.4</ele><time>2025-12-02T09:51:25Z</time></trkpt>
    <trkpt lat="35.371358" lon="33.702704"><ele>52.2</ele><time>2025-12-02T09:52:42Z</time></trkpt>
    <trkpt lat="35.372480" lon="33.707729"><ele>55.2</ele><time>2025-12-02T09:54:17Z</time></trkpt>
    <trkpt lat="35.372629" lon="33.709684"><ele>58.2</ele><time>2025-12-02T09:54:52Z</time></trkpt>
    <trkpt lat="35.372429" lon="33.710714"><ele>60.4</ele><time>2025-12-02T09:55:11Z</time></trkpt>
    <trkpt lat="35.372510" lon="33.711290"><ele>62.0</ele><time>2025-12-02T09:55:23Z</time></trkpt>
    <trkpt lat="35.374557" lon="33.713947"><ele>61.6</ele><time>2025-12-02T09:56:36Z</time></trkpt>
    <trkpt lat="35.378904" lon="33.719315"><ele>57.8</ele><time>2025-12-02T09:58:12Z</time></trkpt>
    <trkpt lat="35.379211" lon="33.719539"><ele>57.4</ele><time>2025-12-02T09:58:17Z</time></trkpt>
    <trkpt lat="35.379845" lon="33.719818"><ele>55.6</ele><time>2025-12-02T09:58:26Z</time></trkpt>
    <trkpt lat="35.382290" lon="33.720218"><ele>46.0</ele><time>2025-12-02T09:58:54Z</time></trkpt>
    <trkpt lat="35.382879" lon="33.720584"><ele>44.4</ele><time>2025-12-02T09:59:02Z</time></trkpt>
    <trkpt lat="35.383105" lon="33.720814"><ele>44.4</ele><time>2025-12-02T09:59:06Z</time></trkpt>
    <trkpt lat="35.385887" lon="33.725493"><ele>49.2</ele><time>2025-12-02T10:00:27Z</time></trkpt>
    <trkpt lat="35.389169" lon="33.731127"><ele>32.0</ele><time>2025-12-02T10:01:32Z</time></trkpt>
    <trkpt lat="35.389319" lon="33.731391"><ele>32.8</ele><time>2025-12-02T10:01:35Z</time></trkpt>
    <trkpt lat="35.389766" lon="33.732395"><ele>35.6</ele><time>2025-12-02T10:01:48Z</time></trkpt>
    <trkpt lat="35.390035" lon="33.733483"><ele>38.0</ele><time>2025-12-02T10:02:04Z</time></trkpt>
    <trkpt lat="35.390366" lon="33.737746"><ele>46.4</ele><time>2025-12-02T10:03:24Z</time></trkpt>
    <trkpt lat="35.390576" lon="33.738985"><ele>49.2</ele><time>2025-12-02T10:03:47Z</time></trkpt>
    <trkpt lat="35.390594" lon="33.739037"><ele>49.4</ele><time>2025-12-02T10:03:48Z</time></trkpt>
    <trkpt lat="35.392372" lon="33.744121"><ele>53.4</ele><time>2025-12-02T10:05:16Z</time></trkpt>
    <trkpt lat="35.393760" lon="33.750200"><ele>64.4</ele><time>2025-12-02T10:07:11Z</time></trkpt>
    <trkpt lat="35.394012" lon="33.750978"><ele>64.6</ele><time>2025-12-02T10:07:23Z</time></trkpt>
    <trkpt lat="35.396011" lon="33.756745"><ele>57.8</ele><time>2025-12-02T10:08:45Z</time></trkpt>
    <trkpt lat="35.396642" lon="33.758562"><ele>51.4</ele><time>2025-12-02T10:09:04Z</time></trkpt>
    <trkpt lat="35.397132" lon="33.759314"><ele>47.6</ele><time>2025-12-02T10:09:13Z</time></trkpt>
    <trkpt lat="35.397751" lon="33.759786"><ele>44.4</ele><time>2025-12-02T10:09:21Z</time></trkpt>
    <trkpt lat="35.400455" lon="33.760382"><ele>33.8</ele><time>2025-12-02T10:09:52Z</time></trkpt>
    <trkpt lat="35.401333" lon="33.761065"><ele>30.6</ele><time>2025-12-02T10:10:05Z</time></trkpt>
    <trkpt lat="35.401547" lon="33.761427"><ele>30.2</ele><time>2025-12-02T10:10:10Z</time></trkpt>
    <trkpt lat="35.404295" lon="33.767988"><ele>36.0</ele><time>2025-12-02T10:11:55Z</time></trkpt>
    <trkpt lat="35.404998" lon="33.770224"><ele>38.0</ele><time>2025-12-02T10:12:31Z</time></trkpt>
    <trkpt lat="35.405699" lon="33.772814"><ele>39.8</ele><time>2025-12-02T10:13:10Z</time></trkpt>
    <trkpt lat="35.405894" lon="33.773619"><ele>39.6</ele><time>2025-12-02T10:13:21Z</time></trkpt>
    <trkpt lat="35.406717" lon="33.777921"><ele>37.4</ele><time>2025-12-02T10:14:14Z</time></trkpt>
    <trkpt lat="35.406940" lon="33.779355"><ele>37.6</ele><time>2025-12-02T10:14:33Z</time></trkpt>
    <trkpt lat="35.407290" lon="33.781676"><ele>43.8</ele><time>2025-12-02T10:15:12Z</time></trkpt>
    <trkpt lat="35.407487" lon="33.784380"><ele>49.0</ele><time>2025-12-02T10:15:59Z</time></trkpt>
    <trkpt lat="35.407781" lon="33.787693"><ele>39.6</ele><time>2025-12-02T10:16:33Z</time></trkpt>
    <trkpt lat="35.408479" lon="33.790733"><ele>29.8</ele><time>2025-12-02T10:16:59Z</time></trkpt>
    <trkpt lat="35.408869" lon="33.792559"><ele>31.0</ele><time>2025-12-02T10:17:20Z</time></trkpt>
    <trkpt lat="35.409778" lon="33.799505"><ele>38.0</ele><time>2025-12-02T10:19:00Z</time></trkpt>
    <trkpt lat="35.409964" lon="33.800178"><ele>38.2</ele><time>2025-12-02T10:19:10Z</time></trkpt>
    <trkpt lat="35.410215" lon="33.800558"><ele>38.2</ele><time>2025-12-02T10:19:16Z</time></trkpt>
    <trkpt lat="35.413579" lon="33.804758"><ele>29.2</ele><time>2025-12-02T10:20:24Z</time></trkpt>
    <trkpt lat="35.413423" lon="33.805129"><ele>28.4</ele><time>2025-12-02T10:20:29Z</time></trkpt>
    <trkpt lat="35.412845" lon="33.805939"><ele>22.2</ele><time>2025-12-02T10:20:38Z</time></trkpt>
    <trkpt lat="35.412582" lon="33.806700"><ele>18.6</ele><time>2025-12-02T10:20:44Z</time></trkpt>
    <trkpt lat="35.412438" lon="33.807899"><ele>11.6</ele><time>2025-12-02T10:20:52Z</time></trkpt>
    <trkpt lat="35.412282" lon="33.810020"><ele>16.6</ele><time>2025-12-02T10:21:23Z</time></trkpt>
    <trkpt lat="35.412747" lon="33.811375"><ele>23.0</ele><time>2025-12-02T10:22:01Z</time></trkpt>
    <trkpt lat="35.412497" lon="33.811879"><ele>23.2</ele><time>2025-12-02T10:22:12Z</time></trkpt>
    <trkpt lat="35.412056" lon="33.812622"><ele>20.2</ele><time>2025-12-02T10:22:23Z</time></trkpt>
    <trkpt lat="35.411422" lon="33.815858"><ele>11.0</ele><time>2025-12-02T10:22:54Z</time></trkpt>
    <trkpt lat="35.411189" lon="33.817414"><ele>13.0</ele><time>2025-12-02T10:23:25Z</time></trkpt>
    <trkpt lat="35.411235" lon="33.818050"><ele>13.0</ele><time>2025-12-02T10:23:44Z</time></trkpt>
    <trkpt lat="35.411342" lon="33.818923"><ele>10.8</ele><time>2025-12-02T10:23:57Z</time></trkpt>
    <trkpt lat="35.411328" lon="33.820023"><ele>6.6</ele><time>2025-12-02T10:24:11Z</time></trkpt>
    <trkpt lat="35.411258" lon="33.823372"><ele>11.8</ele><time>2025-12-02T10:25:08Z</time></trkpt>
    <trkpt lat="35.411386" lon="33.827039"><ele>5.6</ele><time>2025-12-02T10:25:52Z</time></trkpt>
    <trkpt lat="35.411270" lon="33.828462"><ele>5.0</ele><time>2025-12-02T10:26:11Z</time></trkpt>
    <trkpt lat="35.411179" lon="33.829550"><ele>5.2</ele><time>2025-12-02T10:26:26Z</time></trkpt>
    <trkpt lat="35.411541" lon="33.834059"><ele>5.4</ele><time>2025-12-02T10:27:29Z</time></trkpt>
    <trkpt lat="35.412602" lon="33.837180"><ele>7.4</ele><time>2025-12-02T10:28:27Z</time></trkpt>
    <trkpt lat="35.412820" lon="33.840864"><ele>4.8</ele><time>2025-12-02T10:29:22Z</time></trkpt>
    <trkpt lat="35.413042" lon="33.842405"><ele>6.2</ele><time>2025-12-02T10:29:49Z</time></trkpt>
    <trkpt lat="35.412703" lon="33.843588"><ele>5.4</ele><time>2025-12-02T10:30:08Z</time></trkpt>
    <trkpt lat="35.412880" lon="33.845559"><ele>4.6</ele><time>2025-12-02T10:30:36Z</time></trkpt>
    <trkpt lat="35.412642" lon="33.847783"><ele>4.2</ele><time>2025-12-02T10:37:53Z</time></trkpt>
    <trkpt lat="35.412669" lon="33.850002"><ele>4.2</ele><time>2025-12-02T10:38:33Z</time></trkpt>
    <trkpt lat="35.413383" lon="33.853319"><ele>4.2</ele><time>2025-12-02T10:39:27Z</time></trkpt>
    <trkpt lat="35.414717" lon="33.857518"><ele>5.0</ele><time>2025-12-02T10:40:35Z</time></trkpt>
    <trkpt lat="35.415352" lon="33.859151"><ele>5.2</ele><time>2025-12-02T10:41:04Z</time></trkpt>
    <trkpt lat="35.415489" lon="33.859523"><ele>5.8</ele><time>2025-12-02T10:41:12Z</time></trkpt>
    <trkpt lat="35.416034" lon="33.860127"><ele>11.4</ele><time>2025-12-02T10:41:43Z</time></trkpt>
    <trkpt lat="35.416175" lon="33.861489"><ele>13.6</ele><time>2025-12-02T10:42:18Z</time></trkpt>
    <trkpt lat="35.416005" lon="33.861931"><ele>14.6</ele><time>2025-12-02T10:42:30Z</time></trkpt>
    <trkpt lat="35.415458" lon="33.862652"><ele>16.0</ele><time>2025-12-02T10:42:52Z</time></trkpt>
    <trkpt lat="35.415459" lon="33.863532"><ele>16.6</ele><time>2025-12-02T10:43:10Z</time></trkpt>
    <trkpt lat="35.415735" lon="33.864372"><ele>20.8</ele><time>2025-12-02T10:43:34Z</time></trkpt>
    <trkpt lat="35.416194" lon="33.864493"><ele>22.2</ele><time>2025-12-02T10:43:50Z</time></trkpt>
    <trkpt lat="35.416543" lon="33.864653"><ele>21.8</ele><time>2025-12-02T10:44:03Z</time></trkpt>
    <trkpt lat="35.417569" lon="33.866146"><ele>14.6</ele><time>2025-12-02T10:44:27Z</time></trkpt>
    <trkpt lat="35.417832" lon="33.867385"><ele>8.4</ele><time>2025-12-02T10:44:38Z</time></trkpt>
    <trkpt lat="35.418101" lon="33.868740"><ele>9.4</ele><time>2025-12-02T10:44:57Z</time></trkpt>
    <trkpt lat="35.418025" lon="33.868965"><ele>9.4</ele><time>2025-12-02T10:45:01Z</time></trkpt>
    <trkpt lat="35.417630" lon="33.869273"><ele>8.4</ele><time>2025-12-02T10:45:09Z</time></trkpt>
    <trkpt lat="35.417644" lon="33.869916"><ele>6.4</ele><time>2025-12-02T10:45:16Z</time></trkpt>
    <trkpt lat="35.418434" lon="33.870948"><ele>4.4</ele><time>2025-12-02T10:45:34Z</time></trkpt>
    <trkpt lat="35.418544" lon="33.871119"><ele>4.4</ele><time>2025-12-02T10:45:37Z</time></trkpt>
    <trkpt lat="35.418891" lon="33.871992"><ele>5.4</ele><time>2025-12-02T10:45:54Z</time></trkpt>
    <trkpt lat="35.418985" lon="33.872743"><ele>6.8</ele><time>2025-12-02T10:46:08Z</time></trkpt>
    <trkpt lat="35.418804" lon="33.874576"><ele>4.4</ele><time>2025-12-02T10:46:34Z</time></trkpt>
    <trkpt lat="35.419673" lon="33.877051"><ele>5.2</ele><time>2025-12-02T10:47:16Z</time></trkpt>
    <trkpt lat="35.420130" lon="33.879553"><ele>5.4</ele><time>2025-12-02T10:47:53Z</time></trkpt>
    <trkpt lat="35.420743" lon="33.880593"><ele>5.4</ele><time>2025-12-02T10:48:12Z</time></trkpt>
    <trkpt lat="35.420970" lon="33.880862"><ele>6.8</ele><time>2025-12-02T10:48:21Z</time></trkpt>
    <trkpt lat="35.421819" lon="33.881231"><ele>11.6</ele><time>2025-12-02T10:48:50Z</time></trkpt>
    <trkpt lat="35.422349" lon="33.882261"><ele>12.8</ele><time>2025-12-02T10:49:16Z</time></trkpt>
    <trkpt lat="35.423176" lon="33.884519"><ele>17.6</ele><time>2025-12-02T10:50:08Z</time></trkpt>
    <trkpt lat="35.423879" lon="33.886287"><ele>18.2</ele><time>2025-12-02T10:50:41Z</time></trkpt>
    <trkpt lat="35.423889" lon="33.887104"><ele>18.8</ele><time>2025-12-02T10:50:54Z</time></trkpt>
    <trkpt lat="35.423629" lon="33.888024"><ele>17.0</ele><time>2025-12-02T10:51:08Z</time></trkpt>
    <trkpt lat="35.423819" lon="33.888692"><ele>16.4</ele><time>2025-12-02T10:51:17Z</time></trkpt>
    <trkpt lat="35.424036" lon="33.888851"><ele>16.4</ele><time>2025-12-02T10:51:22Z</time></trkpt>
    <trkpt lat="35.424578" lon="33.889055"><ele>22.4</ele><time>2025-12-02T10:51:41Z</time></trkpt>
    <trkpt lat="35.425524" lon="33.890946"><ele>30.8</ele><time>2025-12-02T10:52:45Z</time></trkpt>
    <trkpt lat="35.425771" lon="33.892343"><ele>32.0</ele><time>2025-12-02T10:53:13Z</time></trkpt>
    <trkpt lat="35.426088" lon="33.894908"><ele>27.8</ele><time>2025-12-02T10:53:57Z</time></trkpt>
    <trkpt lat="35.425922" lon="33.895175"><ele>26.8</ele><time>2025-12-02T10:54:03Z</time></trkpt>
    <trkpt lat="35.425294" lon="33.895402"><ele>22.0</ele><time>2025-12-02T10:54:13Z</time></trkpt>
    <trkpt lat="35.424718" lon="33.896744"><ele>12.4</ele><time>2025-12-02T10:54:26Z</time></trkpt>
    <trkpt lat="35.424957" lon="33.898530"><ele>5.6</ele><time>2025-12-02T10:54:48Z</time></trkpt>
    <trkpt lat="35.425547" lon="33.902536"><ele>10.6</ele><time>2025-12-02T10:56:05Z</time></trkpt>
    <trkpt lat="35.425790" lon="33.902857"><ele>12.2</ele><time>2025-12-02T10:56:16Z</time></trkpt>
    <trkpt lat="35.426868" lon="33.902559"><ele>18.2</ele><time>2025-12-02T10:56:55Z</time></trkpt>
    <trkpt lat="35.427486" lon="33.902665"><ele>22.4</ele><time>2025-12-02T10:57:23Z</time></trkpt>
    <trkpt lat="35.427853" lon="33.903773"><ele>23.8</ele><time>2025-12-02T10:57:52Z</time></trkpt>
    <trkpt lat="35.427880" lon="33.903872"><ele>23.6</ele><time>2025-12-02T10:57:54Z</time></trkpt>
    <trkpt lat="35.428442" lon="33.906686"><ele>21.8</ele><time>2025-12-02T10:58:52Z</time></trkpt>
    <trkpt lat="35.428741" lon="33.906777"><ele>20.4</ele><time>2025-12-02T11:00:15Z</time></trkpt>
    <trkpt lat="35.428394" lon="33.906785"><ele>20.8</ele><time>2025-12-02T11:02:57Z</time></trkpt>
    <trkpt lat="35.428332" lon="33.906850"><ele>20.8</ele><time>2025-12-02T11:02:59Z</time></trkpt>
    <trkpt lat="35.427907" lon="33.907467"><ele>17.0</ele><time>2025-12-02T11:03:11Z</time></trkpt>
    <trkpt lat="35.427525" lon="33.910565"><ele>4.6</ele><time>2025-12-02T11:03:52Z</time></trkpt>
    <trkpt lat="35.427182" lon="33.913984"><ele>11.2</ele><time>2025-12-02T11:04:58Z</time></trkpt>
    <trkpt lat="35.427352" lon="33.914232"><ele>12.2</ele><time>2025-12-02T11:05:06Z</time></trkpt>
    <trkpt lat="35.427954" lon="33.914330"><ele>17.4</ele><time>2025-12-02T11:05:31Z</time></trkpt>
    <trkpt lat="35.429736" lon="33.915544"><ele>25.2</ele><time>2025-12-02T11:06:38Z</time></trkpt>
    <trkpt lat="35.429940" lon="33.915957"><ele>25.8</ele><time>2025-12-02T11:06:48Z</time></trkpt>
    <trkpt lat="35.430724" lon="33.918188"><ele>23.2</ele><time>2025-12-02T11:07:29Z</time></trkpt>
    <trkpt lat="35.430754" lon="33.918256"><ele>22.8</ele><time>2025-12-02T11:07:30Z</time></trkpt>
    <trkpt lat="35.430729" lon="33.918924"><ele>17.4</ele><time>2025-12-02T11:07:39Z</time></trkpt>
    <trkpt lat="35.429938" lon="33.919010"><ele>11.6</ele><time>2025-12-02T11:07:50Z</time></trkpt>
    <trkpt lat="35.429879" lon="33.919182"><ele>11.0</ele><time>2025-12-02T11:07:53Z</time></trkpt>
    <trkpt lat="35.429901" lon="33.919315"><ele>11.0</ele><time>2025-12-02T11:07:55Z</time></trkpt>
    <trkpt lat="35.430897" lon="33.920250"><ele>20.2</ele><time>2025-12-02T11:08:43Z</time></trkpt>
    <trkpt lat="35.431213" lon="33.920750"><ele>22.2</ele><time>2025-12-02T11:09:01Z</time></trkpt>
    <trkpt lat="35.431903" lon="33.921826"><ele>21.4</ele><time>2025-12-02T11:09:32Z</time></trkpt>
    <trkpt lat="35.432583" lon="33.924067"><ele>21.6</ele><time>2025-12-02T11:10:32Z</time></trkpt>
    <trkpt lat="35.432969" lon="33.927153"><ele>21.8</ele><time>2025-12-02T11:11:43Z</time></trkpt>
    <trkpt lat="35.433080" lon="33.928147"><ele>20.6</ele><time>2025-12-02T11:12:04Z</time></trkpt>
    <trkpt lat="35.433128" lon="33.928439"><ele>19.8</ele><time>2025-12-02T11:12:09Z</time></trkpt>
    <trkpt lat="35.433633" lon="33.931075"><ele>5.6</ele><time>2025-12-02T11:12:42Z</time></trkpt>
    <trkpt lat="35.434003" lon="33.932957"><ele>3.8</ele><time>2025-12-02T11:13:17Z</time></trkpt>
    <trkpt lat="35.434116" lon="33.933849"><ele>7.0</ele><time>2025-12-02T11:13:38Z</time></trkpt>
    <trkpt lat="35.434550" lon="33.934797"><ele>14.4</ele><time>2025-12-02T11:14:19Z</time></trkpt>
    <trkpt lat="35.434542" lon="33.936015"><ele>19.0</ele><time>2025-12-02T11:15:05Z</time></trkpt>
    <trkpt lat="35.434673" lon="33.936715"><ele>22.0</ele><time>2025-12-02T11:15:32Z</time></trkpt>
    <trkpt lat="35.434705" lon="33.936801"><ele>22.4</ele><time>2025-12-02T11:15:35Z</time></trkpt>
    <trkpt lat="35.436156" lon="33.939928"><ele>23.6</ele><time>2025-12-02T11:24:34Z</time></trkpt>
    <trkpt lat="35.436661" lon="33.941131"><ele>22.2</ele><time>2025-12-02T11:24:58Z</time></trkpt>
    <trkpt lat="35.436712" lon="33.941676"><ele>20.2</ele><time>2025-12-02T11:25:06Z</time></trkpt>
    <trkpt lat="35.436121" lon="33.942237"><ele>15.8</ele><time>2025-12-02T11:25:21Z</time></trkpt>
    <trkpt lat="35.436239" lon="33.942437"><ele>15.8</ele><time>2025-12-02T11:25:28Z</time></trkpt>
    <trkpt lat="35.436355" lon="33.942544"><ele>16.8</ele><time>2025-12-02T11:25:33Z</time></trkpt>
    <trkpt lat="35.436889" lon="33.942770"><ele>18.8</ele><time>2025-12-02T11:25:49Z</time></trkpt>
    <trkpt lat="35.437274" lon="33.943392"><ele>22.2</ele><time>2025-12-02T11:26:10Z</time></trkpt>
    <trkpt lat="35.437582" lon="33.945877"><ele>26.6</ele><time>2025-12-02T11:27:06Z</time></trkpt>
    <trkpt lat="35.437491" lon="33.947104"><ele>25.0</ele><time>2025-12-02T11:27:28Z</time></trkpt>
    <trkpt lat="35.437877" lon="33.947538"><ele>26.0</ele><time>2025-12-02T11:27:41Z</time></trkpt>
    <trkpt lat="35.439110" lon="33.951088"><ele>33.0</ele><time>2025-12-02T11:29:05Z</time></trkpt>
    <trkpt lat="35.439170" lon="33.951134"><ele>33.4</ele><time>2025-12-02T11:29:07Z</time></trkpt>
    <trkpt lat="35.440058" lon="33.952049"><ele>31.8</ele><time>2025-12-02T11:29:29Z</time></trkpt>
    <trkpt lat="35.441518" lon="33.954632"><ele>28.2</ele><time>2025-12-02T11:30:06Z</time></trkpt>
    <trkpt lat="35.441883" lon="33.955512"><ele>27.8</ele><time>2025-12-02T11:30:17Z</time></trkpt>
    <trkpt lat="35.442097" lon="33.956656"><ele>27.0</ele><time>2025-12-02T11:30:30Z</time></trkpt>
    <trkpt lat="35.442439" lon="33.960641"><ele>23.0</ele><time>2025-12-02T11:31:14Z</time></trkpt>
    <trkpt lat="35.442235" lon="33.961610"><ele>22.4</ele><time>2025-12-02T11:31:25Z</time></trkpt>
    <trkpt lat="35.441644" lon="33.962734"><ele>21.2</ele><time>2025-12-02T11:31:39Z</time></trkpt>
    <trkpt lat="35.441560" lon="33.963201"><ele>20.6</ele><time>2025-12-02T11:31:44Z</time></trkpt>
    <trkpt lat="35.441583" lon="33.963474"><ele>20.6</ele><time>2025-12-02T11:31:47Z</time></trkpt>
    <trkpt lat="35.442776" lon="33.965667"><ele>23.0</ele><time>2025-12-02T11:32:22Z</time></trkpt>
    <trkpt lat="35.443619" lon="33.967929"><ele>26.0</ele><time>2025-12-02T11:32:58Z</time></trkpt>
    <trkpt lat="35.444076" lon="33.971113"><ele>29.6</ele><time>2025-12-02T11:33:46Z</time></trkpt>
    <trkpt lat="35.444873" lon="33.973446"><ele>32.6</ele><time>2025-12-02T11:34:23Z</time></trkpt>
    <trkpt lat="35.444900" lon="33.973584"><ele>32.6</ele><time>2025-12-02T11:34:25Z</time></trkpt>
    <trkpt lat="35.444991" lon="33.976670"><ele>31.6</ele><time>2025-12-02T11:35:06Z</time></trkpt>
    <trkpt lat="35.445138" lon="33.977493"><ele>31.0</ele><time>2025-12-02T11:35:16Z</time></trkpt>
    <trkpt lat="35.446125" lon="33.979676"><ele>29.8</ele><time>2025-12-02T11:35:46Z</time></trkpt>
    <trkpt lat="35.446548" lon="33.981794"><ele>29.2</ele><time>2025-12-02T11:36:12Z</time></trkpt>
    <trkpt lat="35.446809" lon="33.982511"><ele>29.4</ele><time>2025-12-02T11:36:22Z</time></trkpt>
    <trkpt lat="35.447057" lon="33.982934"><ele>29.6</ele><time>2025-12-02T11:36:29Z</time></trkpt>
    <trkpt lat="35.447347" lon="33.983298"><ele>30.2</ele><time>2025-12-02T11:36:36Z</time></trkpt>
    <trkpt lat="35.448810" lon="33.984796"><ele>33.6</ele><time>2025-12-02T11:37:09Z</time></trkpt>
    <trkpt lat="35.449422" lon="33.985847"><ele>35.4</ele><time>2025-12-02T11:37:27Z</time></trkpt>
    <trkpt lat="35.450694" lon="33.990636"><ele>41.4</ele><time>2025-12-02T11:38:40Z</time></trkpt>
    <trkpt lat="35.454021" lon="33.997735"><ele>52.0</ele><time>2025-12-02T11:40:46Z</time></trkpt>
    <trkpt lat="35.455513" lon="34.002239"><ele>62.8</ele><time>2025-12-02T11:42:11Z</time></trkpt>
    <trkpt lat="35.455581" lon="34.003154"><ele>65.2</ele><time>2025-12-02T11:42:29Z</time></trkpt>
    <trkpt lat="35.455467" lon="34.003842"><ele>67.0</ele><time>2025-12-02T11:42:43Z</time></trkpt>
    <trkpt lat="35.454397" lon="34.005742"><ele>72.0</ele><time>2025-12-02T11:43:27Z</time></trkpt>
    <trkpt lat="35.454370" lon="34.005800"><ele>72.0</ele><time>2025-12-02T11:43:28Z</time></trkpt>
    <trkpt lat="35.454359" lon="34.006734"><ele>71.6</ele><time>2025-12-02T11:43:44Z</time></trkpt>
    <trkpt lat="35.454577" lon="34.007171"><ele>70.4</ele><time>2025-12-02T11:43:51Z</time></trkpt>
    <trkpt lat="35.454971" lon="34.007594"><ele>68.6</ele><time>2025-12-02T11:43:58Z</time></trkpt>
    <trkpt lat="35.456815" lon="34.009596"><ele>50.8</ele><time>2025-12-02T11:44:19Z</time></trkpt>
    <trkpt lat="35.457848" lon="34.010176"><ele>45.0</ele><time>2025-12-02T11:44:27Z</time></trkpt>
    <trkpt lat="35.459076" lon="34.010919"><ele>42.2</ele><time>2025-12-02T11:44:39Z</time></trkpt>
    <trkpt lat="35.460287" lon="34.012727"><ele>37.2</ele><time>2025-12-02T11:45:00Z</time></trkpt>
    <trkpt lat="35.460586" lon="34.013634"><ele>35.6</ele><time>2025-12-02T11:45:10Z</time></trkpt>
    <trkpt lat="35.460617" lon="34.014337"><ele>35.6</ele><time>2025-12-02T11:45:18Z</time></trkpt>
    <trkpt lat="35.460596" lon="34.014622"><ele>36.4</ele><time>2025-12-02T11:45:22Z</time></trkpt>
    <trkpt lat="35.460416" lon="34.015443"><ele>40.0</ele><time>2025-12-02T11:45:41Z</time></trkpt>
    <trkpt lat="35.459602" lon="34.017145"><ele>56.0</ele><time>2025-12-02T11:47:07Z</time></trkpt>
    <trkpt lat="35.459721" lon="34.018119"><ele>65.4</ele><time>2025-12-02T11:48:04Z</time></trkpt>
    <trkpt lat="35.460031" lon="34.018531"><ele>71.4</ele><time>2025-12-02T11:48:35Z</time></trkpt>
    <trkpt lat="35.461271" lon="34.019416"><ele>81.2</ele><time>2025-12-02T11:49:40Z</time></trkpt>
    <trkpt lat="35.461462" lon="34.019659"><ele>81.2</ele><time>2025-12-02T11:49:48Z</time></trkpt>
    <trkpt lat="35.462271" lon="34.020540"><ele>77.4</ele><time>2025-12-02T11:50:07Z</time></trkpt>
    <trkpt lat="35.463395" lon="34.021758"><ele>68.2</ele><time>2025-12-02T11:50:22Z</time></trkpt>
    <trkpt lat="35.463831" lon="34.022473"><ele>64.4</ele><time>2025-12-02T11:50:29Z</time></trkpt>
    <trkpt lat="35.466170" lon="34.029918"><ele>34.6</ele><time>2025-12-02T11:51:29Z</time></trkpt>
    <trkpt lat="35.467289" lon="34.033371"><ele>35.0</ele><time>2025-12-02T11:52:13Z</time></trkpt>
    <trkpt lat="35.467838" lon="34.034115"><ele>33.4</ele><time>2025-12-02T11:52:28Z</time></trkpt>
    <trkpt lat="35.469405" lon="34.035323"><ele>28.8</ele><time>2025-12-02T11:52:57Z</time></trkpt>
    <trkpt lat="35.469795" lon="34.035845"><ele>27.8</ele><time>2025-12-02T11:53:06Z</time></trkpt>
    <trkpt lat="35.470174" lon="34.036587"><ele>28.0</ele><time>2025-12-02T11:53:19Z</time></trkpt>
    <trkpt lat="35.470837" lon="34.039678"><ele>32.2</ele><time>2025-12-02T11:54:15Z</time></trkpt>
    <trkpt lat="35.471669" lon="34.043865"><ele>22.0</ele><time>2025-12-02T11:57:16Z</time></trkpt>
    <trkpt lat="35.472706" lon="34.045366"><ele>17.8</ele><time>2025-12-02T11:57:34Z</time></trkpt>
    <trkpt lat="35.473196" lon="34.046117"><ele>18.0</ele><time>2025-12-02T11:57:45Z</time></trkpt>
    <trkpt lat="35.474045" lon="34.048644"><ele>20.4</ele><time>2025-12-02T11:58:25Z</time></trkpt>
    <trkpt lat="35.476056" lon="34.053178"><ele>18.6</ele><time>2025-12-02T11:59:39Z</time></trkpt>
    <trkpt lat="35.478991" lon="34.059810"><ele>9.4</ele><time>2025-12-02T12:01:07Z</time></trkpt>
    <trkpt lat="35.480614" lon="34.063460"><ele>15.0</ele><time>2025-12-02T12:02:07Z</time></trkpt>
    <trkpt lat="35.482311" lon="34.066421"><ele>22.8</ele><time>2025-12-02T12:03:11Z</time></trkpt>
    <trkpt lat="35.482394" lon="34.066631"><ele>23.2</ele><time>2025-12-02T12:03:15Z</time></trkpt>
    <trkpt lat="35.483200" lon="34.068795"><ele>23.8</ele><time>2025-12-02T12:03:52Z</time></trkpt>
    <trkpt lat="35.484440" lon="34.070786"><ele>24.4</ele><time>2025-12-02T12:04:28Z</time></trkpt>
    <trkpt lat="35.485961" lon="34.073130"><ele>17.6</ele><time>2025-12-02T12:04:59Z</time></trkpt>
    <trkpt lat="35.486168" lon="34.073825"><ele>14.6</ele><time>2025-12-02T12:05:05Z</time></trkpt>
    <trkpt lat="35.486119" lon="34.075275"><ele>9.4</ele><time>2025-12-02T12:05:16Z</time></trkpt>
    <trkpt lat="35.486329" lon="34.076138"><ele>7.6</ele><time>2025-12-02T12:05:23Z</time></trkpt>
    <trkpt lat="35.486946" lon="34.076966"><ele>7.2</ele><time>2025-12-02T12:05:33Z</time></trkpt>
    <trkpt lat="35.488500" lon="34.078846"><ele>14.6</ele><time>2025-12-02T12:06:10Z</time></trkpt>
    <trkpt lat="35.489911" lon="34.080134"><ele>20.8</ele><time>2025-12-02T12:06:48Z</time></trkpt>
    <trkpt lat="35.490702" lon="34.080944"><ele>21.6</ele><time>2025-12-02T12:07:08Z</time></trkpt>
    <trkpt lat="35.491477" lon="34.082294"><ele>22.0</ele><time>2025-12-02T12:07:32Z</time></trkpt>
    <trkpt lat="35.491866" lon="34.083834"><ele>22.6</ele><time>2025-12-02T12:07:55Z</time></trkpt>
    <trkpt lat="35.491900" lon="34.087101"><ele>23.8</ele><time>2025-12-02T12:08:41Z</time></trkpt>
    <trkpt lat="35.492204" lon="34.089113"><ele>24.4</ele><time>2025-12-02T12:09:09Z</time></trkpt>
    <trkpt lat="35.494668" lon="34.097254"><ele>28.2</ele><time>2025-12-02T12:11:06Z</time></trkpt>
    <trkpt lat="35.496027" lon="34.101752"><ele>27.8</ele><time>2025-12-02T12:12:10Z</time></trkpt>
    <trkpt lat="35.497566" lon="34.106230"><ele>25.0</ele><time>2025-12-02T12:13:12Z</time></trkpt>
    <trkpt lat="35.499149" lon="34.111407"><ele>22.4</ele><time>2025-12-02T12:14:21Z</time></trkpt>
    <trkpt lat="35.499514" lon="34.114246"><ele>21.0</ele><time>2025-12-02T12:14:57Z</time></trkpt>
    <trkpt lat="35.499391" lon="34.117923"><ele>21.6</ele><time>2025-12-02T12:19:57Z</time></trkpt>
    <trkpt lat="35.499324" lon="34.119254"><ele>24.4</ele><time>2025-12-02T12:20:23Z</time></trkpt>
    <trkpt lat="35.499498" lon="34.121431"><ele>29.2</ele><time>2025-12-02T12:21:07Z</time></trkpt>
    <trkpt lat="35.500013" lon="34.123600"><ele>33.2</ele><time>2025-12-02T12:21:51Z</time></trkpt>
    <trkpt lat="35.502057" lon="34.130586"><ele>45.6</ele><time>2025-12-02T12:24:16Z</time></trkpt>
    <trkpt lat="35.502918" lon="34.132290"><ele>48.4</ele><time>2025-12-02T12:24:51Z</time></trkpt>
    <trkpt lat="35.505806" lon="34.136082"><ele>56.0</ele><time>2025-12-02T12:26:28Z</time></trkpt>
    <trkpt lat="35.507263" lon="34.138351"><ele>60.2</ele><time>2025-12-02T12:27:25Z</time></trkpt>
    <trkpt lat="35.510355" lon="34.143261"><ele>84.0</ele><time>2025-12-02T12:30:29Z</time></trkpt>
    <trkpt lat="35.510895" lon="34.144769"><ele>90.6</ele><time>2025-12-02T12:31:20Z</time></trkpt>
    <trkpt lat="35.512305" lon="34.151630"><ele>114.8</ele><time>2025-12-02T12:34:42Z</time></trkpt>
    <trkpt lat="35.512722" lon="34.153247"><ele>116.2</ele><time>2025-12-02T12:38:07Z</time></trkpt>
    <trkpt lat="35.513190" lon="34.154241"><ele>116.4</ele><time>2025-12-02T12:38:27Z</time></trkpt>
    <trkpt lat="35.513642" lon="34.154970"><ele>116.2</ele><time>2025-12-02T12:38:41Z</time></trkpt>
    <trkpt lat="35.515716" lon="34.158417"><ele>109.6</ele><time>2025-12-02T12:39:34Z</time></trkpt>
    <trkpt lat="35.517633" lon="34.162481"><ele>100.4</ele><time>2025-12-02T12:40:22Z</time></trkpt>
    <trkpt lat="35.518039" lon="34.162887"><ele>99.4</ele><time>2025-12-02T12:40:29Z</time></trkpt>
    <trkpt lat="35.518064" lon="34.162962"><ele>99.2</ele><time>2025-12-02T12:40:30Z</time></trkpt>
    <trkpt lat="35.517972" lon="34.163314"><ele>99.2</ele><time>2025-12-02T12:40:35Z</time></trkpt>
    <trkpt lat="35.517305" lon="34.163595"><ele>99.0</ele><time>2025-12-02T12:40:47Z</time></trkpt>
    <trkpt lat="35.516865" lon="34.165742"><ele>100.2</ele><time>2025-12-02T12:41:17Z</time></trkpt>
    <trkpt lat="35.515959" lon="34.166861"><ele>101.2</ele><time>2025-12-02T12:41:49Z</time></trkpt>
    <trkpt lat="35.516091" lon="34.167023"><ele>101.2</ele><time>2025-12-02T12:42:35Z</time></trkpt>
    <trkpt lat="35.517116" lon="34.168352"><ele>97.0</ele><time>2025-12-02T12:42:56Z</time></trkpt>
    <trkpt lat="35.518162" lon="34.169333"><ele>95.0</ele><time>2025-12-02T12:43:13Z</time></trkpt>
    <trkpt lat="35.519882" lon="34.170992"><ele>101.8</ele><time>2025-12-02T12:44:05Z</time></trkpt>
    <trkpt lat="35.521832" lon="34.174298"><ele>110.8</ele><time>2025-12-02T12:45:41Z</time></trkpt>
    <trkpt lat="35.524141" lon="34.176509"><ele>121.0</ele><time>2025-12-02T12:47:12Z</time></trkpt>
    <trkpt lat="35.524678" lon="34.177065"><ele>121.2</ele><time>2025-12-02T12:47:35Z</time></trkpt>
    <trkpt lat="35.526129" lon="34.179642"><ele>118.2</ele><time>2025-12-02T12:48:25Z</time></trkpt>
    <trkpt lat="35.527350" lon="34.181042"><ele>116.6</ele><time>2025-12-02T12:48:52Z</time></trkpt>
    <trkpt lat="35.527578" lon="34.181372"><ele>116.6</ele><time>2025-12-02T12:48:58Z</time></trkpt>
    <trkpt lat="35.528797" lon="34.183144"><ele>117.4</ele><time>2025-12-02T12:49:31Z</time></trkpt>
    <trkpt lat="35.529124" lon="34.184220"><ele>117.0</ele><time>2025-12-02T12:49:47Z</time></trkpt>
    <trkpt lat="35.529350" lon="34.184564"><ele>117.0</ele><time>2025-12-02T12:49:53Z</time></trkpt>
    <trkpt lat="35.531035" lon="34.185775"><ele>119.2</ele><time>2025-12-02T12:50:29Z</time></trkpt>
    <trkpt lat="35.532613" lon="34.187390"><ele>118.8</ele><time>2025-12-02T12:51:16Z</time></trkpt>
    <trkpt lat="35.532357" lon="34.187316"><ele>119.0</ele><time>2025-12-02T13:02:16Z</time></trkpt>
    <trkpt lat="35.533385" lon="34.187992"><ele>119.4</ele><time>2025-12-02T13:03:35Z</time></trkpt>
    <trkpt lat="35.533872" lon="34.190155"><ele>123.4</ele><time>2025-12-02T13:04:39Z</time></trkpt>
    <trkpt lat="35.533489" lon="34.190624"><ele>125.0</ele><time>2025-12-02T13:04:54Z</time></trkpt>
    <trkpt lat="35.533674" lon="34.191390"><ele>126.0</ele><time>2025-12-02T13:05:17Z</time></trkpt>
    <trkpt lat="35.533257" lon="34.191956"><ele>123.0</ele><time>2025-12-02T13:05:27Z</time></trkpt>
    <trkpt lat="35.534102" lon="34.192218"><ele>124.0</ele><time>2025-12-02T13:05:45Z</time></trkpt>
    <trkpt lat="35.534506" lon="34.192777"><ele>124.6</ele><time>2025-12-02T13:05:57Z</time></trkpt>
    <trkpt lat="35.534795" lon="34.193658"><ele>124.4</ele><time>2025-12-02T13:06:11Z</time></trkpt>
    <trkpt lat="35.534994" lon="34.194918"><ele>123.8</ele><time>2025-12-02T13:06:29Z</time></trkpt>
    <trkpt lat="35.535061" lon="34.195641"><ele>124.8</ele><time>2025-12-02T13:06:40Z</time></trkpt>
    <trkpt lat="35.535659" lon="34.198051"><ele>133.2</ele><time>2025-12-02T13:07:39Z</time></trkpt>
    <trkpt lat="35.535067" lon="34.202084"><ele>139.6</ele><time>2025-12-02T13:08:49Z</time></trkpt>
    <trkpt lat="35.535238" lon="34.203144"><ele>145.0</ele><time>2025-12-02T13:09:19Z</time></trkpt>
    <trkpt lat="35.536229" lon="34.209130"><ele>151.2</ele><time>2025-12-02T13:11:17Z</time></trkpt>
    <trkpt lat="35.536299" lon="34.209378"><ele>151.2</ele><time>2025-12-02T13:11:21Z</time></trkpt>
    <trkpt lat="35.536588" lon="34.210256"><ele>150.8</ele><time>2025-12-02T13:11:35Z</time></trkpt>
    <trkpt lat="35.537196" lon="34.211395"><ele>149.2</ele><time>2025-12-02T13:11:54Z</time></trkpt>
    <trkpt lat="35.536722" lon="34.212028"><ele>146.0</ele><time>2025-12-02T13:12:03Z</time></trkpt>
    <trkpt lat="35.536715" lon="34.212217"><ele>144.8</ele><time>2025-12-02T13:12:05Z</time></trkpt>
    <trkpt lat="35.536815" lon="34.212350"><ele>143.8</ele><time>2025-12-02T13:12:07Z</time></trkpt>
    <trkpt lat="35.537190" lon="34.212214"><ele>144.0</ele><time>2025-12-02T13:12:15Z</time></trkpt>
    <trkpt lat="35.537685" lon="34.212381"><ele>145.6</ele><time>2025-12-02T13:12:29Z</time></trkpt>
    <trkpt lat="35.537923" lon="34.214006"><ele>150.6</ele><time>2025-12-02T13:13:10Z</time></trkpt>
    <trkpt lat="35.537941" lon="34.214118"><ele>150.6</ele><time>2025-12-02T13:13:12Z</time></trkpt>
    <trkpt lat="35.538248" lon="34.214815"><ele>150.6</ele><time>2025-12-02T13:13:26Z</time></trkpt>
    <trkpt lat="35.538506" lon="34.215114"><ele>150.2</ele><time>2025-12-02T13:13:33Z</time></trkpt>
    <trkpt lat="35.538889" lon="34.215135"><ele>149.4</ele><time>2025-12-02T13:13:41Z</time></trkpt>
    <trkpt lat="35.539605" lon="34.216425"><ele>148.6</ele><time>2025-12-02T13:14:08Z</time></trkpt>
    <trkpt lat="35.539773" lon="34.216622"><ele>148.6</ele><time>2025-12-02T13:14:13Z</time></trkpt>
    <trkpt lat="35.541208" lon="34.218099"><ele>142.0</ele><time>2025-12-02T13:14:41Z</time></trkpt>
    <trkpt lat="35.542001" lon="34.219438"><ele>138.4</ele><time>2025-12-02T13:14:59Z</time></trkpt>
    <trkpt lat="35.542110" lon="34.219904"><ele>137.2</ele><time>2025-12-02T13:15:05Z</time></trkpt>
    <trkpt lat="35.542043" lon="34.221594"><ele>134.6</ele><time>2025-12-02T13:15:26Z</time></trkpt>
    <trkpt lat="35.542195" lon="34.221972"><ele>133.4</ele><time>2025-12-02T13:15:31Z</time></trkpt>
    <trkpt lat="35.542345" lon="34.222263"><ele>133.4</ele><time>2025-12-02T13:15:36Z</time></trkpt>
    <trkpt lat="35.542441" lon="34.223563"><ele>136.4</ele><time>2025-12-02T13:15:57Z</time></trkpt>
    <trkpt lat="35.542803" lon="34.224471"><ele>136.6</ele><time>2025-12-02T13:16:14Z</time></trkpt>
    <trkpt lat="35.543451" lon="34.225796"><ele>132.8</ele><time>2025-12-02T13:16:36Z</time></trkpt>
    <trkpt lat="35.543893" lon="34.225861"><ele>132.0</ele><time>2025-12-02T13:16:43Z</time></trkpt>
    <trkpt lat="35.544245" lon="34.225858"><ele>130.6</ele><time>2025-12-02T13:16:48Z</time></trkpt>
    <trkpt lat="35.544721" lon="34.226070"><ele>127.4</ele><time>2025-12-02T13:16:54Z</time></trkpt>
    <trkpt lat="35.545436" lon="34.226801"><ele>120.8</ele><time>2025-12-02T13:17:06Z</time></trkpt>
    <trkpt lat="35.546738" lon="34.226772"><ele>115.4</ele><time>2025-12-02T13:17:24Z</time></trkpt>
    <trkpt lat="35.547364" lon="34.227373"><ele>110.8</ele><time>2025-12-02T13:17:34Z</time></trkpt>
    <trkpt lat="35.547450" lon="34.227387"><ele>110.2</ele><time>2025-12-02T13:17:35Z</time></trkpt>
    <trkpt lat="35.548121" lon="34.227160"><ele>104.6</ele><time>2025-12-02T13:17:43Z</time></trkpt>
    <trkpt lat="35.548681" lon="34.226332"><ele>98.0</ele><time>2025-12-02T13:17:53Z</time></trkpt>
    <trkpt lat="35.549574" lon="34.226121"><ele>90.8</ele><time>2025-12-02T13:18:04Z</time></trkpt>
    <trkpt lat="35.549782" lon="34.226368"><ele>88.6</ele><time>2025-12-02T13:18:08Z</time></trkpt>
    <trkpt lat="35.550012" lon="34.227347"><ele>82.6</ele><time>2025-12-02T13:18:20Z</time></trkpt>
    <trkpt lat="35.549957" lon="34.228267"><ele>77.4</ele><time>2025-12-02T13:18:32Z</time></trkpt>
    <trkpt lat="35.549991" lon="34.228339"><ele>76.8</ele><time>2025-12-02T13:18:33Z</time></trkpt>
    <trkpt lat="35.550946" lon="34.228724"><ele>66.2</ele><time>2025-12-02T13:18:45Z</time></trkpt>
    <trkpt lat="35.551489" lon="34.228645"><ele>62.0</ele><time>2025-12-02T13:18:51Z</time></trkpt>
    <trkpt lat="35.553861" lon="34.226907"><ele>41.2</ele><time>2025-12-02T13:19:19Z</time></trkpt>
    <trkpt lat="35.554130" lon="34.226846"><ele>39.0</ele><time>2025-12-02T13:19:23Z</time></trkpt>
    <trkpt lat="35.555046" lon="34.228082"><ele>30.2</ele><time>2025-12-02T13:19:38Z</time></trkpt>
    <trkpt lat="35.555592" lon="34.228660"><ele>26.2</ele><time>2025-12-02T13:20:00Z</time></trkpt>
    <trkpt lat="35.556208" lon="34.230045"><ele>27.0</ele><time>2025-12-02T13:20:27Z</time></trkpt>
    <trkpt lat="35.556472" lon="34.231041"><ele>27.0</ele><time>2025-12-02T13:20:43Z</time></trkpt>
    <trkpt lat="35.556778" lon="34.231137"><ele>26.2</ele><time>2025-12-02T13:20:59Z</time></trkpt>
    <trkpt lat="35.556689" lon="34.231615"><ele>25.4</ele><time>2025-12-02T13:21:09Z</time></trkpt>
    <trkpt lat="35.556690" lon="34.231738"><ele>25.0</ele><time>2025-12-02T13:21:11Z</time></trkpt>
    <trkpt lat="35.556842" lon="34.232521"><ele>22.0</ele><time>2025-12-02T13:21:21Z</time></trkpt>
    <trkpt lat="35.557021" lon="34.232436"><ele>19.8</ele><time>2025-12-02T13:21:25Z</time></trkpt>
    <trkpt lat="35.556828" lon="34.231877"><ele>16.6</ele><time>2025-12-02T13:21:32Z</time></trkpt>
    <trkpt lat="35.557141" lon="34.231434"><ele>10.6</ele><time>2025-12-02T13:21:41Z</time></trkpt>
    <trkpt lat="35.557154" lon="34.230872"><ele>6.8</ele><time>2025-12-02T13:21:49Z</time></trkpt>
    <trkpt lat="35.557420" lon="34.230940"><ele>4.0</ele><time>2025-12-02T13:21:55Z</time></trkpt>
    <trkpt lat="35.557407" lon="34.231046"><ele>3.4</ele><time>2025-12-02T13:21:57Z</time></trkpt>
    <trkpt lat="35.557418" lon="34.231418"><ele>3.0</ele><time>2025-12-02T13:22:04Z</time></trkpt>
    <trkpt lat="35.557618" lon="34.231981"><ele>3.0</ele><time>2025-12-02T13:22:17Z</time></trkpt>
    <trkpt lat="35.557880" lon="34.231654"><ele>3.2</ele><time>2025-12-02T13:22:34Z</time></trkpt>
    <trkpt lat="35.557913" lon="34.231324"><ele>2.8</ele><time>2025-12-02T13:24:11Z</time></trkpt>
    <trkpt lat="35.557903" lon="34.231615"><ele>2.4</ele><time>2025-12-02T13:25:58Z</time></trkpt>
    <trkpt lat="35.557631" lon="34.231974"><ele>2.4</ele><time>2025-12-02T13:26:15Z</time></trkpt>
    <trkpt lat="35.557431" lon="34.231580"><ele>2.0</ele><time>2025-12-02T13:26:28Z</time></trkpt>
    <trkpt lat="35.557349" lon="34.230900"><ele>2.2</ele><time>2025-12-02T13:26:41Z</time></trkpt>
    <trkpt lat="35.557273" lon="34.230843"><ele>2.2</ele><time>2025-12-02T13:26:43Z</time></trkpt>
    <trkpt lat="35.557197" lon="34.230872"><ele>2.4</ele><time>2025-12-02T13:26:45Z</time></trkpt>
    <trkpt lat="35.557175" lon="34.231399"><ele>5.8</ele><time>2025-12-02T13:27:02Z</time></trkpt>
    <trkpt lat="35.556865" lon="34.231883"><ele>11.8</ele><time>2025-12-02T13:27:26Z</time></trkpt>
    <trkpt lat="35.557046" lon="34.232480"><ele>16.6</ele><time>2025-12-02T13:27:51Z</time></trkpt>
    <trkpt lat="35.556916" lon="34.232617"><ele>17.6</ele><time>2025-12-02T13:28:00Z</time></trkpt>
    <trkpt lat="35.556674" lon="34.231945"><ele>21.4</ele><time>2025-12-02T13:28:25Z</time></trkpt>
    <trkpt lat="35.556779" lon="34.231211"><ele>23.8</ele><time>2025-12-02T13:28:48Z</time></trkpt>
    <trkpt lat="35.556619" lon="34.231090"><ele>24.6</ele><time>2025-12-02T13:28:55Z</time></trkpt>
    <trkpt lat="35.556575" lon="34.231132"><ele>24.8</ele><time>2025-12-02T13:28:57Z</time></trkpt>
    <trkpt lat="35.556509" lon="34.231311"><ele>24.8</ele><time>2025-12-02T13:29:02Z</time></trkpt>
    <trkpt lat="35.556583" lon="34.232044"><ele>24.2</ele><time>2025-12-02T13:29:14Z</time></trkpt>
    <trkpt lat="35.556901" lon="34.233038"><ele>22.6</ele><time>2025-12-02T13:29:29Z</time></trkpt>
    <trkpt lat="35.557877" lon="34.234579"><ele>20.0</ele><time>2025-12-02T13:29:54Z</time></trkpt>
    <trkpt lat="35.558313" lon="34.235530"><ele>18.6</ele><time>2025-12-02T13:30:08Z</time></trkpt>
    <trkpt lat="35.558407" lon="34.235884"><ele>18.2</ele><time>2025-12-02T13:30:13Z</time></trkpt>
    <trkpt lat="35.558781" lon="34.238509"><ele>19.2</ele><time>2025-12-02T13:30:50Z</time></trkpt>
    <trkpt lat="35.559226" lon="34.239772"><ele>20.4</ele><time>2025-12-02T13:31:10Z</time></trkpt>
    <trkpt lat="35.560909" lon="34.242781"><ele>23.6</ele><time>2025-12-02T13:32:00Z</time></trkpt>
    <trkpt lat="35.562343" lon="34.244716"><ele>24.8</ele><time>2025-12-02T13:32:33Z</time></trkpt>
    <trkpt lat="35.563600" lon="34.246428"><ele>20.6</ele><time>2025-12-02T13:32:57Z</time></trkpt>
    <trkpt lat="35.567201" lon="34.249700"><ele>7.6</ele><time>2025-12-02T13:33:52Z</time></trkpt>
    <trkpt lat="35.567787" lon="34.250301"><ele>5.6</ele><time>2025-12-02T13:34:01Z</time></trkpt>
    <trkpt lat="35.568514" lon="34.251059"><ele>6.0</ele><time>2025-12-02T13:34:15Z</time></trkpt>
    <trkpt lat="35.569007" lon="34.251910"><ele>8.2</ele><time>2025-12-02T13:34:30Z</time></trkpt>
    <trkpt lat="35.569259" lon="34.252760"><ele>8.6</ele><time>2025-12-02T13:34:44Z</time></trkpt>
    <trkpt lat="35.569732" lon="34.255727"><ele>6.4</ele><time>2025-12-02T13:35:23Z</time></trkpt>
    <trkpt lat="35.569689" lon="34.257126"><ele>5.8</ele><time>2025-12-02T13:35:41Z</time></trkpt>
    <trkpt lat="35.569295" lon="34.259192"><ele>3.6</ele><time>2025-12-02T13:36:07Z</time></trkpt>
    <trkpt lat="35.569278" lon="34.259823"><ele>3.6</ele><time>2025-12-02T13:36:15Z</time></trkpt>
    <trkpt lat="35.569334" lon="34.260815"><ele>5.2</ele><time>2025-12-02T13:36:31Z</time></trkpt>
    <trkpt lat="35.570422" lon="34.264443"><ele>10.0</ele><time>2025-12-02T13:37:36Z</time></trkpt>
    <trkpt lat="35.570639" lon="34.265748"><ele>12.4</ele><time>2025-12-02T13:37:58Z</time></trkpt>
    <trkpt lat="35.570604" lon="34.269957"><ele>19.6</ele><time>2025-12-02T13:39:17Z</time></trkpt>
    <trkpt lat="35.570671" lon="34.271033"><ele>21.6</ele><time>2025-12-02T13:39:38Z</time></trkpt>
    <trkpt lat="35.571128" lon="34.278597"><ele>19.0</ele><time>2025-12-02T13:41:51Z</time></trkpt>
    <trkpt lat="35.571289" lon="34.282148"><ele>28.2</ele><time>2025-12-02T13:43:04Z</time></trkpt>
    <trkpt lat="35.571464" lon="34.283200"><ele>31.8</ele><time>2025-12-02T13:43:30Z</time></trkpt>
    <trkpt lat="35.571701" lon="34.284043"><ele>33.6</ele><time>2025-12-02T13:43:51Z</time></trkpt>
    <trkpt lat="35.573244" lon="34.289324"><ele>37.6</ele><time>2025-12-02T13:45:50Z</time></trkpt>
    <trkpt lat="35.573415" lon="34.290086"><ele>37.4</ele><time>2025-12-02T13:46:02Z</time></trkpt>
    <trkpt lat="35.573696" lon="34.294300"><ele>35.0</ele><time>2025-12-02T13:46:57Z</time></trkpt>
    <trkpt lat="35.574087" lon="34.295973"><ele>33.8</ele><time>2025-12-02T13:47:18Z</time></trkpt>
    <trkpt lat="35.575589" lon="34.299020"><ele>32.0</ele><time>2025-12-02T13:48:00Z</time></trkpt>
    <trkpt lat="35.579610" lon="34.307116"><ele>34.6</ele><time>2025-12-02T13:49:58Z</time></trkpt>
    <trkpt lat="35.580724" lon="34.309496"><ele>32.0</ele><time>2025-12-02T13:50:29Z</time></trkpt>
    <trkpt lat="35.583433" lon="34.313760"><ele>26.8</ele><time>2025-12-02T13:51:28Z</time></trkpt>
    <trkpt lat="35.586808" lon="34.318937"><ele>31.0</ele><time>2025-12-02T13:52:52Z</time></trkpt>
    <trkpt lat="35.588065" lon="34.321664"><ele>32.4</ele><time>2025-12-02T13:53:33Z</time></trkpt>
    <trkpt lat="35.588534" lon="34.322230"><ele>32.4</ele><time>2025-12-02T13:53:43Z</time></trkpt>
    <trkpt lat="35.589253" lon="34.322826"><ele>31.8</ele><time>2025-12-02T13:53:56Z</time></trkpt>
    <trkpt lat="35.597268" lon="34.328541"><ele>23.8</ele><time>2025-12-02T13:56:04Z</time></trkpt>
    <trkpt lat="35.597879" lon="34.329181"><ele>23.4</ele><time>2025-12-02T13:56:15Z</time></trkpt>
    <trkpt lat="35.598295" lon="34.330123"><ele>22.8</ele><time>2025-12-02T13:56:27Z</time></trkpt>
    <trkpt lat="35.598395" lon="34.331006"><ele>22.2</ele><time>2025-12-02T13:56:37Z</time></trkpt>
    <trkpt lat="35.598236" lon="34.331995"><ele>21.2</ele><time>2025-12-02T13:56:48Z</time></trkpt>
    <trkpt lat="35.596547" lon="34.335136"><ele>25.4</ele><time>2025-12-02T13:57:37Z</time></trkpt>
    <trkpt lat="35.596161" lon="34.336272"><ele>27.8</ele><time>2025-12-02T13:57:57Z</time></trkpt>
    <trkpt lat="35.596048" lon="34.337318"><ele>30.0</ele><time>2025-12-02T13:58:17Z</time></trkpt>
    <trkpt lat="35.596118" lon="34.338834"><ele>33.0</ele><time>2025-12-02T13:58:45Z</time></trkpt>
    <trkpt lat="35.596487" lon="34.340069"><ele>34.2</ele><time>2025-12-02T13:59:08Z</time></trkpt>
    <trkpt lat="35.597034" lon="34.341043"><ele>34.2</ele><time>2025-12-02T13:59:26Z</time></trkpt>
    <trkpt lat="35.597786" lon="34.342178"><ele>31.0</ele><time>2025-12-02T13:59:46Z</time></trkpt>
    <trkpt lat="35.598326" lon="34.342666"><ele>28.6</ele><time>2025-12-02T13:59:55Z</time></trkpt>
    <trkpt lat="35.599770" lon="34.343496"><ele>23.4</ele><time>2025-12-02T14:00:14Z</time></trkpt>
    <trkpt lat="35.600436" lon="34.344371"><ele>20.8</ele><time>2025-12-02T14:00:26Z</time></trkpt>
    <trkpt lat="35.600678" lon="34.345312"><ele>20.4</ele><time>2025-12-02T14:00:37Z</time></trkpt>
    <trkpt lat="35.600724" lon="34.345638"><ele>20.4</ele><time>2025-12-02T14:00:41Z</time></trkpt>
    <trkpt lat="35.601137" lon="34.348630"><ele>25.6</ele><time>2025-12-02T14:01:29Z</time></trkpt>
    <trkpt lat="35.601112" lon="34.349740"><ele>28.0</ele><time>2025-12-02T14:01:49Z</time></trkpt>
    <trkpt lat="35.600820" lon="34.350712"><ele>29.8</ele><time>2025-12-02T14:02:07Z</time></trkpt>
    <trkpt lat="35.600329" lon="34.351502"><ele>31.2</ele><time>2025-12-02T14:02:23Z</time></trkpt>
    <trkpt lat="35.599468" lon="34.352196"><ele>33.4</ele><time>2025-12-02T14:03:01Z</time></trkpt>
    <trkpt lat="35.597858" lon="34.352855"><ele>36.2</ele><time>2025-12-02T14:03:42Z</time></trkpt>
    <trkpt lat="35.597332" lon="34.353222"><ele>37.2</ele><time>2025-12-02T14:03:55Z</time></trkpt>
    <trkpt lat="35.596182" lon="34.354603"><ele>43.4</ele><time>2025-12-02T14:04:42Z</time></trkpt>
    <trkpt lat="35.594498" lon="34.356841"><ele>61.6</ele><time>2025-12-02T14:06:38Z</time></trkpt>
    <trkpt lat="35.593885" lon="34.357965"><ele>70.4</ele><time>2025-12-02T14:07:33Z</time></trkpt>
    <trkpt lat="35.592834" lon="34.360463"><ele>88.8</ele><time>2025-12-02T14:09:32Z</time></trkpt>
    <trkpt lat="35.591729" lon="34.362375"><ele>103.2</ele><time>2025-12-02T14:11:14Z</time></trkpt>
    <trkpt lat="35.591495" lon="34.363759"><ele>112.0</ele><time>2025-12-02T14:12:12Z</time></trkpt>
    <trkpt lat="35.591745" lon="34.364875"><ele>117.4</ele><time>2025-12-02T14:12:51Z</time></trkpt>
    <trkpt lat="35.591881" lon="34.365193"><ele>119.0</ele><time>2025-12-02T14:13:03Z</time></trkpt>
    <trkpt lat="35.594126" lon="34.370479"><ele>131.4</ele><time>2025-12-02T14:17:35Z</time></trkpt>
    <trkpt lat="35.594507" lon="34.371346"><ele>131.6</ele><time>2025-12-02T14:17:53Z</time></trkpt>
    <trkpt lat="35.596747" lon="34.375155"><ele>133.8</ele><time>2025-12-02T14:19:07Z</time></trkpt>
    <trkpt lat="35.597328" lon="34.376677"><ele>135.8</ele><time>2025-12-02T14:19:36Z</time></trkpt>
    <trkpt lat="35.597497" lon="34.377819"><ele>134.4</ele><time>2025-12-02T14:19:53Z</time></trkpt>
    <trkpt lat="35.598173" lon="34.379172"><ele>136.6</ele><time>2025-12-02T14:20:20Z</time></trkpt>
    <trkpt lat="35.598769" lon="34.380847"><ele>137.6</ele><time>2025-12-02T14:29:17Z</time></trkpt>
    <trkpt lat="35.598842" lon="34.380931"><ele>137.6</ele><time>2025-12-02T14:29:21Z</time></trkpt>
    <trkpt lat="35.599393" lon="34.381473"><ele>142.0</ele><time>2025-12-02T14:30:03Z</time></trkpt>
    <trkpt lat="35.600493" lon="34.381911"><ele>155.2</ele><time>2025-12-02T14:31:19Z</time></trkpt>
    <trkpt lat="35.600518" lon="34.381984"><ele>156.0</ele><time>2025-12-02T14:31:24Z</time></trkpt>
    <trkpt lat="35.600622" lon="34.382402"><ele>156.0</ele><time>2025-12-02T14:31:42Z</time></trkpt>
    <trkpt lat="35.601972" lon="34.384296"><ele>155.6</ele><time>2025-12-02T14:32:46Z</time></trkpt>
    <trkpt lat="35.602820" lon="34.386447"><ele>157.6</ele><time>2025-12-02T14:33:45Z</time></trkpt>
    <trkpt lat="35.603009" lon="34.386504"><ele>157.2</ele><time>2025-12-02T14:34:34Z</time></trkpt>
    </trkseg>
  </trk>
</gpx>
