<?xml version="1.0" encoding="UTF-8"?>
<gpx version="1.1" creator="trips" xmlns="http://www.topografix.com/GPX/1/1" xmlns:xsi="http://www.w3.org/2001/XMLSchema-instance" xsi:schemaLocation="http://www.topografix.com/GPX/1/1 http://www.topografix.com/GPX/1/1/gpx.xsd">
  <metadata><name>Anti-Atlas Loop — Day 4: Tafraoute to Tiznit</name><desc>105 km, 900 m (estimated). Planning route: via-points only, NOT snapped to roads. Import into Komoot / RideWithGPS / Garmin Connect and let it route between the points before riding.</desc></metadata>
  <wpt lat="29.720000" lon="-8.970000">
    <ele>1000.0</ele>
    <name>Tafraoute</name>
    <sym>Flag, Green</sym>
  </wpt>
  <wpt lat="29.698000" lon="-9.732000">
    <ele>240.0</ele>
    <name>Tiznit</name>
    <sym>Flag, Blue</sym>
  </wpt>
  <rte><name>Anti-Atlas Loop — Day 4: Tafraoute to Tiznit</name>
    <rtept lat="29.720000" lon="-8.970000">
    <ele>1000.0</ele>
    <name>Tafraoute</name>
    <sym>Flag, Green</sym>
    </rtept>
    <rtept lat="29.750000" lon="-9.400000">
    <ele>700.0</ele>
    <name>Izerbi</name>
    <sym>Waypoint</sym>
    </rtept>
    <rtept lat="29.698000" lon="-9.732000">
    <ele>240.0</ele>
    <name>Tiznit</name>
    <sym>Flag, Blue</sym>
    </rtept>
  </rte>
</gpx>
