<?xml version="1.0" encoding="UTF-8"?>
<gpx version="1.1" creator="trips" xmlns="http://www.topografix.com/GPX/1/1" xmlns:xsi="http://www.w3.org/2001/XMLSchema-instance" xsi:schemaLocation="http://www.topografix.com/GPX/1/1 http://www.topografix.com/GPX/1/1/gpx.xsd">
  <metadata><name>Anti-Atlas Loop — Day 3: Tafraoute to Tafraoute</name><desc>70 km, 1200 m (estimated). Planning route: via-points only, NOT snapped to roads. Import into Komoot / RideWithGPS / Garmin Connect and let it route between the points before riding.</desc></metadata>
  <wpt lat="29.720000" lon="-8.970000">
    <ele>1000.0</ele>
    <name>Tafraoute</name>
    <sym>Flag, Green</sym>
  </wpt>
  <wpt lat="29.770000" lon="-8.990000">
    <ele>1200.0</ele>
    <name>Oumesnate</name>
    <sym>City (Small)</sym>
  </wpt>
  <wpt lat="29.780000" lon="-9.080000">
    <ele>1450.0</ele>
    <name>Tizi n'Tarakatine</name>
    <sym>Summit</sym>
  </wpt>
  <wpt lat="29.720000" lon="-8.970000">
    <ele>1000.0</ele>
    <name>Tafraoute</name>
    <sym>Flag, Blue</sym>
  </wpt>
  <rte><name>Anti-Atlas Loop — Day 3: Tafraoute to Tafraoute</name>
    <rtept lat="29.720000" lon="-8.970000">
    <ele>1000.0</ele>
    <name>Tafraoute</name>
    <sym>Flag, Green</sym>
    </rtept>
    <rtept lat="29.770000" lon="-8.990000">
    <ele>1200.0</ele>
    <name>Oumesnate</name>
    <sym>City (Small)</sym>
    </rtept>
    <rtept lat="29.780000" lon="-9.080000">
    <ele>1450.0</ele>
    <name>Tizi n'Tarakatine</name>
    <sym>Summit</sym>
    </rtept>
    <rtept lat="29.720000" lon="-8.970000">
    <ele>1000.0</ele>
    <name>Tafraoute</name>
    <sym>Flag, Blue</sym>
    </rtept>
  </rte>
</gpx>
