<?xml version="1.0" encoding="UTF-8"?>
<gpx version="1.1" creator="trips" xmlns="http://www.topografix.com/GPX/1/1" xmlns:xsi="http://www.w3.org/2001/XMLSchema-instance" xsi:schemaLocation="http://www.topografix.com/GPX/1/1 http://www.topografix.com/GPX/1/1/gpx.xsd">
  <metadata><name>Anti-Atlas Loop — Day 1: Agadir to Aït Baha</name><desc>110 km, 1300 m (estimated). Planning route: via-points only, NOT snapped to roads. Import into Komoot / RideWithGPS / Garmin Connect and let it route between the points before riding.</desc></metadata>
  <wpt lat="30.420000" lon="-9.598000">
    <ele>20.0</ele>
    <name>Agadir</name>
    <sym>Flag, Green</sym>
  </wpt>
  <wpt lat="30.216000" lon="-9.370000">
    <ele>150.0</ele>
    <name>Biougra</name>
    <sym>City (Small)</sym>
  </wpt>
  <wpt lat="30.070000" lon="-9.140000">
    <ele>650.0</ele>
    <name>Aït Baha</name>
    <sym>Flag, Blue</sym>
  </wpt>
  <rte><name>Anti-Atlas Loop — Day 1: Agadir to Aït Baha</name>
    <rtept lat="30.420000" lon="-9.598000">
    <ele>20.0</ele>
    <name>Agadir</name>
    <sym>Flag, Green</sym>
    </rtept>
    <rtept lat="30.340000" lon="-9.490000">
    <ele>50.0</ele>
    <name>Aït Melloul</name>
    <sym>Waypoint</sym>
    </rtept>
    <rtept lat="30.216000" lon="-9.370000">
    <ele>150.0</ele>
    <name>Biougra</name>
    <sym>City (Small)</sym>
    </rtept>
    <rtept lat="30.070000" lon="-9.140000">
    <ele>650.0</ele>
    <name>Aït Baha</name>
    <sym>Flag, Blue</sym>
    </rtept>
  </rte>
</gpx>
