<?xml version="1.0" encoding="UTF-8"?>
<gpx version="1.1" creator="trips" xmlns="http://www.topografix.com/GPX/1/1" xmlns:xsi="http://www.w3.org/2001/XMLSchema-instance" xsi:schemaLocation="http://www.topografix.com/GPX/1/1 http://www.topografix.com/GPX/1/1/gpx.xsd">
  <metadata><name>Anti-Atlas Loop — Day 5: Tiznit to Agadir</name><desc>95 km, 600 m (estimated). Planning route: via-points only, NOT snapped to roads. Import into Komoot / RideWithGPS / Garmin Connect and let it route between the points before riding.</desc></metadata>
  <wpt lat="29.698000" lon="-9.732000">
    <ele>240.0</ele>
    <name>Tiznit</name>
    <sym>Flag, Green</sym>
  </wpt>
  <wpt lat="29.830000" lon="-9.800000">
    <ele>10.0</ele>
    <name>Aglou Plage</name>
    <sym>City (Small)</sym>
  </wpt>
  <wpt lat="30.420000" lon="-9.598000">
    <ele>20.0</ele>
    <name>Agadir</name>
    <sym>Flag, Blue</sym>
  </wpt>
  <rte><name>Anti-Atlas Loop — Day 5: Tiznit to Agadir</name>
    <rtept lat="29.698000" lon="-9.732000">
    <ele>240.0</ele>
    <name>Tiznit</name>
    <sym>Flag, Green</sym>
    </rtept>
    <rtept lat="29.830000" lon="-9.800000">
    <ele>10.0</ele>
    <name>Aglou Plage</name>
    <sym>City (Small)</sym>
    </rtept>
    <rtept lat="30.050000" lon="-9.650000">
    <ele>50.0</ele>
    <name>Massa</name>
    <sym>Waypoint</sym>
    </rtept>
    <rtept lat="30.420000" lon="-9.598000">
    <ele>20.0</ele>
    <name>Agadir</name>
    <sym>Flag, Blue</sym>
    </rtept>
  </rte>
</gpx>
