<?xml version="1.0" encoding="UTF-8"?>
<gpx version="1.1" creator="trips" xmlns="http://www.topografix.com/GPX/1/1" xmlns:xsi="http://www.w3.org/2001/XMLSchema-instance" xsi:schemaLocation="http://www.topografix.com/GPX/1/1 http://www.topografix.com/GPX/1/1/gpx.xsd">
  <metadata><name>Anti-Atlas Loop — Day 2: Aït Baha to Tafraoute</name><desc>90 km, 1600 m (estimated). Planning route: via-points only, NOT snapped to roads. Import into Komoot / RideWithGPS / Garmin Connect and let it route between the points before riding.</desc></metadata>
  <wpt lat="30.070000" lon="-9.140000">
    <ele>650.0</ele>
    <name>Aït Baha</name>
    <sym>Flag, Green</sym>
  </wpt>
  <wpt lat="29.900000" lon="-9.050000">
    <ele>1500.0</ele>
    <name>Tizi Mlil</name>
    <sym>Summit</sym>
  </wpt>
  <wpt lat="29.720000" lon="-8.970000">
    <ele>1000.0</ele>
    <name>Tafraoute</name>
    <sym>Flag, Blue</sym>
  </wpt>
  <rte><name>Anti-Atlas Loop — Day 2: Aït Baha to Tafraoute</name>
    <rtept lat="30.070000" lon="-9.140000">
    <ele>650.0</ele>
    <name>Aït Baha</name>
    <sym>Flag, Green</sym>
    </rtept>
    <rtept lat="29.900000" lon="-9.050000">
    <ele>1500.0</ele>
    <name>Tizi Mlil</name>
    <sym>Summit</sym>
    </rtept>
    <rtept lat="29.720000" lon="-8.970000">
    <ele>1000.0</ele>
    <name>Tafraoute</name>
    <sym>Flag, Blue</sym>
    </rtept>
  </rte>
</gpx>
