<?xml version="1.0" encoding="UTF-8"?>
<gpx version="1.1" creator="tripplanner (routed with BRouter, gravel profile)" xmlns="http://www.topografix.com/GPX/1/1">
  <metadata>
    <name>M'Goun &amp; Lakes traverse — Day 4: Zaouiat Ahansal → Anergui</name>
    <desc>48 km, 1602 m, ~11% paved. Routed with BRouter (mtb profile) over OSM ways — a plan, not a ridden track.</desc>
  </metadata>
  <trk>
    <name>M'Goun &amp; Lakes traverse — Day 4: Zaouiat Ahansal → Anergui</name>
    <trkseg>
    <trkpt lat="31.845665" lon="-6.090432"><ele>1887.8</ele></trkpt>
    <trkpt lat="31.845369" lon="-6.090620"><ele>1885.8</ele></trkpt>
    <trkpt lat="31.845259" lon="-6.090626"><ele>1885.8</ele></trkpt>
    <trkpt lat="31.844717" lon="-6.090572"><ele>1877.8</ele></trkpt>
    <trkpt lat="31.844444" lon="-6.090626"><ele>1872.8</ele></trkpt>
    <trkpt lat="31.844043" lon="-6.090728"><ele>1863.8</ele></trkpt>
    <trkpt lat="31.842452" lon="-6.090519"><ele>1845.5</ele></trkpt>
    <trkpt lat="31.841942" lon="-6.090620"><ele>1831.5</ele></trkpt>
    <trkpt lat="31.841510" lon="-6.090576"><ele>1824.0</ele></trkpt>
    <trkpt lat="31.840351" lon="-6.090508"><ele>1803.0</ele></trkpt>
    <trkpt lat="31.840075" lon="-6.090614"><ele>1798.5</ele></trkpt>
    <trkpt lat="31.839075" lon="-6.091248"><ele>1782.2</ele></trkpt>
    <trkpt lat="31.837947" lon="-6.091635"><ele>1777.5</ele></trkpt>
    <trkpt lat="31.837500" lon="-6.091374"><ele>1778.5</ele></trkpt>
    <trkpt lat="31.837213" lon="-6.091556"><ele>1777.0</ele></trkpt>
    <trkpt lat="31.836903" lon="-6.091337"><ele>1777.0</ele></trkpt>
    <trkpt lat="31.836863" lon="-6.091220"><ele>1777.0</ele></trkpt>
    <trkpt lat="31.837106" lon="-6.089956"><ele>1796.2</ele></trkpt>
    <trkpt lat="31.837252" lon="-6.088861"><ele>1807.8</ele></trkpt>
    <trkpt lat="31.837553" lon="-6.087745"><ele>1818.2</ele></trkpt>
    <trkpt lat="31.838346" lon="-6.086222"><ele>1830.0</ele></trkpt>
    <trkpt lat="31.839157" lon="-6.085299"><ele>1840.5</ele></trkpt>
    <trkpt lat="31.840032" lon="-6.083915"><ele>1845.5</ele></trkpt>
    <trkpt lat="31.840479" lon="-6.083089"><ele>1854.2</ele></trkpt>
    <trkpt lat="31.841030" lon="-6.082715"><ele>1858.0</ele></trkpt>
    <trkpt lat="31.840788" lon="-6.082547"><ele>1858.8</ele></trkpt>
    <trkpt lat="31.840638" lon="-6.082039"><ele>1871.0</ele></trkpt>
    <trkpt lat="31.840778" lon="-6.081918"><ele>1874.2</ele></trkpt>
    <trkpt lat="31.841126" lon="-6.081355"><ele>1889.0</ele></trkpt>
    <trkpt lat="31.840939" lon="-6.081308"><ele>1895.0</ele></trkpt>
    <trkpt lat="31.841117" lon="-6.081188"><ele>1895.5</ele></trkpt>
    <trkpt lat="31.840949" lon="-6.081178"><ele>1898.5</ele></trkpt>
    <trkpt lat="31.841113" lon="-6.081113"><ele>1900.0</ele></trkpt>
    <trkpt lat="31.840889" lon="-6.081070"><ele>1906.2</ele></trkpt>
    <trkpt lat="31.841144" lon="-6.080691"><ele>1912.2</ele></trkpt>
    <trkpt lat="31.840679" lon="-6.080729"><ele>1922.0</ele></trkpt>
    <trkpt lat="31.839682" lon="-6.080228"><ele>1960.2</ele></trkpt>
    <trkpt lat="31.839444" lon="-6.080053"><ele>1969.8</ele></trkpt>
    <trkpt lat="31.838710" lon="-6.080380"><ele>1972.8</ele></trkpt>
    <trkpt lat="31.838569" lon="-6.080353"><ele>1974.5</ele></trkpt>
    <trkpt lat="31.838378" lon="-6.080096"><ele>1985.0</ele></trkpt>
    <trkpt lat="31.838314" lon="-6.080030"><ele>1986.2</ele></trkpt>
    <trkpt lat="31.837922" lon="-6.079978"><ele>1989.2</ele></trkpt>
    <trkpt lat="31.837954" lon="-6.079745"><ele>1992.2</ele></trkpt>
    <trkpt lat="31.837822" lon="-6.079608"><ele>1994.8</ele></trkpt>
    <trkpt lat="31.837923" lon="-6.079493"><ele>1999.2</ele></trkpt>
    <trkpt lat="31.837859" lon="-6.079450"><ele>2000.0</ele></trkpt>
    <trkpt lat="31.837599" lon="-6.078774"><ele>2019.2</ele></trkpt>
    <trkpt lat="31.837658" lon="-6.078277"><ele>2033.2</ele></trkpt>
    <trkpt lat="31.837694" lon="-6.078025"><ele>2038.8</ele></trkpt>
    <trkpt lat="31.837854" lon="-6.077857"><ele>2042.2</ele></trkpt>
    <trkpt lat="31.837954" lon="-6.077315"><ele>2053.0</ele></trkpt>
    <trkpt lat="31.838487" lon="-6.076314"><ele>2069.8</ele></trkpt>
    <trkpt lat="31.839267" lon="-6.075663"><ele>2091.8</ele></trkpt>
    <trkpt lat="31.839372" lon="-6.074424"><ele>2103.5</ele></trkpt>
    <trkpt lat="31.839677" lon="-6.073991"><ele>2115.5</ele></trkpt>
    <trkpt lat="31.839772" lon="-6.073310"><ele>2129.2</ele></trkpt>
    <trkpt lat="31.839927" lon="-6.073133"><ele>2137.8</ele></trkpt>
    <trkpt lat="31.840101" lon="-6.072890"><ele>2143.5</ele></trkpt>
    <trkpt lat="31.840173" lon="-6.072317"><ele>2154.2</ele></trkpt>
    <trkpt lat="31.840356" lon="-6.071677"><ele>2170.5</ele></trkpt>
    <trkpt lat="31.840944" lon="-6.071346"><ele>2181.2</ele></trkpt>
    <trkpt lat="31.841327" lon="-6.070942"><ele>2190.8</ele></trkpt>
    <trkpt lat="31.841613" lon="-6.070569"><ele>2202.0</ele></trkpt>
    <trkpt lat="31.841741" lon="-6.070290"><ele>2207.0</ele></trkpt>
    <trkpt lat="31.841860" lon="-6.069936"><ele>2210.2</ele></trkpt>
    <trkpt lat="31.842689" lon="-6.069065"><ele>2213.0</ele></trkpt>
    <trkpt lat="31.842785" lon="-6.068695"><ele>2213.8</ele></trkpt>
    <trkpt lat="31.842790" lon="-6.066951"><ele>2215.5</ele></trkpt>
    <trkpt lat="31.843008" lon="-6.066238"><ele>2222.0</ele></trkpt>
    <trkpt lat="31.843183" lon="-6.066078"><ele>2222.5</ele></trkpt>
    <trkpt lat="31.843485" lon="-6.064221"><ele>2222.5</ele></trkpt>
    <trkpt lat="31.843601" lon="-6.063329"><ele>2211.5</ele></trkpt>
    <trkpt lat="31.843445" lon="-6.062983"><ele>2205.8</ele></trkpt>
    <trkpt lat="31.843063" lon="-6.061690"><ele>2187.5</ele></trkpt>
    <trkpt lat="31.843163" lon="-6.061326"><ele>2178.8</ele></trkpt>
    <trkpt lat="31.843523" lon="-6.060718"><ele>2160.0</ele></trkpt>
    <trkpt lat="31.843764" lon="-6.060360"><ele>2146.2</ele></trkpt>
    <trkpt lat="31.843897" lon="-6.060165"><ele>2141.0</ele></trkpt>
    <trkpt lat="31.843762" lon="-6.059958"><ele>2140.8</ele></trkpt>
    <trkpt lat="31.843325" lon="-6.059917"><ele>2139.8</ele></trkpt>
    <trkpt lat="31.842951" lon="-6.059703"><ele>2132.0</ele></trkpt>
    <trkpt lat="31.843183" lon="-6.059614"><ele>2127.0</ele></trkpt>
    <trkpt lat="31.843375" lon="-6.059478"><ele>2120.2</ele></trkpt>
    <trkpt lat="31.844389" lon="-6.058531"><ele>2080.2</ele></trkpt>
    <trkpt lat="31.845161" lon="-6.058614"><ele>2070.8</ele></trkpt>
    <trkpt lat="31.845086" lon="-6.058476"><ele>2068.0</ele></trkpt>
    <trkpt lat="31.845159" lon="-6.058472"><ele>2066.5</ele></trkpt>
    <trkpt lat="31.845906" lon="-6.058354"><ele>2045.2</ele></trkpt>
    <trkpt lat="31.846025" lon="-6.058305"><ele>2040.2</ele></trkpt>
    <trkpt lat="31.846435" lon="-6.058043"><ele>2023.2</ele></trkpt>
    <trkpt lat="31.846875" lon="-6.057528"><ele>2014.5</ele></trkpt>
    <trkpt lat="31.847187" lon="-6.057131"><ele>2002.2</ele></trkpt>
    <trkpt lat="31.848337" lon="-6.056160"><ele>1978.8</ele></trkpt>
    <trkpt lat="31.848902" lon="-6.055924"><ele>1965.0</ele></trkpt>
    <trkpt lat="31.848984" lon="-6.055731"><ele>1960.2</ele></trkpt>
    <trkpt lat="31.849155" lon="-6.055816"><ele>1959.2</ele></trkpt>
    <trkpt lat="31.848996" lon="-6.055580"><ele>1952.2</ele></trkpt>
    <trkpt lat="31.849164" lon="-6.055572"><ele>1950.8</ele></trkpt>
    <trkpt lat="31.849087" lon="-6.055430"><ele>1946.0</ele></trkpt>
    <trkpt lat="31.849230" lon="-6.055403"><ele>1942.5</ele></trkpt>
    <trkpt lat="31.849162" lon="-6.055313"><ele>1941.0</ele></trkpt>
    <trkpt lat="31.849219" lon="-6.054763"><ele>1920.8</ele></trkpt>
    <trkpt lat="31.850053" lon="-6.053817"><ele>1887.0</ele></trkpt>
    <trkpt lat="31.850092" lon="-6.053756"><ele>1886.5</ele></trkpt>
    <trkpt lat="31.849686" lon="-6.053553"><ele>1884.5</ele></trkpt>
    <trkpt lat="31.849652" lon="-6.053414"><ele>1884.0</ele></trkpt>
    <trkpt lat="31.850169" lon="-6.053298"><ele>1870.5</ele></trkpt>
    <trkpt lat="31.850283" lon="-6.052647"><ele>1862.0</ele></trkpt>
    <trkpt lat="31.850454" lon="-6.052662"><ele>1857.5</ele></trkpt>
    <trkpt lat="31.850518" lon="-6.052651"><ele>1856.5</ele></trkpt>
    <trkpt lat="31.850529" lon="-6.052300"><ele>1856.5</ele></trkpt>
    <trkpt lat="31.850361" lon="-6.051947"><ele>1856.5</ele></trkpt>
    <trkpt lat="31.850554" lon="-6.051911"><ele>1856.8</ele></trkpt>
    <trkpt lat="31.850707" lon="-6.052053"><ele>1856.8</ele></trkpt>
    <trkpt lat="31.850824" lon="-6.051184"><ele>1857.2</ele></trkpt>
    <trkpt lat="31.851055" lon="-6.050870"><ele>1872.5</ele></trkpt>
    <trkpt lat="31.851096" lon="-6.050710"><ele>1876.2</ele></trkpt>
    <trkpt lat="31.850736" lon="-6.050071"><ele>1877.8</ele></trkpt>
    <trkpt lat="31.850742" lon="-6.049623"><ele>1880.2</ele></trkpt>
    <trkpt lat="31.850847" lon="-6.049344"><ele>1883.2</ele></trkpt>
    <trkpt lat="31.851625" lon="-6.047469"><ele>1900.0</ele></trkpt>
    <trkpt lat="31.852698" lon="-6.046799"><ele>1909.8</ele></trkpt>
    <trkpt lat="31.852990" lon="-6.046748"><ele>1912.2</ele></trkpt>
    <trkpt lat="31.853570" lon="-6.046155"><ele>1923.2</ele></trkpt>
    <trkpt lat="31.854020" lon="-6.045664"><ele>1929.0</ele></trkpt>
    <trkpt lat="31.854112" lon="-6.045051"><ele>1929.0</ele></trkpt>
    <trkpt lat="31.854329" lon="-6.044662"><ele>1936.0</ele></trkpt>
    <trkpt lat="31.855087" lon="-6.044796"><ele>1940.0</ele></trkpt>
    <trkpt lat="31.855337" lon="-6.044605"><ele>1947.2</ele></trkpt>
    <trkpt lat="31.855721" lon="-6.044758"><ele>1950.0</ele></trkpt>
    <trkpt lat="31.855721" lon="-6.044643"><ele>1952.5</ele></trkpt>
    <trkpt lat="31.855884" lon="-6.044694"><ele>1954.0</ele></trkpt>
    <trkpt lat="31.855889" lon="-6.044560"><ele>1957.0</ele></trkpt>
    <trkpt lat="31.856198" lon="-6.044630"><ele>1960.5</ele></trkpt>
    <trkpt lat="31.856008" lon="-6.043948"><ele>1973.2</ele></trkpt>
    <trkpt lat="31.855636" lon="-6.043649"><ele>1974.5</ele></trkpt>
    <trkpt lat="31.856225" lon="-6.043087"><ele>1994.5</ele></trkpt>
    <trkpt lat="31.856924" lon="-6.041864"><ele>2011.8</ele></trkpt>
    <trkpt lat="31.857211" lon="-6.041563"><ele>2017.2</ele></trkpt>
    <trkpt lat="31.857492" lon="-6.041280"><ele>2024.8</ele></trkpt>
    <trkpt lat="31.857881" lon="-6.040737"><ele>2034.2</ele></trkpt>
    <trkpt lat="31.858713" lon="-6.039332"><ele>2050.0</ele></trkpt>
    <trkpt lat="31.859057" lon="-6.038994"><ele>2053.8</ele></trkpt>
    <trkpt lat="31.859412" lon="-6.037557"><ele>2070.5</ele></trkpt>
    <trkpt lat="31.859238" lon="-6.036886"><ele>2079.8</ele></trkpt>
    <trkpt lat="31.858934" lon="-6.036440"><ele>2084.0</ele></trkpt>
    <trkpt lat="31.858723" lon="-6.035757"><ele>2091.8</ele></trkpt>
    <trkpt lat="31.858701" lon="-6.034756"><ele>2105.2</ele></trkpt>
    <trkpt lat="31.858766" lon="-6.034503"><ele>2109.5</ele></trkpt>
    <trkpt lat="31.858567" lon="-6.033811"><ele>2117.0</ele></trkpt>
    <trkpt lat="31.858605" lon="-6.033516"><ele>2122.0</ele></trkpt>
    <trkpt lat="31.858624" lon="-6.032916"><ele>2131.8</ele></trkpt>
    <trkpt lat="31.858437" lon="-6.031119"><ele>2158.5</ele></trkpt>
    <trkpt lat="31.858642" lon="-6.030523"><ele>2170.5</ele></trkpt>
    <trkpt lat="31.859596" lon="-6.029244"><ele>2193.8</ele></trkpt>
    <trkpt lat="31.860287" lon="-6.028667"><ele>2199.8</ele></trkpt>
    <trkpt lat="31.860378" lon="-6.028415"><ele>2203.2</ele></trkpt>
    <trkpt lat="31.860628" lon="-6.027433"><ele>2219.8</ele></trkpt>
    <trkpt lat="31.860683" lon="-6.027052"><ele>2225.8</ele></trkpt>
    <trkpt lat="31.861307" lon="-6.027090"><ele>2231.2</ele></trkpt>
    <trkpt lat="31.862159" lon="-6.026457"><ele>2254.8</ele></trkpt>
    <trkpt lat="31.862458" lon="-6.026041"><ele>2267.0</ele></trkpt>
    <trkpt lat="31.862554" lon="-6.026068"><ele>2269.0</ele></trkpt>
    <trkpt lat="31.863693" lon="-6.028328"><ele>2273.0</ele></trkpt>
    <trkpt lat="31.864112" lon="-6.028810"><ele>2275.0</ele></trkpt>
    <trkpt lat="31.864166" lon="-6.028784"><ele>2276.2</ele></trkpt>
    <trkpt lat="31.864065" lon="-6.028470"><ele>2283.0</ele></trkpt>
    <trkpt lat="31.864030" lon="-6.027730"><ele>2297.5</ele></trkpt>
    <trkpt lat="31.864090" lon="-6.027592"><ele>2297.5</ele></trkpt>
    <trkpt lat="31.864388" lon="-6.027838"><ele>2302.2</ele></trkpt>
    <trkpt lat="31.864839" lon="-6.027253"><ele>2305.0</ele></trkpt>
    <trkpt lat="31.865113" lon="-6.026840"><ele>2316.0</ele></trkpt>
    <trkpt lat="31.865559" lon="-6.026476"><ele>2327.2</ele></trkpt>
    <trkpt lat="31.865801" lon="-6.026379"><ele>2330.0</ele></trkpt>
    <trkpt lat="31.866447" lon="-6.026293"><ele>2334.5</ele></trkpt>
    <trkpt lat="31.866921" lon="-6.026728"><ele>2335.0</ele></trkpt>
    <trkpt lat="31.867216" lon="-6.026816"><ele>2342.0</ele></trkpt>
    <trkpt lat="31.867481" lon="-6.026478"><ele>2343.2</ele></trkpt>
    <trkpt lat="31.867646" lon="-6.025998"><ele>2357.0</ele></trkpt>
    <trkpt lat="31.867750" lon="-6.025156"><ele>2376.8</ele></trkpt>
    <trkpt lat="31.867991" lon="-6.024992"><ele>2379.2</ele></trkpt>
    <trkpt lat="31.868406" lon="-6.024891"><ele>2384.0</ele></trkpt>
    <trkpt lat="31.869007" lon="-6.024687"><ele>2403.2</ele></trkpt>
    <trkpt lat="31.869155" lon="-6.024665"><ele>2407.0</ele></trkpt>
    <trkpt lat="31.869748" lon="-6.024642"><ele>2419.5</ele></trkpt>
    <trkpt lat="31.870204" lon="-6.024727"><ele>2425.0</ele></trkpt>
    <trkpt lat="31.871286" lon="-6.024489"><ele>2463.2</ele></trkpt>
    <trkpt lat="31.872066" lon="-6.024523"><ele>2489.2</ele></trkpt>
    <trkpt lat="31.872155" lon="-6.024373"><ele>2498.5</ele></trkpt>
    <trkpt lat="31.873187" lon="-6.024598"><ele>2528.8</ele></trkpt>
    <trkpt lat="31.873748" lon="-6.024951"><ele>2542.5</ele></trkpt>
    <trkpt lat="31.874178" lon="-6.025127"><ele>2557.2</ele></trkpt>
    <trkpt lat="31.874373" lon="-6.025065"><ele>2569.8</ele></trkpt>
    <trkpt lat="31.874440" lon="-6.024719"><ele>2584.8</ele></trkpt>
    <trkpt lat="31.874534" lon="-6.024127"><ele>2609.5</ele></trkpt>
    <trkpt lat="31.874487" lon="-6.023201"><ele>2642.5</ele></trkpt>
    <trkpt lat="31.874802" lon="-6.023091"><ele>2662.5</ele></trkpt>
    <trkpt lat="31.874911" lon="-6.022600"><ele>2686.8</ele></trkpt>
    <trkpt lat="31.875123" lon="-6.022913"><ele>2686.8</ele></trkpt>
    <trkpt lat="31.875096" lon="-6.022627"><ele>2695.2</ele></trkpt>
    <trkpt lat="31.874889" lon="-6.022312"><ele>2700.5</ele></trkpt>
    <trkpt lat="31.875184" lon="-6.022421"><ele>2710.5</ele></trkpt>
    <trkpt lat="31.875591" lon="-6.023020"><ele>2711.5</ele></trkpt>
    <trkpt lat="31.875899" lon="-6.023287"><ele>2721.0</ele></trkpt>
    <trkpt lat="31.875634" lon="-6.022336"><ele>2743.2</ele></trkpt>
    <trkpt lat="31.875774" lon="-6.022408"><ele>2748.2</ele></trkpt>
    <trkpt lat="31.875570" lon="-6.021830"><ele>2762.8</ele></trkpt>
    <trkpt lat="31.875515" lon="-6.021717"><ele>2764.2</ele></trkpt>
    <trkpt lat="31.875302" lon="-6.021538"><ele>2767.0</ele></trkpt>
    <trkpt lat="31.875433" lon="-6.021457"><ele>2768.0</ele></trkpt>
    <trkpt lat="31.875093" lon="-6.021339"><ele>2769.2</ele></trkpt>
    <trkpt lat="31.875399" lon="-6.021112"><ele>2779.8</ele></trkpt>
    <trkpt lat="31.875632" lon="-6.021205"><ele>2784.5</ele></trkpt>
    <trkpt lat="31.875685" lon="-6.021082"><ele>2787.5</ele></trkpt>
    <trkpt lat="31.875361" lon="-6.020822"><ele>2787.5</ele></trkpt>
    <trkpt lat="31.875381" lon="-6.020661"><ele>2787.5</ele></trkpt>
    <trkpt lat="31.875925" lon="-6.020309"><ele>2787.0</ele></trkpt>
    <trkpt lat="31.876020" lon="-6.020022"><ele>2787.0</ele></trkpt>
    <trkpt lat="31.876533" lon="-6.019148"><ele>2777.8</ele></trkpt>
    <trkpt lat="31.877189" lon="-6.018196"><ele>2767.8</ele></trkpt>
    <trkpt lat="31.877651" lon="-6.017812"><ele>2766.8</ele></trkpt>
    <trkpt lat="31.877858" lon="-6.017348"><ele>2761.0</ele></trkpt>
    <trkpt lat="31.878455" lon="-6.016970"><ele>2759.8</ele></trkpt>
    <trkpt lat="31.878960" lon="-6.016368"><ele>2757.2</ele></trkpt>
    <trkpt lat="31.879677" lon="-6.016359"><ele>2756.8</ele></trkpt>
    <trkpt lat="31.880604" lon="-6.015950"><ele>2756.0</ele></trkpt>
    <trkpt lat="31.881367" lon="-6.015115"><ele>2755.0</ele></trkpt>
    <trkpt lat="31.883810" lon="-6.014834"><ele>2753.8</ele></trkpt>
    <trkpt lat="31.885516" lon="-6.014681"><ele>2732.0</ele></trkpt>
    <trkpt lat="31.888430" lon="-6.013941"><ele>2690.8</ele></trkpt>
    <trkpt lat="31.890093" lon="-6.013679"><ele>2676.2</ele></trkpt>
    <trkpt lat="31.891171" lon="-6.013813"><ele>2667.2</ele></trkpt>
    <trkpt lat="31.892157" lon="-6.013590"><ele>2662.2</ele></trkpt>
    <trkpt lat="31.894881" lon="-6.012735"><ele>2633.5</ele></trkpt>
    <trkpt lat="31.896555" lon="-6.012097"><ele>2612.8</ele></trkpt>
    <trkpt lat="31.897145" lon="-6.011753"><ele>2607.8</ele></trkpt>
    <trkpt lat="31.897833" lon="-6.011632"><ele>2607.8</ele></trkpt>
    <trkpt lat="31.898131" lon="-6.011051"><ele>2607.5</ele></trkpt>
    <trkpt lat="31.899019" lon="-6.009884"><ele>2601.2</ele></trkpt>
    <trkpt lat="31.899035" lon="-6.009603"><ele>2600.5</ele></trkpt>
    <trkpt lat="31.900367" lon="-6.007670"><ele>2585.5</ele></trkpt>
    <trkpt lat="31.900941" lon="-6.007351"><ele>2578.8</ele></trkpt>
    <trkpt lat="31.901066" lon="-6.006694"><ele>2578.0</ele></trkpt>
    <trkpt lat="31.901326" lon="-6.006331"><ele>2576.8</ele></trkpt>
    <trkpt lat="31.902674" lon="-6.003786"><ele>2561.2</ele></trkpt>
    <trkpt lat="31.903481" lon="-6.002599"><ele>2549.2</ele></trkpt>
    <trkpt lat="31.904748" lon="-6.001259"><ele>2543.0</ele></trkpt>
    <trkpt lat="31.905208" lon="-6.000117"><ele>2540.0</ele></trkpt>
    <trkpt lat="31.905889" lon="-5.998992"><ele>2534.0</ele></trkpt>
    <trkpt lat="31.906247" lon="-5.998181"><ele>2533.2</ele></trkpt>
    <trkpt lat="31.906730" lon="-5.997624"><ele>2532.2</ele></trkpt>
    <trkpt lat="31.909073" lon="-5.995735"><ele>2532.2</ele></trkpt>
    <trkpt lat="31.909473" lon="-5.995399"><ele>2534.8</ele></trkpt>
    <trkpt lat="31.910196" lon="-5.994523"><ele>2542.8</ele></trkpt>
    <trkpt lat="31.910873" lon="-5.993994"><ele>2549.2</ele></trkpt>
    <trkpt lat="31.911176" lon="-5.993528"><ele>2557.0</ele></trkpt>
    <trkpt lat="31.911532" lon="-5.993316"><ele>2558.2</ele></trkpt>
    <trkpt lat="31.912290" lon="-5.993729"><ele>2558.2</ele></trkpt>
    <trkpt lat="31.912384" lon="-5.993203"><ele>2558.2</ele></trkpt>
    <trkpt lat="31.913258" lon="-5.991249"><ele>2556.5</ele></trkpt>
    <trkpt lat="31.913784" lon="-5.989600"><ele>2556.5</ele></trkpt>
    <trkpt lat="31.915737" lon="-5.989116"><ele>2556.8</ele></trkpt>
    <trkpt lat="31.915944" lon="-5.988590"><ele>2561.5</ele></trkpt>
    <trkpt lat="31.916701" lon="-5.988445"><ele>2565.8</ele></trkpt>
    <trkpt lat="31.917248" lon="-5.988188"><ele>2566.2</ele></trkpt>
    <trkpt lat="31.917457" lon="-5.987775"><ele>2567.5</ele></trkpt>
    <trkpt lat="31.918298" lon="-5.987500"><ele>2569.2</ele></trkpt>
    <trkpt lat="31.918708" lon="-5.987056"><ele>2569.2</ele></trkpt>
    <trkpt lat="31.919213" lon="-5.986901"><ele>2569.2</ele></trkpt>
    <trkpt lat="31.919434" lon="-5.986038"><ele>2569.2</ele></trkpt>
    <trkpt lat="31.919754" lon="-5.985607"><ele>2569.0</ele></trkpt>
    <trkpt lat="31.919696" lon="-5.985039"><ele>2566.5</ele></trkpt>
    <trkpt lat="31.919453" lon="-5.984516"><ele>2563.8</ele></trkpt>
    <trkpt lat="31.918738" lon="-5.983751"><ele>2557.0</ele></trkpt>
    <trkpt lat="31.918807" lon="-5.983505"><ele>2555.8</ele></trkpt>
    <trkpt lat="31.919324" lon="-5.983198"><ele>2555.5</ele></trkpt>
    <trkpt lat="31.919387" lon="-5.982757"><ele>2554.8</ele></trkpt>
    <trkpt lat="31.919325" lon="-5.982384"><ele>2551.5</ele></trkpt>
    <trkpt lat="31.919488" lon="-5.981427"><ele>2544.0</ele></trkpt>
    <trkpt lat="31.920176" lon="-5.980958"><ele>2537.0</ele></trkpt>
    <trkpt lat="31.921432" lon="-5.979592"><ele>2513.8</ele></trkpt>
    <trkpt lat="31.922097" lon="-5.979382"><ele>2508.5</ele></trkpt>
    <trkpt lat="31.923490" lon="-5.978128"><ele>2487.5</ele></trkpt>
    <trkpt lat="31.924355" lon="-5.977330"><ele>2474.0</ele></trkpt>
    <trkpt lat="31.925142" lon="-5.976946"><ele>2467.0</ele></trkpt>
    <trkpt lat="31.926797" lon="-5.976457"><ele>2454.5</ele></trkpt>
    <trkpt lat="31.926697" lon="-5.976040"><ele>2448.8</ele></trkpt>
    <trkpt lat="31.925955" lon="-5.975490"><ele>2443.8</ele></trkpt>
    <trkpt lat="31.925974" lon="-5.975292"><ele>2442.2</ele></trkpt>
    <trkpt lat="31.926411" lon="-5.974737"><ele>2438.2</ele></trkpt>
    <trkpt lat="31.927260" lon="-5.972824"><ele>2431.5</ele></trkpt>
    <trkpt lat="31.927997" lon="-5.971991"><ele>2428.2</ele></trkpt>
    <trkpt lat="31.928976" lon="-5.971034"><ele>2419.8</ele></trkpt>
    <trkpt lat="31.929418" lon="-5.970378"><ele>2413.5</ele></trkpt>
    <trkpt lat="31.930023" lon="-5.969876"><ele>2407.0</ele></trkpt>
    <trkpt lat="31.930534" lon="-5.969603"><ele>2405.2</ele></trkpt>
    <trkpt lat="31.932389" lon="-5.969214"><ele>2403.5</ele></trkpt>
    <trkpt lat="31.932188" lon="-5.968865"><ele>2403.5</ele></trkpt>
    <trkpt lat="31.933736" lon="-5.967416"><ele>2404.8</ele></trkpt>
    <trkpt lat="31.934191" lon="-5.967148"><ele>2406.5</ele></trkpt>
    <trkpt lat="31.934579" lon="-5.966949"><ele>2406.5</ele></trkpt>
    <trkpt lat="31.935019" lon="-5.967218"><ele>2406.5</ele></trkpt>
    <trkpt lat="31.935043" lon="-5.967276"><ele>2405.5</ele></trkpt>
    <trkpt lat="31.935019" lon="-5.967411"><ele>2403.8</ele></trkpt>
    <trkpt lat="31.936595" lon="-5.967314"><ele>2389.2</ele></trkpt>
    <trkpt lat="31.938680" lon="-5.967513"><ele>2382.5</ele></trkpt>
    <trkpt lat="31.942458" lon="-5.968205"><ele>2378.5</ele></trkpt>
    <trkpt lat="31.943869" lon="-5.968307"><ele>2374.2</ele></trkpt>
    <trkpt lat="31.945790" lon="-5.968832"><ele>2372.0</ele></trkpt>
    <trkpt lat="31.946473" lon="-5.968967"><ele>2366.2</ele></trkpt>
    <trkpt lat="31.948048" lon="-5.968999"><ele>2360.0</ele></trkpt>
    <trkpt lat="31.951107" lon="-5.969712"><ele>2357.5</ele></trkpt>
    <trkpt lat="31.952713" lon="-5.969702"><ele>2356.5</ele></trkpt>
    <trkpt lat="31.953824" lon="-5.969482"><ele>2356.8</ele></trkpt>
    <trkpt lat="31.954639" lon="-5.969128"><ele>2357.5</ele></trkpt>
    <trkpt lat="31.956623" lon="-5.967803"><ele>2369.2</ele></trkpt>
    <trkpt lat="31.956468" lon="-5.966220"><ele>2370.2</ele></trkpt>
    <trkpt lat="31.957569" lon="-5.965085"><ele>2361.2</ele></trkpt>
    <trkpt lat="31.958912" lon="-5.965423"><ele>2352.5</ele></trkpt>
    <trkpt lat="31.961661" lon="-5.966305"><ele>2328.0</ele></trkpt>
    <trkpt lat="31.962480" lon="-5.966306"><ele>2326.2</ele></trkpt>
    <trkpt lat="31.964415" lon="-5.966360"><ele>2308.8</ele></trkpt>
    <trkpt lat="31.965411" lon="-5.966161"><ele>2299.5</ele></trkpt>
    <trkpt lat="31.965938" lon="-5.965864"><ele>2295.2</ele></trkpt>
    <trkpt lat="31.967858" lon="-5.965760"><ele>2277.2</ele></trkpt>
    <trkpt lat="31.968629" lon="-5.966038"><ele>2277.2</ele></trkpt>
    <trkpt lat="31.969472" lon="-5.966660"><ele>2277.2</ele></trkpt>
    <trkpt lat="31.969536" lon="-5.967007"><ele>2277.2</ele></trkpt>
    <trkpt lat="31.969151" lon="-5.969785"><ele>2283.8</ele></trkpt>
    <trkpt lat="31.969144" lon="-5.970629"><ele>2283.8</ele></trkpt>
    <trkpt lat="31.968953" lon="-5.971509"><ele>2284.8</ele></trkpt>
    <trkpt lat="31.968570" lon="-5.972080"><ele>2285.2</ele></trkpt>
    <trkpt lat="31.965829" lon="-5.975235"><ele>2285.2</ele></trkpt>
    <trkpt lat="31.965283" lon="-5.976804"><ele>2284.8</ele></trkpt>
    <trkpt lat="31.965589" lon="-5.977956"><ele>2283.2</ele></trkpt>
    <trkpt lat="31.966977" lon="-5.979480"><ele>2282.8</ele></trkpt>
    <trkpt lat="31.968072" lon="-5.980286"><ele>2282.8</ele></trkpt>
    <trkpt lat="31.968676" lon="-5.980522"><ele>2281.0</ele></trkpt>
    <trkpt lat="31.972177" lon="-5.979488"><ele>2275.5</ele></trkpt>
    <trkpt lat="31.974553" lon="-5.979171"><ele>2269.0</ele></trkpt>
    <trkpt lat="31.975097" lon="-5.978676"><ele>2265.8</ele></trkpt>
    <trkpt lat="31.974878" lon="-5.975359"><ele>2255.5</ele></trkpt>
    <trkpt lat="31.975315" lon="-5.974696"><ele>2254.0</ele></trkpt>
    <trkpt lat="31.976058" lon="-5.974377"><ele>2253.5</ele></trkpt>
    <trkpt lat="31.977215" lon="-5.974953"><ele>2251.2</ele></trkpt>
    <trkpt lat="31.977652" lon="-5.974856"><ele>2251.0</ele></trkpt>
    <trkpt lat="31.978492" lon="-5.974261"><ele>2245.5</ele></trkpt>
    <trkpt lat="31.978972" lon="-5.973565"><ele>2244.0</ele></trkpt>
    <trkpt lat="31.978515" lon="-5.972875"><ele>2241.2</ele></trkpt>
    <trkpt lat="31.978718" lon="-5.972508"><ele>2241.0</ele></trkpt>
    <trkpt lat="31.978925" lon="-5.971354"><ele>2238.0</ele></trkpt>
    <trkpt lat="31.979185" lon="-5.970988"><ele>2237.2</ele></trkpt>
    <trkpt lat="31.979655" lon="-5.970750"><ele>2235.8</ele></trkpt>
    <trkpt lat="31.980514" lon="-5.970623"><ele>2235.5</ele></trkpt>
    <trkpt lat="31.981206" lon="-5.970231"><ele>2233.5</ele></trkpt>
    <trkpt lat="31.981502" lon="-5.969707"><ele>2233.2</ele></trkpt>
    <trkpt lat="31.981672" lon="-5.969303"><ele>2229.2</ele></trkpt>
    <trkpt lat="31.981643" lon="-5.968446"><ele>2222.5</ele></trkpt>
    <trkpt lat="31.982156" lon="-5.968104"><ele>2219.5</ele></trkpt>
    <trkpt lat="31.982981" lon="-5.967867"><ele>2219.5</ele></trkpt>
    <trkpt lat="31.983726" lon="-5.967864"><ele>2219.2</ele></trkpt>
    <trkpt lat="31.984320" lon="-5.967546"><ele>2216.8</ele></trkpt>
    <trkpt lat="31.984960" lon="-5.966107"><ele>2211.2</ele></trkpt>
    <trkpt lat="31.985186" lon="-5.965279"><ele>2211.2</ele></trkpt>
    <trkpt lat="31.985927" lon="-5.964336"><ele>2208.2</ele></trkpt>
    <trkpt lat="31.985982" lon="-5.963848"><ele>2206.5</ele></trkpt>
    <trkpt lat="31.986250" lon="-5.963199"><ele>2206.0</ele></trkpt>
    <trkpt lat="31.986736" lon="-5.962785"><ele>2202.5</ele></trkpt>
    <trkpt lat="31.987279" lon="-5.962829"><ele>2202.0</ele></trkpt>
    <trkpt lat="31.987767" lon="-5.962670"><ele>2201.2</ele></trkpt>
    <trkpt lat="31.988048" lon="-5.962235"><ele>2199.2</ele></trkpt>
    <trkpt lat="31.988637" lon="-5.961473"><ele>2190.0</ele></trkpt>
    <trkpt lat="31.990512" lon="-5.959947"><ele>2181.2</ele></trkpt>
    <trkpt lat="31.991904" lon="-5.958969"><ele>2180.2</ele></trkpt>
    <trkpt lat="31.994901" lon="-5.958131"><ele>2179.5</ele></trkpt>
    <trkpt lat="31.995388" lon="-5.957566"><ele>2179.0</ele></trkpt>
    <trkpt lat="31.995827" lon="-5.956744"><ele>2173.8</ele></trkpt>
    <trkpt lat="31.996737" lon="-5.955909"><ele>2170.8</ele></trkpt>
    <trkpt lat="31.997604" lon="-5.956412"><ele>2168.2</ele></trkpt>
    <trkpt lat="31.997768" lon="-5.956291"><ele>2165.5</ele></trkpt>
    <trkpt lat="31.997520" lon="-5.955188"><ele>2166.0</ele></trkpt>
    <trkpt lat="31.998654" lon="-5.955153"><ele>2158.0</ele></trkpt>
    <trkpt lat="31.999243" lon="-5.954871"><ele>2158.0</ele></trkpt>
    <trkpt lat="32.000068" lon="-5.953791"><ele>2151.5</ele></trkpt>
    <trkpt lat="32.000887" lon="-5.953520"><ele>2147.2</ele></trkpt>
    <trkpt lat="32.001208" lon="-5.953256"><ele>2146.0</ele></trkpt>
    <trkpt lat="32.001683" lon="-5.952304"><ele>2142.8</ele></trkpt>
    <trkpt lat="32.001691" lon="-5.951723"><ele>2132.0</ele></trkpt>
    <trkpt lat="32.001515" lon="-5.950954"><ele>2132.0</ele></trkpt>
    <trkpt lat="32.002407" lon="-5.950890"><ele>2113.5</ele></trkpt>
    <trkpt lat="32.002708" lon="-5.950401"><ele>2113.5</ele></trkpt>
    <trkpt lat="32.002700" lon="-5.950038"><ele>2092.2</ele></trkpt>
    <trkpt lat="32.002608" lon="-5.949745"><ele>2086.8</ele></trkpt>
    <trkpt lat="32.002939" lon="-5.949707"><ele>2086.5</ele></trkpt>
    <trkpt lat="32.003742" lon="-5.950079"><ele>2074.2</ele></trkpt>
    <trkpt lat="32.004011" lon="-5.950149"><ele>2071.8</ele></trkpt>
    <trkpt lat="32.005202" lon="-5.950186"><ele>2065.0</ele></trkpt>
    <trkpt lat="32.005538" lon="-5.950250"><ele>2065.0</ele></trkpt>
    <trkpt lat="32.006008" lon="-5.950468"><ele>2065.0</ele></trkpt>
    <trkpt lat="32.006759" lon="-5.951424"><ele>2061.5</ele></trkpt>
    <trkpt lat="32.006986" lon="-5.951600"><ele>2060.5</ele></trkpt>
    <trkpt lat="32.007488" lon="-5.951890"><ele>2048.0</ele></trkpt>
    <trkpt lat="32.007483" lon="-5.951718"><ele>2043.2</ele></trkpt>
    <trkpt lat="32.007356" lon="-5.951486"><ele>2040.5</ele></trkpt>
    <trkpt lat="32.006688" lon="-5.950560"><ele>2034.0</ele></trkpt>
    <trkpt lat="32.006486" lon="-5.949938"><ele>2027.5</ele></trkpt>
    <trkpt lat="32.008648" lon="-5.951761"><ele>1987.8</ele></trkpt>
    <trkpt lat="32.009404" lon="-5.952015"><ele>1967.2</ele></trkpt>
    <trkpt lat="32.010932" lon="-5.952898"><ele>1944.0</ele></trkpt>
    <trkpt lat="32.011548" lon="-5.953459"><ele>1944.0</ele></trkpt>
    <trkpt lat="32.011973" lon="-5.954056"><ele>1943.0</ele></trkpt>
    <trkpt lat="32.012393" lon="-5.954027"><ele>1941.2</ele></trkpt>
    <trkpt lat="32.013000" lon="-5.954445"><ele>1933.2</ele></trkpt>
    <trkpt lat="32.013118" lon="-5.954234"><ele>1931.2</ele></trkpt>
    <trkpt lat="32.013279" lon="-5.953879"><ele>1917.2</ele></trkpt>
    <trkpt lat="32.014074" lon="-5.953713"><ele>1914.2</ele></trkpt>
    <trkpt lat="32.016293" lon="-5.950711"><ele>1854.0</ele></trkpt>
    <trkpt lat="32.016787" lon="-5.949866"><ele>1839.5</ele></trkpt>
    <trkpt lat="32.017694" lon="-5.948371"><ele>1802.0</ele></trkpt>
    <trkpt lat="32.017380" lon="-5.948284"><ele>1801.8</ele></trkpt>
    <trkpt lat="32.016786" lon="-5.948574"><ele>1797.2</ele></trkpt>
    <trkpt lat="32.015822" lon="-5.949237"><ele>1781.8</ele></trkpt>
    <trkpt lat="32.015133" lon="-5.949806"><ele>1779.5</ele></trkpt>
    <trkpt lat="32.015066" lon="-5.949113"><ele>1758.5</ele></trkpt>
    <trkpt lat="32.015359" lon="-5.948402"><ele>1750.8</ele></trkpt>
    <trkpt lat="32.016078" lon="-5.947092"><ele>1734.0</ele></trkpt>
    <trkpt lat="32.016378" lon="-5.946805"><ele>1733.8</ele></trkpt>
    <trkpt lat="32.016918" lon="-5.945922"><ele>1710.5</ele></trkpt>
    <trkpt lat="32.016340" lon="-5.945975"><ele>1708.0</ele></trkpt>
    <trkpt lat="32.015214" lon="-5.946902"><ele>1702.8</ele></trkpt>
    <trkpt lat="32.013957" lon="-5.947141"><ele>1678.8</ele></trkpt>
    <trkpt lat="32.013635" lon="-5.947396"><ele>1677.8</ele></trkpt>
    <trkpt lat="32.013072" lon="-5.947574"><ele>1669.8</ele></trkpt>
    <trkpt lat="32.013194" lon="-5.947044"><ele>1656.5</ele></trkpt>
    <trkpt lat="32.013480" lon="-5.946411"><ele>1645.5</ele></trkpt>
    <trkpt lat="32.014116" lon="-5.945119"><ele>1629.0</ele></trkpt>
    <trkpt lat="32.014846" lon="-5.944217"><ele>1616.8</ele></trkpt>
    <trkpt lat="32.015515" lon="-5.943556"><ele>1610.2</ele></trkpt>
    <trkpt lat="32.016539" lon="-5.943281"><ele>1603.8</ele></trkpt>
    <trkpt lat="32.017021" lon="-5.943196"><ele>1586.8</ele></trkpt>
    <trkpt lat="32.017437" lon="-5.943209"><ele>1574.5</ele></trkpt>
    <trkpt lat="32.017810" lon="-5.943437"><ele>1572.5</ele></trkpt>
    <trkpt lat="32.018271" lon="-5.944050"><ele>1574.2</ele></trkpt>
    <trkpt lat="32.018433" lon="-5.944604"><ele>1574.2</ele></trkpt>
    <trkpt lat="32.018881" lon="-5.945261"><ele>1574.2</ele></trkpt>
    <trkpt lat="32.019020" lon="-5.945393"><ele>1572.0</ele></trkpt>
    <trkpt lat="32.020059" lon="-5.945835"><ele>1555.5</ele></trkpt>
    <trkpt lat="32.021657" lon="-5.945869"><ele>1552.2</ele></trkpt>
    <trkpt lat="32.022599" lon="-5.945480"><ele>1552.0</ele></trkpt>
    <trkpt lat="32.022990" lon="-5.945186"><ele>1551.0</ele></trkpt>
    <trkpt lat="32.024249" lon="-5.943815"><ele>1550.2</ele></trkpt>
    <trkpt lat="32.024585" lon="-5.943298"><ele>1550.2</ele></trkpt>
    <trkpt lat="32.025257" lon="-5.942112"><ele>1542.0</ele></trkpt>
    <trkpt lat="32.025289" lon="-5.940965"><ele>1527.2</ele></trkpt>
    <trkpt lat="32.025225" lon="-5.940265"><ele>1525.2</ele></trkpt>
    <trkpt lat="32.025677" lon="-5.939585"><ele>1523.5</ele></trkpt>
    <trkpt lat="32.025691" lon="-5.939555"><ele>1523.5</ele></trkpt>
    <trkpt lat="32.025487" lon="-5.939216"><ele>1528.2</ele></trkpt>
    <trkpt lat="32.025843" lon="-5.937609"><ele>1524.8</ele></trkpt>
    <trkpt lat="32.026449" lon="-5.936860"><ele>1524.5</ele></trkpt>
    <trkpt lat="32.026644" lon="-5.936277"><ele>1526.0</ele></trkpt>
    <trkpt lat="32.027323" lon="-5.935754"><ele>1526.0</ele></trkpt>
    <trkpt lat="32.028044" lon="-5.933175"><ele>1523.8</ele></trkpt>
    <trkpt lat="32.029217" lon="-5.932402"><ele>1523.8</ele></trkpt>
    <trkpt lat="32.029792" lon="-5.931783"><ele>1523.8</ele></trkpt>
    <trkpt lat="32.030081" lon="-5.931233"><ele>1523.8</ele></trkpt>
    <trkpt lat="32.030845" lon="-5.930267"><ele>1523.8</ele></trkpt>
    <trkpt lat="32.031718" lon="-5.929795"><ele>1524.2</ele></trkpt>
    <trkpt lat="32.032155" lon="-5.929109"><ele>1523.0</ele></trkpt>
    <trkpt lat="32.032683" lon="-5.928808"><ele>1522.5</ele></trkpt>
    <trkpt lat="32.034658" lon="-5.929036"><ele>1517.0</ele></trkpt>
    <trkpt lat="32.035367" lon="-5.928875"><ele>1517.0</ele></trkpt>
    <trkpt lat="32.035977" lon="-5.928908"><ele>1516.8</ele></trkpt>
    <trkpt lat="32.036322" lon="-5.929219"><ele>1516.8</ele></trkpt>
    <trkpt lat="32.036604" lon="-5.929616"><ele>1517.2</ele></trkpt>
    <trkpt lat="32.037129" lon="-5.929978"><ele>1518.8</ele></trkpt>
    <trkpt lat="32.037823" lon="-5.930281"><ele>1521.8</ele></trkpt>
    <trkpt lat="32.038904" lon="-5.930235"><ele>1525.8</ele></trkpt>
    <trkpt lat="32.039649" lon="-5.930471"><ele>1525.5</ele></trkpt>
    <trkpt lat="32.040195" lon="-5.930461"><ele>1524.0</ele></trkpt>
    <trkpt lat="32.040659" lon="-5.930750"><ele>1523.0</ele></trkpt>
    <trkpt lat="32.041577" lon="-5.931652"><ele>1512.2</ele></trkpt>
    <trkpt lat="32.041932" lon="-5.931727"><ele>1512.2</ele></trkpt>
    <trkpt lat="32.042377" lon="-5.931534"><ele>1511.8</ele></trkpt>
    <trkpt lat="32.042861" lon="-5.930985"><ele>1510.8</ele></trkpt>
    <trkpt lat="32.043287" lon="-5.931061"><ele>1505.0</ele></trkpt>
    <trkpt lat="32.043705" lon="-5.931040"><ele>1505.0</ele></trkpt>
    <trkpt lat="32.044024" lon="-5.931158"><ele>1504.5</ele></trkpt>
    <trkpt lat="32.044488" lon="-5.931673"><ele>1503.0</ele></trkpt>
    <trkpt lat="32.044871" lon="-5.932791"><ele>1504.2</ele></trkpt>
    <trkpt lat="32.045290" lon="-5.933306"><ele>1504.0</ele></trkpt>
    <trkpt lat="32.047943" lon="-5.933744"><ele>1504.5</ele></trkpt>
    <trkpt lat="32.049000" lon="-5.934551"><ele>1504.0</ele></trkpt>
    <trkpt lat="32.050118" lon="-5.934808"><ele>1501.8</ele></trkpt>
    <trkpt lat="32.050528" lon="-5.934519"><ele>1501.8</ele></trkpt>
    <trkpt lat="32.050891" lon="-5.933467"><ele>1504.0</ele></trkpt>
    <trkpt lat="32.051355" lon="-5.933038"><ele>1504.0</ele></trkpt>
    <trkpt lat="32.052044" lon="-5.932789"><ele>1499.5</ele></trkpt>
    <trkpt lat="32.052581" lon="-5.932843"><ele>1499.5</ele></trkpt>
    <trkpt lat="32.053135" lon="-5.933154"><ele>1495.5</ele></trkpt>
    <trkpt lat="32.053646" lon="-5.933291"><ele>1493.8</ele></trkpt>
    <trkpt lat="32.054000" lon="-5.933325"><ele>1493.8</ele></trkpt>
    <trkpt lat="32.055209" lon="-5.932381"><ele>1493.8</ele></trkpt>
    <trkpt lat="32.056336" lon="-5.931887"><ele>1501.2</ele></trkpt>
    <trkpt lat="32.056791" lon="-5.931941"><ele>1501.2</ele></trkpt>
    <trkpt lat="32.057406" lon="-5.932280"><ele>1501.2</ele></trkpt>
    <trkpt lat="32.057675" lon="-5.932416"><ele>1499.2</ele></trkpt>
    <trkpt lat="32.058675" lon="-5.933242"><ele>1493.2</ele></trkpt>
    <trkpt lat="32.059640" lon="-5.933528"><ele>1492.8</ele></trkpt>
    <trkpt lat="32.060510" lon="-5.933623"><ele>1492.8</ele></trkpt>
    <trkpt lat="32.062225" lon="-5.933151"><ele>1488.0</ele></trkpt>
    <trkpt lat="32.062949" lon="-5.933322"><ele>1487.2</ele></trkpt>
    <trkpt lat="32.063495" lon="-5.933939"><ele>1485.2</ele></trkpt>
    <trkpt lat="32.064037" lon="-5.935125"><ele>1482.8</ele></trkpt>
    <trkpt lat="32.064099" lon="-5.935272"><ele>1482.5</ele></trkpt>
    <trkpt lat="32.064406" lon="-5.936429"><ele>1482.2</ele></trkpt>
    <trkpt lat="32.065132" lon="-5.937717"><ele>1482.2</ele></trkpt>
    <trkpt lat="32.066895" lon="-5.938969"><ele>1482.5</ele></trkpt>
    <trkpt lat="32.067273" lon="-5.939119"><ele>1482.8</ele></trkpt>
    <trkpt lat="32.068961" lon="-5.938547"><ele>1483.5</ele></trkpt>
    <trkpt lat="32.069497" lon="-5.938400"><ele>1481.2</ele></trkpt>
    <trkpt lat="32.070103" lon="-5.938476"><ele>1478.2</ele></trkpt>
    <trkpt lat="32.070967" lon="-5.938974"><ele>1474.5</ele></trkpt>
    <trkpt lat="32.071106" lon="-5.939200"><ele>1471.0</ele></trkpt>
    <trkpt lat="32.072482" lon="-5.940856"><ele>1471.0</ele></trkpt>
    <trkpt lat="32.073487" lon="-5.941407"><ele>1482.2</ele></trkpt>
    <trkpt lat="32.073864" lon="-5.941937"><ele>1484.2</ele></trkpt>
    <trkpt lat="32.075439" lon="-5.943373"><ele>1484.2</ele></trkpt>
    <trkpt lat="32.076044" lon="-5.944687"><ele>1481.5</ele></trkpt>
    <trkpt lat="32.075773" lon="-5.946622"><ele>1475.8</ele></trkpt>
    <trkpt lat="32.076087" lon="-5.948163"><ele>1477.0</ele></trkpt>
    <trkpt lat="32.076139" lon="-5.948886"><ele>1490.0</ele></trkpt>
    <trkpt lat="32.076070" lon="-5.949562"><ele>1497.2</ele></trkpt>
    <trkpt lat="32.075841" lon="-5.950688"><ele>1500.0</ele></trkpt>
    <trkpt lat="32.075889" lon="-5.951405"><ele>1503.0</ele></trkpt>
    <trkpt lat="32.076275" lon="-5.952702"><ele>1506.0</ele></trkpt>
    <trkpt lat="32.078095" lon="-5.955565"><ele>1528.5</ele></trkpt>
    <trkpt lat="32.078362" lon="-5.956499"><ele>1535.5</ele></trkpt>
    <trkpt lat="32.078470" lon="-5.956821"><ele>1536.2</ele></trkpt>
    <trkpt lat="32.078416" lon="-5.957310"><ele>1538.2</ele></trkpt>
    <trkpt lat="32.078600" lon="-5.958197"><ele>1538.2</ele></trkpt>
    <trkpt lat="32.079039" lon="-5.959474"><ele>1539.0</ele></trkpt>
    <trkpt lat="32.079441" lon="-5.960210"><ele>1539.0</ele></trkpt>
    </trkseg>
  </trk>
</gpx>
