<?xml version="1.0" encoding="UTF-8"?>
<gpx version="1.1" creator="tripplanner (routed with BRouter, gravel profile)" xmlns="http://www.topografix.com/GPX/1/1">
  <metadata>
    <name>M'Goun &amp; Lakes traverse — Day 1: Demnate → Aït Mhamed</name>
    <desc>83 km, 1568 m. Routed with BRouter (gravel profile) over OSM ways — a plan, not a ridden track.</desc>
  </metadata>
  <trk>
    <name>M'Goun &amp; Lakes traverse — Day 1: Demnate → Aït Mhamed</name>
    <trkseg>
    <trkpt lat="31.731995" lon="-7.002723"><ele>937.2</ele></trkpt>
    <trkpt lat="31.732118" lon="-7.003463"><ele>937.0</ele></trkpt>
    <trkpt lat="31.732251" lon="-7.003541"><ele>936.2</ele></trkpt>
    <trkpt lat="31.733219" lon="-7.003239"><ele>931.0</ele></trkpt>
    <trkpt lat="31.733172" lon="-7.002931"><ele>930.8</ele></trkpt>
    <trkpt lat="31.734094" lon="-7.005112"><ele>926.5</ele></trkpt>
    <trkpt lat="31.734612" lon="-7.005329"><ele>924.8</ele></trkpt>
    <trkpt lat="31.734749" lon="-7.005766"><ele>924.0</ele></trkpt>
    <trkpt lat="31.735393" lon="-7.006209"><ele>922.8</ele></trkpt>
    <trkpt lat="31.735573" lon="-7.006670"><ele>922.5</ele></trkpt>
    <trkpt lat="31.735573" lon="-7.007043"><ele>922.5</ele></trkpt>
    <trkpt lat="31.735849" lon="-7.007250"><ele>920.8</ele></trkpt>
    <trkpt lat="31.736297" lon="-7.008014"><ele>917.0</ele></trkpt>
    <trkpt lat="31.736734" lon="-7.008292"><ele>915.5</ele></trkpt>
    <trkpt lat="31.737107" lon="-7.008203"><ele>912.8</ele></trkpt>
    <trkpt lat="31.738404" lon="-7.007333"><ele>906.2</ele></trkpt>
    <trkpt lat="31.739189" lon="-7.007540"><ele>900.8</ele></trkpt>
    <trkpt lat="31.739934" lon="-7.007981"><ele>899.5</ele></trkpt>
    <trkpt lat="31.740840" lon="-7.007679"><ele>894.0</ele></trkpt>
    <trkpt lat="31.741393" lon="-7.008023"><ele>883.5</ele></trkpt>
    <trkpt lat="31.741935" lon="-7.008971"><ele>876.2</ele></trkpt>
    <trkpt lat="31.742485" lon="-7.009359"><ele>873.2</ele></trkpt>
    <trkpt lat="31.742596" lon="-7.009415"><ele>873.2</ele></trkpt>
    <trkpt lat="31.742841" lon="-7.009426"><ele>873.2</ele></trkpt>
    <trkpt lat="31.743103" lon="-7.008926"><ele>879.5</ele></trkpt>
    <trkpt lat="31.742894" lon="-7.007923"><ele>881.8</ele></trkpt>
    <trkpt lat="31.742921" lon="-7.007560"><ele>882.5</ele></trkpt>
    <trkpt lat="31.743045" lon="-7.007250"><ele>884.2</ele></trkpt>
    <trkpt lat="31.743161" lon="-7.007052"><ele>885.5</ele></trkpt>
    <trkpt lat="31.743561" lon="-7.006666"><ele>889.5</ele></trkpt>
    <trkpt lat="31.745051" lon="-7.006323"><ele>900.2</ele></trkpt>
    <trkpt lat="31.746520" lon="-7.006410"><ele>905.2</ele></trkpt>
    <trkpt lat="31.747676" lon="-7.005743"><ele>907.8</ele></trkpt>
    <trkpt lat="31.748127" lon="-7.005587"><ele>907.8</ele></trkpt>
    <trkpt lat="31.750259" lon="-7.005416"><ele>908.0</ele></trkpt>
    <trkpt lat="31.751012" lon="-7.005710"><ele>910.8</ele></trkpt>
    <trkpt lat="31.753000" lon="-7.007370"><ele>912.8</ele></trkpt>
    <trkpt lat="31.754223" lon="-7.007437"><ele>913.2</ele></trkpt>
    <trkpt lat="31.755241" lon="-7.007655"><ele>909.0</ele></trkpt>
    <trkpt lat="31.755962" lon="-7.007583"><ele>908.8</ele></trkpt>
    <trkpt lat="31.756240" lon="-7.007711"><ele>908.8</ele></trkpt>
    <trkpt lat="31.756334" lon="-7.007794"><ele>909.2</ele></trkpt>
    <trkpt lat="31.756463" lon="-7.008399"><ele>911.0</ele></trkpt>
    <trkpt lat="31.756800" lon="-7.007946"><ele>913.5</ele></trkpt>
    <trkpt lat="31.757190" lon="-7.007741"><ele>916.8</ele></trkpt>
    <trkpt lat="31.757289" lon="-7.007504"><ele>917.2</ele></trkpt>
    <trkpt lat="31.757507" lon="-7.005732"><ele>922.8</ele></trkpt>
    <trkpt lat="31.758061" lon="-7.004699"><ele>930.2</ele></trkpt>
    <trkpt lat="31.758632" lon="-7.004225"><ele>931.8</ele></trkpt>
    <trkpt lat="31.759652" lon="-7.003461"><ele>933.5</ele></trkpt>
    <trkpt lat="31.761038" lon="-7.002749"><ele>934.2</ele></trkpt>
    <trkpt lat="31.762178" lon="-7.002470"><ele>934.8</ele></trkpt>
    <trkpt lat="31.762182" lon="-7.001597"><ele>937.5</ele></trkpt>
    <trkpt lat="31.762275" lon="-7.001474"><ele>937.5</ele></trkpt>
    <trkpt lat="31.763513" lon="-7.001352"><ele>934.8</ele></trkpt>
    <trkpt lat="31.764017" lon="-7.001157"><ele>932.5</ele></trkpt>
    <trkpt lat="31.764480" lon="-7.000589"><ele>932.5</ele></trkpt>
    <trkpt lat="31.764845" lon="-6.999196"><ele>935.5</ele></trkpt>
    <trkpt lat="31.766029" lon="-6.999164"><ele>934.8</ele></trkpt>
    <trkpt lat="31.767012" lon="-6.998736"><ele>933.0</ele></trkpt>
    <trkpt lat="31.767561" lon="-6.997989"><ele>932.8</ele></trkpt>
    <trkpt lat="31.768112" lon="-6.997482"><ele>929.0</ele></trkpt>
    <trkpt lat="31.768573" lon="-6.996712"><ele>927.0</ele></trkpt>
    <trkpt lat="31.768722" lon="-6.996196"><ele>924.5</ele></trkpt>
    <trkpt lat="31.768590" lon="-6.995644"><ele>923.2</ele></trkpt>
    <trkpt lat="31.769159" lon="-6.995396"><ele>920.8</ele></trkpt>
    <trkpt lat="31.769631" lon="-6.994826"><ele>919.5</ele></trkpt>
    <trkpt lat="31.770818" lon="-6.994186"><ele>908.8</ele></trkpt>
    <trkpt lat="31.771349" lon="-6.993747"><ele>908.2</ele></trkpt>
    <trkpt lat="31.772132" lon="-6.992323"><ele>908.5</ele></trkpt>
    <trkpt lat="31.772709" lon="-6.989107"><ele>911.5</ele></trkpt>
    <trkpt lat="31.774335" lon="-6.987230"><ele>910.5</ele></trkpt>
    <trkpt lat="31.774451" lon="-6.987205"><ele>909.2</ele></trkpt>
    <trkpt lat="31.774650" lon="-6.987264"><ele>906.5</ele></trkpt>
    <trkpt lat="31.775664" lon="-6.988420"><ele>892.2</ele></trkpt>
    <trkpt lat="31.776269" lon="-6.988461"><ele>882.5</ele></trkpt>
    <trkpt lat="31.776700" lon="-6.988007"><ele>878.5</ele></trkpt>
    <trkpt lat="31.777119" lon="-6.987437"><ele>876.5</ele></trkpt>
    <trkpt lat="31.777097" lon="-6.987028"><ele>875.8</ele></trkpt>
    <trkpt lat="31.777224" lon="-6.986668"><ele>875.8</ele></trkpt>
    <trkpt lat="31.777142" lon="-6.985768"><ele>874.0</ele></trkpt>
    <trkpt lat="31.777648" lon="-6.985512"><ele>873.8</ele></trkpt>
    <trkpt lat="31.778022" lon="-6.985258"><ele>877.8</ele></trkpt>
    <trkpt lat="31.778635" lon="-6.984724"><ele>884.2</ele></trkpt>
    <trkpt lat="31.779128" lon="-6.984571"><ele>884.5</ele></trkpt>
    <trkpt lat="31.779953" lon="-6.983375"><ele>882.5</ele></trkpt>
    <trkpt lat="31.780143" lon="-6.983288"><ele>882.5</ele></trkpt>
    <trkpt lat="31.781226" lon="-6.983307"><ele>886.5</ele></trkpt>
    <trkpt lat="31.781704" lon="-6.983014"><ele>891.2</ele></trkpt>
    <trkpt lat="31.782496" lon="-6.982816"><ele>894.8</ele></trkpt>
    <trkpt lat="31.783368" lon="-6.982066"><ele>896.8</ele></trkpt>
    <trkpt lat="31.783626" lon="-6.981153"><ele>903.5</ele></trkpt>
    <trkpt lat="31.783772" lon="-6.981003"><ele>904.0</ele></trkpt>
    <trkpt lat="31.784374" lon="-6.980875"><ele>905.0</ele></trkpt>
    <trkpt lat="31.785535" lon="-6.980749"><ele>910.0</ele></trkpt>
    <trkpt lat="31.787148" lon="-6.980222"><ele>917.8</ele></trkpt>
    <trkpt lat="31.788431" lon="-6.979051"><ele>922.8</ele></trkpt>
    <trkpt lat="31.789179" lon="-6.978587"><ele>925.5</ele></trkpt>
    <trkpt lat="31.789305" lon="-6.977914"><ele>929.2</ele></trkpt>
    <trkpt lat="31.789185" lon="-6.977449"><ele>931.2</ele></trkpt>
    <trkpt lat="31.788892" lon="-6.976467"><ele>941.2</ele></trkpt>
    <trkpt lat="31.789172" lon="-6.975135"><ele>949.0</ele></trkpt>
    <trkpt lat="31.789542" lon="-6.974631"><ele>955.2</ele></trkpt>
    <trkpt lat="31.789811" lon="-6.973839"><ele>956.5</ele></trkpt>
    <trkpt lat="31.790144" lon="-6.973349"><ele>956.5</ele></trkpt>
    <trkpt lat="31.791058" lon="-6.972493"><ele>958.8</ele></trkpt>
    <trkpt lat="31.792057" lon="-6.972276"><ele>962.5</ele></trkpt>
    <trkpt lat="31.792263" lon="-6.971968"><ele>963.0</ele></trkpt>
    <trkpt lat="31.792281" lon="-6.971791"><ele>963.2</ele></trkpt>
    <trkpt lat="31.792235" lon="-6.971126"><ele>964.8</ele></trkpt>
    <trkpt lat="31.791629" lon="-6.968763"><ele>972.2</ele></trkpt>
    <trkpt lat="31.791488" lon="-6.968419"><ele>972.2</ele></trkpt>
    <trkpt lat="31.791900" lon="-6.968154"><ele>969.0</ele></trkpt>
    <trkpt lat="31.791914" lon="-6.967977"><ele>969.0</ele></trkpt>
    <trkpt lat="31.791171" lon="-6.966995"><ele>971.2</ele></trkpt>
    <trkpt lat="31.791928" lon="-6.966552"><ele>967.5</ele></trkpt>
    <trkpt lat="31.792172" lon="-6.966133"><ele>967.5</ele></trkpt>
    <trkpt lat="31.792417" lon="-6.966240"><ele>968.0</ele></trkpt>
    <trkpt lat="31.792991" lon="-6.966151"><ele>968.0</ele></trkpt>
    <trkpt lat="31.795183" lon="-6.965168"><ele>967.2</ele></trkpt>
    <trkpt lat="31.795840" lon="-6.964978"><ele>964.8</ele></trkpt>
    <trkpt lat="31.797401" lon="-6.964144"><ele>953.2</ele></trkpt>
    <trkpt lat="31.797378" lon="-6.963462"><ele>951.5</ele></trkpt>
    <trkpt lat="31.796906" lon="-6.963375"><ele>951.2</ele></trkpt>
    <trkpt lat="31.796780" lon="-6.963202"><ele>951.2</ele></trkpt>
    <trkpt lat="31.796814" lon="-6.963095"><ele>950.8</ele></trkpt>
    <trkpt lat="31.797151" lon="-6.962274"><ele>946.5</ele></trkpt>
    <trkpt lat="31.797249" lon="-6.961657"><ele>942.5</ele></trkpt>
    <trkpt lat="31.797563" lon="-6.961219"><ele>939.8</ele></trkpt>
    <trkpt lat="31.797675" lon="-6.960303"><ele>936.8</ele></trkpt>
    <trkpt lat="31.797746" lon="-6.960119"><ele>935.2</ele></trkpt>
    <trkpt lat="31.798189" lon="-6.959327"><ele>925.5</ele></trkpt>
    <trkpt lat="31.799365" lon="-6.958761"><ele>916.2</ele></trkpt>
    <trkpt lat="31.800319" lon="-6.958295"><ele>900.8</ele></trkpt>
    <trkpt lat="31.801037" lon="-6.958243"><ele>895.0</ele></trkpt>
    <trkpt lat="31.801282" lon="-6.958000"><ele>893.8</ele></trkpt>
    <trkpt lat="31.801961" lon="-6.957446"><ele>882.5</ele></trkpt>
    <trkpt lat="31.802393" lon="-6.957027"><ele>876.0</ele></trkpt>
    <trkpt lat="31.803659" lon="-6.957206"><ele>864.5</ele></trkpt>
    <trkpt lat="31.803794" lon="-6.957218"><ele>863.5</ele></trkpt>
    <trkpt lat="31.805630" lon="-6.956447"><ele>850.8</ele></trkpt>
    <trkpt lat="31.805514" lon="-6.955730"><ele>844.5</ele></trkpt>
    <trkpt lat="31.805570" lon="-6.955227"><ele>837.2</ele></trkpt>
    <trkpt lat="31.805539" lon="-6.955136"><ele>836.2</ele></trkpt>
    <trkpt lat="31.805356" lon="-6.954886"><ele>836.2</ele></trkpt>
    <trkpt lat="31.805039" lon="-6.954878"><ele>838.2</ele></trkpt>
    <trkpt lat="31.804821" lon="-6.955211"><ele>841.2</ele></trkpt>
    <trkpt lat="31.804345" lon="-6.955557"><ele>843.0</ele></trkpt>
    <trkpt lat="31.804065" lon="-6.955392"><ele>843.0</ele></trkpt>
    <trkpt lat="31.803982" lon="-6.955252"><ele>842.5</ele></trkpt>
    <trkpt lat="31.804018" lon="-6.955059"><ele>841.8</ele></trkpt>
    <trkpt lat="31.805854" lon="-6.953538"><ele>834.0</ele></trkpt>
    <trkpt lat="31.805929" lon="-6.953250"><ele>834.8</ele></trkpt>
    <trkpt lat="31.805498" lon="-6.952272"><ele>834.8</ele></trkpt>
    <trkpt lat="31.805146" lon="-6.951374"><ele>828.0</ele></trkpt>
    <trkpt lat="31.804478" lon="-6.950924"><ele>820.8</ele></trkpt>
    <trkpt lat="31.804333" lon="-6.950918"><ele>819.5</ele></trkpt>
    <trkpt lat="31.804021" lon="-6.950906"><ele>817.8</ele></trkpt>
    <trkpt lat="31.803855" lon="-6.950356"><ele>813.2</ele></trkpt>
    <trkpt lat="31.804104" lon="-6.949928"><ele>812.0</ele></trkpt>
    <trkpt lat="31.804445" lon="-6.949688"><ele>811.0</ele></trkpt>
    <trkpt lat="31.804987" lon="-6.949750"><ele>810.2</ele></trkpt>
    <trkpt lat="31.804994" lon="-6.949641"><ele>810.2</ele></trkpt>
    <trkpt lat="31.805401" lon="-6.947996"><ele>801.8</ele></trkpt>
    <trkpt lat="31.805736" lon="-6.947078"><ele>792.8</ele></trkpt>
    <trkpt lat="31.805907" lon="-6.946801"><ele>792.2</ele></trkpt>
    <trkpt lat="31.806694" lon="-6.946241"><ele>791.8</ele></trkpt>
    <trkpt lat="31.807398" lon="-6.945103"><ele>782.8</ele></trkpt>
    <trkpt lat="31.807842" lon="-6.944978"><ele>782.8</ele></trkpt>
    <trkpt lat="31.807955" lon="-6.944713"><ele>782.8</ele></trkpt>
    <trkpt lat="31.808339" lon="-6.944305"><ele>775.5</ele></trkpt>
    <trkpt lat="31.808374" lon="-6.944282"><ele>775.0</ele></trkpt>
    <trkpt lat="31.808870" lon="-6.944077"><ele>774.8</ele></trkpt>
    <trkpt lat="31.808525" lon="-6.943683"><ele>775.5</ele></trkpt>
    <trkpt lat="31.808775" lon="-6.943362"><ele>775.5</ele></trkpt>
    <trkpt lat="31.809443" lon="-6.943126"><ele>768.2</ele></trkpt>
    <trkpt lat="31.810198" lon="-6.942650"><ele>759.2</ele></trkpt>
    <trkpt lat="31.810343" lon="-6.942467"><ele>759.2</ele></trkpt>
    <trkpt lat="31.810395" lon="-6.942052"><ele>759.2</ele></trkpt>
    <trkpt lat="31.810232" lon="-6.941291"><ele>761.2</ele></trkpt>
    <trkpt lat="31.809581" lon="-6.941171"><ele>762.5</ele></trkpt>
    <trkpt lat="31.809763" lon="-6.941037"><ele>762.2</ele></trkpt>
    <trkpt lat="31.810098" lon="-6.940779"><ele>756.2</ele></trkpt>
    <trkpt lat="31.810763" lon="-6.939813"><ele>743.5</ele></trkpt>
    <trkpt lat="31.810966" lon="-6.939459"><ele>742.8</ele></trkpt>
    <trkpt lat="31.810920" lon="-6.938860"><ele>741.8</ele></trkpt>
    <trkpt lat="31.811299" lon="-6.938374"><ele>738.5</ele></trkpt>
    <trkpt lat="31.812492" lon="-6.937322"><ele>731.8</ele></trkpt>
    <trkpt lat="31.813113" lon="-6.937538"><ele>731.5</ele></trkpt>
    <trkpt lat="31.812896" lon="-6.938173"><ele>731.2</ele></trkpt>
    <trkpt lat="31.812977" lon="-6.938451"><ele>731.5</ele></trkpt>
    <trkpt lat="31.813251" lon="-6.938628"><ele>734.0</ele></trkpt>
    <trkpt lat="31.813580" lon="-6.938641"><ele>737.2</ele></trkpt>
    <trkpt lat="31.813663" lon="-6.938522"><ele>738.2</ele></trkpt>
    <trkpt lat="31.814282" lon="-6.938769"><ele>743.0</ele></trkpt>
    <trkpt lat="31.814940" lon="-6.938209"><ele>745.5</ele></trkpt>
    <trkpt lat="31.814829" lon="-6.937571"><ele>748.2</ele></trkpt>
    <trkpt lat="31.815165" lon="-6.937110"><ele>757.8</ele></trkpt>
    <trkpt lat="31.815252" lon="-6.936804"><ele>763.0</ele></trkpt>
    <trkpt lat="31.815273" lon="-6.936627"><ele>763.0</ele></trkpt>
    <trkpt lat="31.814947" lon="-6.936300"><ele>764.8</ele></trkpt>
    <trkpt lat="31.815043" lon="-6.936166"><ele>766.2</ele></trkpt>
    <trkpt lat="31.815267" lon="-6.935871"><ele>772.8</ele></trkpt>
    <trkpt lat="31.815363" lon="-6.935007"><ele>782.2</ele></trkpt>
    <trkpt lat="31.815254" lon="-6.934692"><ele>784.5</ele></trkpt>
    <trkpt lat="31.815051" lon="-6.934015"><ele>784.5</ele></trkpt>
    <trkpt lat="31.814524" lon="-6.933835"><ele>773.5</ele></trkpt>
    <trkpt lat="31.814164" lon="-6.933108"><ele>774.2</ele></trkpt>
    <trkpt lat="31.814120" lon="-6.932604"><ele>780.8</ele></trkpt>
    <trkpt lat="31.814221" lon="-6.931940"><ele>787.0</ele></trkpt>
    <trkpt lat="31.814472" lon="-6.930394"><ele>806.8</ele></trkpt>
    <trkpt lat="31.814451" lon="-6.930324"><ele>806.8</ele></trkpt>
    <trkpt lat="31.814317" lon="-6.930227"><ele>806.8</ele></trkpt>
    <trkpt lat="31.813735" lon="-6.930286"><ele>796.8</ele></trkpt>
    <trkpt lat="31.813651" lon="-6.930278"><ele>796.8</ele></trkpt>
    <trkpt lat="31.813374" lon="-6.929974"><ele>797.5</ele></trkpt>
    <trkpt lat="31.813392" lon="-6.929689"><ele>798.5</ele></trkpt>
    <trkpt lat="31.813458" lon="-6.929418"><ele>801.2</ele></trkpt>
    <trkpt lat="31.814188" lon="-6.928164"><ele>820.0</ele></trkpt>
    <trkpt lat="31.814679" lon="-6.927988"><ele>828.2</ele></trkpt>
    <trkpt lat="31.815225" lon="-6.928020"><ele>836.5</ele></trkpt>
    <trkpt lat="31.815484" lon="-6.928033"><ele>838.8</ele></trkpt>
    <trkpt lat="31.816129" lon="-6.927312"><ele>842.5</ele></trkpt>
    <trkpt lat="31.816615" lon="-6.927379"><ele>847.5</ele></trkpt>
    <trkpt lat="31.817182" lon="-6.928143"><ele>848.0</ele></trkpt>
    <trkpt lat="31.817662" lon="-6.928401"><ele>847.0</ele></trkpt>
    <trkpt lat="31.817614" lon="-6.928854"><ele>842.8</ele></trkpt>
    <trkpt lat="31.817724" lon="-6.929165"><ele>841.8</ele></trkpt>
    <trkpt lat="31.817776" lon="-6.929213"><ele>841.8</ele></trkpt>
    <trkpt lat="31.818160" lon="-6.929373"><ele>845.5</ele></trkpt>
    <trkpt lat="31.818911" lon="-6.930037"><ele>848.5</ele></trkpt>
    <trkpt lat="31.818933" lon="-6.929926"><ele>849.8</ele></trkpt>
    <trkpt lat="31.818757" lon="-6.928711"><ele>863.2</ele></trkpt>
    <trkpt lat="31.818802" lon="-6.928705"><ele>864.2</ele></trkpt>
    <trkpt lat="31.819245" lon="-6.928983"><ele>866.5</ele></trkpt>
    <trkpt lat="31.819911" lon="-6.928845"><ele>869.2</ele></trkpt>
    <trkpt lat="31.820903" lon="-6.927986"><ele>873.0</ele></trkpt>
    <trkpt lat="31.820949" lon="-6.927709"><ele>873.2</ele></trkpt>
    <trkpt lat="31.820917" lon="-6.927652"><ele>875.0</ele></trkpt>
    <trkpt lat="31.820399" lon="-6.927096"><ele>887.5</ele></trkpt>
    <trkpt lat="31.820162" lon="-6.926808"><ele>891.5</ele></trkpt>
    <trkpt lat="31.820158" lon="-6.926760"><ele>891.8</ele></trkpt>
    <trkpt lat="31.820793" lon="-6.926178"><ele>891.2</ele></trkpt>
    <trkpt lat="31.822652" lon="-6.925717"><ele>886.8</ele></trkpt>
    <trkpt lat="31.823381" lon="-6.925745"><ele>886.2</ele></trkpt>
    <trkpt lat="31.824672" lon="-6.926306"><ele>886.0</ele></trkpt>
    <trkpt lat="31.825503" lon="-6.926496"><ele>885.2</ele></trkpt>
    <trkpt lat="31.825962" lon="-6.926479"><ele>885.2</ele></trkpt>
    <trkpt lat="31.826884" lon="-6.926086"><ele>879.8</ele></trkpt>
    <trkpt lat="31.827215" lon="-6.925515"><ele>875.2</ele></trkpt>
    <trkpt lat="31.827556" lon="-6.924684"><ele>868.8</ele></trkpt>
    <trkpt lat="31.827915" lon="-6.923650"><ele>863.8</ele></trkpt>
    <trkpt lat="31.827992" lon="-6.923362"><ele>863.0</ele></trkpt>
    <trkpt lat="31.827666" lon="-6.922323"><ele>862.0</ele></trkpt>
    <trkpt lat="31.827728" lon="-6.921926"><ele>862.0</ele></trkpt>
    <trkpt lat="31.828940" lon="-6.921839"><ele>857.8</ele></trkpt>
    <trkpt lat="31.829110" lon="-6.921751"><ele>857.8</ele></trkpt>
    <trkpt lat="31.829207" lon="-6.921474"><ele>857.5</ele></trkpt>
    <trkpt lat="31.831276" lon="-6.921584"><ele>852.8</ele></trkpt>
    <trkpt lat="31.831782" lon="-6.921632"><ele>852.8</ele></trkpt>
    <trkpt lat="31.832674" lon="-6.921938"><ele>852.8</ele></trkpt>
    <trkpt lat="31.832994" lon="-6.922114"><ele>852.8</ele></trkpt>
    <trkpt lat="31.834978" lon="-6.923444"><ele>861.2</ele></trkpt>
    <trkpt lat="31.835698" lon="-6.923870"><ele>861.2</ele></trkpt>
    <trkpt lat="31.839116" lon="-6.924721"><ele>859.5</ele></trkpt>
    <trkpt lat="31.842972" lon="-6.926853"><ele>857.8</ele></trkpt>
    <trkpt lat="31.843869" lon="-6.927229"><ele>857.0</ele></trkpt>
    <trkpt lat="31.844808" lon="-6.927363"><ele>857.0</ele></trkpt>
    <trkpt lat="31.851452" lon="-6.927210"><ele>849.2</ele></trkpt>
    <trkpt lat="31.852061" lon="-6.927636"><ele>845.8</ele></trkpt>
    <trkpt lat="31.852605" lon="-6.928910"><ele>836.5</ele></trkpt>
    <trkpt lat="31.853007" lon="-6.929435"><ele>833.8</ele></trkpt>
    <trkpt lat="31.854027" lon="-6.930085"><ele>832.5</ele></trkpt>
    <trkpt lat="31.853982" lon="-6.929845"><ele>832.5</ele></trkpt>
    <trkpt lat="31.853956" lon="-6.929809"><ele>833.2</ele></trkpt>
    <trkpt lat="31.853431" lon="-6.929378"><ele>835.2</ele></trkpt>
    <trkpt lat="31.853347" lon="-6.928917"><ele>836.2</ele></trkpt>
    <trkpt lat="31.853800" lon="-6.928228"><ele>843.5</ele></trkpt>
    <trkpt lat="31.854520" lon="-6.927722"><ele>849.0</ele></trkpt>
    <trkpt lat="31.855407" lon="-6.927117"><ele>849.0</ele></trkpt>
    <trkpt lat="31.855459" lon="-6.926573"><ele>848.5</ele></trkpt>
    <trkpt lat="31.855295" lon="-6.925587"><ele>846.5</ele></trkpt>
    <trkpt lat="31.855394" lon="-6.925494"><ele>846.2</ele></trkpt>
    <trkpt lat="31.858248" lon="-6.924377"><ele>844.0</ele></trkpt>
    <trkpt lat="31.858804" lon="-6.923805"><ele>843.8</ele></trkpt>
    <trkpt lat="31.859888" lon="-6.923429"><ele>843.0</ele></trkpt>
    <trkpt lat="31.860462" lon="-6.923281"><ele>842.5</ele></trkpt>
    <trkpt lat="31.861241" lon="-6.923311"><ele>842.5</ele></trkpt>
    <trkpt lat="31.864021" lon="-6.922578"><ele>842.5</ele></trkpt>
    <trkpt lat="31.864564" lon="-6.922580"><ele>842.2</ele></trkpt>
    <trkpt lat="31.864288" lon="-6.921942"><ele>842.8</ele></trkpt>
    <trkpt lat="31.864219" lon="-6.921861"><ele>842.8</ele></trkpt>
    <trkpt lat="31.862757" lon="-6.920271"><ele>853.8</ele></trkpt>
    <trkpt lat="31.862355" lon="-6.919903"><ele>854.8</ele></trkpt>
    <trkpt lat="31.862162" lon="-6.919112"><ele>858.0</ele></trkpt>
    <trkpt lat="31.862097" lon="-6.918198"><ele>859.0</ele></trkpt>
    <trkpt lat="31.862217" lon="-6.917475"><ele>860.0</ele></trkpt>
    <trkpt lat="31.862268" lon="-6.916520"><ele>867.5</ele></trkpt>
    <trkpt lat="31.862295" lon="-6.916317"><ele>868.8</ele></trkpt>
    <trkpt lat="31.862725" lon="-6.915582"><ele>873.5</ele></trkpt>
    <trkpt lat="31.863438" lon="-6.914054"><ele>874.5</ele></trkpt>
    <trkpt lat="31.862934" lon="-6.911567"><ele>880.2</ele></trkpt>
    <trkpt lat="31.860951" lon="-6.910911"><ele>884.5</ele></trkpt>
    <trkpt lat="31.860525" lon="-6.910443"><ele>885.5</ele></trkpt>
    <trkpt lat="31.860042" lon="-6.910223"><ele>886.2</ele></trkpt>
    <trkpt lat="31.859619" lon="-6.909959"><ele>890.0</ele></trkpt>
    <trkpt lat="31.858691" lon="-6.909700"><ele>897.0</ele></trkpt>
    <trkpt lat="31.857657" lon="-6.908900"><ele>902.5</ele></trkpt>
    <trkpt lat="31.857602" lon="-6.908870"><ele>902.5</ele></trkpt>
    <trkpt lat="31.857036" lon="-6.908897"><ele>902.5</ele></trkpt>
    <trkpt lat="31.856510" lon="-6.908516"><ele>904.5</ele></trkpt>
    <trkpt lat="31.855974" lon="-6.908621"><ele>904.2</ele></trkpt>
    <trkpt lat="31.855784" lon="-6.908456"><ele>904.2</ele></trkpt>
    <trkpt lat="31.855310" lon="-6.907509"><ele>909.8</ele></trkpt>
    <trkpt lat="31.854877" lon="-6.906956"><ele>910.2</ele></trkpt>
    <trkpt lat="31.854745" lon="-6.906266"><ele>910.2</ele></trkpt>
    <trkpt lat="31.854808" lon="-6.905517"><ele>910.8</ele></trkpt>
    <trkpt lat="31.854651" lon="-6.904887"><ele>910.8</ele></trkpt>
    <trkpt lat="31.853919" lon="-6.903900"><ele>911.0</ele></trkpt>
    <trkpt lat="31.853588" lon="-6.903027"><ele>914.0</ele></trkpt>
    <trkpt lat="31.853483" lon="-6.902308"><ele>917.8</ele></trkpt>
    <trkpt lat="31.852869" lon="-6.901237"><ele>919.8</ele></trkpt>
    <trkpt lat="31.852720" lon="-6.899225"><ele>923.0</ele></trkpt>
    <trkpt lat="31.852226" lon="-6.898371"><ele>922.0</ele></trkpt>
    <trkpt lat="31.852052" lon="-6.897751"><ele>921.5</ele></trkpt>
    <trkpt lat="31.852046" lon="-6.897370"><ele>921.5</ele></trkpt>
    <trkpt lat="31.851828" lon="-6.894034"><ele>930.8</ele></trkpt>
    <trkpt lat="31.851397" lon="-6.892535"><ele>942.0</ele></trkpt>
    <trkpt lat="31.850755" lon="-6.891370"><ele>953.2</ele></trkpt>
    <trkpt lat="31.849906" lon="-6.890918"><ele>959.2</ele></trkpt>
    <trkpt lat="31.849660" lon="-6.890650"><ele>962.2</ele></trkpt>
    <trkpt lat="31.848951" lon="-6.888878"><ele>984.5</ele></trkpt>
    <trkpt lat="31.848884" lon="-6.888733"><ele>985.8</ele></trkpt>
    <trkpt lat="31.847818" lon="-6.887002"><ele>997.2</ele></trkpt>
    <trkpt lat="31.847309" lon="-6.886104"><ele>1011.2</ele></trkpt>
    <trkpt lat="31.846542" lon="-6.884969"><ele>1017.8</ele></trkpt>
    <trkpt lat="31.845654" lon="-6.883852"><ele>1025.5</ele></trkpt>
    <trkpt lat="31.845331" lon="-6.883487"><ele>1026.5</ele></trkpt>
    <trkpt lat="31.844752" lon="-6.882252"><ele>1033.5</ele></trkpt>
    <trkpt lat="31.844998" lon="-6.881384"><ele>1041.8</ele></trkpt>
    <trkpt lat="31.845009" lon="-6.880212"><ele>1044.8</ele></trkpt>
    <trkpt lat="31.845653" lon="-6.879421"><ele>1052.8</ele></trkpt>
    <trkpt lat="31.845523" lon="-6.879047"><ele>1053.2</ele></trkpt>
    <trkpt lat="31.845490" lon="-6.877925"><ele>1057.2</ele></trkpt>
    <trkpt lat="31.844991" lon="-6.877133"><ele>1061.8</ele></trkpt>
    <trkpt lat="31.845010" lon="-6.877048"><ele>1062.8</ele></trkpt>
    <trkpt lat="31.845488" lon="-6.875497"><ele>1079.5</ele></trkpt>
    <trkpt lat="31.845945" lon="-6.874156"><ele>1083.2</ele></trkpt>
    <trkpt lat="31.845001" lon="-6.870857"><ele>1093.0</ele></trkpt>
    <trkpt lat="31.845468" lon="-6.867694"><ele>1102.5</ele></trkpt>
    <trkpt lat="31.845536" lon="-6.866922"><ele>1103.2</ele></trkpt>
    <trkpt lat="31.845046" lon="-6.863489"><ele>1104.8</ele></trkpt>
    <trkpt lat="31.845211" lon="-6.862055"><ele>1100.2</ele></trkpt>
    <trkpt lat="31.845250" lon="-6.860328"><ele>1100.2</ele></trkpt>
    <trkpt lat="31.845394" lon="-6.859709"><ele>1100.2</ele></trkpt>
    <trkpt lat="31.845825" lon="-6.859033"><ele>1100.5</ele></trkpt>
    <trkpt lat="31.846097" lon="-6.858325"><ele>1103.5</ele></trkpt>
    <trkpt lat="31.846262" lon="-6.855536"><ele>1121.5</ele></trkpt>
    <trkpt lat="31.846419" lon="-6.850528"><ele>1117.8</ele></trkpt>
    <trkpt lat="31.846957" lon="-6.848903"><ele>1117.0</ele></trkpt>
    <trkpt lat="31.847091" lon="-6.847398"><ele>1115.5</ele></trkpt>
    <trkpt lat="31.847125" lon="-6.846014"><ele>1115.2</ele></trkpt>
    <trkpt lat="31.846843" lon="-6.845102"><ele>1111.0</ele></trkpt>
    <trkpt lat="31.847820" lon="-6.842578"><ele>1102.2</ele></trkpt>
    <trkpt lat="31.848075" lon="-6.841717"><ele>1102.2</ele></trkpt>
    <trkpt lat="31.847984" lon="-6.838823"><ele>1108.5</ele></trkpt>
    <trkpt lat="31.848845" lon="-6.838501"><ele>1109.8</ele></trkpt>
    <trkpt lat="31.848891" lon="-6.838332"><ele>1109.8</ele></trkpt>
    <trkpt lat="31.848784" lon="-6.837071"><ele>1106.2</ele></trkpt>
    <trkpt lat="31.848356" lon="-6.835666"><ele>1103.0</ele></trkpt>
    <trkpt lat="31.848039" lon="-6.833560"><ele>1099.5</ele></trkpt>
    <trkpt lat="31.846929" lon="-6.829655"><ele>1097.8</ele></trkpt>
    <trkpt lat="31.846360" lon="-6.827407"><ele>1112.5</ele></trkpt>
    <trkpt lat="31.846248" lon="-6.826412"><ele>1113.0</ele></trkpt>
    <trkpt lat="31.846275" lon="-6.825173"><ele>1113.0</ele></trkpt>
    <trkpt lat="31.846513" lon="-6.824075"><ele>1113.0</ele></trkpt>
    <trkpt lat="31.850243" lon="-6.822716"><ele>1113.8</ele></trkpt>
    <trkpt lat="31.849920" lon="-6.820053"><ele>1125.8</ele></trkpt>
    <trkpt lat="31.849867" lon="-6.819699"><ele>1128.0</ele></trkpt>
    <trkpt lat="31.848942" lon="-6.817963"><ele>1138.8</ele></trkpt>
    <trkpt lat="31.848579" lon="-6.816512"><ele>1145.5</ele></trkpt>
    <trkpt lat="31.848261" lon="-6.815913"><ele>1147.2</ele></trkpt>
    <trkpt lat="31.848646" lon="-6.815403"><ele>1148.8</ele></trkpt>
    <trkpt lat="31.849054" lon="-6.814527"><ele>1148.8</ele></trkpt>
    <trkpt lat="31.849170" lon="-6.814383"><ele>1148.8</ele></trkpt>
    <trkpt lat="31.849679" lon="-6.813944"><ele>1147.8</ele></trkpt>
    <trkpt lat="31.850045" lon="-6.812883"><ele>1141.8</ele></trkpt>
    <trkpt lat="31.851052" lon="-6.811574"><ele>1131.2</ele></trkpt>
    <trkpt lat="31.851493" lon="-6.811196"><ele>1129.8</ele></trkpt>
    <trkpt lat="31.851567" lon="-6.810538"><ele>1126.8</ele></trkpt>
    <trkpt lat="31.851920" lon="-6.809891"><ele>1122.2</ele></trkpt>
    <trkpt lat="31.852175" lon="-6.808769"><ele>1119.5</ele></trkpt>
    <trkpt lat="31.852206" lon="-6.808531"><ele>1119.5</ele></trkpt>
    <trkpt lat="31.852050" lon="-6.805673"><ele>1125.2</ele></trkpt>
    <trkpt lat="31.852266" lon="-6.804621"><ele>1129.8</ele></trkpt>
    <trkpt lat="31.852265" lon="-6.804016"><ele>1131.2</ele></trkpt>
    <trkpt lat="31.852839" lon="-6.803221"><ele>1137.5</ele></trkpt>
    <trkpt lat="31.853214" lon="-6.802762"><ele>1137.5</ele></trkpt>
    <trkpt lat="31.853173" lon="-6.801752"><ele>1131.2</ele></trkpt>
    <trkpt lat="31.854154" lon="-6.802130"><ele>1124.0</ele></trkpt>
    <trkpt lat="31.855072" lon="-6.801816"><ele>1120.0</ele></trkpt>
    <trkpt lat="31.855151" lon="-6.801558"><ele>1120.5</ele></trkpt>
    <trkpt lat="31.855093" lon="-6.799637"><ele>1121.8</ele></trkpt>
    <trkpt lat="31.855331" lon="-6.798473"><ele>1120.0</ele></trkpt>
    <trkpt lat="31.855954" lon="-6.797784"><ele>1115.8</ele></trkpt>
    <trkpt lat="31.856450" lon="-6.796893"><ele>1113.5</ele></trkpt>
    <trkpt lat="31.856729" lon="-6.796543"><ele>1113.5</ele></trkpt>
    <trkpt lat="31.857464" lon="-6.796239"><ele>1116.2</ele></trkpt>
    <trkpt lat="31.857435" lon="-6.795697"><ele>1118.5</ele></trkpt>
    <trkpt lat="31.856846" lon="-6.794992"><ele>1122.8</ele></trkpt>
    <trkpt lat="31.857065" lon="-6.792964"><ele>1130.8</ele></trkpt>
    <trkpt lat="31.857397" lon="-6.791929"><ele>1130.8</ele></trkpt>
    <trkpt lat="31.857420" lon="-6.791847"><ele>1130.2</ele></trkpt>
    <trkpt lat="31.857798" lon="-6.789992"><ele>1117.2</ele></trkpt>
    <trkpt lat="31.857823" lon="-6.789907"><ele>1117.0</ele></trkpt>
    <trkpt lat="31.858251" lon="-6.788982"><ele>1116.5</ele></trkpt>
    <trkpt lat="31.858502" lon="-6.786586"><ele>1113.8</ele></trkpt>
    <trkpt lat="31.858530" lon="-6.786451"><ele>1113.2</ele></trkpt>
    <trkpt lat="31.859141" lon="-6.784280"><ele>1098.8</ele></trkpt>
    <trkpt lat="31.859268" lon="-6.782868"><ele>1092.5</ele></trkpt>
    <trkpt lat="31.859297" lon="-6.782664"><ele>1092.5</ele></trkpt>
    <trkpt lat="31.859717" lon="-6.781075"><ele>1092.8</ele></trkpt>
    <trkpt lat="31.859707" lon="-6.780878"><ele>1093.0</ele></trkpt>
    <trkpt lat="31.859594" lon="-6.780061"><ele>1095.8</ele></trkpt>
    <trkpt lat="31.859803" lon="-6.778216"><ele>1097.8</ele></trkpt>
    <trkpt lat="31.859912" lon="-6.777772"><ele>1099.8</ele></trkpt>
    <trkpt lat="31.860819" lon="-6.775390"><ele>1112.5</ele></trkpt>
    <trkpt lat="31.860847" lon="-6.775301"><ele>1113.0</ele></trkpt>
    <trkpt lat="31.860871" lon="-6.774660"><ele>1117.8</ele></trkpt>
    <trkpt lat="31.861691" lon="-6.774290"><ele>1123.2</ele></trkpt>
    <trkpt lat="31.862425" lon="-6.773757"><ele>1128.2</ele></trkpt>
    <trkpt lat="31.862820" lon="-6.772709"><ele>1139.2</ele></trkpt>
    <trkpt lat="31.864156" lon="-6.773082"><ele>1146.5</ele></trkpt>
    <trkpt lat="31.864367" lon="-6.772965"><ele>1149.2</ele></trkpt>
    <trkpt lat="31.864354" lon="-6.772803"><ele>1151.2</ele></trkpt>
    <trkpt lat="31.864159" lon="-6.772064"><ele>1156.5</ele></trkpt>
    <trkpt lat="31.864125" lon="-6.771182"><ele>1163.5</ele></trkpt>
    <trkpt lat="31.864285" lon="-6.770771"><ele>1169.2</ele></trkpt>
    <trkpt lat="31.864770" lon="-6.769814"><ele>1183.8</ele></trkpt>
    <trkpt lat="31.864912" lon="-6.769263"><ele>1189.5</ele></trkpt>
    <trkpt lat="31.865209" lon="-6.767887"><ele>1191.5</ele></trkpt>
    <trkpt lat="31.865193" lon="-6.767523"><ele>1191.0</ele></trkpt>
    <trkpt lat="31.865103" lon="-6.766445"><ele>1181.2</ele></trkpt>
    <trkpt lat="31.865050" lon="-6.765334"><ele>1180.2</ele></trkpt>
    <trkpt lat="31.865202" lon="-6.764595"><ele>1180.2</ele></trkpt>
    <trkpt lat="31.865214" lon="-6.764386"><ele>1181.5</ele></trkpt>
    <trkpt lat="31.865108" lon="-6.763277"><ele>1191.8</ele></trkpt>
    <trkpt lat="31.864574" lon="-6.761664"><ele>1202.8</ele></trkpt>
    <trkpt lat="31.864253" lon="-6.760132"><ele>1202.8</ele></trkpt>
    <trkpt lat="31.863630" lon="-6.758383"><ele>1197.8</ele></trkpt>
    <trkpt lat="31.863863" lon="-6.756742"><ele>1187.2</ele></trkpt>
    <trkpt lat="31.863829" lon="-6.756234"><ele>1186.2</ele></trkpt>
    <trkpt lat="31.863628" lon="-6.755499"><ele>1186.2</ele></trkpt>
    <trkpt lat="31.863974" lon="-6.755094"><ele>1186.2</ele></trkpt>
    <trkpt lat="31.863449" lon="-6.754345"><ele>1189.0</ele></trkpt>
    <trkpt lat="31.861381" lon="-6.750547"><ele>1193.0</ele></trkpt>
    <trkpt lat="31.859180" lon="-6.748031"><ele>1191.5</ele></trkpt>
    <trkpt lat="31.858723" lon="-6.746428"><ele>1193.2</ele></trkpt>
    <trkpt lat="31.858546" lon="-6.745215"><ele>1193.8</ele></trkpt>
    <trkpt lat="31.858070" lon="-6.744273"><ele>1194.0</ele></trkpt>
    <trkpt lat="31.857585" lon="-6.743638"><ele>1194.2</ele></trkpt>
    <trkpt lat="31.856208" lon="-6.743995"><ele>1194.8</ele></trkpt>
    <trkpt lat="31.855525" lon="-6.743643"><ele>1195.8</ele></trkpt>
    <trkpt lat="31.855385" lon="-6.743503"><ele>1194.8</ele></trkpt>
    <trkpt lat="31.854927" lon="-6.742823"><ele>1190.5</ele></trkpt>
    <trkpt lat="31.853308" lon="-6.739499"><ele>1185.5</ele></trkpt>
    <trkpt lat="31.852683" lon="-6.738355"><ele>1185.8</ele></trkpt>
    <trkpt lat="31.851650" lon="-6.736684"><ele>1187.0</ele></trkpt>
    <trkpt lat="31.851014" lon="-6.734195"><ele>1189.8</ele></trkpt>
    <trkpt lat="31.850603" lon="-6.733462"><ele>1190.5</ele></trkpt>
    <trkpt lat="31.849795" lon="-6.732426"><ele>1192.0</ele></trkpt>
    <trkpt lat="31.849017" lon="-6.731064"><ele>1193.0</ele></trkpt>
    <trkpt lat="31.848252" lon="-6.729180"><ele>1198.8</ele></trkpt>
    <trkpt lat="31.847957" lon="-6.727808"><ele>1199.5</ele></trkpt>
    <trkpt lat="31.848034" lon="-6.727362"><ele>1200.5</ele></trkpt>
    <trkpt lat="31.848419" lon="-6.725661"><ele>1206.2</ele></trkpt>
    <trkpt lat="31.847254" lon="-6.724043"><ele>1210.0</ele></trkpt>
    <trkpt lat="31.846469" lon="-6.722308"><ele>1214.2</ele></trkpt>
    <trkpt lat="31.846003" lon="-6.720394"><ele>1221.0</ele></trkpt>
    <trkpt lat="31.845554" lon="-6.719125"><ele>1222.5</ele></trkpt>
    <trkpt lat="31.842897" lon="-6.712467"><ele>1238.5</ele></trkpt>
    <trkpt lat="31.842119" lon="-6.710770"><ele>1238.5</ele></trkpt>
    <trkpt lat="31.840637" lon="-6.708638"><ele>1238.2</ele></trkpt>
    <trkpt lat="31.839521" lon="-6.706575"><ele>1236.8</ele></trkpt>
    <trkpt lat="31.838217" lon="-6.702223"><ele>1230.5</ele></trkpt>
    <trkpt lat="31.837554" lon="-6.701529"><ele>1228.8</ele></trkpt>
    <trkpt lat="31.836476" lon="-6.699530"><ele>1227.0</ele></trkpt>
    <trkpt lat="31.835322" lon="-6.698385"><ele>1223.5</ele></trkpt>
    <trkpt lat="31.834804" lon="-6.697261"><ele>1223.8</ele></trkpt>
    <trkpt lat="31.834027" lon="-6.696103"><ele>1224.0</ele></trkpt>
    <trkpt lat="31.833733" lon="-6.695381"><ele>1224.2</ele></trkpt>
    <trkpt lat="31.832701" lon="-6.693106"><ele>1230.0</ele></trkpt>
    <trkpt lat="31.831987" lon="-6.691800"><ele>1232.2</ele></trkpt>
    <trkpt lat="31.831541" lon="-6.691246"><ele>1234.2</ele></trkpt>
    <trkpt lat="31.830323" lon="-6.690223"><ele>1241.0</ele></trkpt>
    <trkpt lat="31.830675" lon="-6.689814"><ele>1241.8</ele></trkpt>
    <trkpt lat="31.832744" lon="-6.687971"><ele>1264.2</ele></trkpt>
    <trkpt lat="31.833056" lon="-6.687596"><ele>1268.5</ele></trkpt>
    <trkpt lat="31.833146" lon="-6.686633"><ele>1277.0</ele></trkpt>
    <trkpt lat="31.833720" lon="-6.685241"><ele>1293.0</ele></trkpt>
    <trkpt lat="31.834007" lon="-6.683668"><ele>1307.5</ele></trkpt>
    <trkpt lat="31.834210" lon="-6.683265"><ele>1311.0</ele></trkpt>
    <trkpt lat="31.835106" lon="-6.682069"><ele>1331.8</ele></trkpt>
    <trkpt lat="31.835257" lon="-6.681909"><ele>1335.0</ele></trkpt>
    <trkpt lat="31.835591" lon="-6.681680"><ele>1339.8</ele></trkpt>
    <trkpt lat="31.836062" lon="-6.681634"><ele>1343.2</ele></trkpt>
    <trkpt lat="31.837458" lon="-6.681989"><ele>1352.0</ele></trkpt>
    <trkpt lat="31.839031" lon="-6.681877"><ele>1359.2</ele></trkpt>
    <trkpt lat="31.840421" lon="-6.682255"><ele>1372.5</ele></trkpt>
    <trkpt lat="31.841690" lon="-6.682034"><ele>1382.2</ele></trkpt>
    <trkpt lat="31.842502" lon="-6.682060"><ele>1387.2</ele></trkpt>
    <trkpt lat="31.843664" lon="-6.681646"><ele>1398.2</ele></trkpt>
    <trkpt lat="31.844496" lon="-6.680854"><ele>1412.2</ele></trkpt>
    <trkpt lat="31.845402" lon="-6.680540"><ele>1421.0</ele></trkpt>
    <trkpt lat="31.846450" lon="-6.681114"><ele>1426.5</ele></trkpt>
    <trkpt lat="31.847377" lon="-6.681586"><ele>1436.0</ele></trkpt>
    <trkpt lat="31.848415" lon="-6.681398"><ele>1448.0</ele></trkpt>
    <trkpt lat="31.848898" lon="-6.681474"><ele>1451.8</ele></trkpt>
    <trkpt lat="31.849957" lon="-6.682329"><ele>1459.5</ele></trkpt>
    <trkpt lat="31.850557" lon="-6.682604"><ele>1462.0</ele></trkpt>
    <trkpt lat="31.850650" lon="-6.682641"><ele>1462.0</ele></trkpt>
    <trkpt lat="31.851562" lon="-6.682284"><ele>1462.8</ele></trkpt>
    <trkpt lat="31.853056" lon="-6.681325"><ele>1461.5</ele></trkpt>
    <trkpt lat="31.854206" lon="-6.681364"><ele>1460.5</ele></trkpt>
    <trkpt lat="31.855892" lon="-6.681779"><ele>1455.8</ele></trkpt>
    <trkpt lat="31.856871" lon="-6.681962"><ele>1449.5</ele></trkpt>
    <trkpt lat="31.857404" lon="-6.681959"><ele>1444.5</ele></trkpt>
    <trkpt lat="31.857780" lon="-6.681724"><ele>1442.2</ele></trkpt>
    <trkpt lat="31.858269" lon="-6.680724"><ele>1431.0</ele></trkpt>
    <trkpt lat="31.858419" lon="-6.680592"><ele>1429.8</ele></trkpt>
    <trkpt lat="31.860885" lon="-6.678291"><ele>1403.5</ele></trkpt>
    <trkpt lat="31.861234" lon="-6.678015"><ele>1402.0</ele></trkpt>
    <trkpt lat="31.861904" lon="-6.678047"><ele>1399.8</ele></trkpt>
    <trkpt lat="31.862872" lon="-6.677822"><ele>1396.0</ele></trkpt>
    <trkpt lat="31.864052" lon="-6.678167"><ele>1392.5</ele></trkpt>
    <trkpt lat="31.865983" lon="-6.677752"><ele>1377.5</ele></trkpt>
    <trkpt lat="31.868925" lon="-6.675444"><ele>1371.8</ele></trkpt>
    <trkpt lat="31.871567" lon="-6.674508"><ele>1365.0</ele></trkpt>
    <trkpt lat="31.873549" lon="-6.674320"><ele>1364.0</ele></trkpt>
    <trkpt lat="31.874360" lon="-6.674218"><ele>1362.5</ele></trkpt>
    <trkpt lat="31.876366" lon="-6.673824"><ele>1353.5</ele></trkpt>
    <trkpt lat="31.876806" lon="-6.673902"><ele>1350.8</ele></trkpt>
    <trkpt lat="31.877649" lon="-6.674182"><ele>1341.0</ele></trkpt>
    <trkpt lat="31.877714" lon="-6.674179"><ele>1340.2</ele></trkpt>
    <trkpt lat="31.878142" lon="-6.672936"><ele>1333.2</ele></trkpt>
    <trkpt lat="31.878213" lon="-6.671932"><ele>1331.0</ele></trkpt>
    <trkpt lat="31.878392" lon="-6.669354"><ele>1319.2</ele></trkpt>
    <trkpt lat="31.878670" lon="-6.667825"><ele>1313.8</ele></trkpt>
    <trkpt lat="31.878827" lon="-6.667015"><ele>1313.0</ele></trkpt>
    <trkpt lat="31.879023" lon="-6.666532"><ele>1312.5</ele></trkpt>
    <trkpt lat="31.879401" lon="-6.666023"><ele>1312.5</ele></trkpt>
    <trkpt lat="31.880031" lon="-6.665436"><ele>1302.8</ele></trkpt>
    <trkpt lat="31.880618" lon="-6.664509"><ele>1281.5</ele></trkpt>
    <trkpt lat="31.880645" lon="-6.664376"><ele>1280.8</ele></trkpt>
    <trkpt lat="31.880632" lon="-6.663454"><ele>1279.8</ele></trkpt>
    <trkpt lat="31.880144" lon="-6.662588"><ele>1279.0</ele></trkpt>
    <trkpt lat="31.879967" lon="-6.662014"><ele>1278.0</ele></trkpt>
    <trkpt lat="31.879782" lon="-6.659930"><ele>1267.8</ele></trkpt>
    <trkpt lat="31.880031" lon="-6.659721"><ele>1262.5</ele></trkpt>
    <trkpt lat="31.880503" lon="-6.659840"><ele>1257.0</ele></trkpt>
    <trkpt lat="31.881218" lon="-6.658902"><ele>1257.2</ele></trkpt>
    <trkpt lat="31.881723" lon="-6.657617"><ele>1265.8</ele></trkpt>
    <trkpt lat="31.881841" lon="-6.655806"><ele>1271.0</ele></trkpt>
    <trkpt lat="31.881941" lon="-6.655574"><ele>1272.5</ele></trkpt>
    <trkpt lat="31.882424" lon="-6.654857"><ele>1275.8</ele></trkpt>
    <trkpt lat="31.883247" lon="-6.654051"><ele>1282.2</ele></trkpt>
    <trkpt lat="31.883826" lon="-6.653965"><ele>1289.2</ele></trkpt>
    <trkpt lat="31.884171" lon="-6.653907"><ele>1290.0</ele></trkpt>
    <trkpt lat="31.884755" lon="-6.653525"><ele>1290.2</ele></trkpt>
    <trkpt lat="31.885638" lon="-6.652121"><ele>1291.0</ele></trkpt>
    <trkpt lat="31.886007" lon="-6.651900"><ele>1291.0</ele></trkpt>
    <trkpt lat="31.886745" lon="-6.651642"><ele>1293.8</ele></trkpt>
    <trkpt lat="31.887228" lon="-6.651166"><ele>1298.8</ele></trkpt>
    <trkpt lat="31.887852" lon="-6.651057"><ele>1303.0</ele></trkpt>
    <trkpt lat="31.888389" lon="-6.650474"><ele>1306.5</ele></trkpt>
    <trkpt lat="31.888580" lon="-6.650324"><ele>1309.0</ele></trkpt>
    <trkpt lat="31.890512" lon="-6.649464"><ele>1323.8</ele></trkpt>
    <trkpt lat="31.890936" lon="-6.649351"><ele>1326.2</ele></trkpt>
    <trkpt lat="31.891749" lon="-6.649370"><ele>1328.5</ele></trkpt>
    <trkpt lat="31.892566" lon="-6.648788"><ele>1332.0</ele></trkpt>
    <trkpt lat="31.892858" lon="-6.648518"><ele>1332.0</ele></trkpt>
    <trkpt lat="31.893522" lon="-6.647331"><ele>1331.8</ele></trkpt>
    <trkpt lat="31.894768" lon="-6.645669"><ele>1327.8</ele></trkpt>
    <trkpt lat="31.895654" lon="-6.643252"><ele>1327.8</ele></trkpt>
    <trkpt lat="31.895850" lon="-6.642808"><ele>1327.8</ele></trkpt>
    <trkpt lat="31.896488" lon="-6.641595"><ele>1332.2</ele></trkpt>
    <trkpt lat="31.897053" lon="-6.640162"><ele>1335.8</ele></trkpt>
    <trkpt lat="31.895916" lon="-6.640035"><ele>1337.8</ele></trkpt>
    <trkpt lat="31.895445" lon="-6.639850"><ele>1338.2</ele></trkpt>
    <trkpt lat="31.895268" lon="-6.639740"><ele>1338.8</ele></trkpt>
    <trkpt lat="31.893034" lon="-6.638156"><ele>1353.8</ele></trkpt>
    <trkpt lat="31.892873" lon="-6.637984"><ele>1354.8</ele></trkpt>
    <trkpt lat="31.891152" lon="-6.633210"><ele>1363.2</ele></trkpt>
    <trkpt lat="31.888763" lon="-6.626649"><ele>1385.5</ele></trkpt>
    <trkpt lat="31.887797" lon="-6.623846"><ele>1388.0</ele></trkpt>
    <trkpt lat="31.887898" lon="-6.621006"><ele>1393.2</ele></trkpt>
    <trkpt lat="31.887592" lon="-6.618206"><ele>1396.5</ele></trkpt>
    <trkpt lat="31.887456" lon="-6.616704"><ele>1396.5</ele></trkpt>
    <trkpt lat="31.887702" lon="-6.613640"><ele>1391.8</ele></trkpt>
    <trkpt lat="31.887683" lon="-6.613100"><ele>1391.8</ele></trkpt>
    <trkpt lat="31.887529" lon="-6.611650"><ele>1403.0</ele></trkpt>
    <trkpt lat="31.887510" lon="-6.611105"><ele>1405.5</ele></trkpt>
    <trkpt lat="31.888029" lon="-6.608809"><ele>1412.8</ele></trkpt>
    <trkpt lat="31.888152" lon="-6.608514"><ele>1414.8</ele></trkpt>
    <trkpt lat="31.889223" lon="-6.606073"><ele>1423.5</ele></trkpt>
    <trkpt lat="31.889410" lon="-6.603207"><ele>1434.5</ele></trkpt>
    <trkpt lat="31.889337" lon="-6.602166"><ele>1434.8</ele></trkpt>
    <trkpt lat="31.888968" lon="-6.600503"><ele>1435.5</ele></trkpt>
    <trkpt lat="31.889040" lon="-6.599968"><ele>1435.5</ele></trkpt>
    <trkpt lat="31.889533" lon="-6.598406"><ele>1436.2</ele></trkpt>
    <trkpt lat="31.890084" lon="-6.596759"><ele>1441.0</ele></trkpt>
    <trkpt lat="31.890362" lon="-6.596238"><ele>1443.2</ele></trkpt>
    <trkpt lat="31.891245" lon="-6.595188"><ele>1448.2</ele></trkpt>
    <trkpt lat="31.891509" lon="-6.594432"><ele>1453.8</ele></trkpt>
    <trkpt lat="31.891446" lon="-6.593722"><ele>1459.2</ele></trkpt>
    <trkpt lat="31.891031" lon="-6.592188"><ele>1468.5</ele></trkpt>
    <trkpt lat="31.890963" lon="-6.591260"><ele>1471.0</ele></trkpt>
    <trkpt lat="31.891163" lon="-6.589907"><ele>1474.8</ele></trkpt>
    <trkpt lat="31.891607" lon="-6.588268"><ele>1478.5</ele></trkpt>
    <trkpt lat="31.891662" lon="-6.587408"><ele>1481.2</ele></trkpt>
    <trkpt lat="31.891728" lon="-6.584905"><ele>1493.5</ele></trkpt>
    <trkpt lat="31.891318" lon="-6.583444"><ele>1503.0</ele></trkpt>
    <trkpt lat="31.890817" lon="-6.580419"><ele>1519.5</ele></trkpt>
    <trkpt lat="31.890526" lon="-6.579780"><ele>1522.5</ele></trkpt>
    <trkpt lat="31.890011" lon="-6.579363"><ele>1527.2</ele></trkpt>
    <trkpt lat="31.888207" lon="-6.579335"><ele>1538.5</ele></trkpt>
    <trkpt lat="31.887278" lon="-6.578922"><ele>1546.5</ele></trkpt>
    <trkpt lat="31.886777" lon="-6.578434"><ele>1548.5</ele></trkpt>
    <trkpt lat="31.886536" lon="-6.577962"><ele>1551.5</ele></trkpt>
    <trkpt lat="31.884882" lon="-6.573440"><ele>1572.8</ele></trkpt>
    <trkpt lat="31.884180" lon="-6.571773"><ele>1575.0</ele></trkpt>
    <trkpt lat="31.883588" lon="-6.568989"><ele>1582.0</ele></trkpt>
    <trkpt lat="31.883297" lon="-6.568451"><ele>1587.2</ele></trkpt>
    <trkpt lat="31.882937" lon="-6.568247"><ele>1590.2</ele></trkpt>
    <trkpt lat="31.881976" lon="-6.568091"><ele>1597.5</ele></trkpt>
    <trkpt lat="31.879873" lon="-6.568435"><ele>1607.2</ele></trkpt>
    <trkpt lat="31.878810" lon="-6.568547"><ele>1614.0</ele></trkpt>
    <trkpt lat="31.878510" lon="-6.568495"><ele>1615.8</ele></trkpt>
    <trkpt lat="31.877953" lon="-6.568042"><ele>1621.2</ele></trkpt>
    <trkpt lat="31.877218" lon="-6.567115"><ele>1630.2</ele></trkpt>
    <trkpt lat="31.876737" lon="-6.565881"><ele>1630.8</ele></trkpt>
    <trkpt lat="31.876305" lon="-6.565258"><ele>1630.8</ele></trkpt>
    <trkpt lat="31.876365" lon="-6.564776"><ele>1630.8</ele></trkpt>
    <trkpt lat="31.876131" lon="-6.563581"><ele>1632.8</ele></trkpt>
    <trkpt lat="31.876171" lon="-6.563257"><ele>1632.8</ele></trkpt>
    <trkpt lat="31.876486" lon="-6.562606"><ele>1632.8</ele></trkpt>
    <trkpt lat="31.877061" lon="-6.561499"><ele>1632.2</ele></trkpt>
    <trkpt lat="31.877705" lon="-6.559852"><ele>1627.2</ele></trkpt>
    <trkpt lat="31.879388" lon="-6.557471"><ele>1625.8</ele></trkpt>
    <trkpt lat="31.879764" lon="-6.556410"><ele>1625.8</ele></trkpt>
    <trkpt lat="31.880558" lon="-6.553782"><ele>1638.8</ele></trkpt>
    <trkpt lat="31.880612" lon="-6.551713"><ele>1650.0</ele></trkpt>
    <trkpt lat="31.880687" lon="-6.549922"><ele>1652.2</ele></trkpt>
    <trkpt lat="31.879879" lon="-6.548683"><ele>1655.2</ele></trkpt>
    <trkpt lat="31.879154" lon="-6.545035"><ele>1669.8</ele></trkpt>
    <trkpt lat="31.877943" lon="-6.543426"><ele>1678.8</ele></trkpt>
    <trkpt lat="31.875742" lon="-6.540660"><ele>1678.8</ele></trkpt>
    <trkpt lat="31.874572" lon="-6.538981"><ele>1678.8</ele></trkpt>
    <trkpt lat="31.872875" lon="-6.535838"><ele>1668.2</ele></trkpt>
    <trkpt lat="31.872192" lon="-6.534847"><ele>1666.2</ele></trkpt>
    <trkpt lat="31.870815" lon="-6.533649"><ele>1658.2</ele></trkpt>
    <trkpt lat="31.867488" lon="-6.529556"><ele>1635.8</ele></trkpt>
    <trkpt lat="31.866333" lon="-6.527641"><ele>1635.5</ele></trkpt>
    <trkpt lat="31.865872" lon="-6.525927"><ele>1633.2</ele></trkpt>
    <trkpt lat="31.865782" lon="-6.525046"><ele>1629.5</ele></trkpt>
    <trkpt lat="31.865362" lon="-6.524095"><ele>1628.8</ele></trkpt>
    <trkpt lat="31.864901" lon="-6.523304"><ele>1622.0</ele></trkpt>
    <trkpt lat="31.862959" lon="-6.522859"><ele>1618.0</ele></trkpt>
    <trkpt lat="31.858218" lon="-6.523250"><ele>1593.5</ele></trkpt>
    <trkpt lat="31.857954" lon="-6.523181"><ele>1593.2</ele></trkpt>
    <trkpt lat="31.857154" lon="-6.522494"><ele>1590.8</ele></trkpt>
    <trkpt lat="31.856596" lon="-6.522228"><ele>1589.2</ele></trkpt>
    <trkpt lat="31.855730" lon="-6.522220"><ele>1588.0</ele></trkpt>
    <trkpt lat="31.854151" lon="-6.522502"><ele>1580.8</ele></trkpt>
    <trkpt lat="31.853940" lon="-6.522435"><ele>1578.5</ele></trkpt>
    <trkpt lat="31.853664" lon="-6.522014"><ele>1578.5</ele></trkpt>
    <trkpt lat="31.853472" lon="-6.521925"><ele>1578.5</ele></trkpt>
    <trkpt lat="31.852222" lon="-6.522438"><ele>1581.5</ele></trkpt>
    <trkpt lat="31.850818" lon="-6.522708"><ele>1586.5</ele></trkpt>
    <trkpt lat="31.850447" lon="-6.522668"><ele>1587.0</ele></trkpt>
    <trkpt lat="31.849839" lon="-6.522360"><ele>1587.0</ele></trkpt>
    <trkpt lat="31.849335" lon="-6.521853"><ele>1587.0</ele></trkpt>
    <trkpt lat="31.849144" lon="-6.521638"><ele>1585.0</ele></trkpt>
    <trkpt lat="31.848526" lon="-6.520531"><ele>1582.0</ele></trkpt>
    <trkpt lat="31.848353" lon="-6.519790"><ele>1580.0</ele></trkpt>
    <trkpt lat="31.848269" lon="-6.518787"><ele>1575.5</ele></trkpt>
    <trkpt lat="31.848274" lon="-6.517883"><ele>1575.5</ele></trkpt>
    <trkpt lat="31.848984" lon="-6.514887"><ele>1581.0</ele></trkpt>
    <trkpt lat="31.849079" lon="-6.514645"><ele>1581.2</ele></trkpt>
    <trkpt lat="31.849891" lon="-6.513250"><ele>1576.8</ele></trkpt>
    <trkpt lat="31.850721" lon="-6.512397"><ele>1576.8</ele></trkpt>
    <trkpt lat="31.850829" lon="-6.512230"><ele>1577.8</ele></trkpt>
    <trkpt lat="31.851241" lon="-6.511187"><ele>1590.0</ele></trkpt>
    <trkpt lat="31.851379" lon="-6.510698"><ele>1593.0</ele></trkpt>
    <trkpt lat="31.851499" lon="-6.510114"><ele>1593.2</ele></trkpt>
    <trkpt lat="31.851864" lon="-6.509364"><ele>1595.5</ele></trkpt>
    <trkpt lat="31.852218" lon="-6.508994"><ele>1596.2</ele></trkpt>
    <trkpt lat="31.853377" lon="-6.508517"><ele>1596.2</ele></trkpt>
    <trkpt lat="31.853649" lon="-6.508544"><ele>1596.8</ele></trkpt>
    <trkpt lat="31.853980" lon="-6.508823"><ele>1604.2</ele></trkpt>
    <trkpt lat="31.854164" lon="-6.508904"><ele>1605.5</ele></trkpt>
    <trkpt lat="31.855128" lon="-6.508844"><ele>1607.8</ele></trkpt>
    <trkpt lat="31.855468" lon="-6.508616"><ele>1611.0</ele></trkpt>
    <trkpt lat="31.856122" lon="-6.507714"><ele>1607.8</ele></trkpt>
    <trkpt lat="31.856150" lon="-6.506700"><ele>1603.8</ele></trkpt>
    <trkpt lat="31.855972" lon="-6.506257"><ele>1602.2</ele></trkpt>
    <trkpt lat="31.855664" lon="-6.505875"><ele>1598.5</ele></trkpt>
    <trkpt lat="31.854971" lon="-6.505394"><ele>1590.2</ele></trkpt>
    <trkpt lat="31.854916" lon="-6.505164"><ele>1590.2</ele></trkpt>
    <trkpt lat="31.854953" lon="-6.505097"><ele>1591.8</ele></trkpt>
    <trkpt lat="31.856066" lon="-6.504211"><ele>1600.5</ele></trkpt>
    <trkpt lat="31.857213" lon="-6.503725"><ele>1605.8</ele></trkpt>
    <trkpt lat="31.858159" lon="-6.503144"><ele>1605.8</ele></trkpt>
    <trkpt lat="31.858699" lon="-6.503052"><ele>1605.8</ele></trkpt>
    <trkpt lat="31.859415" lon="-6.503313"><ele>1607.5</ele></trkpt>
    <trkpt lat="31.860258" lon="-6.503275"><ele>1604.8</ele></trkpt>
    <trkpt lat="31.862170" lon="-6.502402"><ele>1603.8</ele></trkpt>
    <trkpt lat="31.862637" lon="-6.501673"><ele>1602.2</ele></trkpt>
    <trkpt lat="31.863689" lon="-6.499329"><ele>1602.2</ele></trkpt>
    <trkpt lat="31.864212" lon="-6.497992"><ele>1607.2</ele></trkpt>
    <trkpt lat="31.865105" lon="-6.496616"><ele>1613.2</ele></trkpt>
    <trkpt lat="31.865713" lon="-6.496050"><ele>1615.0</ele></trkpt>
    <trkpt lat="31.866230" lon="-6.495929"><ele>1615.5</ele></trkpt>
    <trkpt lat="31.866870" lon="-6.496039"><ele>1620.5</ele></trkpt>
    <trkpt lat="31.867009" lon="-6.496012"><ele>1620.8</ele></trkpt>
    <trkpt lat="31.867644" lon="-6.495760"><ele>1621.0</ele></trkpt>
    <trkpt lat="31.868130" lon="-6.495278"><ele>1620.5</ele></trkpt>
    <trkpt lat="31.868923" lon="-6.493379"><ele>1615.0</ele></trkpt>
    <trkpt lat="31.868811" lon="-6.492196"><ele>1615.5</ele></trkpt>
    <trkpt lat="31.868820" lon="-6.492021"><ele>1616.5</ele></trkpt>
    <trkpt lat="31.869123" lon="-6.490804"><ele>1618.8</ele></trkpt>
    <trkpt lat="31.869326" lon="-6.490479"><ele>1619.8</ele></trkpt>
    <trkpt lat="31.869718" lon="-6.490248"><ele>1621.8</ele></trkpt>
    <trkpt lat="31.870868" lon="-6.490063"><ele>1625.8</ele></trkpt>
    <trkpt lat="31.871376" lon="-6.489758"><ele>1627.8</ele></trkpt>
    <trkpt lat="31.874123" lon="-6.487369"><ele>1633.5</ele></trkpt>
    <trkpt lat="31.871515" lon="-6.480650"><ele>1638.2</ele></trkpt>
    <trkpt lat="31.871567" lon="-6.479927"><ele>1639.5</ele></trkpt>
    <trkpt lat="31.871903" lon="-6.479297"><ele>1641.2</ele></trkpt>
    <trkpt lat="31.872352" lon="-6.478919"><ele>1643.5</ele></trkpt>
    <trkpt lat="31.873801" lon="-6.478844"><ele>1650.0</ele></trkpt>
    <trkpt lat="31.874065" lon="-6.478790"><ele>1650.0</ele></trkpt>
    <trkpt lat="31.874639" lon="-6.478432"><ele>1650.0</ele></trkpt>
    <trkpt lat="31.875904" lon="-6.475380"><ele>1650.2</ele></trkpt>
    <trkpt lat="31.876302" lon="-6.475122"><ele>1650.2</ele></trkpt>
    <trkpt lat="31.877709" lon="-6.474736"><ele>1656.0</ele></trkpt>
    <trkpt lat="31.878027" lon="-6.474455"><ele>1656.0</ele></trkpt>
    <trkpt lat="31.878177" lon="-6.473989"><ele>1654.0</ele></trkpt>
    <trkpt lat="31.877901" lon="-6.473284"><ele>1654.5</ele></trkpt>
    </trkseg>
  </trk>
</gpx>
