<?xml version="1.0" encoding="UTF-8"?>
<gpx version="1.1" creator="tripplanner (routed with BRouter, gravel profile)" xmlns="http://www.topografix.com/GPX/1/1">
  <metadata>
    <name>M'Goun &amp; Lakes traverse — Day 6: Imilchil → Agoudal → Msemrir</name>
    <desc>118 km, 1485 m, ~93% paved. Routed with BRouter (gravel profile) over OSM ways — a plan, not a ridden track.</desc>
  </metadata>
  <trk>
    <name>M'Goun &amp; Lakes traverse — Day 6: Imilchil → Agoudal → Msemrir</name>
    <trkseg>
    <trkpt lat="32.156104" lon="-5.633577"><ele>2168.0</ele></trkpt>
    <trkpt lat="32.156054" lon="-5.633684"><ele>2168.0</ele></trkpt>
    <trkpt lat="32.155332" lon="-5.633143"><ele>2161.8</ele></trkpt>
    <trkpt lat="32.154914" lon="-5.633218"><ele>2159.8</ele></trkpt>
    <trkpt lat="32.155355" lon="-5.631883"><ele>2158.8</ele></trkpt>
    <trkpt lat="32.155305" lon="-5.631021"><ele>2155.8</ele></trkpt>
    <trkpt lat="32.155068" lon="-5.630157"><ele>2151.8</ele></trkpt>
    <trkpt lat="32.154890" lon="-5.628860"><ele>2148.8</ele></trkpt>
    <trkpt lat="32.154888" lon="-5.628712"><ele>2148.8</ele></trkpt>
    <trkpt lat="32.155355" lon="-5.627187"><ele>2148.8</ele></trkpt>
    <trkpt lat="32.155474" lon="-5.625993"><ele>2149.8</ele></trkpt>
    <trkpt lat="32.155943" lon="-5.625180"><ele>2153.0</ele></trkpt>
    <trkpt lat="32.156047" lon="-5.624722"><ele>2154.2</ele></trkpt>
    <trkpt lat="32.156910" lon="-5.624893"><ele>2162.0</ele></trkpt>
    <trkpt lat="32.157155" lon="-5.624773"><ele>2163.5</ele></trkpt>
    <trkpt lat="32.157865" lon="-5.623306"><ele>2162.5</ele></trkpt>
    <trkpt lat="32.158127" lon="-5.621640"><ele>2162.2</ele></trkpt>
    <trkpt lat="32.157222" lon="-5.621209"><ele>2157.8</ele></trkpt>
    <trkpt lat="32.156977" lon="-5.621427"><ele>2155.5</ele></trkpt>
    <trkpt lat="32.157061" lon="-5.620467"><ele>2154.8</ele></trkpt>
    <trkpt lat="32.157610" lon="-5.619245"><ele>2154.5</ele></trkpt>
    <trkpt lat="32.157771" lon="-5.618588"><ele>2154.8</ele></trkpt>
    <trkpt lat="32.157937" lon="-5.618330"><ele>2154.8</ele></trkpt>
    <trkpt lat="32.158062" lon="-5.618290"><ele>2155.2</ele></trkpt>
    <trkpt lat="32.159457" lon="-5.618537"><ele>2158.5</ele></trkpt>
    <trkpt lat="32.160143" lon="-5.618436"><ele>2159.2</ele></trkpt>
    <trkpt lat="32.162007" lon="-5.617083"><ele>2160.5</ele></trkpt>
    <trkpt lat="32.162294" lon="-5.616653"><ele>2163.5</ele></trkpt>
    <trkpt lat="32.163247" lon="-5.614351"><ele>2165.0</ele></trkpt>
    <trkpt lat="32.164369" lon="-5.611681"><ele>2176.5</ele></trkpt>
    <trkpt lat="32.164941" lon="-5.610174"><ele>2176.5</ele></trkpt>
    <trkpt lat="32.166252" lon="-5.609240"><ele>2175.5</ele></trkpt>
    <trkpt lat="32.166434" lon="-5.608871"><ele>2173.2</ele></trkpt>
    <trkpt lat="32.166935" lon="-5.606320"><ele>2171.8</ele></trkpt>
    <trkpt lat="32.166608" lon="-5.603785"><ele>2166.2</ele></trkpt>
    <trkpt lat="32.166551" lon="-5.602786"><ele>2166.2</ele></trkpt>
    <trkpt lat="32.167266" lon="-5.600224"><ele>2167.5</ele></trkpt>
    <trkpt lat="32.167190" lon="-5.599422"><ele>2169.0</ele></trkpt>
    <trkpt lat="32.166578" lon="-5.597241"><ele>2171.0</ele></trkpt>
    <trkpt lat="32.166170" lon="-5.596898"><ele>2171.8</ele></trkpt>
    <trkpt lat="32.164251" lon="-5.596531"><ele>2172.8</ele></trkpt>
    <trkpt lat="32.163729" lon="-5.596572"><ele>2172.8</ele></trkpt>
    <trkpt lat="32.163427" lon="-5.596753"><ele>2172.8</ele></trkpt>
    <trkpt lat="32.162320" lon="-5.598050"><ele>2176.2</ele></trkpt>
    <trkpt lat="32.161688" lon="-5.599682"><ele>2176.2</ele></trkpt>
    <trkpt lat="32.160840" lon="-5.601025"><ele>2172.2</ele></trkpt>
    <trkpt lat="32.160226" lon="-5.602422"><ele>2172.0</ele></trkpt>
    <trkpt lat="32.159713" lon="-5.602926"><ele>2172.2</ele></trkpt>
    <trkpt lat="32.159363" lon="-5.602896"><ele>2172.5</ele></trkpt>
    <trkpt lat="32.159179" lon="-5.602795"><ele>2173.5</ele></trkpt>
    <trkpt lat="32.158837" lon="-5.602244"><ele>2175.8</ele></trkpt>
    <trkpt lat="32.158836" lon="-5.602012"><ele>2176.5</ele></trkpt>
    <trkpt lat="32.159266" lon="-5.600111"><ele>2188.2</ele></trkpt>
    <trkpt lat="32.159251" lon="-5.599873"><ele>2191.5</ele></trkpt>
    <trkpt lat="32.159045" lon="-5.599411"><ele>2191.5</ele></trkpt>
    <trkpt lat="32.158820" lon="-5.599220"><ele>2191.5</ele></trkpt>
    <trkpt lat="32.157681" lon="-5.598894"><ele>2191.5</ele></trkpt>
    <trkpt lat="32.156583" lon="-5.598321"><ele>2187.2</ele></trkpt>
    <trkpt lat="32.155328" lon="-5.598486"><ele>2184.8</ele></trkpt>
    <trkpt lat="32.155160" lon="-5.598392"><ele>2182.5</ele></trkpt>
    <trkpt lat="32.154999" lon="-5.598070"><ele>2182.5</ele></trkpt>
    <trkpt lat="32.155023" lon="-5.597447"><ele>2182.5</ele></trkpt>
    <trkpt lat="32.155456" lon="-5.595978"><ele>2195.0</ele></trkpt>
    <trkpt lat="32.155477" lon="-5.595530"><ele>2195.0</ele></trkpt>
    <trkpt lat="32.155274" lon="-5.595195"><ele>2195.0</ele></trkpt>
    <trkpt lat="32.154655" lon="-5.594997"><ele>2184.2</ele></trkpt>
    <trkpt lat="32.154430" lon="-5.594791"><ele>2184.2</ele></trkpt>
    <trkpt lat="32.154354" lon="-5.594569"><ele>2184.2</ele></trkpt>
    <trkpt lat="32.154124" lon="-5.593399"><ele>2187.0</ele></trkpt>
    <trkpt lat="32.153609" lon="-5.592101"><ele>2187.8</ele></trkpt>
    <trkpt lat="32.153219" lon="-5.590414"><ele>2190.8</ele></trkpt>
    <trkpt lat="32.152699" lon="-5.589584"><ele>2191.2</ele></trkpt>
    <trkpt lat="32.152360" lon="-5.589296"><ele>2192.0</ele></trkpt>
    <trkpt lat="32.151438" lon="-5.588959"><ele>2192.2</ele></trkpt>
    <trkpt lat="32.151004" lon="-5.588756"><ele>2196.5</ele></trkpt>
    <trkpt lat="32.150774" lon="-5.588537"><ele>2200.2</ele></trkpt>
    <trkpt lat="32.150403" lon="-5.588117"><ele>2200.2</ele></trkpt>
    <trkpt lat="32.149836" lon="-5.587265"><ele>2200.2</ele></trkpt>
    <trkpt lat="32.149198" lon="-5.585544"><ele>2197.5</ele></trkpt>
    <trkpt lat="32.149345" lon="-5.584169"><ele>2197.5</ele></trkpt>
    <trkpt lat="32.150762" lon="-5.582064"><ele>2197.0</ele></trkpt>
    <trkpt lat="32.150990" lon="-5.580047"><ele>2196.0</ele></trkpt>
    <trkpt lat="32.151287" lon="-5.579203"><ele>2200.5</ele></trkpt>
    <trkpt lat="32.152320" lon="-5.577341"><ele>2200.5</ele></trkpt>
    <trkpt lat="32.152995" lon="-5.576583"><ele>2199.0</ele></trkpt>
    <trkpt lat="32.152951" lon="-5.576153"><ele>2196.2</ele></trkpt>
    <trkpt lat="32.152362" lon="-5.575320"><ele>2196.0</ele></trkpt>
    <trkpt lat="32.150117" lon="-5.575965"><ele>2195.8</ele></trkpt>
    <trkpt lat="32.149597" lon="-5.575858"><ele>2195.8</ele></trkpt>
    <trkpt lat="32.148206" lon="-5.575069"><ele>2196.8</ele></trkpt>
    <trkpt lat="32.145492" lon="-5.574715"><ele>2196.5</ele></trkpt>
    <trkpt lat="32.144920" lon="-5.574775"><ele>2196.5</ele></trkpt>
    <trkpt lat="32.143903" lon="-5.575324"><ele>2197.2</ele></trkpt>
    <trkpt lat="32.143203" lon="-5.574178"><ele>2205.0</ele></trkpt>
    <trkpt lat="32.142674" lon="-5.574135"><ele>2209.5</ele></trkpt>
    <trkpt lat="32.142613" lon="-5.574157"><ele>2210.0</ele></trkpt>
    <trkpt lat="32.141594" lon="-5.574585"><ele>2207.0</ele></trkpt>
    <trkpt lat="32.140973" lon="-5.574184"><ele>2203.2</ele></trkpt>
    <trkpt lat="32.140772" lon="-5.574070"><ele>2203.2</ele></trkpt>
    <trkpt lat="32.140754" lon="-5.573171"><ele>2203.8</ele></trkpt>
    <trkpt lat="32.141306" lon="-5.571803"><ele>2209.2</ele></trkpt>
    <trkpt lat="32.141548" lon="-5.570595"><ele>2210.0</ele></trkpt>
    <trkpt lat="32.141201" lon="-5.568769"><ele>2209.5</ele></trkpt>
    <trkpt lat="32.140572" lon="-5.568128"><ele>2208.2</ele></trkpt>
    <trkpt lat="32.139178" lon="-5.567666"><ele>2208.0</ele></trkpt>
    <trkpt lat="32.138851" lon="-5.567434"><ele>2208.2</ele></trkpt>
    <trkpt lat="32.137497" lon="-5.564427"><ele>2217.2</ele></trkpt>
    <trkpt lat="32.136792" lon="-5.563160"><ele>2220.5</ele></trkpt>
    <trkpt lat="32.136456" lon="-5.561776"><ele>2220.2</ele></trkpt>
    <trkpt lat="32.136048" lon="-5.561168"><ele>2216.5</ele></trkpt>
    <trkpt lat="32.135886" lon="-5.560524"><ele>2215.5</ele></trkpt>
    <trkpt lat="32.135699" lon="-5.560241"><ele>2215.5</ele></trkpt>
    <trkpt lat="32.134400" lon="-5.559382"><ele>2215.8</ele></trkpt>
    <trkpt lat="32.132694" lon="-5.559580"><ele>2213.5</ele></trkpt>
    <trkpt lat="32.131638" lon="-5.558960"><ele>2212.5</ele></trkpt>
    <trkpt lat="32.130241" lon="-5.559181"><ele>2212.5</ele></trkpt>
    <trkpt lat="32.128118" lon="-5.559433"><ele>2214.5</ele></trkpt>
    <trkpt lat="32.126997" lon="-5.559368"><ele>2217.2</ele></trkpt>
    <trkpt lat="32.126568" lon="-5.559024"><ele>2218.2</ele></trkpt>
    <trkpt lat="32.126227" lon="-5.558383"><ele>2220.5</ele></trkpt>
    <trkpt lat="32.125190" lon="-5.555306"><ele>2224.2</ele></trkpt>
    <trkpt lat="32.125027" lon="-5.554316"><ele>2226.0</ele></trkpt>
    <trkpt lat="32.124947" lon="-5.553999"><ele>2226.0</ele></trkpt>
    <trkpt lat="32.124641" lon="-5.553466"><ele>2226.0</ele></trkpt>
    <trkpt lat="32.122582" lon="-5.551825"><ele>2219.0</ele></trkpt>
    <trkpt lat="32.121494" lon="-5.551195"><ele>2219.0</ele></trkpt>
    <trkpt lat="32.120671" lon="-5.550723"><ele>2223.2</ele></trkpt>
    <trkpt lat="32.119608" lon="-5.549882"><ele>2236.2</ele></trkpt>
    <trkpt lat="32.119329" lon="-5.549795"><ele>2238.2</ele></trkpt>
    <trkpt lat="32.119125" lon="-5.549772"><ele>2238.2</ele></trkpt>
    <trkpt lat="32.118367" lon="-5.549855"><ele>2236.2</ele></trkpt>
    <trkpt lat="32.115934" lon="-5.552260"><ele>2230.5</ele></trkpt>
    <trkpt lat="32.115231" lon="-5.552596"><ele>2230.5</ele></trkpt>
    <trkpt lat="32.114542" lon="-5.552720"><ele>2230.5</ele></trkpt>
    <trkpt lat="32.114116" lon="-5.552601"><ele>2230.8</ele></trkpt>
    <trkpt lat="32.113600" lon="-5.551554"><ele>2231.2</ele></trkpt>
    <trkpt lat="32.113265" lon="-5.551302"><ele>2232.2</ele></trkpt>
    <trkpt lat="32.111538" lon="-5.550853"><ele>2231.8</ele></trkpt>
    <trkpt lat="32.110085" lon="-5.550871"><ele>2231.8</ele></trkpt>
    <trkpt lat="32.109647" lon="-5.550672"><ele>2231.8</ele></trkpt>
    <trkpt lat="32.109557" lon="-5.550095"><ele>2231.8</ele></trkpt>
    <trkpt lat="32.109765" lon="-5.549358"><ele>2233.8</ele></trkpt>
    <trkpt lat="32.111052" lon="-5.546956"><ele>2239.0</ele></trkpt>
    <trkpt lat="32.111324" lon="-5.545486"><ele>2239.2</ele></trkpt>
    <trkpt lat="32.111258" lon="-5.544481"><ele>2237.8</ele></trkpt>
    <trkpt lat="32.110850" lon="-5.543772"><ele>2238.2</ele></trkpt>
    <trkpt lat="32.110284" lon="-5.542202"><ele>2238.8</ele></trkpt>
    <trkpt lat="32.109655" lon="-5.540795"><ele>2248.2</ele></trkpt>
    <trkpt lat="32.108701" lon="-5.537874"><ele>2248.8</ele></trkpt>
    <trkpt lat="32.107599" lon="-5.535931"><ele>2267.2</ele></trkpt>
    <trkpt lat="32.107513" lon="-5.535651"><ele>2270.2</ele></trkpt>
    <trkpt lat="32.107508" lon="-5.535069"><ele>2275.2</ele></trkpt>
    <trkpt lat="32.107587" lon="-5.534814"><ele>2277.2</ele></trkpt>
    <trkpt lat="32.108035" lon="-5.533772"><ele>2277.2</ele></trkpt>
    <trkpt lat="32.107910" lon="-5.533141"><ele>2277.2</ele></trkpt>
    <trkpt lat="32.107381" lon="-5.531948"><ele>2276.0</ele></trkpt>
    <trkpt lat="32.106929" lon="-5.531344"><ele>2271.8</ele></trkpt>
    <trkpt lat="32.106453" lon="-5.531094"><ele>2269.5</ele></trkpt>
    <trkpt lat="32.105577" lon="-5.530914"><ele>2267.0</ele></trkpt>
    <trkpt lat="32.105179" lon="-5.530586"><ele>2266.8</ele></trkpt>
    <trkpt lat="32.104642" lon="-5.528841"><ele>2266.0</ele></trkpt>
    <trkpt lat="32.104828" lon="-5.527180"><ele>2257.8</ele></trkpt>
    <trkpt lat="32.104727" lon="-5.526616"><ele>2255.8</ele></trkpt>
    <trkpt lat="32.104362" lon="-5.526065"><ele>2255.2</ele></trkpt>
    <trkpt lat="32.102943" lon="-5.524727"><ele>2252.0</ele></trkpt>
    <trkpt lat="32.102583" lon="-5.524240"><ele>2252.0</ele></trkpt>
    <trkpt lat="32.102374" lon="-5.523826"><ele>2254.0</ele></trkpt>
    <trkpt lat="32.102316" lon="-5.520615"><ele>2259.2</ele></trkpt>
    <trkpt lat="32.102146" lon="-5.518294"><ele>2262.0</ele></trkpt>
    <trkpt lat="32.101888" lon="-5.514272"><ele>2272.2</ele></trkpt>
    <trkpt lat="32.101811" lon="-5.513679"><ele>2274.0</ele></trkpt>
    <trkpt lat="32.101515" lon="-5.512772"><ele>2274.0</ele></trkpt>
    <trkpt lat="32.100986" lon="-5.511884"><ele>2273.8</ele></trkpt>
    <trkpt lat="32.099220" lon="-5.509645"><ele>2267.8</ele></trkpt>
    <trkpt lat="32.096898" lon="-5.508095"><ele>2265.5</ele></trkpt>
    <trkpt lat="32.096098" lon="-5.506330"><ele>2262.5</ele></trkpt>
    <trkpt lat="32.095900" lon="-5.506051"><ele>2262.2</ele></trkpt>
    <trkpt lat="32.095522" lon="-5.505556"><ele>2262.2</ele></trkpt>
    <trkpt lat="32.094739" lon="-5.505105"><ele>2262.0</ele></trkpt>
    <trkpt lat="32.094254" lon="-5.504606"><ele>2263.8</ele></trkpt>
    <trkpt lat="32.093697" lon="-5.504559"><ele>2264.0</ele></trkpt>
    <trkpt lat="32.093095" lon="-5.504710"><ele>2264.0</ele></trkpt>
    <trkpt lat="32.092870" lon="-5.504609"><ele>2264.0</ele></trkpt>
    <trkpt lat="32.092231" lon="-5.503647"><ele>2263.5</ele></trkpt>
    <trkpt lat="32.091779" lon="-5.503402"><ele>2262.8</ele></trkpt>
    <trkpt lat="32.091565" lon="-5.502710"><ele>2260.5</ele></trkpt>
    <trkpt lat="32.090935" lon="-5.502260"><ele>2260.2</ele></trkpt>
    <trkpt lat="32.090719" lon="-5.501446"><ele>2261.0</ele></trkpt>
    <trkpt lat="32.088235" lon="-5.499820"><ele>2262.0</ele></trkpt>
    <trkpt lat="32.087992" lon="-5.499257"><ele>2262.0</ele></trkpt>
    <trkpt lat="32.087631" lon="-5.499046"><ele>2262.2</ele></trkpt>
    <trkpt lat="32.086568" lon="-5.498118"><ele>2263.5</ele></trkpt>
    <trkpt lat="32.083834" lon="-5.494894"><ele>2264.5</ele></trkpt>
    <trkpt lat="32.082820" lon="-5.491956"><ele>2268.8</ele></trkpt>
    <trkpt lat="32.082704" lon="-5.490832"><ele>2268.2</ele></trkpt>
    <trkpt lat="32.082900" lon="-5.489868"><ele>2268.5</ele></trkpt>
    <trkpt lat="32.082713" lon="-5.488571"><ele>2269.2</ele></trkpt>
    <trkpt lat="32.082513" lon="-5.488465"><ele>2269.8</ele></trkpt>
    <trkpt lat="32.081292" lon="-5.486973"><ele>2274.5</ele></trkpt>
    <trkpt lat="32.080889" lon="-5.486323"><ele>2274.5</ele></trkpt>
    <trkpt lat="32.080536" lon="-5.485423"><ele>2274.0</ele></trkpt>
    <trkpt lat="32.081091" lon="-5.484696"><ele>2274.0</ele></trkpt>
    <trkpt lat="32.080660" lon="-5.484534"><ele>2275.0</ele></trkpt>
    <trkpt lat="32.079883" lon="-5.484884"><ele>2274.0</ele></trkpt>
    <trkpt lat="32.079563" lon="-5.484870"><ele>2274.0</ele></trkpt>
    <trkpt lat="32.078011" lon="-5.483429"><ele>2277.0</ele></trkpt>
    <trkpt lat="32.077081" lon="-5.482760"><ele>2276.5</ele></trkpt>
    <trkpt lat="32.076659" lon="-5.481573"><ele>2277.0</ele></trkpt>
    <trkpt lat="32.075820" lon="-5.479858"><ele>2280.0</ele></trkpt>
    <trkpt lat="32.075682" lon="-5.476950"><ele>2283.0</ele></trkpt>
    <trkpt lat="32.075169" lon="-5.475317"><ele>2284.0</ele></trkpt>
    <trkpt lat="32.075163" lon="-5.474306"><ele>2284.8</ele></trkpt>
    <trkpt lat="32.074811" lon="-5.473596"><ele>2285.0</ele></trkpt>
    <trkpt lat="32.074603" lon="-5.472496"><ele>2284.0</ele></trkpt>
    <trkpt lat="32.072610" lon="-5.469539"><ele>2283.5</ele></trkpt>
    <trkpt lat="32.072311" lon="-5.469583"><ele>2282.2</ele></trkpt>
    <trkpt lat="32.071397" lon="-5.470105"><ele>2280.5</ele></trkpt>
    <trkpt lat="32.070995" lon="-5.469703"><ele>2280.8</ele></trkpt>
    <trkpt lat="32.070398" lon="-5.469697"><ele>2280.8</ele></trkpt>
    <trkpt lat="32.070203" lon="-5.469901"><ele>2280.2</ele></trkpt>
    <trkpt lat="32.069990" lon="-5.470519"><ele>2279.8</ele></trkpt>
    <trkpt lat="32.069923" lon="-5.471781"><ele>2278.8</ele></trkpt>
    <trkpt lat="32.069870" lon="-5.471876"><ele>2278.8</ele></trkpt>
    <trkpt lat="32.069594" lon="-5.472122"><ele>2280.8</ele></trkpt>
    <trkpt lat="32.069190" lon="-5.472083"><ele>2282.2</ele></trkpt>
    <trkpt lat="32.068080" lon="-5.471057"><ele>2284.2</ele></trkpt>
    <trkpt lat="32.067041" lon="-5.470927"><ele>2285.2</ele></trkpt>
    <trkpt lat="32.066637" lon="-5.471063"><ele>2285.2</ele></trkpt>
    <trkpt lat="32.066427" lon="-5.471184"><ele>2286.5</ele></trkpt>
    <trkpt lat="32.065322" lon="-5.472036"><ele>2297.0</ele></trkpt>
    <trkpt lat="32.065081" lon="-5.472150"><ele>2297.0</ele></trkpt>
    <trkpt lat="32.061722" lon="-5.472493"><ele>2294.0</ele></trkpt>
    <trkpt lat="32.060635" lon="-5.473198"><ele>2294.8</ele></trkpt>
    <trkpt lat="32.060356" lon="-5.472402"><ele>2292.2</ele></trkpt>
    <trkpt lat="32.059936" lon="-5.471896"><ele>2292.2</ele></trkpt>
    <trkpt lat="32.059700" lon="-5.471703"><ele>2292.2</ele></trkpt>
    <trkpt lat="32.059450" lon="-5.471530"><ele>2292.8</ele></trkpt>
    <trkpt lat="32.057361" lon="-5.470502"><ele>2293.2</ele></trkpt>
    <trkpt lat="32.056576" lon="-5.470485"><ele>2295.0</ele></trkpt>
    <trkpt lat="32.055664" lon="-5.470729"><ele>2295.5</ele></trkpt>
    <trkpt lat="32.055116" lon="-5.470728"><ele>2296.2</ele></trkpt>
    <trkpt lat="32.053709" lon="-5.470265"><ele>2296.5</ele></trkpt>
    <trkpt lat="32.053615" lon="-5.470592"><ele>2298.0</ele></trkpt>
    <trkpt lat="32.052695" lon="-5.471587"><ele>2307.5</ele></trkpt>
    <trkpt lat="32.052625" lon="-5.470686"><ele>2307.5</ele></trkpt>
    <trkpt lat="32.051946" lon="-5.469421"><ele>2305.0</ele></trkpt>
    <trkpt lat="32.051164" lon="-5.468624"><ele>2304.0</ele></trkpt>
    <trkpt lat="32.050464" lon="-5.468206"><ele>2302.8</ele></trkpt>
    <trkpt lat="32.049710" lon="-5.467507"><ele>2302.2</ele></trkpt>
    <trkpt lat="32.049563" lon="-5.467396"><ele>2302.8</ele></trkpt>
    <trkpt lat="32.049239" lon="-5.467855"><ele>2309.2</ele></trkpt>
    <trkpt lat="32.048684" lon="-5.468100"><ele>2316.8</ele></trkpt>
    <trkpt lat="32.048067" lon="-5.467725"><ele>2318.0</ele></trkpt>
    <trkpt lat="32.047877" lon="-5.467671"><ele>2318.2</ele></trkpt>
    <trkpt lat="32.047343" lon="-5.467057"><ele>2317.5</ele></trkpt>
    <trkpt lat="32.046918" lon="-5.467124"><ele>2317.0</ele></trkpt>
    <trkpt lat="32.045915" lon="-5.466755"><ele>2311.8</ele></trkpt>
    <trkpt lat="32.045412" lon="-5.467018"><ele>2310.5</ele></trkpt>
    <trkpt lat="32.045171" lon="-5.467238"><ele>2310.5</ele></trkpt>
    <trkpt lat="32.044868" lon="-5.467286"><ele>2310.5</ele></trkpt>
    <trkpt lat="32.043209" lon="-5.468454"><ele>2310.8</ele></trkpt>
    <trkpt lat="32.039802" lon="-5.468856"><ele>2311.0</ele></trkpt>
    <trkpt lat="32.039215" lon="-5.468769"><ele>2314.0</ele></trkpt>
    <trkpt lat="32.038748" lon="-5.468518"><ele>2314.0</ele></trkpt>
    <trkpt lat="32.037751" lon="-5.467605"><ele>2312.0</ele></trkpt>
    <trkpt lat="32.036782" lon="-5.466980"><ele>2310.8</ele></trkpt>
    <trkpt lat="32.036356" lon="-5.466792"><ele>2310.8</ele></trkpt>
    <trkpt lat="32.036115" lon="-5.466770"><ele>2311.0</ele></trkpt>
    <trkpt lat="32.035934" lon="-5.466786"><ele>2311.8</ele></trkpt>
    <trkpt lat="32.035618" lon="-5.466917"><ele>2312.2</ele></trkpt>
    <trkpt lat="32.035308" lon="-5.467278"><ele>2314.2</ele></trkpt>
    <trkpt lat="32.034644" lon="-5.468765"><ele>2320.0</ele></trkpt>
    <trkpt lat="32.033721" lon="-5.470103"><ele>2321.0</ele></trkpt>
    <trkpt lat="32.033185" lon="-5.470632"><ele>2321.5</ele></trkpt>
    <trkpt lat="32.032642" lon="-5.470874"><ele>2321.2</ele></trkpt>
    <trkpt lat="32.031309" lon="-5.470785"><ele>2317.5</ele></trkpt>
    <trkpt lat="32.030836" lon="-5.470582"><ele>2316.8</ele></trkpt>
    <trkpt lat="32.029934" lon="-5.469338"><ele>2315.0</ele></trkpt>
    <trkpt lat="32.029597" lon="-5.469131"><ele>2315.0</ele></trkpt>
    <trkpt lat="32.028076" lon="-5.469165"><ele>2315.8</ele></trkpt>
    <trkpt lat="32.026834" lon="-5.469566"><ele>2315.8</ele></trkpt>
    <trkpt lat="32.026668" lon="-5.469879"><ele>2317.0</ele></trkpt>
    <trkpt lat="32.026692" lon="-5.470694"><ele>2319.0</ele></trkpt>
    <trkpt lat="32.028838" lon="-5.472401"><ele>2326.2</ele></trkpt>
    <trkpt lat="32.029566" lon="-5.473534"><ele>2330.0</ele></trkpt>
    <trkpt lat="32.029680" lon="-5.473794"><ele>2330.0</ele></trkpt>
    <trkpt lat="32.029864" lon="-5.474617"><ele>2330.0</ele></trkpt>
    <trkpt lat="32.029903" lon="-5.476736"><ele>2327.0</ele></trkpt>
    <trkpt lat="32.029807" lon="-5.476947"><ele>2326.2</ele></trkpt>
    <trkpt lat="32.027819" lon="-5.478173"><ele>2329.0</ele></trkpt>
    <trkpt lat="32.026627" lon="-5.478152"><ele>2329.0</ele></trkpt>
    <trkpt lat="32.024240" lon="-5.477509"><ele>2326.0</ele></trkpt>
    <trkpt lat="32.023133" lon="-5.477619"><ele>2326.0</ele></trkpt>
    <trkpt lat="32.022056" lon="-5.477524"><ele>2327.8</ele></trkpt>
    <trkpt lat="32.018874" lon="-5.478617"><ele>2330.8</ele></trkpt>
    <trkpt lat="32.018123" lon="-5.479004"><ele>2331.0</ele></trkpt>
    <trkpt lat="32.015920" lon="-5.480736"><ele>2336.2</ele></trkpt>
    <trkpt lat="32.015185" lon="-5.482351"><ele>2339.5</ele></trkpt>
    <trkpt lat="32.014534" lon="-5.483247"><ele>2341.5</ele></trkpt>
    <trkpt lat="32.014467" lon="-5.483507"><ele>2341.8</ele></trkpt>
    <trkpt lat="32.014448" lon="-5.484547"><ele>2343.2</ele></trkpt>
    <trkpt lat="32.014419" lon="-5.484681"><ele>2343.2</ele></trkpt>
    <trkpt lat="32.015175" lon="-5.485370"><ele>2343.5</ele></trkpt>
    <trkpt lat="32.014842" lon="-5.485918"><ele>2343.5</ele></trkpt>
    <trkpt lat="32.014669" lon="-5.485778"><ele>2343.5</ele></trkpt>
    <trkpt lat="32.014358" lon="-5.485896"><ele>2343.5</ele></trkpt>
    <trkpt lat="32.013350" lon="-5.487214"><ele>2343.5</ele></trkpt>
    <trkpt lat="32.013745" lon="-5.488002"><ele>2345.8</ele></trkpt>
    <trkpt lat="32.013787" lon="-5.488499"><ele>2348.0</ele></trkpt>
    <trkpt lat="32.013516" lon="-5.488813"><ele>2349.0</ele></trkpt>
    <trkpt lat="32.013272" lon="-5.488912"><ele>2350.0</ele></trkpt>
    <trkpt lat="32.012413" lon="-5.489396"><ele>2350.0</ele></trkpt>
    <trkpt lat="32.012351" lon="-5.489306"><ele>2350.0</ele></trkpt>
    <trkpt lat="32.012413" lon="-5.489396"><ele>2350.0</ele></trkpt>
    <trkpt lat="32.012107" lon="-5.489764"><ele>2348.8</ele></trkpt>
    <trkpt lat="32.011822" lon="-5.489253"><ele>2347.8</ele></trkpt>
    <trkpt lat="32.011296" lon="-5.488889"><ele>2345.8</ele></trkpt>
    <trkpt lat="32.010564" lon="-5.487940"><ele>2339.5</ele></trkpt>
    <trkpt lat="32.010514" lon="-5.487891"><ele>2339.2</ele></trkpt>
    <trkpt lat="32.010055" lon="-5.488132"><ele>2339.0</ele></trkpt>
    <trkpt lat="32.009146" lon="-5.489129"><ele>2339.0</ele></trkpt>
    <trkpt lat="32.008375" lon="-5.489520"><ele>2338.2</ele></trkpt>
    <trkpt lat="32.007905" lon="-5.487794"><ele>2335.5</ele></trkpt>
    <trkpt lat="32.007482" lon="-5.487204"><ele>2335.5</ele></trkpt>
    <trkpt lat="32.007305" lon="-5.486795"><ele>2336.0</ele></trkpt>
    <trkpt lat="32.007171" lon="-5.486496"><ele>2337.8</ele></trkpt>
    <trkpt lat="32.006262" lon="-5.486409"><ele>2341.2</ele></trkpt>
    <trkpt lat="32.004934" lon="-5.486879"><ele>2349.2</ele></trkpt>
    <trkpt lat="32.004173" lon="-5.487987"><ele>2350.5</ele></trkpt>
    <trkpt lat="32.002924" lon="-5.488634"><ele>2350.0</ele></trkpt>
    <trkpt lat="32.001766" lon="-5.489842"><ele>2350.2</ele></trkpt>
    <trkpt lat="32.001142" lon="-5.489954"><ele>2350.8</ele></trkpt>
    <trkpt lat="32.000872" lon="-5.489749"><ele>2352.0</ele></trkpt>
    <trkpt lat="32.000736" lon="-5.489444"><ele>2352.8</ele></trkpt>
    <trkpt lat="32.000374" lon="-5.488102"><ele>2360.5</ele></trkpt>
    <trkpt lat="31.999763" lon="-5.486409"><ele>2361.2</ele></trkpt>
    <trkpt lat="31.999536" lon="-5.485230"><ele>2362.8</ele></trkpt>
    <trkpt lat="31.999176" lon="-5.484589"><ele>2367.0</ele></trkpt>
    <trkpt lat="31.998552" lon="-5.483495"><ele>2367.0</ele></trkpt>
    <trkpt lat="31.996886" lon="-5.481810"><ele>2363.5</ele></trkpt>
    <trkpt lat="31.994918" lon="-5.481129"><ele>2363.8</ele></trkpt>
    <trkpt lat="31.994129" lon="-5.481093"><ele>2365.2</ele></trkpt>
    <trkpt lat="31.993199" lon="-5.481440"><ele>2367.5</ele></trkpt>
    <trkpt lat="31.992398" lon="-5.482015"><ele>2367.5</ele></trkpt>
    <trkpt lat="31.991777" lon="-5.483106"><ele>2365.8</ele></trkpt>
    <trkpt lat="31.991237" lon="-5.484654"><ele>2362.8</ele></trkpt>
    <trkpt lat="31.990581" lon="-5.485073"><ele>2362.8</ele></trkpt>
    <trkpt lat="31.989887" lon="-5.485433"><ele>2363.8</ele></trkpt>
    <trkpt lat="31.989357" lon="-5.485619"><ele>2366.2</ele></trkpt>
    <trkpt lat="31.987417" lon="-5.485609"><ele>2370.5</ele></trkpt>
    <trkpt lat="31.984014" lon="-5.486047"><ele>2374.8</ele></trkpt>
    <trkpt lat="31.983513" lon="-5.486206"><ele>2374.8</ele></trkpt>
    <trkpt lat="31.983172" lon="-5.486483"><ele>2376.0</ele></trkpt>
    <trkpt lat="31.982676" lon="-5.487315"><ele>2374.2</ele></trkpt>
    <trkpt lat="31.982113" lon="-5.488906"><ele>2373.8</ele></trkpt>
    <trkpt lat="31.981987" lon="-5.491125"><ele>2373.8</ele></trkpt>
    <trkpt lat="31.981654" lon="-5.492552"><ele>2376.8</ele></trkpt>
    <trkpt lat="31.981101" lon="-5.493737"><ele>2377.0</ele></trkpt>
    <trkpt lat="31.980604" lon="-5.493948"><ele>2378.0</ele></trkpt>
    <trkpt lat="31.979568" lon="-5.493810"><ele>2378.2</ele></trkpt>
    <trkpt lat="31.974947" lon="-5.493080"><ele>2381.2</ele></trkpt>
    <trkpt lat="31.971178" lon="-5.491477"><ele>2387.8</ele></trkpt>
    <trkpt lat="31.970753" lon="-5.491071"><ele>2391.8</ele></trkpt>
    <trkpt lat="31.970378" lon="-5.490450"><ele>2395.0</ele></trkpt>
    <trkpt lat="31.970254" lon="-5.490129"><ele>2395.0</ele></trkpt>
    <trkpt lat="31.970112" lon="-5.488977"><ele>2395.0</ele></trkpt>
    <trkpt lat="31.969532" lon="-5.487340"><ele>2393.5</ele></trkpt>
    <trkpt lat="31.969507" lon="-5.486113"><ele>2393.5</ele></trkpt>
    <trkpt lat="31.969289" lon="-5.485154"><ele>2395.2</ele></trkpt>
    <trkpt lat="31.968986" lon="-5.484695"><ele>2395.2</ele></trkpt>
    <trkpt lat="31.967495" lon="-5.483312"><ele>2393.2</ele></trkpt>
    <trkpt lat="31.966336" lon="-5.481813"><ele>2393.5</ele></trkpt>
    <trkpt lat="31.966157" lon="-5.481679"><ele>2393.5</ele></trkpt>
    <trkpt lat="31.965992" lon="-5.481600"><ele>2394.2</ele></trkpt>
    <trkpt lat="31.964537" lon="-5.481244"><ele>2399.0</ele></trkpt>
    <trkpt lat="31.963409" lon="-5.480177"><ele>2401.8</ele></trkpt>
    <trkpt lat="31.962826" lon="-5.479830"><ele>2403.8</ele></trkpt>
    <trkpt lat="31.962647" lon="-5.479813"><ele>2404.5</ele></trkpt>
    <trkpt lat="31.961142" lon="-5.479720"><ele>2404.8</ele></trkpt>
    <trkpt lat="31.959829" lon="-5.479907"><ele>2405.5</ele></trkpt>
    <trkpt lat="31.958310" lon="-5.478785"><ele>2408.5</ele></trkpt>
    <trkpt lat="31.955502" lon="-5.478507"><ele>2407.5</ele></trkpt>
    <trkpt lat="31.954765" lon="-5.477308"><ele>2407.0</ele></trkpt>
    <trkpt lat="31.953947" lon="-5.475963"><ele>2417.2</ele></trkpt>
    <trkpt lat="31.953006" lon="-5.475036"><ele>2425.5</ele></trkpt>
    <trkpt lat="31.952731" lon="-5.474890"><ele>2429.0</ele></trkpt>
    <trkpt lat="31.952336" lon="-5.474918"><ele>2431.0</ele></trkpt>
    <trkpt lat="31.950986" lon="-5.475500"><ele>2438.5</ele></trkpt>
    <trkpt lat="31.950119" lon="-5.476188"><ele>2446.8</ele></trkpt>
    <trkpt lat="31.950042" lon="-5.476154"><ele>2448.2</ele></trkpt>
    <trkpt lat="31.949591" lon="-5.475323"><ele>2448.8</ele></trkpt>
    <trkpt lat="31.949089" lon="-5.474792"><ele>2446.5</ele></trkpt>
    <trkpt lat="31.948817" lon="-5.474646"><ele>2443.5</ele></trkpt>
    <trkpt lat="31.948443" lon="-5.474684"><ele>2441.8</ele></trkpt>
    <trkpt lat="31.946067" lon="-5.477588"><ele>2441.2</ele></trkpt>
    <trkpt lat="31.945792" lon="-5.477868"><ele>2441.2</ele></trkpt>
    <trkpt lat="31.945600" lon="-5.477989"><ele>2443.0</ele></trkpt>
    <trkpt lat="31.945164" lon="-5.478057"><ele>2443.0</ele></trkpt>
    <trkpt lat="31.943633" lon="-5.477851"><ele>2443.8</ele></trkpt>
    <trkpt lat="31.941265" lon="-5.478360"><ele>2448.8</ele></trkpt>
    <trkpt lat="31.940892" lon="-5.478791"><ele>2449.5</ele></trkpt>
    <trkpt lat="31.940725" lon="-5.479152"><ele>2449.8</ele></trkpt>
    <trkpt lat="31.939898" lon="-5.480695"><ele>2454.8</ele></trkpt>
    <trkpt lat="31.939499" lon="-5.481001"><ele>2456.5</ele></trkpt>
    <trkpt lat="31.938541" lon="-5.480914"><ele>2459.0</ele></trkpt>
    <trkpt lat="31.935668" lon="-5.481065"><ele>2468.5</ele></trkpt>
    <trkpt lat="31.934735" lon="-5.480928"><ele>2470.5</ele></trkpt>
    <trkpt lat="31.932568" lon="-5.479782"><ele>2472.2</ele></trkpt>
    <trkpt lat="31.931605" lon="-5.478943"><ele>2473.8</ele></trkpt>
    <trkpt lat="31.928933" lon="-5.478130"><ele>2484.8</ele></trkpt>
    <trkpt lat="31.928753" lon="-5.478069"><ele>2485.0</ele></trkpt>
    <trkpt lat="31.928063" lon="-5.477010"><ele>2489.2</ele></trkpt>
    <trkpt lat="31.927747" lon="-5.476805"><ele>2489.5</ele></trkpt>
    <trkpt lat="31.927413" lon="-5.476851"><ele>2490.2</ele></trkpt>
    <trkpt lat="31.926584" lon="-5.477231"><ele>2499.0</ele></trkpt>
    <trkpt lat="31.926272" lon="-5.477678"><ele>2503.5</ele></trkpt>
    <trkpt lat="31.926107" lon="-5.477912"><ele>2504.0</ele></trkpt>
    <trkpt lat="31.925549" lon="-5.478289"><ele>2505.2</ele></trkpt>
    <trkpt lat="31.924865" lon="-5.478341"><ele>2505.5</ele></trkpt>
    <trkpt lat="31.924469" lon="-5.477803"><ele>2507.8</ele></trkpt>
    <trkpt lat="31.924474" lon="-5.476844"><ele>2508.5</ele></trkpt>
    <trkpt lat="31.924455" lon="-5.476639"><ele>2508.5</ele></trkpt>
    <trkpt lat="31.924348" lon="-5.476391"><ele>2510.8</ele></trkpt>
    <trkpt lat="31.923989" lon="-5.476159"><ele>2512.8</ele></trkpt>
    <trkpt lat="31.923437" lon="-5.476052"><ele>2516.2</ele></trkpt>
    <trkpt lat="31.922903" lon="-5.475341"><ele>2520.8</ele></trkpt>
    <trkpt lat="31.922500" lon="-5.475164"><ele>2521.5</ele></trkpt>
    <trkpt lat="31.922060" lon="-5.475382"><ele>2523.5</ele></trkpt>
    <trkpt lat="31.921262" lon="-5.476444"><ele>2527.5</ele></trkpt>
    <trkpt lat="31.920544" lon="-5.476224"><ele>2535.2</ele></trkpt>
    <trkpt lat="31.920315" lon="-5.476236"><ele>2535.2</ele></trkpt>
    <trkpt lat="31.919341" lon="-5.476991"><ele>2536.5</ele></trkpt>
    <trkpt lat="31.918348" lon="-5.477263"><ele>2537.2</ele></trkpt>
    <trkpt lat="31.918068" lon="-5.477498"><ele>2538.8</ele></trkpt>
    <trkpt lat="31.917606" lon="-5.478029"><ele>2543.2</ele></trkpt>
    <trkpt lat="31.916652" lon="-5.478213"><ele>2547.0</ele></trkpt>
    <trkpt lat="31.916288" lon="-5.478473"><ele>2548.5</ele></trkpt>
    <trkpt lat="31.915929" lon="-5.478895"><ele>2550.5</ele></trkpt>
    <trkpt lat="31.915476" lon="-5.479601"><ele>2561.5</ele></trkpt>
    <trkpt lat="31.915355" lon="-5.479687"><ele>2562.0</ele></trkpt>
    <trkpt lat="31.914116" lon="-5.479820"><ele>2562.2</ele></trkpt>
    <trkpt lat="31.913825" lon="-5.480097"><ele>2563.5</ele></trkpt>
    <trkpt lat="31.913539" lon="-5.480563"><ele>2571.0</ele></trkpt>
    <trkpt lat="31.913453" lon="-5.480657"><ele>2571.0</ele></trkpt>
    <trkpt lat="31.913276" lon="-5.480727"><ele>2571.5</ele></trkpt>
    <trkpt lat="31.912974" lon="-5.480582"><ele>2571.2</ele></trkpt>
    <trkpt lat="31.912482" lon="-5.479988"><ele>2567.8</ele></trkpt>
    <trkpt lat="31.912081" lon="-5.479858"><ele>2568.0</ele></trkpt>
    <trkpt lat="31.911171" lon="-5.479587"><ele>2572.2</ele></trkpt>
    <trkpt lat="31.910118" lon="-5.478911"><ele>2578.2</ele></trkpt>
    <trkpt lat="31.909314" lon="-5.478676"><ele>2580.5</ele></trkpt>
    <trkpt lat="31.908073" lon="-5.478004"><ele>2583.5</ele></trkpt>
    <trkpt lat="31.905421" lon="-5.477791"><ele>2588.5</ele></trkpt>
    <trkpt lat="31.904207" lon="-5.477398"><ele>2590.0</ele></trkpt>
    <trkpt lat="31.902945" lon="-5.477317"><ele>2596.2</ele></trkpt>
    <trkpt lat="31.901491" lon="-5.476654"><ele>2598.2</ele></trkpt>
    <trkpt lat="31.899851" lon="-5.476346"><ele>2601.5</ele></trkpt>
    <trkpt lat="31.897562" lon="-5.475621"><ele>2607.8</ele></trkpt>
    <trkpt lat="31.895936" lon="-5.476074"><ele>2611.5</ele></trkpt>
    <trkpt lat="31.894252" lon="-5.475613"><ele>2616.8</ele></trkpt>
    <trkpt lat="31.893806" lon="-5.475786"><ele>2618.0</ele></trkpt>
    <trkpt lat="31.890911" lon="-5.477444"><ele>2626.2</ele></trkpt>
    <trkpt lat="31.889756" lon="-5.478302"><ele>2632.8</ele></trkpt>
    <trkpt lat="31.889419" lon="-5.478429"><ele>2633.5</ele></trkpt>
    <trkpt lat="31.885805" lon="-5.478218"><ele>2633.5</ele></trkpt>
    <trkpt lat="31.885282" lon="-5.477974"><ele>2634.0</ele></trkpt>
    <trkpt lat="31.883368" lon="-5.476443"><ele>2642.5</ele></trkpt>
    <trkpt lat="31.883054" lon="-5.476245"><ele>2643.8</ele></trkpt>
    <trkpt lat="31.882607" lon="-5.476080"><ele>2643.8</ele></trkpt>
    <trkpt lat="31.877947" lon="-5.476368"><ele>2638.8</ele></trkpt>
    <trkpt lat="31.877614" lon="-5.475999"><ele>2638.8</ele></trkpt>
    <trkpt lat="31.877493" lon="-5.475706"><ele>2641.5</ele></trkpt>
    <trkpt lat="31.876893" lon="-5.473966"><ele>2656.2</ele></trkpt>
    <trkpt lat="31.876801" lon="-5.473756"><ele>2658.2</ele></trkpt>
    <trkpt lat="31.876607" lon="-5.473495"><ele>2660.8</ele></trkpt>
    <trkpt lat="31.876409" lon="-5.473378"><ele>2660.8</ele></trkpt>
    <trkpt lat="31.876226" lon="-5.473483"><ele>2660.8</ele></trkpt>
    <trkpt lat="31.875938" lon="-5.474184"><ele>2658.0</ele></trkpt>
    <trkpt lat="31.875539" lon="-5.474614"><ele>2658.0</ele></trkpt>
    <trkpt lat="31.875281" lon="-5.474720"><ele>2658.0</ele></trkpt>
    <trkpt lat="31.873800" lon="-5.475070"><ele>2666.8</ele></trkpt>
    <trkpt lat="31.872454" lon="-5.475782"><ele>2666.8</ele></trkpt>
    <trkpt lat="31.871252" lon="-5.476207"><ele>2645.2</ele></trkpt>
    <trkpt lat="31.870708" lon="-5.476434"><ele>2633.0</ele></trkpt>
    <trkpt lat="31.870742" lon="-5.476249"><ele>2632.2</ele></trkpt>
    <trkpt lat="31.871334" lon="-5.475849"><ele>2644.2</ele></trkpt>
    <trkpt lat="31.871407" lon="-5.475574"><ele>2644.2</ele></trkpt>
    <trkpt lat="31.871363" lon="-5.475448"><ele>2644.2</ele></trkpt>
    <trkpt lat="31.870375" lon="-5.473710"><ele>2623.5</ele></trkpt>
    <trkpt lat="31.870004" lon="-5.472313"><ele>2617.8</ele></trkpt>
    <trkpt lat="31.869516" lon="-5.471667"><ele>2610.0</ele></trkpt>
    <trkpt lat="31.869008" lon="-5.470670"><ele>2607.2</ele></trkpt>
    <trkpt lat="31.868865" lon="-5.470663"><ele>2607.2</ele></trkpt>
    <trkpt lat="31.868496" lon="-5.470797"><ele>2594.8</ele></trkpt>
    <trkpt lat="31.868219" lon="-5.470759"><ele>2588.8</ele></trkpt>
    <trkpt lat="31.868076" lon="-5.470688"><ele>2588.5</ele></trkpt>
    <trkpt lat="31.867088" lon="-5.469547"><ele>2596.8</ele></trkpt>
    <trkpt lat="31.866929" lon="-5.469650"><ele>2596.8</ele></trkpt>
    <trkpt lat="31.866535" lon="-5.470395"><ele>2570.2</ele></trkpt>
    <trkpt lat="31.866276" lon="-5.470676"><ele>2564.5</ele></trkpt>
    <trkpt lat="31.865334" lon="-5.471051"><ele>2560.8</ele></trkpt>
    <trkpt lat="31.864592" lon="-5.470919"><ele>2559.2</ele></trkpt>
    <trkpt lat="31.863172" lon="-5.470089"><ele>2556.5</ele></trkpt>
    <trkpt lat="31.862232" lon="-5.470473"><ele>2539.5</ele></trkpt>
    <trkpt lat="31.862009" lon="-5.470463"><ele>2537.2</ele></trkpt>
    <trkpt lat="31.860844" lon="-5.469435"><ele>2534.0</ele></trkpt>
    <trkpt lat="31.860618" lon="-5.469343"><ele>2532.8</ele></trkpt>
    <trkpt lat="31.858804" lon="-5.469081"><ele>2520.0</ele></trkpt>
    <trkpt lat="31.857984" lon="-5.468333"><ele>2511.5</ele></trkpt>
    <trkpt lat="31.857850" lon="-5.468123"><ele>2510.0</ele></trkpt>
    <trkpt lat="31.857155" lon="-5.466506"><ele>2488.5</ele></trkpt>
    <trkpt lat="31.856845" lon="-5.465701"><ele>2481.0</ele></trkpt>
    <trkpt lat="31.856257" lon="-5.464694"><ele>2464.2</ele></trkpt>
    <trkpt lat="31.856196" lon="-5.464534"><ele>2461.2</ele></trkpt>
    <trkpt lat="31.856158" lon="-5.464186"><ele>2459.2</ele></trkpt>
    <trkpt lat="31.856501" lon="-5.463834"><ele>2457.2</ele></trkpt>
    <trkpt lat="31.857460" lon="-5.463689"><ele>2455.5</ele></trkpt>
    <trkpt lat="31.858803" lon="-5.464404"><ele>2456.5</ele></trkpt>
    <trkpt lat="31.859189" lon="-5.464320"><ele>2455.2</ele></trkpt>
    <trkpt lat="31.859239" lon="-5.464213"><ele>2453.8</ele></trkpt>
    <trkpt lat="31.859306" lon="-5.463098"><ele>2433.2</ele></trkpt>
    <trkpt lat="31.859614" lon="-5.461734"><ele>2431.8</ele></trkpt>
    <trkpt lat="31.859593" lon="-5.461616"><ele>2430.5</ele></trkpt>
    <trkpt lat="31.859193" lon="-5.460139"><ele>2409.8</ele></trkpt>
    <trkpt lat="31.858453" lon="-5.459009"><ele>2388.5</ele></trkpt>
    <trkpt lat="31.858431" lon="-5.458802"><ele>2388.5</ele></trkpt>
    <trkpt lat="31.859282" lon="-5.458014"><ele>2389.2</ele></trkpt>
    <trkpt lat="31.859945" lon="-5.456793"><ele>2377.0</ele></trkpt>
    <trkpt lat="31.860336" lon="-5.456411"><ele>2372.0</ele></trkpt>
    <trkpt lat="31.861725" lon="-5.455905"><ele>2361.8</ele></trkpt>
    <trkpt lat="31.862229" lon="-5.455873"><ele>2358.8</ele></trkpt>
    <trkpt lat="31.862968" lon="-5.455822"><ele>2357.5</ele></trkpt>
    <trkpt lat="31.863123" lon="-5.455656"><ele>2355.8</ele></trkpt>
    <trkpt lat="31.863137" lon="-5.455372"><ele>2352.2</ele></trkpt>
    <trkpt lat="31.862997" lon="-5.455177"><ele>2347.5</ele></trkpt>
    <trkpt lat="31.862887" lon="-5.455106"><ele>2344.8</ele></trkpt>
    <trkpt lat="31.861847" lon="-5.454835"><ele>2328.5</ele></trkpt>
    <trkpt lat="31.861392" lon="-5.454675"><ele>2324.0</ele></trkpt>
    <trkpt lat="31.861082" lon="-5.454516"><ele>2320.0</ele></trkpt>
    <trkpt lat="31.859981" lon="-5.453827"><ele>2297.5</ele></trkpt>
    <trkpt lat="31.859853" lon="-5.453746"><ele>2295.0</ele></trkpt>
    <trkpt lat="31.859264" lon="-5.453540"><ele>2287.0</ele></trkpt>
    <trkpt lat="31.858994" lon="-5.453512"><ele>2283.8</ele></trkpt>
    <trkpt lat="31.856602" lon="-5.453355"><ele>2253.8</ele></trkpt>
    <trkpt lat="31.856005" lon="-5.453365"><ele>2245.0</ele></trkpt>
    <trkpt lat="31.855543" lon="-5.453448"><ele>2238.5</ele></trkpt>
    <trkpt lat="31.853903" lon="-5.453955"><ele>2213.2</ele></trkpt>
    <trkpt lat="31.853671" lon="-5.453947"><ele>2209.0</ele></trkpt>
    <trkpt lat="31.853515" lon="-5.453736"><ele>2208.2</ele></trkpt>
    <trkpt lat="31.853524" lon="-5.453590"><ele>2208.5</ele></trkpt>
    <trkpt lat="31.853564" lon="-5.453497"><ele>2209.8</ele></trkpt>
    <trkpt lat="31.854258" lon="-5.452928"><ele>2221.0</ele></trkpt>
    <trkpt lat="31.854387" lon="-5.452779"><ele>2221.0</ele></trkpt>
    <trkpt lat="31.854425" lon="-5.452632"><ele>2221.0</ele></trkpt>
    <trkpt lat="31.854413" lon="-5.452482"><ele>2219.5</ele></trkpt>
    <trkpt lat="31.854277" lon="-5.452299"><ele>2215.5</ele></trkpt>
    <trkpt lat="31.854106" lon="-5.452302"><ele>2212.8</ele></trkpt>
    <trkpt lat="31.853734" lon="-5.452421"><ele>2207.2</ele></trkpt>
    <trkpt lat="31.852532" lon="-5.452783"><ele>2189.8</ele></trkpt>
    <trkpt lat="31.852322" lon="-5.452891"><ele>2187.0</ele></trkpt>
    <trkpt lat="31.852143" lon="-5.453048"><ele>2184.8</ele></trkpt>
    <trkpt lat="31.851062" lon="-5.454197"><ele>2168.8</ele></trkpt>
    <trkpt lat="31.850913" lon="-5.454339"><ele>2167.8</ele></trkpt>
    <trkpt lat="31.849628" lon="-5.455180"><ele>2162.2</ele></trkpt>
    <trkpt lat="31.848758" lon="-5.455443"><ele>2157.8</ele></trkpt>
    <trkpt lat="31.847953" lon="-5.456034"><ele>2152.2</ele></trkpt>
    <trkpt lat="31.846467" lon="-5.456349"><ele>2143.8</ele></trkpt>
    <trkpt lat="31.845976" lon="-5.456591"><ele>2140.2</ele></trkpt>
    <trkpt lat="31.844495" lon="-5.458810"><ele>2132.5</ele></trkpt>
    <trkpt lat="31.843594" lon="-5.459525"><ele>2129.0</ele></trkpt>
    <trkpt lat="31.841974" lon="-5.460736"><ele>2119.8</ele></trkpt>
    <trkpt lat="31.840448" lon="-5.461616"><ele>2109.5</ele></trkpt>
    <trkpt lat="31.839753" lon="-5.462115"><ele>2108.0</ele></trkpt>
    <trkpt lat="31.839332" lon="-5.462788"><ele>2104.5</ele></trkpt>
    <trkpt lat="31.838269" lon="-5.463758"><ele>2098.2</ele></trkpt>
    <trkpt lat="31.836841" lon="-5.465663"><ele>2092.2</ele></trkpt>
    <trkpt lat="31.836047" lon="-5.466913"><ele>2085.2</ele></trkpt>
    <trkpt lat="31.834070" lon="-5.468854"><ele>2075.8</ele></trkpt>
    <trkpt lat="31.832028" lon="-5.469736"><ele>2066.8</ele></trkpt>
    <trkpt lat="31.831848" lon="-5.469805"><ele>2066.0</ele></trkpt>
    <trkpt lat="31.830617" lon="-5.470137"><ele>2063.5</ele></trkpt>
    <trkpt lat="31.829967" lon="-5.470458"><ele>2062.2</ele></trkpt>
    <trkpt lat="31.829719" lon="-5.470714"><ele>2062.2</ele></trkpt>
    <trkpt lat="31.828637" lon="-5.469982"><ele>2070.5</ele></trkpt>
    <trkpt lat="31.827678" lon="-5.469783"><ele>2070.8</ele></trkpt>
    <trkpt lat="31.827567" lon="-5.469756"><ele>2069.2</ele></trkpt>
    <trkpt lat="31.827588" lon="-5.469274"><ele>2068.5</ele></trkpt>
    <trkpt lat="31.826939" lon="-5.469186"><ele>2067.0</ele></trkpt>
    <trkpt lat="31.826662" lon="-5.470141"><ele>2060.2</ele></trkpt>
    <trkpt lat="31.826455" lon="-5.470517"><ele>2059.2</ele></trkpt>
    <trkpt lat="31.825492" lon="-5.470224"><ele>2060.0</ele></trkpt>
    <trkpt lat="31.825271" lon="-5.470266"><ele>2060.0</ele></trkpt>
    <trkpt lat="31.824354" lon="-5.470988"><ele>2059.0</ele></trkpt>
    <trkpt lat="31.822989" lon="-5.471637"><ele>2052.8</ele></trkpt>
    <trkpt lat="31.822023" lon="-5.471621"><ele>2052.0</ele></trkpt>
    <trkpt lat="31.821836" lon="-5.471661"><ele>2052.0</ele></trkpt>
    <trkpt lat="31.820358" lon="-5.472119"><ele>2047.5</ele></trkpt>
    <trkpt lat="31.819843" lon="-5.472445"><ele>2042.8</ele></trkpt>
    <trkpt lat="31.819189" lon="-5.473259"><ele>2034.8</ele></trkpt>
    <trkpt lat="31.818086" lon="-5.473638"><ele>2033.2</ele></trkpt>
    <trkpt lat="31.816822" lon="-5.473507"><ele>2031.8</ele></trkpt>
    <trkpt lat="31.816231" lon="-5.473643"><ele>2028.5</ele></trkpt>
    <trkpt lat="31.816002" lon="-5.473617"><ele>2028.0</ele></trkpt>
    <trkpt lat="31.815632" lon="-5.473501"><ele>2027.8</ele></trkpt>
    <trkpt lat="31.814311" lon="-5.472638"><ele>2027.2</ele></trkpt>
    <trkpt lat="31.812478" lon="-5.471084"><ele>2025.5</ele></trkpt>
    <trkpt lat="31.811869" lon="-5.470891"><ele>2025.8</ele></trkpt>
    <trkpt lat="31.811238" lon="-5.470392"><ele>2029.0</ele></trkpt>
    <trkpt lat="31.810416" lon="-5.470022"><ele>2029.2</ele></trkpt>
    <trkpt lat="31.809045" lon="-5.469940"><ele>2029.2</ele></trkpt>
    <trkpt lat="31.808851" lon="-5.469973"><ele>2027.2</ele></trkpt>
    <trkpt lat="31.807558" lon="-5.470821"><ele>2012.0</ele></trkpt>
    <trkpt lat="31.807156" lon="-5.470819"><ele>2010.0</ele></trkpt>
    <trkpt lat="31.803457" lon="-5.467801"><ele>2004.5</ele></trkpt>
    <trkpt lat="31.802310" lon="-5.467210"><ele>1999.8</ele></trkpt>
    <trkpt lat="31.799325" lon="-5.465188"><ele>1995.2</ele></trkpt>
    <trkpt lat="31.798569" lon="-5.464838"><ele>1995.0</ele></trkpt>
    <trkpt lat="31.795538" lon="-5.464476"><ele>1992.8</ele></trkpt>
    <trkpt lat="31.793985" lon="-5.464075"><ele>1988.5</ele></trkpt>
    <trkpt lat="31.791109" lon="-5.462938"><ele>1986.8</ele></trkpt>
    <trkpt lat="31.790424" lon="-5.462918"><ele>1985.0</ele></trkpt>
    <trkpt lat="31.790388" lon="-5.463074"><ele>1982.0</ele></trkpt>
    <trkpt lat="31.790718" lon="-5.463344"><ele>1979.8</ele></trkpt>
    <trkpt lat="31.790640" lon="-5.463791"><ele>1979.8</ele></trkpt>
    <trkpt lat="31.790532" lon="-5.463837"><ele>1978.5</ele></trkpt>
    <trkpt lat="31.789114" lon="-5.463300"><ele>1975.0</ele></trkpt>
    <trkpt lat="31.788325" lon="-5.463193"><ele>1974.8</ele></trkpt>
    <trkpt lat="31.787752" lon="-5.462860"><ele>1973.8</ele></trkpt>
    <trkpt lat="31.786515" lon="-5.462485"><ele>1969.8</ele></trkpt>
    <trkpt lat="31.786328" lon="-5.462367"><ele>1969.5</ele></trkpt>
    <trkpt lat="31.786275" lon="-5.462479"><ele>1969.5</ele></trkpt>
    <trkpt lat="31.785352" lon="-5.462083"><ele>1969.5</ele></trkpt>
    <trkpt lat="31.784650" lon="-5.461600"><ele>1969.8</ele></trkpt>
    <trkpt lat="31.784495" lon="-5.462142"><ele>1974.2</ele></trkpt>
    <trkpt lat="31.783124" lon="-5.461452"><ele>1975.2</ele></trkpt>
    <trkpt lat="31.782675" lon="-5.461470"><ele>1975.2</ele></trkpt>
    <trkpt lat="31.782419" lon="-5.461686"><ele>1976.2</ele></trkpt>
    <trkpt lat="31.781981" lon="-5.462893"><ele>1979.2</ele></trkpt>
    <trkpt lat="31.781636" lon="-5.461822"><ele>1980.0</ele></trkpt>
    <trkpt lat="31.781271" lon="-5.461735"><ele>1980.2</ele></trkpt>
    <trkpt lat="31.781303" lon="-5.461328"><ele>1980.5</ele></trkpt>
    <trkpt lat="31.781216" lon="-5.461204"><ele>1980.8</ele></trkpt>
    <trkpt lat="31.781188" lon="-5.461177"><ele>1980.8</ele></trkpt>
    <trkpt lat="31.779926" lon="-5.460409"><ele>1979.2</ele></trkpt>
    <trkpt lat="31.778847" lon="-5.460897"><ele>1977.5</ele></trkpt>
    <trkpt lat="31.778891" lon="-5.459905"><ele>1975.0</ele></trkpt>
    <trkpt lat="31.778831" lon="-5.459738"><ele>1975.0</ele></trkpt>
    <trkpt lat="31.778388" lon="-5.459323"><ele>1978.8</ele></trkpt>
    <trkpt lat="31.777846" lon="-5.459945"><ele>1982.8</ele></trkpt>
    <trkpt lat="31.777657" lon="-5.460194"><ele>1983.0</ele></trkpt>
    <trkpt lat="31.776771" lon="-5.459399"><ele>1983.0</ele></trkpt>
    <trkpt lat="31.775885" lon="-5.460517"><ele>1983.0</ele></trkpt>
    <trkpt lat="31.773851" lon="-5.458265"><ele>1983.0</ele></trkpt>
    <trkpt lat="31.766541" lon="-5.466511"><ele>1986.2</ele></trkpt>
    <trkpt lat="31.760435" lon="-5.472653"><ele>1987.5</ele></trkpt>
    <trkpt lat="31.759986" lon="-5.473151"><ele>1987.5</ele></trkpt>
    <trkpt lat="31.756960" lon="-5.476882"><ele>1987.5</ele></trkpt>
    <trkpt lat="31.755476" lon="-5.480563"><ele>1987.5</ele></trkpt>
    <trkpt lat="31.754998" lon="-5.481263"><ele>1986.5</ele></trkpt>
    <trkpt lat="31.754602" lon="-5.481590"><ele>1985.8</ele></trkpt>
    <trkpt lat="31.753466" lon="-5.482078"><ele>1984.8</ele></trkpt>
    <trkpt lat="31.752413" lon="-5.482226"><ele>1975.2</ele></trkpt>
    <trkpt lat="31.751322" lon="-5.482150"><ele>1964.0</ele></trkpt>
    <trkpt lat="31.749183" lon="-5.481287"><ele>1950.0</ele></trkpt>
    <trkpt lat="31.748990" lon="-5.481276"><ele>1946.8</ele></trkpt>
    <trkpt lat="31.748991" lon="-5.481458"><ele>1941.2</ele></trkpt>
    <trkpt lat="31.749345" lon="-5.481812"><ele>1938.2</ele></trkpt>
    <trkpt lat="31.749834" lon="-5.482610"><ele>1930.0</ele></trkpt>
    <trkpt lat="31.750438" lon="-5.483856"><ele>1921.2</ele></trkpt>
    <trkpt lat="31.750494" lon="-5.483989"><ele>1921.0</ele></trkpt>
    <trkpt lat="31.750516" lon="-5.484446"><ele>1917.8</ele></trkpt>
    <trkpt lat="31.750227" lon="-5.485001"><ele>1912.0</ele></trkpt>
    <trkpt lat="31.749877" lon="-5.485260"><ele>1910.0</ele></trkpt>
    <trkpt lat="31.749125" lon="-5.485500"><ele>1905.2</ele></trkpt>
    <trkpt lat="31.746544" lon="-5.487193"><ele>1891.8</ele></trkpt>
    <trkpt lat="31.745595" lon="-5.487592"><ele>1887.2</ele></trkpt>
    <trkpt lat="31.743186" lon="-5.489543"><ele>1873.0</ele></trkpt>
    <trkpt lat="31.742468" lon="-5.489913"><ele>1868.2</ele></trkpt>
    <trkpt lat="31.742159" lon="-5.490085"><ele>1867.5</ele></trkpt>
    <trkpt lat="31.739192" lon="-5.492708"><ele>1859.2</ele></trkpt>
    <trkpt lat="31.737235" lon="-5.494937"><ele>1850.0</ele></trkpt>
    <trkpt lat="31.736957" lon="-5.495168"><ele>1849.8</ele></trkpt>
    <trkpt lat="31.737072" lon="-5.495597"><ele>1849.5</ele></trkpt>
    <trkpt lat="31.736928" lon="-5.496336"><ele>1849.0</ele></trkpt>
    <trkpt lat="31.737115" lon="-5.496460"><ele>1849.5</ele></trkpt>
    <trkpt lat="31.737518" lon="-5.496423"><ele>1851.0</ele></trkpt>
    <trkpt lat="31.737591" lon="-5.496625"><ele>1851.0</ele></trkpt>
    <trkpt lat="31.737513" lon="-5.496726"><ele>1851.0</ele></trkpt>
    <trkpt lat="31.737260" lon="-5.496914"><ele>1850.5</ele></trkpt>
    <trkpt lat="31.736765" lon="-5.496951"><ele>1848.5</ele></trkpt>
    <trkpt lat="31.736601" lon="-5.497123"><ele>1848.2</ele></trkpt>
    <trkpt lat="31.735880" lon="-5.499725"><ele>1843.0</ele></trkpt>
    <trkpt lat="31.735312" lon="-5.500570"><ele>1840.0</ele></trkpt>
    <trkpt lat="31.734724" lon="-5.500905"><ele>1838.5</ele></trkpt>
    <trkpt lat="31.734340" lon="-5.501455"><ele>1837.8</ele></trkpt>
    <trkpt lat="31.734443" lon="-5.501747"><ele>1837.8</ele></trkpt>
    <trkpt lat="31.734516" lon="-5.501806"><ele>1838.0</ele></trkpt>
    <trkpt lat="31.734972" lon="-5.501876"><ele>1839.5</ele></trkpt>
    <trkpt lat="31.735310" lon="-5.502152"><ele>1841.2</ele></trkpt>
    <trkpt lat="31.735613" lon="-5.502892"><ele>1844.2</ele></trkpt>
    <trkpt lat="31.735529" lon="-5.503909"><ele>1847.0</ele></trkpt>
    <trkpt lat="31.734860" lon="-5.505135"><ele>1852.0</ele></trkpt>
    <trkpt lat="31.734450" lon="-5.506642"><ele>1853.0</ele></trkpt>
    <trkpt lat="31.734797" lon="-5.508306"><ele>1855.8</ele></trkpt>
    <trkpt lat="31.734483" lon="-5.510101"><ele>1856.5</ele></trkpt>
    <trkpt lat="31.734599" lon="-5.511493"><ele>1855.5</ele></trkpt>
    <trkpt lat="31.733951" lon="-5.511616"><ele>1853.2</ele></trkpt>
    <trkpt lat="31.733580" lon="-5.512212"><ele>1853.2</ele></trkpt>
    <trkpt lat="31.732850" lon="-5.512794"><ele>1848.5</ele></trkpt>
    <trkpt lat="31.732574" lon="-5.513647"><ele>1847.0</ele></trkpt>
    <trkpt lat="31.731864" lon="-5.513765"><ele>1846.8</ele></trkpt>
    <trkpt lat="31.730974" lon="-5.514623"><ele>1845.0</ele></trkpt>
    <trkpt lat="31.730840" lon="-5.514986"><ele>1844.0</ele></trkpt>
    <trkpt lat="31.730836" lon="-5.515559"><ele>1843.2</ele></trkpt>
    <trkpt lat="31.730577" lon="-5.516185"><ele>1841.8</ele></trkpt>
    <trkpt lat="31.730642" lon="-5.516826"><ele>1841.8</ele></trkpt>
    <trkpt lat="31.730525" lon="-5.517182"><ele>1841.8</ele></trkpt>
    <trkpt lat="31.730469" lon="-5.517569"><ele>1842.2</ele></trkpt>
    <trkpt lat="31.729602" lon="-5.518896"><ele>1849.2</ele></trkpt>
    <trkpt lat="31.729478" lon="-5.519234"><ele>1850.2</ele></trkpt>
    <trkpt lat="31.729235" lon="-5.519780"><ele>1850.8</ele></trkpt>
    <trkpt lat="31.729446" lon="-5.520182"><ele>1850.5</ele></trkpt>
    <trkpt lat="31.729434" lon="-5.520595"><ele>1851.8</ele></trkpt>
    <trkpt lat="31.729828" lon="-5.521430"><ele>1852.0</ele></trkpt>
    <trkpt lat="31.729884" lon="-5.521760"><ele>1852.8</ele></trkpt>
    <trkpt lat="31.729841" lon="-5.522363"><ele>1855.2</ele></trkpt>
    <trkpt lat="31.729382" lon="-5.523519"><ele>1861.2</ele></trkpt>
    <trkpt lat="31.728845" lon="-5.524107"><ele>1867.5</ele></trkpt>
    <trkpt lat="31.728489" lon="-5.524205"><ele>1870.0</ele></trkpt>
    <trkpt lat="31.728457" lon="-5.524345"><ele>1870.5</ele></trkpt>
    <trkpt lat="31.730211" lon="-5.526804"><ele>1874.2</ele></trkpt>
    <trkpt lat="31.730677" lon="-5.527727"><ele>1876.2</ele></trkpt>
    <trkpt lat="31.731450" lon="-5.530584"><ele>1881.0</ele></trkpt>
    <trkpt lat="31.732369" lon="-5.532539"><ele>1884.0</ele></trkpt>
    <trkpt lat="31.732294" lon="-5.534210"><ele>1891.8</ele></trkpt>
    <trkpt lat="31.732328" lon="-5.534331"><ele>1892.5</ele></trkpt>
    <trkpt lat="31.732641" lon="-5.535068"><ele>1896.8</ele></trkpt>
    <trkpt lat="31.733111" lon="-5.537209"><ele>1907.8</ele></trkpt>
    <trkpt lat="31.732805" lon="-5.538721"><ele>1910.5</ele></trkpt>
    <trkpt lat="31.732693" lon="-5.539282"><ele>1910.5</ele></trkpt>
    <trkpt lat="31.732990" lon="-5.539896"><ele>1911.0</ele></trkpt>
    <trkpt lat="31.732974" lon="-5.540197"><ele>1911.0</ele></trkpt>
    <trkpt lat="31.732773" lon="-5.540720"><ele>1911.0</ele></trkpt>
    <trkpt lat="31.731977" lon="-5.541819"><ele>1913.2</ele></trkpt>
    <trkpt lat="31.731794" lon="-5.542286"><ele>1913.2</ele></trkpt>
    <trkpt lat="31.731877" lon="-5.542747"><ele>1912.8</ele></trkpt>
    <trkpt lat="31.731738" lon="-5.543326"><ele>1912.2</ele></trkpt>
    <trkpt lat="31.732131" lon="-5.544087"><ele>1914.5</ele></trkpt>
    <trkpt lat="31.731503" lon="-5.544136"><ele>1914.8</ele></trkpt>
    <trkpt lat="31.731525" lon="-5.544243"><ele>1915.5</ele></trkpt>
    <trkpt lat="31.731672" lon="-5.544516"><ele>1918.0</ele></trkpt>
    <trkpt lat="31.731654" lon="-5.544805"><ele>1921.5</ele></trkpt>
    <trkpt lat="31.731854" lon="-5.545150"><ele>1924.2</ele></trkpt>
    <trkpt lat="31.731800" lon="-5.545592"><ele>1925.5</ele></trkpt>
    <trkpt lat="31.733167" lon="-5.546468"><ele>1938.8</ele></trkpt>
    <trkpt lat="31.733407" lon="-5.546652"><ele>1942.0</ele></trkpt>
    <trkpt lat="31.734520" lon="-5.548290"><ele>1956.2</ele></trkpt>
    <trkpt lat="31.735943" lon="-5.549306"><ele>1961.8</ele></trkpt>
    <trkpt lat="31.736230" lon="-5.549801"><ele>1962.8</ele></trkpt>
    <trkpt lat="31.736119" lon="-5.550515"><ele>1968.5</ele></trkpt>
    <trkpt lat="31.735607" lon="-5.550910"><ele>1973.5</ele></trkpt>
    <trkpt lat="31.734833" lon="-5.550770"><ele>1980.2</ele></trkpt>
    <trkpt lat="31.734548" lon="-5.550636"><ele>1980.2</ele></trkpt>
    <trkpt lat="31.733792" lon="-5.549714"><ele>1983.5</ele></trkpt>
    <trkpt lat="31.733456" lon="-5.549525"><ele>1983.5</ele></trkpt>
    <trkpt lat="31.733145" lon="-5.549564"><ele>1985.0</ele></trkpt>
    <trkpt lat="31.732848" lon="-5.549784"><ele>1985.8</ele></trkpt>
    <trkpt lat="31.732677" lon="-5.550158"><ele>1987.0</ele></trkpt>
    <trkpt lat="31.732701" lon="-5.550550"><ele>1987.2</ele></trkpt>
    <trkpt lat="31.732947" lon="-5.551001"><ele>1991.5</ele></trkpt>
    <trkpt lat="31.733527" lon="-5.551757"><ele>2003.0</ele></trkpt>
    <trkpt lat="31.733665" lon="-5.552067"><ele>2006.5</ele></trkpt>
    <trkpt lat="31.734181" lon="-5.553476"><ele>2021.8</ele></trkpt>
    <trkpt lat="31.734779" lon="-5.554484"><ele>2027.2</ele></trkpt>
    <trkpt lat="31.735119" lon="-5.556118"><ele>2041.0</ele></trkpt>
    <trkpt lat="31.735367" lon="-5.556534"><ele>2045.5</ele></trkpt>
    <trkpt lat="31.735835" lon="-5.556901"><ele>2059.5</ele></trkpt>
    <trkpt lat="31.736847" lon="-5.557376"><ele>2069.8</ele></trkpt>
    <trkpt lat="31.737145" lon="-5.557780"><ele>2074.0</ele></trkpt>
    <trkpt lat="31.737868" lon="-5.558952"><ele>2092.8</ele></trkpt>
    <trkpt lat="31.738629" lon="-5.559671"><ele>2105.8</ele></trkpt>
    <trkpt lat="31.739106" lon="-5.559890"><ele>2110.0</ele></trkpt>
    <trkpt lat="31.739899" lon="-5.559845"><ele>2118.2</ele></trkpt>
    <trkpt lat="31.740315" lon="-5.559927"><ele>2119.2</ele></trkpt>
    <trkpt lat="31.740789" lon="-5.560314"><ele>2120.5</ele></trkpt>
    <trkpt lat="31.741056" lon="-5.561076"><ele>2123.2</ele></trkpt>
    <trkpt lat="31.741230" lon="-5.562838"><ele>2122.0</ele></trkpt>
    <trkpt lat="31.741813" lon="-5.564461"><ele>2122.0</ele></trkpt>
    <trkpt lat="31.742033" lon="-5.565208"><ele>2117.8</ele></trkpt>
    <trkpt lat="31.742070" lon="-5.565647"><ele>2117.5</ele></trkpt>
    <trkpt lat="31.742028" lon="-5.567784"><ele>2107.2</ele></trkpt>
    <trkpt lat="31.741962" lon="-5.568285"><ele>2105.8</ele></trkpt>
    <trkpt lat="31.741832" lon="-5.568796"><ele>2105.2</ele></trkpt>
    <trkpt lat="31.741339" lon="-5.569734"><ele>2094.5</ele></trkpt>
    <trkpt lat="31.741225" lon="-5.570467"><ele>2091.5</ele></trkpt>
    <trkpt lat="31.741532" lon="-5.572433"><ele>2081.2</ele></trkpt>
    <trkpt lat="31.742189" lon="-5.574410"><ele>2077.2</ele></trkpt>
    <trkpt lat="31.742179" lon="-5.575142"><ele>2075.0</ele></trkpt>
    <trkpt lat="31.741836" lon="-5.576567"><ele>2071.5</ele></trkpt>
    <trkpt lat="31.741841" lon="-5.577014"><ele>2071.5</ele></trkpt>
    <trkpt lat="31.741904" lon="-5.577303"><ele>2071.5</ele></trkpt>
    <trkpt lat="31.742015" lon="-5.577644"><ele>2073.8</ele></trkpt>
    <trkpt lat="31.743157" lon="-5.579775"><ele>2079.2</ele></trkpt>
    <trkpt lat="31.743341" lon="-5.581792"><ele>2081.8</ele></trkpt>
    <trkpt lat="31.743325" lon="-5.582436"><ele>2083.8</ele></trkpt>
    <trkpt lat="31.743095" lon="-5.588358"><ele>2095.8</ele></trkpt>
    <trkpt lat="31.742932" lon="-5.589628"><ele>2103.5</ele></trkpt>
    <trkpt lat="31.742473" lon="-5.591326"><ele>2104.8</ele></trkpt>
    <trkpt lat="31.742431" lon="-5.591995"><ele>2105.2</ele></trkpt>
    <trkpt lat="31.742584" lon="-5.592872"><ele>2105.2</ele></trkpt>
    <trkpt lat="31.743102" lon="-5.594050"><ele>2110.5</ele></trkpt>
    <trkpt lat="31.743932" lon="-5.594909"><ele>2109.8</ele></trkpt>
    <trkpt lat="31.744501" lon="-5.595803"><ele>2109.8</ele></trkpt>
    <trkpt lat="31.744593" lon="-5.596077"><ele>2109.8</ele></trkpt>
    <trkpt lat="31.744716" lon="-5.596561"><ele>2113.0</ele></trkpt>
    <trkpt lat="31.744732" lon="-5.597261"><ele>2117.0</ele></trkpt>
    <trkpt lat="31.744581" lon="-5.597896"><ele>2118.8</ele></trkpt>
    <trkpt lat="31.743546" lon="-5.599960"><ele>2119.5</ele></trkpt>
    <trkpt lat="31.742583" lon="-5.600869"><ele>2123.5</ele></trkpt>
    <trkpt lat="31.741498" lon="-5.602364"><ele>2125.0</ele></trkpt>
    <trkpt lat="31.740547" lon="-5.603696"><ele>2134.5</ele></trkpt>
    <trkpt lat="31.740248" lon="-5.604510"><ele>2137.5</ele></trkpt>
    <trkpt lat="31.740268" lon="-5.605067"><ele>2142.5</ele></trkpt>
    <trkpt lat="31.740299" lon="-5.605283"><ele>2143.5</ele></trkpt>
    <trkpt lat="31.740749" lon="-5.606157"><ele>2147.5</ele></trkpt>
    <trkpt lat="31.741950" lon="-5.607272"><ele>2154.8</ele></trkpt>
    <trkpt lat="31.743686" lon="-5.609491"><ele>2156.8</ele></trkpt>
    <trkpt lat="31.744767" lon="-5.611463"><ele>2164.8</ele></trkpt>
    <trkpt lat="31.746464" lon="-5.616452"><ele>2169.0</ele></trkpt>
    <trkpt lat="31.746567" lon="-5.617747"><ele>2170.8</ele></trkpt>
    <trkpt lat="31.746512" lon="-5.619611"><ele>2179.8</ele></trkpt>
    <trkpt lat="31.746577" lon="-5.619996"><ele>2180.2</ele></trkpt>
    <trkpt lat="31.747396" lon="-5.623410"><ele>2204.8</ele></trkpt>
    <trkpt lat="31.748093" lon="-5.624255"><ele>2216.2</ele></trkpt>
    <trkpt lat="31.749724" lon="-5.625281"><ele>2233.2</ele></trkpt>
    <trkpt lat="31.750085" lon="-5.625556"><ele>2235.2</ele></trkpt>
    <trkpt lat="31.750973" lon="-5.626778"><ele>2243.5</ele></trkpt>
    <trkpt lat="31.751318" lon="-5.627075"><ele>2243.5</ele></trkpt>
    <trkpt lat="31.751947" lon="-5.627283"><ele>2243.5</ele></trkpt>
    <trkpt lat="31.752154" lon="-5.627404"><ele>2238.8</ele></trkpt>
    <trkpt lat="31.752415" lon="-5.627717"><ele>2232.8</ele></trkpt>
    <trkpt lat="31.752502" lon="-5.627953"><ele>2232.8</ele></trkpt>
    <trkpt lat="31.752460" lon="-5.628655"><ele>2232.0</ele></trkpt>
    <trkpt lat="31.752083" lon="-5.629130"><ele>2232.0</ele></trkpt>
    <trkpt lat="31.751243" lon="-5.629779"><ele>2233.8</ele></trkpt>
    <trkpt lat="31.750791" lon="-5.630557"><ele>2233.8</ele></trkpt>
    <trkpt lat="31.750573" lon="-5.631022"><ele>2238.5</ele></trkpt>
    <trkpt lat="31.750335" lon="-5.632255"><ele>2248.0</ele></trkpt>
    <trkpt lat="31.750277" lon="-5.632612"><ele>2248.8</ele></trkpt>
    <trkpt lat="31.750184" lon="-5.634557"><ele>2254.5</ele></trkpt>
    <trkpt lat="31.749375" lon="-5.635855"><ele>2255.5</ele></trkpt>
    <trkpt lat="31.749198" lon="-5.636475"><ele>2256.8</ele></trkpt>
    <trkpt lat="31.749419" lon="-5.638555"><ele>2275.2</ele></trkpt>
    <trkpt lat="31.749239" lon="-5.639365"><ele>2275.8</ele></trkpt>
    <trkpt lat="31.748565" lon="-5.641096"><ele>2283.2</ele></trkpt>
    <trkpt lat="31.748538" lon="-5.641699"><ele>2285.0</ele></trkpt>
    <trkpt lat="31.748688" lon="-5.642308"><ele>2288.5</ele></trkpt>
    <trkpt lat="31.749313" lon="-5.643759"><ele>2297.2</ele></trkpt>
    <trkpt lat="31.749194" lon="-5.645546"><ele>2297.2</ele></trkpt>
    <trkpt lat="31.749267" lon="-5.645862"><ele>2297.2</ele></trkpt>
    <trkpt lat="31.749582" lon="-5.646409"><ele>2304.2</ele></trkpt>
    <trkpt lat="31.750294" lon="-5.647217"><ele>2315.8</ele></trkpt>
    <trkpt lat="31.750447" lon="-5.647606"><ele>2316.5</ele></trkpt>
    <trkpt lat="31.750497" lon="-5.649765"><ele>2319.5</ele></trkpt>
    <trkpt lat="31.750725" lon="-5.650972"><ele>2321.2</ele></trkpt>
    <trkpt lat="31.751160" lon="-5.651500"><ele>2321.5</ele></trkpt>
    <trkpt lat="31.751601" lon="-5.651642"><ele>2323.0</ele></trkpt>
    <trkpt lat="31.751801" lon="-5.651634"><ele>2324.2</ele></trkpt>
    <trkpt lat="31.752574" lon="-5.651267"><ele>2339.5</ele></trkpt>
    <trkpt lat="31.752932" lon="-5.651133"><ele>2341.0</ele></trkpt>
    <trkpt lat="31.753422" lon="-5.651399"><ele>2345.0</ele></trkpt>
    <trkpt lat="31.753559" lon="-5.651643"><ele>2345.2</ele></trkpt>
    <trkpt lat="31.753883" lon="-5.652418"><ele>2350.8</ele></trkpt>
    <trkpt lat="31.754168" lon="-5.652724"><ele>2366.5</ele></trkpt>
    <trkpt lat="31.754624" lon="-5.653139"><ele>2366.5</ele></trkpt>
    <trkpt lat="31.755523" lon="-5.655245"><ele>2371.2</ele></trkpt>
    <trkpt lat="31.756193" lon="-5.657393"><ele>2371.2</ele></trkpt>
    <trkpt lat="31.756243" lon="-5.658533"><ele>2372.5</ele></trkpt>
    <trkpt lat="31.756002" lon="-5.659282"><ele>2374.0</ele></trkpt>
    <trkpt lat="31.755881" lon="-5.659456"><ele>2374.0</ele></trkpt>
    <trkpt lat="31.754718" lon="-5.660717"><ele>2378.8</ele></trkpt>
    <trkpt lat="31.754378" lon="-5.661591"><ele>2384.0</ele></trkpt>
    <trkpt lat="31.754353" lon="-5.662023"><ele>2386.0</ele></trkpt>
    <trkpt lat="31.754436" lon="-5.664998"><ele>2406.0</ele></trkpt>
    <trkpt lat="31.754421" lon="-5.665338"><ele>2408.0</ele></trkpt>
    <trkpt lat="31.754379" lon="-5.665670"><ele>2409.0</ele></trkpt>
    <trkpt lat="31.753957" lon="-5.667826"><ele>2418.2</ele></trkpt>
    <trkpt lat="31.753816" lon="-5.668994"><ele>2421.0</ele></trkpt>
    <trkpt lat="31.753837" lon="-5.669871"><ele>2421.5</ele></trkpt>
    <trkpt lat="31.753972" lon="-5.671744"><ele>2434.5</ele></trkpt>
    <trkpt lat="31.753945" lon="-5.672487"><ele>2442.8</ele></trkpt>
    <trkpt lat="31.753873" lon="-5.672894"><ele>2446.8</ele></trkpt>
    <trkpt lat="31.753377" lon="-5.674586"><ele>2449.8</ele></trkpt>
    <trkpt lat="31.753037" lon="-5.676840"><ele>2462.5</ele></trkpt>
    <trkpt lat="31.752994" lon="-5.677576"><ele>2469.5</ele></trkpt>
    <trkpt lat="31.753018" lon="-5.677856"><ele>2472.5</ele></trkpt>
    <trkpt lat="31.753211" lon="-5.678985"><ele>2486.5</ele></trkpt>
    <trkpt lat="31.753214" lon="-5.679491"><ele>2492.5</ele></trkpt>
    <trkpt lat="31.753079" lon="-5.680050"><ele>2499.0</ele></trkpt>
    <trkpt lat="31.752817" lon="-5.680492"><ele>2502.0</ele></trkpt>
    <trkpt lat="31.751566" lon="-5.681354"><ele>2510.8</ele></trkpt>
    <trkpt lat="31.751360" lon="-5.681520"><ele>2512.2</ele></trkpt>
    <trkpt lat="31.750950" lon="-5.681947"><ele>2517.0</ele></trkpt>
    <trkpt lat="31.750090" lon="-5.683060"><ele>2533.5</ele></trkpt>
    <trkpt lat="31.749593" lon="-5.684366"><ele>2549.2</ele></trkpt>
    <trkpt lat="31.749333" lon="-5.684675"><ele>2550.5</ele></trkpt>
    <trkpt lat="31.748982" lon="-5.684642"><ele>2550.8</ele></trkpt>
    <trkpt lat="31.748811" lon="-5.684323"><ele>2550.8</ele></trkpt>
    <trkpt lat="31.749253" lon="-5.683175"><ele>2547.8</ele></trkpt>
    <trkpt lat="31.749365" lon="-5.682035"><ele>2548.5</ele></trkpt>
    <trkpt lat="31.749187" lon="-5.681751"><ele>2551.5</ele></trkpt>
    <trkpt lat="31.748886" lon="-5.681601"><ele>2552.5</ele></trkpt>
    <trkpt lat="31.748724" lon="-5.681614"><ele>2552.5</ele></trkpt>
    <trkpt lat="31.748432" lon="-5.681815"><ele>2557.5</ele></trkpt>
    <trkpt lat="31.748304" lon="-5.681995"><ele>2561.5</ele></trkpt>
    <trkpt lat="31.747862" lon="-5.683006"><ele>2571.8</ele></trkpt>
    <trkpt lat="31.747523" lon="-5.683561"><ele>2574.5</ele></trkpt>
    <trkpt lat="31.746301" lon="-5.685022"><ele>2584.2</ele></trkpt>
    <trkpt lat="31.746115" lon="-5.685375"><ele>2586.8</ele></trkpt>
    <trkpt lat="31.745215" lon="-5.687150"><ele>2604.5</ele></trkpt>
    <trkpt lat="31.744579" lon="-5.687917"><ele>2616.8</ele></trkpt>
    <trkpt lat="31.744373" lon="-5.688094"><ele>2618.5</ele></trkpt>
    <trkpt lat="31.742927" lon="-5.688577"><ele>2625.0</ele></trkpt>
    <trkpt lat="31.742038" lon="-5.689315"><ele>2625.0</ele></trkpt>
    <trkpt lat="31.741433" lon="-5.690047"><ele>2619.5</ele></trkpt>
    <trkpt lat="31.739410" lon="-5.693370"><ele>2589.8</ele></trkpt>
    <trkpt lat="31.739072" lon="-5.693955"><ele>2588.2</ele></trkpt>
    <trkpt lat="31.738559" lon="-5.695119"><ele>2571.0</ele></trkpt>
    <trkpt lat="31.738422" lon="-5.695350"><ele>2571.0</ele></trkpt>
    <trkpt lat="31.738233" lon="-5.695551"><ele>2570.5</ele></trkpt>
    <trkpt lat="31.737477" lon="-5.696180"><ele>2561.0</ele></trkpt>
    <trkpt lat="31.736632" lon="-5.696946"><ele>2547.8</ele></trkpt>
    <trkpt lat="31.736443" lon="-5.697102"><ele>2547.5</ele></trkpt>
    <trkpt lat="31.735486" lon="-5.697448"><ele>2540.5</ele></trkpt>
    <trkpt lat="31.734352" lon="-5.698426"><ele>2530.0</ele></trkpt>
    <trkpt lat="31.734125" lon="-5.698513"><ele>2527.2</ele></trkpt>
    <trkpt lat="31.731945" lon="-5.699066"><ele>2511.5</ele></trkpt>
    <trkpt lat="31.731607" lon="-5.699169"><ele>2506.0</ele></trkpt>
    <trkpt lat="31.731003" lon="-5.699477"><ele>2502.2</ele></trkpt>
    <trkpt lat="31.729840" lon="-5.700210"><ele>2485.2</ele></trkpt>
    <trkpt lat="31.728084" lon="-5.701163"><ele>2479.5</ele></trkpt>
    <trkpt lat="31.726692" lon="-5.701441"><ele>2474.5</ele></trkpt>
    <trkpt lat="31.725520" lon="-5.701838"><ele>2462.0</ele></trkpt>
    <trkpt lat="31.724420" lon="-5.702447"><ele>2458.8</ele></trkpt>
    <trkpt lat="31.724273" lon="-5.702543"><ele>2457.2</ele></trkpt>
    <trkpt lat="31.723556" lon="-5.703257"><ele>2452.8</ele></trkpt>
    <trkpt lat="31.722525" lon="-5.703708"><ele>2442.2</ele></trkpt>
    <trkpt lat="31.722400" lon="-5.703862"><ele>2441.0</ele></trkpt>
    <trkpt lat="31.721397" lon="-5.705585"><ele>2433.5</ele></trkpt>
    <trkpt lat="31.720146" lon="-5.706525"><ele>2419.5</ele></trkpt>
    <trkpt lat="31.720017" lon="-5.706678"><ele>2416.2</ele></trkpt>
    <trkpt lat="31.719926" lon="-5.706863"><ele>2416.2</ele></trkpt>
    <trkpt lat="31.719827" lon="-5.707468"><ele>2415.2</ele></trkpt>
    <trkpt lat="31.719953" lon="-5.709402"><ele>2414.5</ele></trkpt>
    <trkpt lat="31.719753" lon="-5.710425"><ele>2412.5</ele></trkpt>
    <trkpt lat="31.719629" lon="-5.710614"><ele>2412.0</ele></trkpt>
    <trkpt lat="31.719272" lon="-5.711013"><ele>2402.2</ele></trkpt>
    <trkpt lat="31.718782" lon="-5.711936"><ele>2399.8</ele></trkpt>
    <trkpt lat="31.718449" lon="-5.712186"><ele>2397.0</ele></trkpt>
    <trkpt lat="31.717723" lon="-5.712451"><ele>2385.0</ele></trkpt>
    <trkpt lat="31.717418" lon="-5.712812"><ele>2383.8</ele></trkpt>
    <trkpt lat="31.717315" lon="-5.713274"><ele>2382.8</ele></trkpt>
    <trkpt lat="31.717375" lon="-5.714311"><ele>2378.5</ele></trkpt>
    <trkpt lat="31.717326" lon="-5.716347"><ele>2362.0</ele></trkpt>
    <trkpt lat="31.717401" lon="-5.716947"><ele>2356.2</ele></trkpt>
    <trkpt lat="31.717513" lon="-5.717249"><ele>2353.8</ele></trkpt>
    <trkpt lat="31.717852" lon="-5.717699"><ele>2352.5</ele></trkpt>
    <trkpt lat="31.719107" lon="-5.718479"><ele>2350.0</ele></trkpt>
    <trkpt lat="31.719497" lon="-5.718924"><ele>2349.2</ele></trkpt>
    <trkpt lat="31.720062" lon="-5.719815"><ele>2340.5</ele></trkpt>
    <trkpt lat="31.721123" lon="-5.722294"><ele>2332.0</ele></trkpt>
    <trkpt lat="31.721345" lon="-5.723252"><ele>2323.2</ele></trkpt>
    <trkpt lat="31.721320" lon="-5.724002"><ele>2315.8</ele></trkpt>
    <trkpt lat="31.721311" lon="-5.724217"><ele>2315.2</ele></trkpt>
    <trkpt lat="31.721428" lon="-5.724954"><ele>2315.2</ele></trkpt>
    <trkpt lat="31.722491" lon="-5.726905"><ele>2315.5</ele></trkpt>
    <trkpt lat="31.722881" lon="-5.728292"><ele>2315.5</ele></trkpt>
    <trkpt lat="31.722942" lon="-5.729329"><ele>2309.0</ele></trkpt>
    <trkpt lat="31.722844" lon="-5.731298"><ele>2301.0</ele></trkpt>
    <trkpt lat="31.723145" lon="-5.732168"><ele>2299.0</ele></trkpt>
    <trkpt lat="31.723539" lon="-5.733018"><ele>2289.8</ele></trkpt>
    <trkpt lat="31.723618" lon="-5.733330"><ele>2286.2</ele></trkpt>
    <trkpt lat="31.723661" lon="-5.733602"><ele>2285.8</ele></trkpt>
    <trkpt lat="31.723516" lon="-5.736609"><ele>2285.2</ele></trkpt>
    <trkpt lat="31.723635" lon="-5.737733"><ele>2282.5</ele></trkpt>
    <trkpt lat="31.724030" lon="-5.738583"><ele>2278.5</ele></trkpt>
    <trkpt lat="31.726029" lon="-5.741751"><ele>2270.5</ele></trkpt>
    <trkpt lat="31.726183" lon="-5.742263"><ele>2269.2</ele></trkpt>
    <trkpt lat="31.726619" lon="-5.743691"><ele>2246.5</ele></trkpt>
    <trkpt lat="31.726649" lon="-5.743919"><ele>2243.5</ele></trkpt>
    <trkpt lat="31.726580" lon="-5.744368"><ele>2243.5</ele></trkpt>
    <trkpt lat="31.725959" lon="-5.745388"><ele>2242.8</ele></trkpt>
    <trkpt lat="31.725823" lon="-5.746099"><ele>2242.2</ele></trkpt>
    <trkpt lat="31.725983" lon="-5.747315"><ele>2240.2</ele></trkpt>
    <trkpt lat="31.726156" lon="-5.748228"><ele>2238.8</ele></trkpt>
    <trkpt lat="31.726267" lon="-5.748712"><ele>2235.0</ele></trkpt>
    <trkpt lat="31.726709" lon="-5.750221"><ele>2220.2</ele></trkpt>
    <trkpt lat="31.726980" lon="-5.751151"><ele>2219.0</ele></trkpt>
    <trkpt lat="31.726976" lon="-5.752255"><ele>2215.0</ele></trkpt>
    <trkpt lat="31.727449" lon="-5.753712"><ele>2209.8</ele></trkpt>
    <trkpt lat="31.727459" lon="-5.754755"><ele>2208.5</ele></trkpt>
    <trkpt lat="31.727618" lon="-5.755735"><ele>2204.2</ele></trkpt>
    <trkpt lat="31.727509" lon="-5.757520"><ele>2203.8</ele></trkpt>
    <trkpt lat="31.727764" lon="-5.758554"><ele>2202.5</ele></trkpt>
    <trkpt lat="31.727803" lon="-5.758788"><ele>2200.5</ele></trkpt>
    <trkpt lat="31.727685" lon="-5.759613"><ele>2194.5</ele></trkpt>
    <trkpt lat="31.727697" lon="-5.760858"><ele>2191.5</ele></trkpt>
    <trkpt lat="31.727602" lon="-5.761390"><ele>2189.0</ele></trkpt>
    <trkpt lat="31.727456" lon="-5.762221"><ele>2177.0</ele></trkpt>
    <trkpt lat="31.727596" lon="-5.762792"><ele>2173.0</ele></trkpt>
    <trkpt lat="31.728332" lon="-5.764331"><ele>2167.0</ele></trkpt>
    <trkpt lat="31.728410" lon="-5.764527"><ele>2167.0</ele></trkpt>
    <trkpt lat="31.728487" lon="-5.765245"><ele>2165.0</ele></trkpt>
    <trkpt lat="31.728338" lon="-5.765693"><ele>2163.5</ele></trkpt>
    <trkpt lat="31.728038" lon="-5.765979"><ele>2161.5</ele></trkpt>
    <trkpt lat="31.727830" lon="-5.766063"><ele>2161.5</ele></trkpt>
    <trkpt lat="31.727132" lon="-5.766054"><ele>2148.0</ele></trkpt>
    <trkpt lat="31.726960" lon="-5.766089"><ele>2148.0</ele></trkpt>
    <trkpt lat="31.726631" lon="-5.766347"><ele>2148.0</ele></trkpt>
    <trkpt lat="31.726355" lon="-5.767387"><ele>2142.0</ele></trkpt>
    <trkpt lat="31.725723" lon="-5.768501"><ele>2141.0</ele></trkpt>
    <trkpt lat="31.725658" lon="-5.768927"><ele>2139.5</ele></trkpt>
    <trkpt lat="31.725730" lon="-5.769269"><ele>2137.8</ele></trkpt>
    <trkpt lat="31.726365" lon="-5.770621"><ele>2124.5</ele></trkpt>
    <trkpt lat="31.726384" lon="-5.771107"><ele>2123.8</ele></trkpt>
    <trkpt lat="31.725251" lon="-5.773453"><ele>2122.2</ele></trkpt>
    <trkpt lat="31.725140" lon="-5.773859"><ele>2122.2</ele></trkpt>
    <trkpt lat="31.724974" lon="-5.775426"><ele>2107.5</ele></trkpt>
    <trkpt lat="31.724804" lon="-5.776311"><ele>2105.0</ele></trkpt>
    <trkpt lat="31.724231" lon="-5.777940"><ele>2103.2</ele></trkpt>
    <trkpt lat="31.723654" lon="-5.779481"><ele>2093.5</ele></trkpt>
    <trkpt lat="31.723140" lon="-5.780273"><ele>2086.2</ele></trkpt>
    <trkpt lat="31.722719" lon="-5.780717"><ele>2079.8</ele></trkpt>
    <trkpt lat="31.721305" lon="-5.781961"><ele>2077.0</ele></trkpt>
    <trkpt lat="31.720872" lon="-5.782447"><ele>2071.5</ele></trkpt>
    <trkpt lat="31.720445" lon="-5.783078"><ele>2065.0</ele></trkpt>
    <trkpt lat="31.720097" lon="-5.783748"><ele>2060.0</ele></trkpt>
    <trkpt lat="31.719817" lon="-5.784442"><ele>2059.8</ele></trkpt>
    <trkpt lat="31.719486" lon="-5.786120"><ele>2055.2</ele></trkpt>
    <trkpt lat="31.719080" lon="-5.791331"><ele>2045.8</ele></trkpt>
    <trkpt lat="31.718557" lon="-5.793369"><ele>2038.8</ele></trkpt>
    <trkpt lat="31.718252" lon="-5.794564"><ele>2038.8</ele></trkpt>
    <trkpt lat="31.718245" lon="-5.797088"><ele>2037.0</ele></trkpt>
    <trkpt lat="31.717997" lon="-5.798049"><ele>2036.8</ele></trkpt>
    <trkpt lat="31.716944" lon="-5.799554"><ele>2032.8</ele></trkpt>
    <trkpt lat="31.714801" lon="-5.801682"><ele>2018.5</ele></trkpt>
    <trkpt lat="31.714117" lon="-5.802633"><ele>2010.8</ele></trkpt>
    <trkpt lat="31.713510" lon="-5.803416"><ele>2008.8</ele></trkpt>
    <trkpt lat="31.713142" lon="-5.803663"><ele>2006.2</ele></trkpt>
    <trkpt lat="31.712585" lon="-5.803776"><ele>2003.5</ele></trkpt>
    <trkpt lat="31.712980" lon="-5.804815"><ele>2003.5</ele></trkpt>
    <trkpt lat="31.713257" lon="-5.805180"><ele>2003.5</ele></trkpt>
    <trkpt lat="31.713588" lon="-5.805315"><ele>2005.0</ele></trkpt>
    <trkpt lat="31.714521" lon="-5.804889"><ele>2009.2</ele></trkpt>
    <trkpt lat="31.714427" lon="-5.805163"><ele>2009.8</ele></trkpt>
    <trkpt lat="31.714015" lon="-5.805730"><ele>2010.8</ele></trkpt>
    <trkpt lat="31.713889" lon="-5.805844"><ele>2010.8</ele></trkpt>
    <trkpt lat="31.713566" lon="-5.806010"><ele>2010.8</ele></trkpt>
    <trkpt lat="31.712965" lon="-5.805933"><ele>2007.5</ele></trkpt>
    <trkpt lat="31.712088" lon="-5.806648"><ele>2008.5</ele></trkpt>
    <trkpt lat="31.711673" lon="-5.807467"><ele>2009.8</ele></trkpt>
    <trkpt lat="31.711266" lon="-5.807551"><ele>2005.0</ele></trkpt>
    <trkpt lat="31.710960" lon="-5.808105"><ele>2004.2</ele></trkpt>
    <trkpt lat="31.710429" lon="-5.808362"><ele>2003.2</ele></trkpt>
    <trkpt lat="31.709200" lon="-5.809916"><ele>2005.0</ele></trkpt>
    <trkpt lat="31.708960" lon="-5.810090"><ele>2005.0</ele></trkpt>
    <trkpt lat="31.708081" lon="-5.810913"><ele>2000.0</ele></trkpt>
    <trkpt lat="31.707192" lon="-5.811493"><ele>1991.0</ele></trkpt>
    <trkpt lat="31.706854" lon="-5.811991"><ele>1990.0</ele></trkpt>
    <trkpt lat="31.706809" lon="-5.811998"><ele>1989.8</ele></trkpt>
    <trkpt lat="31.706232" lon="-5.811835"><ele>1980.2</ele></trkpt>
    <trkpt lat="31.706070" lon="-5.811923"><ele>1979.0</ele></trkpt>
    <trkpt lat="31.705725" lon="-5.812092"><ele>1977.0</ele></trkpt>
    <trkpt lat="31.705465" lon="-5.812395"><ele>1976.5</ele></trkpt>
    <trkpt lat="31.704878" lon="-5.812598"><ele>1971.8</ele></trkpt>
    <trkpt lat="31.704429" lon="-5.813068"><ele>1971.8</ele></trkpt>
    <trkpt lat="31.703977" lon="-5.814026"><ele>1968.0</ele></trkpt>
    <trkpt lat="31.703870" lon="-5.814565"><ele>1964.8</ele></trkpt>
    <trkpt lat="31.704009" lon="-5.814958"><ele>1964.5</ele></trkpt>
    <trkpt lat="31.703538" lon="-5.815059"><ele>1958.8</ele></trkpt>
    <trkpt lat="31.703389" lon="-5.814864"><ele>1958.5</ele></trkpt>
    <trkpt lat="31.703372" lon="-5.814259"><ele>1958.2</ele></trkpt>
    <trkpt lat="31.702843" lon="-5.813210"><ele>1953.8</ele></trkpt>
    <trkpt lat="31.702729" lon="-5.813141"><ele>1953.2</ele></trkpt>
    <trkpt lat="31.702474" lon="-5.813293"><ele>1952.0</ele></trkpt>
    <trkpt lat="31.702172" lon="-5.812684"><ele>1955.2</ele></trkpt>
    <trkpt lat="31.701889" lon="-5.812439"><ele>1955.2</ele></trkpt>
    <trkpt lat="31.701676" lon="-5.812397"><ele>1953.2</ele></trkpt>
    <trkpt lat="31.701066" lon="-5.812922"><ele>1947.5</ele></trkpt>
    <trkpt lat="31.699979" lon="-5.813882"><ele>1947.5</ele></trkpt>
    <trkpt lat="31.699398" lon="-5.815246"><ele>1950.2</ele></trkpt>
    <trkpt lat="31.699273" lon="-5.815423"><ele>1950.8</ele></trkpt>
    <trkpt lat="31.697924" lon="-5.816807"><ele>1960.5</ele></trkpt>
    <trkpt lat="31.696954" lon="-5.817344"><ele>1960.0</ele></trkpt>
    <trkpt lat="31.696300" lon="-5.817446"><ele>1956.8</ele></trkpt>
    <trkpt lat="31.696028" lon="-5.817886"><ele>1956.5</ele></trkpt>
    </trkseg>
  </trk>
</gpx>
