<?xml version="1.0" encoding="UTF-8"?>
<gpx version="1.1" creator="tripplanner (routed with BRouter, gravel profile)" xmlns="http://www.topografix.com/GPX/1/1">
  <metadata>
    <name>M'Goun &amp; Lakes traverse — Day 7: Msemrir → Boumalne Dadès</name>
    <desc>60 km, 890 m. Routed with BRouter (gravel profile) over OSM ways — a plan, not a ridden track.</desc>
  </metadata>
  <trk>
    <name>M'Goun &amp; Lakes traverse — Day 7: Msemrir → Boumalne Dadès</name>
    <trkseg>
    <trkpt lat="31.696028" lon="-5.817886"><ele>1956.2</ele></trkpt>
    <trkpt lat="31.696025" lon="-5.817982"><ele>1957.8</ele></trkpt>
    <trkpt lat="31.695367" lon="-5.817677"><ele>1958.0</ele></trkpt>
    <trkpt lat="31.694575" lon="-5.819154"><ele>1957.0</ele></trkpt>
    <trkpt lat="31.694371" lon="-5.820353"><ele>1949.2</ele></trkpt>
    <trkpt lat="31.694501" lon="-5.820734"><ele>1949.0</ele></trkpt>
    <trkpt lat="31.694918" lon="-5.821086"><ele>1948.5</ele></trkpt>
    <trkpt lat="31.693721" lon="-5.823863"><ele>1945.2</ele></trkpt>
    <trkpt lat="31.692635" lon="-5.825231"><ele>1945.0</ele></trkpt>
    <trkpt lat="31.692205" lon="-5.825483"><ele>1944.5</ele></trkpt>
    <trkpt lat="31.690784" lon="-5.825558"><ele>1941.0</ele></trkpt>
    <trkpt lat="31.690522" lon="-5.825490"><ele>1941.0</ele></trkpt>
    <trkpt lat="31.688729" lon="-5.824825"><ele>1933.2</ele></trkpt>
    <trkpt lat="31.688053" lon="-5.824818"><ele>1932.0</ele></trkpt>
    <trkpt lat="31.687736" lon="-5.824936"><ele>1929.5</ele></trkpt>
    <trkpt lat="31.687564" lon="-5.825047"><ele>1929.5</ele></trkpt>
    <trkpt lat="31.687273" lon="-5.825390"><ele>1929.5</ele></trkpt>
    <trkpt lat="31.686918" lon="-5.826162"><ele>1930.2</ele></trkpt>
    <trkpt lat="31.686371" lon="-5.826332"><ele>1929.2</ele></trkpt>
    <trkpt lat="31.686354" lon="-5.826375"><ele>1929.2</ele></trkpt>
    <trkpt lat="31.686480" lon="-5.827362"><ele>1934.5</ele></trkpt>
    <trkpt lat="31.686208" lon="-5.828192"><ele>1939.5</ele></trkpt>
    <trkpt lat="31.686041" lon="-5.828281"><ele>1940.8</ele></trkpt>
    <trkpt lat="31.686065" lon="-5.828609"><ele>1943.2</ele></trkpt>
    <trkpt lat="31.685793" lon="-5.828997"><ele>1943.2</ele></trkpt>
    <trkpt lat="31.685693" lon="-5.829079"><ele>1943.2</ele></trkpt>
    <trkpt lat="31.684601" lon="-5.829835"><ele>1940.0</ele></trkpt>
    <trkpt lat="31.683580" lon="-5.830936"><ele>1938.5</ele></trkpt>
    <trkpt lat="31.683487" lon="-5.830975"><ele>1938.0</ele></trkpt>
    <trkpt lat="31.682825" lon="-5.831004"><ele>1932.2</ele></trkpt>
    <trkpt lat="31.681855" lon="-5.830450"><ele>1924.8</ele></trkpt>
    <trkpt lat="31.681531" lon="-5.830724"><ele>1923.5</ele></trkpt>
    <trkpt lat="31.681068" lon="-5.831062"><ele>1923.2</ele></trkpt>
    <trkpt lat="31.680604" lon="-5.831468"><ele>1922.0</ele></trkpt>
    <trkpt lat="31.680220" lon="-5.832029"><ele>1921.0</ele></trkpt>
    <trkpt lat="31.679711" lon="-5.833150"><ele>1921.8</ele></trkpt>
    <trkpt lat="31.679201" lon="-5.833653"><ele>1921.5</ele></trkpt>
    <trkpt lat="31.678613" lon="-5.834958"><ele>1920.5</ele></trkpt>
    <trkpt lat="31.678429" lon="-5.834852"><ele>1919.2</ele></trkpt>
    <trkpt lat="31.678081" lon="-5.834026"><ele>1918.5</ele></trkpt>
    <trkpt lat="31.677039" lon="-5.834219"><ele>1917.5</ele></trkpt>
    <trkpt lat="31.675479" lon="-5.834164"><ele>1917.5</ele></trkpt>
    <trkpt lat="31.674363" lon="-5.834443"><ele>1919.8</ele></trkpt>
    <trkpt lat="31.673668" lon="-5.834306"><ele>1922.8</ele></trkpt>
    <trkpt lat="31.673418" lon="-5.834220"><ele>1923.2</ele></trkpt>
    <trkpt lat="31.672989" lon="-5.833988"><ele>1932.8</ele></trkpt>
    <trkpt lat="31.672784" lon="-5.833826"><ele>1934.5</ele></trkpt>
    <trkpt lat="31.672583" lon="-5.833562"><ele>1934.5</ele></trkpt>
    <trkpt lat="31.672352" lon="-5.832961"><ele>1934.5</ele></trkpt>
    <trkpt lat="31.672303" lon="-5.832598"><ele>1934.5</ele></trkpt>
    <trkpt lat="31.672297" lon="-5.832347"><ele>1932.5</ele></trkpt>
    <trkpt lat="31.672491" lon="-5.831125"><ele>1922.2</ele></trkpt>
    <trkpt lat="31.672541" lon="-5.830629"><ele>1921.0</ele></trkpt>
    <trkpt lat="31.672437" lon="-5.830334"><ele>1919.2</ele></trkpt>
    <trkpt lat="31.672204" lon="-5.830167"><ele>1919.2</ele></trkpt>
    <trkpt lat="31.671945" lon="-5.830180"><ele>1919.5</ele></trkpt>
    <trkpt lat="31.671867" lon="-5.830218"><ele>1920.2</ele></trkpt>
    <trkpt lat="31.671530" lon="-5.830523"><ele>1924.5</ele></trkpt>
    <trkpt lat="31.671348" lon="-5.830744"><ele>1924.8</ele></trkpt>
    <trkpt lat="31.670013" lon="-5.832588"><ele>1935.5</ele></trkpt>
    <trkpt lat="31.669889" lon="-5.832704"><ele>1939.5</ele></trkpt>
    <trkpt lat="31.669433" lon="-5.832906"><ele>1939.5</ele></trkpt>
    <trkpt lat="31.669311" lon="-5.832893"><ele>1939.5</ele></trkpt>
    <trkpt lat="31.669099" lon="-5.832753"><ele>1932.8</ele></trkpt>
    <trkpt lat="31.668848" lon="-5.832470"><ele>1919.2</ele></trkpt>
    <trkpt lat="31.668014" lon="-5.831643"><ele>1919.8</ele></trkpt>
    <trkpt lat="31.667333" lon="-5.829962"><ele>1917.8</ele></trkpt>
    <trkpt lat="31.667088" lon="-5.829914"><ele>1917.8</ele></trkpt>
    <trkpt lat="31.666940" lon="-5.829957"><ele>1919.2</ele></trkpt>
    <trkpt lat="31.666431" lon="-5.830296"><ele>1926.0</ele></trkpt>
    <trkpt lat="31.666458" lon="-5.830503"><ele>1930.2</ele></trkpt>
    <trkpt lat="31.667157" lon="-5.831012"><ele>1933.0</ele></trkpt>
    <trkpt lat="31.667119" lon="-5.831205"><ele>1935.8</ele></trkpt>
    <trkpt lat="31.666798" lon="-5.831270"><ele>1941.0</ele></trkpt>
    <trkpt lat="31.665816" lon="-5.831314"><ele>1947.5</ele></trkpt>
    <trkpt lat="31.665587" lon="-5.831270"><ele>1947.5</ele></trkpt>
    <trkpt lat="31.664639" lon="-5.830346"><ele>1950.8</ele></trkpt>
    <trkpt lat="31.664317" lon="-5.830094"><ele>1950.8</ele></trkpt>
    <trkpt lat="31.664037" lon="-5.829970"><ele>1954.8</ele></trkpt>
    <trkpt lat="31.663336" lon="-5.829980"><ele>1972.0</ele></trkpt>
    <trkpt lat="31.662957" lon="-5.830122"><ele>1981.0</ele></trkpt>
    <trkpt lat="31.662838" lon="-5.830190"><ele>1982.8</ele></trkpt>
    <trkpt lat="31.662723" lon="-5.830363"><ele>1984.2</ele></trkpt>
    <trkpt lat="31.662729" lon="-5.830689"><ele>1985.8</ele></trkpt>
    <trkpt lat="31.663619" lon="-5.831761"><ele>1985.8</ele></trkpt>
    <trkpt lat="31.664203" lon="-5.833322"><ele>1986.2</ele></trkpt>
    <trkpt lat="31.664231" lon="-5.833623"><ele>1986.2</ele></trkpt>
    <trkpt lat="31.664130" lon="-5.834485"><ele>2000.8</ele></trkpt>
    <trkpt lat="31.663919" lon="-5.835211"><ele>2000.8</ele></trkpt>
    <trkpt lat="31.663458" lon="-5.835972"><ele>2002.0</ele></trkpt>
    <trkpt lat="31.662805" lon="-5.836624"><ele>2006.0</ele></trkpt>
    <trkpt lat="31.662311" lon="-5.836888"><ele>2006.0</ele></trkpt>
    <trkpt lat="31.662104" lon="-5.836932"><ele>2005.5</ele></trkpt>
    <trkpt lat="31.660912" lon="-5.836864"><ele>1992.2</ele></trkpt>
    <trkpt lat="31.660668" lon="-5.836866"><ele>1992.2</ele></trkpt>
    <trkpt lat="31.660479" lon="-5.837016"><ele>1992.2</ele></trkpt>
    <trkpt lat="31.660134" lon="-5.837540"><ele>2005.2</ele></trkpt>
    <trkpt lat="31.659784" lon="-5.837995"><ele>2017.5</ele></trkpt>
    <trkpt lat="31.659575" lon="-5.838162"><ele>2017.5</ele></trkpt>
    <trkpt lat="31.659280" lon="-5.838140"><ele>2016.5</ele></trkpt>
    <trkpt lat="31.658900" lon="-5.837531"><ele>2005.5</ele></trkpt>
    <trkpt lat="31.658653" lon="-5.837509"><ele>2005.8</ele></trkpt>
    <trkpt lat="31.657916" lon="-5.839404"><ele>2037.8</ele></trkpt>
    <trkpt lat="31.657862" lon="-5.839502"><ele>2038.0</ele></trkpt>
    <trkpt lat="31.656807" lon="-5.840576"><ele>2038.2</ele></trkpt>
    <trkpt lat="31.656752" lon="-5.841004"><ele>2036.8</ele></trkpt>
    <trkpt lat="31.656517" lon="-5.841864"><ele>2040.0</ele></trkpt>
    <trkpt lat="31.656549" lon="-5.842861"><ele>2047.2</ele></trkpt>
    <trkpt lat="31.656134" lon="-5.843733"><ele>2047.2</ele></trkpt>
    <trkpt lat="31.656023" lon="-5.844402"><ele>2053.2</ele></trkpt>
    <trkpt lat="31.655678" lon="-5.844769"><ele>2054.0</ele></trkpt>
    <trkpt lat="31.655139" lon="-5.844810"><ele>2054.5</ele></trkpt>
    <trkpt lat="31.654362" lon="-5.844897"><ele>2052.2</ele></trkpt>
    <trkpt lat="31.654312" lon="-5.844870"><ele>2052.2</ele></trkpt>
    <trkpt lat="31.652728" lon="-5.843971"><ele>2030.8</ele></trkpt>
    <trkpt lat="31.651921" lon="-5.843410"><ele>2030.8</ele></trkpt>
    <trkpt lat="31.651422" lon="-5.843517"><ele>2030.8</ele></trkpt>
    <trkpt lat="31.650703" lon="-5.843978"><ele>2016.8</ele></trkpt>
    <trkpt lat="31.649813" lon="-5.844155"><ele>2003.8</ele></trkpt>
    <trkpt lat="31.648327" lon="-5.843858"><ele>1978.8</ele></trkpt>
    <trkpt lat="31.647524" lon="-5.843281"><ele>1960.8</ele></trkpt>
    <trkpt lat="31.647356" lon="-5.843112"><ele>1959.8</ele></trkpt>
    <trkpt lat="31.646999" lon="-5.842317"><ele>1952.0</ele></trkpt>
    <trkpt lat="31.646971" lon="-5.842315"><ele>1951.0</ele></trkpt>
    <trkpt lat="31.646879" lon="-5.842517"><ele>1949.8</ele></trkpt>
    <trkpt lat="31.647117" lon="-5.843312"><ele>1950.2</ele></trkpt>
    <trkpt lat="31.647697" lon="-5.844075"><ele>1952.8</ele></trkpt>
    <trkpt lat="31.647697" lon="-5.844151"><ele>1952.8</ele></trkpt>
    <trkpt lat="31.647434" lon="-5.845246"><ele>1939.5</ele></trkpt>
    <trkpt lat="31.647351" lon="-5.845185"><ele>1936.8</ele></trkpt>
    <trkpt lat="31.647269" lon="-5.844947"><ele>1936.8</ele></trkpt>
    <trkpt lat="31.647252" lon="-5.844198"><ele>1939.8</ele></trkpt>
    <trkpt lat="31.647205" lon="-5.844177"><ele>1939.8</ele></trkpt>
    <trkpt lat="31.646586" lon="-5.844198"><ele>1926.2</ele></trkpt>
    <trkpt lat="31.646414" lon="-5.844127"><ele>1923.2</ele></trkpt>
    <trkpt lat="31.645440" lon="-5.843055"><ele>1918.0</ele></trkpt>
    <trkpt lat="31.643829" lon="-5.841756"><ele>1900.2</ele></trkpt>
    <trkpt lat="31.642869" lon="-5.841022"><ele>1894.2</ele></trkpt>
    <trkpt lat="31.642450" lon="-5.840894"><ele>1890.5</ele></trkpt>
    <trkpt lat="31.642269" lon="-5.841098"><ele>1885.0</ele></trkpt>
    <trkpt lat="31.642683" lon="-5.842219"><ele>1880.2</ele></trkpt>
    <trkpt lat="31.642716" lon="-5.842416"><ele>1878.0</ele></trkpt>
    <trkpt lat="31.642620" lon="-5.842458"><ele>1876.5</ele></trkpt>
    <trkpt lat="31.642103" lon="-5.841590"><ele>1875.0</ele></trkpt>
    <trkpt lat="31.641050" lon="-5.840205"><ele>1861.8</ele></trkpt>
    <trkpt lat="31.640889" lon="-5.840207"><ele>1858.0</ele></trkpt>
    <trkpt lat="31.640793" lon="-5.840332"><ele>1856.8</ele></trkpt>
    <trkpt lat="31.641100" lon="-5.841213"><ele>1858.2</ele></trkpt>
    <trkpt lat="31.641047" lon="-5.841369"><ele>1855.0</ele></trkpt>
    <trkpt lat="31.640858" lon="-5.841411"><ele>1854.2</ele></trkpt>
    <trkpt lat="31.640714" lon="-5.841384"><ele>1854.2</ele></trkpt>
    <trkpt lat="31.639623" lon="-5.840935"><ele>1857.8</ele></trkpt>
    <trkpt lat="31.637913" lon="-5.841136"><ele>1864.5</ele></trkpt>
    <trkpt lat="31.636263" lon="-5.840989"><ele>1868.8</ele></trkpt>
    <trkpt lat="31.635223" lon="-5.840666"><ele>1869.8</ele></trkpt>
    <trkpt lat="31.634760" lon="-5.840346"><ele>1869.8</ele></trkpt>
    <trkpt lat="31.634266" lon="-5.839920"><ele>1858.0</ele></trkpt>
    <trkpt lat="31.633964" lon="-5.839827"><ele>1857.2</ele></trkpt>
    <trkpt lat="31.632987" lon="-5.840169"><ele>1859.5</ele></trkpt>
    <trkpt lat="31.631338" lon="-5.840179"><ele>1859.5</ele></trkpt>
    <trkpt lat="31.630982" lon="-5.840028"><ele>1854.0</ele></trkpt>
    <trkpt lat="31.630623" lon="-5.839435"><ele>1839.0</ele></trkpt>
    <trkpt lat="31.630518" lon="-5.839390"><ele>1838.0</ele></trkpt>
    <trkpt lat="31.630359" lon="-5.839438"><ele>1838.0</ele></trkpt>
    <trkpt lat="31.630040" lon="-5.840230"><ele>1838.0</ele></trkpt>
    <trkpt lat="31.630008" lon="-5.840636"><ele>1838.0</ele></trkpt>
    <trkpt lat="31.630277" lon="-5.841722"><ele>1839.8</ele></trkpt>
    <trkpt lat="31.630700" lon="-5.842223"><ele>1843.5</ele></trkpt>
    <trkpt lat="31.630652" lon="-5.842510"><ele>1843.5</ele></trkpt>
    <trkpt lat="31.630156" lon="-5.843256"><ele>1838.0</ele></trkpt>
    <trkpt lat="31.630493" lon="-5.844287"><ele>1833.2</ele></trkpt>
    <trkpt lat="31.630540" lon="-5.844611"><ele>1833.2</ele></trkpt>
    <trkpt lat="31.630310" lon="-5.845445"><ele>1834.0</ele></trkpt>
    <trkpt lat="31.629925" lon="-5.846188"><ele>1834.0</ele></trkpt>
    <trkpt lat="31.629605" lon="-5.847395"><ele>1832.5</ele></trkpt>
    <trkpt lat="31.629163" lon="-5.847833"><ele>1832.5</ele></trkpt>
    <trkpt lat="31.628800" lon="-5.847995"><ele>1834.2</ele></trkpt>
    <trkpt lat="31.627634" lon="-5.847996"><ele>1835.5</ele></trkpt>
    <trkpt lat="31.627308" lon="-5.848066"><ele>1831.0</ele></trkpt>
    <trkpt lat="31.626390" lon="-5.847693"><ele>1826.8</ele></trkpt>
    <trkpt lat="31.625901" lon="-5.847535"><ele>1826.8</ele></trkpt>
    <trkpt lat="31.624521" lon="-5.847404"><ele>1826.5</ele></trkpt>
    <trkpt lat="31.624183" lon="-5.847590"><ele>1825.8</ele></trkpt>
    <trkpt lat="31.623311" lon="-5.848499"><ele>1824.5</ele></trkpt>
    <trkpt lat="31.621801" lon="-5.849609"><ele>1826.2</ele></trkpt>
    <trkpt lat="31.621311" lon="-5.850411"><ele>1828.0</ele></trkpt>
    <trkpt lat="31.621219" lon="-5.850615"><ele>1826.2</ele></trkpt>
    <trkpt lat="31.620912" lon="-5.852150"><ele>1824.5</ele></trkpt>
    <trkpt lat="31.621133" lon="-5.855467"><ele>1818.5</ele></trkpt>
    <trkpt lat="31.621115" lon="-5.855801"><ele>1816.8</ele></trkpt>
    <trkpt lat="31.620992" lon="-5.856039"><ele>1816.2</ele></trkpt>
    <trkpt lat="31.620936" lon="-5.856088"><ele>1816.2</ele></trkpt>
    <trkpt lat="31.620544" lon="-5.856131"><ele>1816.2</ele></trkpt>
    <trkpt lat="31.619718" lon="-5.855596"><ele>1822.5</ele></trkpt>
    <trkpt lat="31.618791" lon="-5.855324"><ele>1822.8</ele></trkpt>
    <trkpt lat="31.618500" lon="-5.855284"><ele>1823.0</ele></trkpt>
    <trkpt lat="31.617745" lon="-5.855239"><ele>1828.5</ele></trkpt>
    <trkpt lat="31.617330" lon="-5.855329"><ele>1834.2</ele></trkpt>
    <trkpt lat="31.617199" lon="-5.855399"><ele>1837.0</ele></trkpt>
    <trkpt lat="31.616820" lon="-5.855795"><ele>1837.0</ele></trkpt>
    <trkpt lat="31.616765" lon="-5.855945"><ele>1837.0</ele></trkpt>
    <trkpt lat="31.616333" lon="-5.857311"><ele>1830.8</ele></trkpt>
    <trkpt lat="31.616011" lon="-5.857902"><ele>1829.5</ele></trkpt>
    <trkpt lat="31.615090" lon="-5.858989"><ele>1826.5</ele></trkpt>
    <trkpt lat="31.614371" lon="-5.859205"><ele>1824.8</ele></trkpt>
    <trkpt lat="31.612808" lon="-5.858918"><ele>1819.8</ele></trkpt>
    <trkpt lat="31.611938" lon="-5.858303"><ele>1819.2</ele></trkpt>
    <trkpt lat="31.610148" lon="-5.857141"><ele>1808.0</ele></trkpt>
    <trkpt lat="31.609864" lon="-5.857074"><ele>1807.0</ele></trkpt>
    <trkpt lat="31.608644" lon="-5.856882"><ele>1806.8</ele></trkpt>
    <trkpt lat="31.607549" lon="-5.857315"><ele>1808.5</ele></trkpt>
    <trkpt lat="31.606871" lon="-5.857789"><ele>1811.2</ele></trkpt>
    <trkpt lat="31.605794" lon="-5.858911"><ele>1816.8</ele></trkpt>
    <trkpt lat="31.605762" lon="-5.859015"><ele>1816.8</ele></trkpt>
    <trkpt lat="31.605845" lon="-5.860096"><ele>1805.5</ele></trkpt>
    <trkpt lat="31.605814" lon="-5.861105"><ele>1804.5</ele></trkpt>
    <trkpt lat="31.605492" lon="-5.862641"><ele>1804.5</ele></trkpt>
    <trkpt lat="31.604965" lon="-5.863788"><ele>1804.5</ele></trkpt>
    <trkpt lat="31.604006" lon="-5.865262"><ele>1797.2</ele></trkpt>
    <trkpt lat="31.602635" lon="-5.865610"><ele>1797.0</ele></trkpt>
    <trkpt lat="31.601328" lon="-5.865549"><ele>1798.0</ele></trkpt>
    <trkpt lat="31.598630" lon="-5.864928"><ele>1798.2</ele></trkpt>
    <trkpt lat="31.597593" lon="-5.864806"><ele>1799.2</ele></trkpt>
    <trkpt lat="31.597164" lon="-5.864881"><ele>1799.2</ele></trkpt>
    <trkpt lat="31.596665" lon="-5.865106"><ele>1799.2</ele></trkpt>
    <trkpt lat="31.595347" lon="-5.866144"><ele>1798.5</ele></trkpt>
    <trkpt lat="31.594586" lon="-5.866989"><ele>1796.0</ele></trkpt>
    <trkpt lat="31.594123" lon="-5.867740"><ele>1796.0</ele></trkpt>
    <trkpt lat="31.593457" lon="-5.868321"><ele>1796.8</ele></trkpt>
    <trkpt lat="31.593085" lon="-5.869215"><ele>1798.0</ele></trkpt>
    <trkpt lat="31.592980" lon="-5.870288"><ele>1798.2</ele></trkpt>
    <trkpt lat="31.593119" lon="-5.871956"><ele>1798.8</ele></trkpt>
    <trkpt lat="31.593144" lon="-5.872288"><ele>1797.2</ele></trkpt>
    <trkpt lat="31.593307" lon="-5.872827"><ele>1796.0</ele></trkpt>
    <trkpt lat="31.593531" lon="-5.873292"><ele>1794.0</ele></trkpt>
    <trkpt lat="31.593873" lon="-5.873873"><ele>1782.8</ele></trkpt>
    <trkpt lat="31.593787" lon="-5.874317"><ele>1782.0</ele></trkpt>
    <trkpt lat="31.591325" lon="-5.874516"><ele>1780.8</ele></trkpt>
    <trkpt lat="31.591218" lon="-5.874535"><ele>1780.2</ele></trkpt>
    <trkpt lat="31.590669" lon="-5.874750"><ele>1780.8</ele></trkpt>
    <trkpt lat="31.589516" lon="-5.874639"><ele>1784.8</ele></trkpt>
    <trkpt lat="31.588882" lon="-5.875078"><ele>1781.2</ele></trkpt>
    <trkpt lat="31.587275" lon="-5.875513"><ele>1781.8</ele></trkpt>
    <trkpt lat="31.583215" lon="-5.875239"><ele>1786.2</ele></trkpt>
    <trkpt lat="31.582901" lon="-5.875331"><ele>1786.0</ele></trkpt>
    <trkpt lat="31.582324" lon="-5.875673"><ele>1782.0</ele></trkpt>
    <trkpt lat="31.581536" lon="-5.876304"><ele>1781.5</ele></trkpt>
    <trkpt lat="31.580473" lon="-5.877610"><ele>1774.0</ele></trkpt>
    <trkpt lat="31.580074" lon="-5.878596"><ele>1770.0</ele></trkpt>
    <trkpt lat="31.579857" lon="-5.879065"><ele>1770.0</ele></trkpt>
    <trkpt lat="31.579252" lon="-5.879540"><ele>1772.2</ele></trkpt>
    <trkpt lat="31.578935" lon="-5.879780"><ele>1784.2</ele></trkpt>
    <trkpt lat="31.578773" lon="-5.879992"><ele>1791.0</ele></trkpt>
    <trkpt lat="31.578721" lon="-5.880078"><ele>1793.0</ele></trkpt>
    <trkpt lat="31.578636" lon="-5.880472"><ele>1793.5</ele></trkpt>
    <trkpt lat="31.578637" lon="-5.881089"><ele>1795.0</ele></trkpt>
    <trkpt lat="31.578758" lon="-5.881551"><ele>1793.2</ele></trkpt>
    <trkpt lat="31.578821" lon="-5.881639"><ele>1793.2</ele></trkpt>
    <trkpt lat="31.579306" lon="-5.882017"><ele>1781.8</ele></trkpt>
    <trkpt lat="31.579427" lon="-5.882096"><ele>1781.8</ele></trkpt>
    <trkpt lat="31.579926" lon="-5.882795"><ele>1781.5</ele></trkpt>
    <trkpt lat="31.580061" lon="-5.882898"><ele>1781.5</ele></trkpt>
    <trkpt lat="31.580403" lon="-5.883145"><ele>1778.8</ele></trkpt>
    <trkpt lat="31.581152" lon="-5.884136"><ele>1771.8</ele></trkpt>
    <trkpt lat="31.581429" lon="-5.884713"><ele>1767.5</ele></trkpt>
    <trkpt lat="31.581469" lon="-5.885664"><ele>1767.2</ele></trkpt>
    <trkpt lat="31.580806" lon="-5.887013"><ele>1771.5</ele></trkpt>
    <trkpt lat="31.580753" lon="-5.887159"><ele>1771.5</ele></trkpt>
    <trkpt lat="31.580658" lon="-5.887724"><ele>1764.2</ele></trkpt>
    <trkpt lat="31.580602" lon="-5.887799"><ele>1763.8</ele></trkpt>
    <trkpt lat="31.580501" lon="-5.887854"><ele>1763.8</ele></trkpt>
    <trkpt lat="31.580272" lon="-5.887750"><ele>1764.2</ele></trkpt>
    <trkpt lat="31.579307" lon="-5.886633"><ele>1770.8</ele></trkpt>
    <trkpt lat="31.578838" lon="-5.886324"><ele>1775.2</ele></trkpt>
    <trkpt lat="31.577666" lon="-5.886234"><ele>1777.8</ele></trkpt>
    <trkpt lat="31.576941" lon="-5.886609"><ele>1778.5</ele></trkpt>
    <trkpt lat="31.576426" lon="-5.887111"><ele>1779.0</ele></trkpt>
    <trkpt lat="31.576196" lon="-5.887391"><ele>1779.0</ele></trkpt>
    <trkpt lat="31.575976" lon="-5.887910"><ele>1779.0</ele></trkpt>
    <trkpt lat="31.575537" lon="-5.889308"><ele>1776.2</ele></trkpt>
    <trkpt lat="31.574880" lon="-5.892915"><ele>1768.5</ele></trkpt>
    <trkpt lat="31.574337" lon="-5.893905"><ele>1768.5</ele></trkpt>
    <trkpt lat="31.574003" lon="-5.894209"><ele>1768.5</ele></trkpt>
    <trkpt lat="31.573827" lon="-5.894323"><ele>1769.8</ele></trkpt>
    <trkpt lat="31.573331" lon="-5.894519"><ele>1773.5</ele></trkpt>
    <trkpt lat="31.571317" lon="-5.894634"><ele>1777.8</ele></trkpt>
    <trkpt lat="31.570891" lon="-5.894774"><ele>1779.0</ele></trkpt>
    <trkpt lat="31.569621" lon="-5.895988"><ele>1787.5</ele></trkpt>
    <trkpt lat="31.569564" lon="-5.896108"><ele>1787.5</ele></trkpt>
    <trkpt lat="31.569409" lon="-5.898052"><ele>1787.5</ele></trkpt>
    <trkpt lat="31.569246" lon="-5.898549"><ele>1785.8</ele></trkpt>
    <trkpt lat="31.569015" lon="-5.898612"><ele>1783.2</ele></trkpt>
    <trkpt lat="31.568788" lon="-5.898497"><ele>1782.5</ele></trkpt>
    <trkpt lat="31.568694" lon="-5.897628"><ele>1785.5</ele></trkpt>
    <trkpt lat="31.568464" lon="-5.897530"><ele>1785.5</ele></trkpt>
    <trkpt lat="31.568253" lon="-5.897711"><ele>1784.2</ele></trkpt>
    <trkpt lat="31.567713" lon="-5.898824"><ele>1784.2</ele></trkpt>
    <trkpt lat="31.566614" lon="-5.899400"><ele>1786.5</ele></trkpt>
    <trkpt lat="31.566513" lon="-5.899522"><ele>1786.5</ele></trkpt>
    <trkpt lat="31.566268" lon="-5.900199"><ele>1779.8</ele></trkpt>
    <trkpt lat="31.566025" lon="-5.900191"><ele>1778.0</ele></trkpt>
    <trkpt lat="31.565902" lon="-5.900033"><ele>1778.0</ele></trkpt>
    <trkpt lat="31.565585" lon="-5.899607"><ele>1786.0</ele></trkpt>
    <trkpt lat="31.565290" lon="-5.899776"><ele>1787.8</ele></trkpt>
    <trkpt lat="31.565258" lon="-5.899827"><ele>1787.8</ele></trkpt>
    <trkpt lat="31.565286" lon="-5.900299"><ele>1783.8</ele></trkpt>
    <trkpt lat="31.565590" lon="-5.900980"><ele>1771.8</ele></trkpt>
    <trkpt lat="31.565640" lon="-5.901412"><ele>1767.0</ele></trkpt>
    <trkpt lat="31.565626" lon="-5.901935"><ele>1767.0</ele></trkpt>
    <trkpt lat="31.565433" lon="-5.902490"><ele>1766.2</ele></trkpt>
    <trkpt lat="31.565494" lon="-5.903309"><ele>1764.2</ele></trkpt>
    <trkpt lat="31.564811" lon="-5.904196"><ele>1765.5</ele></trkpt>
    <trkpt lat="31.564635" lon="-5.904787"><ele>1765.2</ele></trkpt>
    <trkpt lat="31.564582" lon="-5.905285"><ele>1751.2</ele></trkpt>
    <trkpt lat="31.564503" lon="-5.905563"><ele>1748.5</ele></trkpt>
    <trkpt lat="31.563896" lon="-5.907105"><ele>1735.0</ele></trkpt>
    <trkpt lat="31.563849" lon="-5.907197"><ele>1733.8</ele></trkpt>
    <trkpt lat="31.563702" lon="-5.907356"><ele>1733.8</ele></trkpt>
    <trkpt lat="31.563268" lon="-5.907363"><ele>1734.0</ele></trkpt>
    <trkpt lat="31.562538" lon="-5.906944"><ele>1733.8</ele></trkpt>
    <trkpt lat="31.561633" lon="-5.906637"><ele>1733.2</ele></trkpt>
    <trkpt lat="31.560629" lon="-5.906737"><ele>1732.0</ele></trkpt>
    <trkpt lat="31.560041" lon="-5.907198"><ele>1731.2</ele></trkpt>
    <trkpt lat="31.559465" lon="-5.908003"><ele>1730.8</ele></trkpt>
    <trkpt lat="31.558792" lon="-5.909104"><ele>1717.8</ele></trkpt>
    <trkpt lat="31.558703" lon="-5.909188"><ele>1717.0</ele></trkpt>
    <trkpt lat="31.558254" lon="-5.909410"><ele>1717.0</ele></trkpt>
    <trkpt lat="31.557169" lon="-5.909143"><ele>1717.8</ele></trkpt>
    <trkpt lat="31.556972" lon="-5.909031"><ele>1718.0</ele></trkpt>
    <trkpt lat="31.556479" lon="-5.908642"><ele>1725.0</ele></trkpt>
    <trkpt lat="31.555910" lon="-5.908317"><ele>1761.8</ele></trkpt>
    <trkpt lat="31.555675" lon="-5.908297"><ele>1776.8</ele></trkpt>
    <trkpt lat="31.555288" lon="-5.908300"><ele>1801.2</ele></trkpt>
    <trkpt lat="31.554570" lon="-5.908324"><ele>1801.2</ele></trkpt>
    <trkpt lat="31.554329" lon="-5.908233"><ele>1801.2</ele></trkpt>
    <trkpt lat="31.553771" lon="-5.907876"><ele>1765.5</ele></trkpt>
    <trkpt lat="31.553301" lon="-5.907727"><ele>1737.2</ele></trkpt>
    <trkpt lat="31.552452" lon="-5.907652"><ele>1723.0</ele></trkpt>
    <trkpt lat="31.552374" lon="-5.907651"><ele>1722.2</ele></trkpt>
    <trkpt lat="31.551990" lon="-5.907790"><ele>1719.8</ele></trkpt>
    <trkpt lat="31.551498" lon="-5.908225"><ele>1719.0</ele></trkpt>
    <trkpt lat="31.550359" lon="-5.909665"><ele>1719.0</ele></trkpt>
    <trkpt lat="31.549420" lon="-5.910403"><ele>1719.5</ele></trkpt>
    <trkpt lat="31.548683" lon="-5.911275"><ele>1719.0</ele></trkpt>
    <trkpt lat="31.547034" lon="-5.912293"><ele>1717.8</ele></trkpt>
    <trkpt lat="31.546228" lon="-5.913143"><ele>1724.2</ele></trkpt>
    <trkpt lat="31.545625" lon="-5.913383"><ele>1728.0</ele></trkpt>
    <trkpt lat="31.544696" lon="-5.913450"><ele>1743.8</ele></trkpt>
    <trkpt lat="31.543682" lon="-5.914002"><ele>1744.2</ele></trkpt>
    <trkpt lat="31.543597" lon="-5.914091"><ele>1746.2</ele></trkpt>
    <trkpt lat="31.543242" lon="-5.914812"><ele>1744.0</ele></trkpt>
    <trkpt lat="31.542188" lon="-5.915988"><ele>1743.0</ele></trkpt>
    <trkpt lat="31.541890" lon="-5.916227"><ele>1744.0</ele></trkpt>
    <trkpt lat="31.541198" lon="-5.916462"><ele>1747.2</ele></trkpt>
    <trkpt lat="31.541158" lon="-5.916536"><ele>1747.2</ele></trkpt>
    <trkpt lat="31.541159" lon="-5.916795"><ele>1741.0</ele></trkpt>
    <trkpt lat="31.541239" lon="-5.917346"><ele>1730.0</ele></trkpt>
    <trkpt lat="31.541230" lon="-5.917496"><ele>1728.0</ele></trkpt>
    <trkpt lat="31.541206" lon="-5.917596"><ele>1727.2</ele></trkpt>
    <trkpt lat="31.541107" lon="-5.917737"><ele>1727.2</ele></trkpt>
    <trkpt lat="31.540126" lon="-5.917599"><ele>1735.8</ele></trkpt>
    <trkpt lat="31.539375" lon="-5.917848"><ele>1735.8</ele></trkpt>
    <trkpt lat="31.539125" lon="-5.918184"><ele>1726.2</ele></trkpt>
    <trkpt lat="31.538576" lon="-5.919048"><ele>1726.2</ele></trkpt>
    <trkpt lat="31.538493" lon="-5.919080"><ele>1726.5</ele></trkpt>
    <trkpt lat="31.537797" lon="-5.919064"><ele>1739.8</ele></trkpt>
    <trkpt lat="31.537629" lon="-5.919120"><ele>1741.8</ele></trkpt>
    <trkpt lat="31.536973" lon="-5.919478"><ele>1805.0</ele></trkpt>
    <trkpt lat="31.536882" lon="-5.919567"><ele>1811.2</ele></trkpt>
    <trkpt lat="31.536472" lon="-5.920077"><ele>1811.2</ele></trkpt>
    <trkpt lat="31.536412" lon="-5.920156"><ele>1803.0</ele></trkpt>
    <trkpt lat="31.536380" lon="-5.920360"><ele>1786.0</ele></trkpt>
    <trkpt lat="31.536470" lon="-5.920607"><ele>1764.8</ele></trkpt>
    <trkpt lat="31.536463" lon="-5.920700"><ele>1759.8</ele></trkpt>
    <trkpt lat="31.536423" lon="-5.920772"><ele>1759.8</ele></trkpt>
    <trkpt lat="31.535888" lon="-5.920994"><ele>1756.8</ele></trkpt>
    <trkpt lat="31.535977" lon="-5.921579"><ele>1755.0</ele></trkpt>
    <trkpt lat="31.535829" lon="-5.921705"><ele>1755.0</ele></trkpt>
    <trkpt lat="31.535340" lon="-5.921913"><ele>1776.5</ele></trkpt>
    <trkpt lat="31.535042" lon="-5.922684"><ele>1776.5</ele></trkpt>
    <trkpt lat="31.534963" lon="-5.923302"><ele>1777.5</ele></trkpt>
    <trkpt lat="31.534721" lon="-5.923581"><ele>1779.2</ele></trkpt>
    <trkpt lat="31.534314" lon="-5.923616"><ele>1784.0</ele></trkpt>
    <trkpt lat="31.533639" lon="-5.922941"><ele>1804.0</ele></trkpt>
    <trkpt lat="31.533484" lon="-5.922882"><ele>1804.8</ele></trkpt>
    <trkpt lat="31.533006" lon="-5.923666"><ele>1799.8</ele></trkpt>
    <trkpt lat="31.532925" lon="-5.923671"><ele>1799.8</ele></trkpt>
    <trkpt lat="31.532670" lon="-5.923515"><ele>1809.2</ele></trkpt>
    <trkpt lat="31.532413" lon="-5.923423"><ele>1809.2</ele></trkpt>
    <trkpt lat="31.531739" lon="-5.923781"><ele>1807.2</ele></trkpt>
    <trkpt lat="31.531197" lon="-5.923800"><ele>1807.2</ele></trkpt>
    <trkpt lat="31.530900" lon="-5.923724"><ele>1814.5</ele></trkpt>
    <trkpt lat="31.530734" lon="-5.923786"><ele>1814.5</ele></trkpt>
    <trkpt lat="31.530669" lon="-5.923917"><ele>1814.5</ele></trkpt>
    <trkpt lat="31.530385" lon="-5.924909"><ele>1793.8</ele></trkpt>
    <trkpt lat="31.530090" lon="-5.925231"><ele>1793.5</ele></trkpt>
    <trkpt lat="31.529846" lon="-5.925224"><ele>1793.5</ele></trkpt>
    <trkpt lat="31.529396" lon="-5.924844"><ele>1800.0</ele></trkpt>
    <trkpt lat="31.528253" lon="-5.924712"><ele>1800.0</ele></trkpt>
    <trkpt lat="31.528110" lon="-5.924748"><ele>1799.5</ele></trkpt>
    <trkpt lat="31.527719" lon="-5.925065"><ele>1782.5</ele></trkpt>
    <trkpt lat="31.527677" lon="-5.925085"><ele>1782.0</ele></trkpt>
    <trkpt lat="31.527461" lon="-5.925064"><ele>1781.8</ele></trkpt>
    <trkpt lat="31.527429" lon="-5.925169"><ele>1780.8</ele></trkpt>
    <trkpt lat="31.527563" lon="-5.925213"><ele>1780.8</ele></trkpt>
    <trkpt lat="31.528202" lon="-5.924960"><ele>1787.0</ele></trkpt>
    <trkpt lat="31.528335" lon="-5.924998"><ele>1787.0</ele></trkpt>
    <trkpt lat="31.528549" lon="-5.925178"><ele>1783.0</ele></trkpt>
    <trkpt lat="31.529166" lon="-5.925174"><ele>1779.0</ele></trkpt>
    <trkpt lat="31.529167" lon="-5.925315"><ele>1775.5</ele></trkpt>
    <trkpt lat="31.528914" lon="-5.925228"><ele>1772.5</ele></trkpt>
    <trkpt lat="31.528881" lon="-5.925226"><ele>1772.5</ele></trkpt>
    <trkpt lat="31.528529" lon="-5.925367"><ele>1772.8</ele></trkpt>
    <trkpt lat="31.527974" lon="-5.925311"><ele>1774.2</ele></trkpt>
    <trkpt lat="31.527223" lon="-5.925775"><ele>1776.8</ele></trkpt>
    <trkpt lat="31.527767" lon="-5.925667"><ele>1767.8</ele></trkpt>
    <trkpt lat="31.528019" lon="-5.925522"><ele>1767.5</ele></trkpt>
    <trkpt lat="31.528132" lon="-5.925596"><ele>1764.2</ele></trkpt>
    <trkpt lat="31.528083" lon="-5.925706"><ele>1764.2</ele></trkpt>
    <trkpt lat="31.527782" lon="-5.925803"><ele>1764.2</ele></trkpt>
    <trkpt lat="31.527006" lon="-5.926081"><ele>1784.0</ele></trkpt>
    <trkpt lat="31.526839" lon="-5.925848"><ele>1787.2</ele></trkpt>
    <trkpt lat="31.526659" lon="-5.925814"><ele>1789.5</ele></trkpt>
    <trkpt lat="31.526160" lon="-5.926264"><ele>1813.2</ele></trkpt>
    <trkpt lat="31.525837" lon="-5.926469"><ele>1814.2</ele></trkpt>
    <trkpt lat="31.525252" lon="-5.926509"><ele>1814.2</ele></trkpt>
    <trkpt lat="31.524736" lon="-5.926873"><ele>1803.0</ele></trkpt>
    <trkpt lat="31.524224" lon="-5.927046"><ele>1790.8</ele></trkpt>
    <trkpt lat="31.523750" lon="-5.927294"><ele>1759.5</ele></trkpt>
    <trkpt lat="31.523400" lon="-5.927423"><ele>1744.0</ele></trkpt>
    <trkpt lat="31.523184" lon="-5.927534"><ele>1740.2</ele></trkpt>
    <trkpt lat="31.522689" lon="-5.927991"><ele>1738.2</ele></trkpt>
    <trkpt lat="31.522232" lon="-5.928429"><ele>1723.2</ele></trkpt>
    <trkpt lat="31.521724" lon="-5.928998"><ele>1697.5</ele></trkpt>
    <trkpt lat="31.520959" lon="-5.929907"><ele>1697.5</ele></trkpt>
    <trkpt lat="31.520623" lon="-5.930151"><ele>1697.5</ele></trkpt>
    <trkpt lat="31.520054" lon="-5.930465"><ele>1722.5</ele></trkpt>
    <trkpt lat="31.519000" lon="-5.931381"><ele>1722.5</ele></trkpt>
    <trkpt lat="31.518053" lon="-5.931968"><ele>1722.5</ele></trkpt>
    <trkpt lat="31.515887" lon="-5.933138"><ele>1704.5</ele></trkpt>
    <trkpt lat="31.514587" lon="-5.933631"><ele>1698.8</ele></trkpt>
    <trkpt lat="31.513059" lon="-5.934799"><ele>1698.8</ele></trkpt>
    <trkpt lat="31.512252" lon="-5.935691"><ele>1691.2</ele></trkpt>
    <trkpt lat="31.511669" lon="-5.936604"><ele>1677.5</ele></trkpt>
    <trkpt lat="31.511156" lon="-5.937410"><ele>1676.2</ele></trkpt>
    <trkpt lat="31.511424" lon="-5.937649"><ele>1672.8</ele></trkpt>
    <trkpt lat="31.511048" lon="-5.938666"><ele>1670.5</ele></trkpt>
    <trkpt lat="31.509680" lon="-5.940059"><ele>1664.0</ele></trkpt>
    <trkpt lat="31.509106" lon="-5.940628"><ele>1663.8</ele></trkpt>
    <trkpt lat="31.509154" lon="-5.940737"><ele>1663.8</ele></trkpt>
    <trkpt lat="31.508901" lon="-5.941399"><ele>1664.2</ele></trkpt>
    <trkpt lat="31.509600" lon="-5.941430"><ele>1665.2</ele></trkpt>
    <trkpt lat="31.509718" lon="-5.941571"><ele>1666.5</ele></trkpt>
    <trkpt lat="31.509550" lon="-5.941771"><ele>1667.2</ele></trkpt>
    <trkpt lat="31.508763" lon="-5.944251"><ele>1669.5</ele></trkpt>
    <trkpt lat="31.507357" lon="-5.945575"><ele>1667.8</ele></trkpt>
    <trkpt lat="31.506922" lon="-5.946320"><ele>1667.5</ele></trkpt>
    <trkpt lat="31.503911" lon="-5.946476"><ele>1664.5</ele></trkpt>
    <trkpt lat="31.502452" lon="-5.946109"><ele>1663.2</ele></trkpt>
    <trkpt lat="31.500543" lon="-5.946207"><ele>1666.5</ele></trkpt>
    <trkpt lat="31.499127" lon="-5.947105"><ele>1667.0</ele></trkpt>
    <trkpt lat="31.497700" lon="-5.947603"><ele>1662.8</ele></trkpt>
    <trkpt lat="31.497200" lon="-5.947922"><ele>1661.5</ele></trkpt>
    <trkpt lat="31.496239" lon="-5.949502"><ele>1659.5</ele></trkpt>
    <trkpt lat="31.496150" lon="-5.949963"><ele>1660.2</ele></trkpt>
    <trkpt lat="31.495577" lon="-5.950156"><ele>1659.8</ele></trkpt>
    <trkpt lat="31.494611" lon="-5.950935"><ele>1657.5</ele></trkpt>
    <trkpt lat="31.494261" lon="-5.951090"><ele>1657.5</ele></trkpt>
    <trkpt lat="31.494040" lon="-5.951178"><ele>1656.8</ele></trkpt>
    <trkpt lat="31.490778" lon="-5.951556"><ele>1646.2</ele></trkpt>
    <trkpt lat="31.490153" lon="-5.951700"><ele>1646.2</ele></trkpt>
    <trkpt lat="31.489716" lon="-5.952204"><ele>1649.8</ele></trkpt>
    <trkpt lat="31.488907" lon="-5.953690"><ele>1652.2</ele></trkpt>
    <trkpt lat="31.486819" lon="-5.955552"><ele>1645.8</ele></trkpt>
    <trkpt lat="31.486075" lon="-5.955767"><ele>1645.8</ele></trkpt>
    <trkpt lat="31.484874" lon="-5.956448"><ele>1646.0</ele></trkpt>
    <trkpt lat="31.483934" lon="-5.957436"><ele>1646.5</ele></trkpt>
    <trkpt lat="31.482498" lon="-5.958363"><ele>1647.2</ele></trkpt>
    <trkpt lat="31.481657" lon="-5.959494"><ele>1649.0</ele></trkpt>
    <trkpt lat="31.480253" lon="-5.960748"><ele>1653.0</ele></trkpt>
    <trkpt lat="31.479613" lon="-5.961001"><ele>1653.0</ele></trkpt>
    <trkpt lat="31.477743" lon="-5.961631"><ele>1642.5</ele></trkpt>
    <trkpt lat="31.477609" lon="-5.961720"><ele>1642.5</ele></trkpt>
    <trkpt lat="31.477352" lon="-5.962064"><ele>1642.5</ele></trkpt>
    <trkpt lat="31.476942" lon="-5.963224"><ele>1643.5</ele></trkpt>
    <trkpt lat="31.475593" lon="-5.964737"><ele>1641.8</ele></trkpt>
    <trkpt lat="31.474930" lon="-5.965170"><ele>1641.8</ele></trkpt>
    <trkpt lat="31.473142" lon="-5.965979"><ele>1640.8</ele></trkpt>
    <trkpt lat="31.471338" lon="-5.966300"><ele>1639.0</ele></trkpt>
    <trkpt lat="31.470009" lon="-5.967369"><ele>1638.8</ele></trkpt>
    <trkpt lat="31.469636" lon="-5.967395"><ele>1638.5</ele></trkpt>
    <trkpt lat="31.468766" lon="-5.967144"><ele>1636.5</ele></trkpt>
    <trkpt lat="31.468327" lon="-5.967208"><ele>1636.5</ele></trkpt>
    <trkpt lat="31.467323" lon="-5.968210"><ele>1636.2</ele></trkpt>
    <trkpt lat="31.466021" lon="-5.969599"><ele>1629.5</ele></trkpt>
    <trkpt lat="31.463514" lon="-5.972208"><ele>1629.5</ele></trkpt>
    <trkpt lat="31.460365" lon="-5.974617"><ele>1634.8</ele></trkpt>
    <trkpt lat="31.458564" lon="-5.975009"><ele>1634.0</ele></trkpt>
    <trkpt lat="31.458123" lon="-5.976194"><ele>1637.5</ele></trkpt>
    <trkpt lat="31.457602" lon="-5.976182"><ele>1641.0</ele></trkpt>
    <trkpt lat="31.457342" lon="-5.975482"><ele>1638.2</ele></trkpt>
    <trkpt lat="31.457165" lon="-5.975299"><ele>1638.2</ele></trkpt>
    <trkpt lat="31.456267" lon="-5.975276"><ele>1640.0</ele></trkpt>
    <trkpt lat="31.455947" lon="-5.975082"><ele>1640.0</ele></trkpt>
    <trkpt lat="31.453701" lon="-5.972416"><ele>1636.2</ele></trkpt>
    <trkpt lat="31.453513" lon="-5.971986"><ele>1634.2</ele></trkpt>
    <trkpt lat="31.453489" lon="-5.971155"><ele>1624.8</ele></trkpt>
    <trkpt lat="31.453406" lon="-5.970878"><ele>1622.8</ele></trkpt>
    <trkpt lat="31.453360" lon="-5.970763"><ele>1622.8</ele></trkpt>
    <trkpt lat="31.452364" lon="-5.969118"><ele>1621.2</ele></trkpt>
    <trkpt lat="31.451124" lon="-5.969224"><ele>1620.0</ele></trkpt>
    <trkpt lat="31.450997" lon="-5.969266"><ele>1620.0</ele></trkpt>
    <trkpt lat="31.450466" lon="-5.969971"><ele>1623.5</ele></trkpt>
    <trkpt lat="31.449874" lon="-5.970059"><ele>1623.8</ele></trkpt>
    <trkpt lat="31.449723" lon="-5.970110"><ele>1624.2</ele></trkpt>
    <trkpt lat="31.449474" lon="-5.970269"><ele>1626.0</ele></trkpt>
    <trkpt lat="31.449226" lon="-5.970780"><ele>1632.5</ele></trkpt>
    <trkpt lat="31.449178" lon="-5.971590"><ele>1638.2</ele></trkpt>
    <trkpt lat="31.449080" lon="-5.972333"><ele>1638.8</ele></trkpt>
    <trkpt lat="31.448840" lon="-5.972626"><ele>1639.0</ele></trkpt>
    <trkpt lat="31.447826" lon="-5.973178"><ele>1639.5</ele></trkpt>
    <trkpt lat="31.447659" lon="-5.973682"><ele>1639.5</ele></trkpt>
    <trkpt lat="31.448113" lon="-5.975310"><ele>1641.8</ele></trkpt>
    <trkpt lat="31.448956" lon="-5.976321"><ele>1643.8</ele></trkpt>
    <trkpt lat="31.448932" lon="-5.976542"><ele>1643.8</ele></trkpt>
    <trkpt lat="31.448402" lon="-5.977997"><ele>1637.5</ele></trkpt>
    <trkpt lat="31.448506" lon="-5.978121"><ele>1637.5</ele></trkpt>
    <trkpt lat="31.448572" lon="-5.978137"><ele>1637.5</ele></trkpt>
    <trkpt lat="31.449136" lon="-5.978231"><ele>1647.5</ele></trkpt>
    <trkpt lat="31.449287" lon="-5.978379"><ele>1652.0</ele></trkpt>
    <trkpt lat="31.449283" lon="-5.978579"><ele>1652.2</ele></trkpt>
    <trkpt lat="31.449092" lon="-5.978813"><ele>1652.2</ele></trkpt>
    <trkpt lat="31.448588" lon="-5.979351"><ele>1643.0</ele></trkpt>
    <trkpt lat="31.448264" lon="-5.979707"><ele>1643.0</ele></trkpt>
    <trkpt lat="31.448035" lon="-5.980460"><ele>1648.8</ele></trkpt>
    <trkpt lat="31.447876" lon="-5.980546"><ele>1648.8</ele></trkpt>
    <trkpt lat="31.447759" lon="-5.980532"><ele>1648.8</ele></trkpt>
    <trkpt lat="31.446977" lon="-5.980427"><ele>1638.8</ele></trkpt>
    <trkpt lat="31.446465" lon="-5.981225"><ele>1638.8</ele></trkpt>
    <trkpt lat="31.446058" lon="-5.981559"><ele>1632.8</ele></trkpt>
    <trkpt lat="31.445987" lon="-5.981940"><ele>1632.8</ele></trkpt>
    <trkpt lat="31.446217" lon="-5.982697"><ele>1635.5</ele></trkpt>
    <trkpt lat="31.446202" lon="-5.983061"><ele>1635.5</ele></trkpt>
    <trkpt lat="31.445685" lon="-5.983559"><ele>1623.5</ele></trkpt>
    <trkpt lat="31.445438" lon="-5.983816"><ele>1622.8</ele></trkpt>
    <trkpt lat="31.445020" lon="-5.984545"><ele>1621.2</ele></trkpt>
    <trkpt lat="31.444599" lon="-5.986306"><ele>1617.5</ele></trkpt>
    <trkpt lat="31.444377" lon="-5.986790"><ele>1616.2</ele></trkpt>
    <trkpt lat="31.444088" lon="-5.987066"><ele>1614.2</ele></trkpt>
    <trkpt lat="31.443377" lon="-5.987322"><ele>1612.5</ele></trkpt>
    <trkpt lat="31.442117" lon="-5.988010"><ele>1613.2</ele></trkpt>
    <trkpt lat="31.441537" lon="-5.989355"><ele>1614.5</ele></trkpt>
    <trkpt lat="31.441099" lon="-5.989763"><ele>1611.2</ele></trkpt>
    <trkpt lat="31.440408" lon="-5.990660"><ele>1611.2</ele></trkpt>
    <trkpt lat="31.440066" lon="-5.991335"><ele>1611.2</ele></trkpt>
    <trkpt lat="31.440019" lon="-5.991966"><ele>1615.0</ele></trkpt>
    <trkpt lat="31.439532" lon="-5.991769"><ele>1622.2</ele></trkpt>
    <trkpt lat="31.439427" lon="-5.990829"><ele>1623.2</ele></trkpt>
    <trkpt lat="31.439338" lon="-5.990687"><ele>1625.8</ele></trkpt>
    <trkpt lat="31.439191" lon="-5.990731"><ele>1629.0</ele></trkpt>
    <trkpt lat="31.439231" lon="-5.991321"><ele>1630.2</ele></trkpt>
    <trkpt lat="31.439208" lon="-5.991442"><ele>1630.8</ele></trkpt>
    <trkpt lat="31.438852" lon="-5.992613"><ele>1643.2</ele></trkpt>
    <trkpt lat="31.438493" lon="-5.993608"><ele>1650.2</ele></trkpt>
    <trkpt lat="31.438055" lon="-5.994735"><ele>1650.2</ele></trkpt>
    <trkpt lat="31.437598" lon="-5.995622"><ele>1636.2</ele></trkpt>
    <trkpt lat="31.437483" lon="-5.996049"><ele>1628.5</ele></trkpt>
    <trkpt lat="31.437543" lon="-5.997615"><ele>1616.2</ele></trkpt>
    <trkpt lat="31.437562" lon="-5.998740"><ele>1614.5</ele></trkpt>
    <trkpt lat="31.437464" lon="-5.999536"><ele>1614.5</ele></trkpt>
    <trkpt lat="31.437010" lon="-6.002511"><ele>1629.2</ele></trkpt>
    <trkpt lat="31.436976" lon="-6.002863"><ele>1630.2</ele></trkpt>
    <trkpt lat="31.437003" lon="-6.003019"><ele>1631.5</ele></trkpt>
    <trkpt lat="31.437263" lon="-6.003613"><ele>1631.5</ele></trkpt>
    <trkpt lat="31.437518" lon="-6.004368"><ele>1621.8</ele></trkpt>
    <trkpt lat="31.437608" lon="-6.004627"><ele>1621.8</ele></trkpt>
    <trkpt lat="31.437820" lon="-6.004911"><ele>1621.8</ele></trkpt>
    <trkpt lat="31.438233" lon="-6.005248"><ele>1630.0</ele></trkpt>
    <trkpt lat="31.438268" lon="-6.005346"><ele>1630.0</ele></trkpt>
    <trkpt lat="31.437892" lon="-6.006448"><ele>1620.8</ele></trkpt>
    <trkpt lat="31.437902" lon="-6.007286"><ele>1620.8</ele></trkpt>
    <trkpt lat="31.438045" lon="-6.007426"><ele>1623.8</ele></trkpt>
    <trkpt lat="31.438371" lon="-6.007345"><ele>1631.8</ele></trkpt>
    <trkpt lat="31.438573" lon="-6.007446"><ele>1638.0</ele></trkpt>
    <trkpt lat="31.438643" lon="-6.007520"><ele>1639.5</ele></trkpt>
    <trkpt lat="31.439764" lon="-6.008832"><ele>1655.2</ele></trkpt>
    <trkpt lat="31.440022" lon="-6.009240"><ele>1655.8</ele></trkpt>
    <trkpt lat="31.440460" lon="-6.010498"><ele>1656.0</ele></trkpt>
    <trkpt lat="31.440944" lon="-6.011056"><ele>1656.0</ele></trkpt>
    <trkpt lat="31.441271" lon="-6.011264"><ele>1657.0</ele></trkpt>
    <trkpt lat="31.442226" lon="-6.011517"><ele>1661.5</ele></trkpt>
    <trkpt lat="31.442603" lon="-6.012006"><ele>1661.0</ele></trkpt>
    <trkpt lat="31.443325" lon="-6.012291"><ele>1658.5</ele></trkpt>
    <trkpt lat="31.443907" lon="-6.012826"><ele>1662.0</ele></trkpt>
    <trkpt lat="31.444017" lon="-6.013165"><ele>1662.0</ele></trkpt>
    <trkpt lat="31.444011" lon="-6.013556"><ele>1656.5</ele></trkpt>
    <trkpt lat="31.444255" lon="-6.014016"><ele>1651.5</ele></trkpt>
    <trkpt lat="31.444245" lon="-6.014127"><ele>1649.2</ele></trkpt>
    <trkpt lat="31.444141" lon="-6.014289"><ele>1649.2</ele></trkpt>
    <trkpt lat="31.443816" lon="-6.014254"><ele>1649.8</ele></trkpt>
    <trkpt lat="31.443297" lon="-6.013356"><ele>1648.5</ele></trkpt>
    <trkpt lat="31.443105" lon="-6.013261"><ele>1648.5</ele></trkpt>
    <trkpt lat="31.442449" lon="-6.013073"><ele>1651.8</ele></trkpt>
    <trkpt lat="31.441859" lon="-6.013407"><ele>1656.0</ele></trkpt>
    <trkpt lat="31.441706" lon="-6.013487"><ele>1656.0</ele></trkpt>
    <trkpt lat="31.440939" lon="-6.013539"><ele>1652.0</ele></trkpt>
    <trkpt lat="31.440092" lon="-6.013981"><ele>1652.0</ele></trkpt>
    <trkpt lat="31.439273" lon="-6.014203"><ele>1651.5</ele></trkpt>
    <trkpt lat="31.439022" lon="-6.014408"><ele>1650.5</ele></trkpt>
    <trkpt lat="31.438684" lon="-6.015047"><ele>1649.5</ele></trkpt>
    <trkpt lat="31.437886" lon="-6.015210"><ele>1645.2</ele></trkpt>
    <trkpt lat="31.437685" lon="-6.015092"><ele>1644.2</ele></trkpt>
    <trkpt lat="31.437524" lon="-6.014835"><ele>1639.8</ele></trkpt>
    <trkpt lat="31.437400" lon="-6.014454"><ele>1635.5</ele></trkpt>
    <trkpt lat="31.437066" lon="-6.013525"><ele>1627.0</ele></trkpt>
    <trkpt lat="31.436791" lon="-6.012827"><ele>1622.5</ele></trkpt>
    <trkpt lat="31.436872" lon="-6.011608"><ele>1609.2</ele></trkpt>
    <trkpt lat="31.436828" lon="-6.011446"><ele>1608.2</ele></trkpt>
    <trkpt lat="31.436641" lon="-6.011339"><ele>1609.2</ele></trkpt>
    <trkpt lat="31.435969" lon="-6.011521"><ele>1615.0</ele></trkpt>
    <trkpt lat="31.435871" lon="-6.011490"><ele>1615.0</ele></trkpt>
    <trkpt lat="31.435143" lon="-6.011184"><ele>1606.8</ele></trkpt>
    <trkpt lat="31.434536" lon="-6.011239"><ele>1599.8</ele></trkpt>
    <trkpt lat="31.434466" lon="-6.011260"><ele>1599.2</ele></trkpt>
    <trkpt lat="31.434300" lon="-6.011399"><ele>1599.2</ele></trkpt>
    <trkpt lat="31.434249" lon="-6.011545"><ele>1600.0</ele></trkpt>
    <trkpt lat="31.434268" lon="-6.011699"><ele>1602.8</ele></trkpt>
    <trkpt lat="31.434594" lon="-6.012142"><ele>1613.5</ele></trkpt>
    <trkpt lat="31.434603" lon="-6.012210"><ele>1613.8</ele></trkpt>
    <trkpt lat="31.434432" lon="-6.012621"><ele>1613.8</ele></trkpt>
    <trkpt lat="31.434134" lon="-6.012743"><ele>1610.8</ele></trkpt>
    <trkpt lat="31.433371" lon="-6.012701"><ele>1608.5</ele></trkpt>
    <trkpt lat="31.433307" lon="-6.012743"><ele>1608.8</ele></trkpt>
    <trkpt lat="31.432960" lon="-6.013360"><ele>1617.8</ele></trkpt>
    <trkpt lat="31.432438" lon="-6.013641"><ele>1619.2</ele></trkpt>
    <trkpt lat="31.432110" lon="-6.014073"><ele>1624.8</ele></trkpt>
    <trkpt lat="31.431675" lon="-6.014336"><ele>1624.8</ele></trkpt>
    <trkpt lat="31.431349" lon="-6.014375"><ele>1624.8</ele></trkpt>
    <trkpt lat="31.431217" lon="-6.014335"><ele>1622.2</ele></trkpt>
    <trkpt lat="31.430676" lon="-6.013903"><ele>1610.2</ele></trkpt>
    <trkpt lat="31.430191" lon="-6.013836"><ele>1606.2</ele></trkpt>
    <trkpt lat="31.428854" lon="-6.014179"><ele>1597.0</ele></trkpt>
    <trkpt lat="31.427974" lon="-6.014056"><ele>1590.8</ele></trkpt>
    <trkpt lat="31.427850" lon="-6.014099"><ele>1589.0</ele></trkpt>
    <trkpt lat="31.427251" lon="-6.014527"><ele>1589.0</ele></trkpt>
    <trkpt lat="31.426993" lon="-6.014550"><ele>1592.8</ele></trkpt>
    <trkpt lat="31.425180" lon="-6.013065"><ele>1595.2</ele></trkpt>
    <trkpt lat="31.424147" lon="-6.012272"><ele>1595.2</ele></trkpt>
    <trkpt lat="31.424032" lon="-6.012097"><ele>1594.8</ele></trkpt>
    <trkpt lat="31.423905" lon="-6.011756"><ele>1585.2</ele></trkpt>
    <trkpt lat="31.423797" lon="-6.011282"><ele>1585.2</ele></trkpt>
    <trkpt lat="31.423584" lon="-6.011223"><ele>1586.5</ele></trkpt>
    <trkpt lat="31.422803" lon="-6.011475"><ele>1590.8</ele></trkpt>
    <trkpt lat="31.421665" lon="-6.011117"><ele>1590.2</ele></trkpt>
    <trkpt lat="31.420616" lon="-6.008769"><ele>1581.5</ele></trkpt>
    <trkpt lat="31.419668" lon="-6.007714"><ele>1579.8</ele></trkpt>
    <trkpt lat="31.419453" lon="-6.007082"><ele>1577.5</ele></trkpt>
    <trkpt lat="31.419387" lon="-6.006240"><ele>1572.8</ele></trkpt>
    <trkpt lat="31.419234" lon="-6.005988"><ele>1572.8</ele></trkpt>
    <trkpt lat="31.418420" lon="-6.005693"><ele>1572.0</ele></trkpt>
    <trkpt lat="31.417005" lon="-6.004754"><ele>1571.8</ele></trkpt>
    <trkpt lat="31.415878" lon="-6.004246"><ele>1570.8</ele></trkpt>
    <trkpt lat="31.414661" lon="-6.003496"><ele>1566.8</ele></trkpt>
    <trkpt lat="31.413654" lon="-6.002344"><ele>1562.0</ele></trkpt>
    <trkpt lat="31.413318" lon="-6.002027"><ele>1561.8</ele></trkpt>
    <trkpt lat="31.413092" lon="-6.002092"><ele>1562.2</ele></trkpt>
    <trkpt lat="31.412865" lon="-6.003035"><ele>1568.8</ele></trkpt>
    <trkpt lat="31.412613" lon="-6.003077"><ele>1569.0</ele></trkpt>
    <trkpt lat="31.412463" lon="-6.002938"><ele>1569.0</ele></trkpt>
    <trkpt lat="31.412165" lon="-6.001574"><ele>1571.0</ele></trkpt>
    <trkpt lat="31.412145" lon="-6.001182"><ele>1571.0</ele></trkpt>
    <trkpt lat="31.412147" lon="-6.000746"><ele>1569.0</ele></trkpt>
    <trkpt lat="31.412311" lon="-6.000181"><ele>1569.0</ele></trkpt>
    <trkpt lat="31.412808" lon="-5.999165"><ele>1569.0</ele></trkpt>
    <trkpt lat="31.413471" lon="-5.998187"><ele>1569.0</ele></trkpt>
    <trkpt lat="31.413991" lon="-5.997456"><ele>1568.5</ele></trkpt>
    <trkpt lat="31.414682" lon="-5.996639"><ele>1560.2</ele></trkpt>
    <trkpt lat="31.415192" lon="-5.996089"><ele>1560.0</ele></trkpt>
    <trkpt lat="31.415281" lon="-5.995830"><ele>1559.8</ele></trkpt>
    <trkpt lat="31.415027" lon="-5.995475"><ele>1559.8</ele></trkpt>
    <trkpt lat="31.413667" lon="-5.994919"><ele>1559.0</ele></trkpt>
    <trkpt lat="31.413475" lon="-5.992998"><ele>1557.0</ele></trkpt>
    <trkpt lat="31.413082" lon="-5.990975"><ele>1556.0</ele></trkpt>
    <trkpt lat="31.412617" lon="-5.990115"><ele>1555.5</ele></trkpt>
    <trkpt lat="31.412079" lon="-5.989737"><ele>1555.5</ele></trkpt>
    <trkpt lat="31.411523" lon="-5.989708"><ele>1555.5</ele></trkpt>
    <trkpt lat="31.409465" lon="-5.990537"><ele>1555.2</ele></trkpt>
    <trkpt lat="31.408483" lon="-5.991662"><ele>1560.8</ele></trkpt>
    <trkpt lat="31.407293" lon="-5.992191"><ele>1558.8</ele></trkpt>
    <trkpt lat="31.406749" lon="-5.992248"><ele>1558.8</ele></trkpt>
    <trkpt lat="31.406047" lon="-5.992075"><ele>1559.5</ele></trkpt>
    <trkpt lat="31.405192" lon="-5.991597"><ele>1559.5</ele></trkpt>
    <trkpt lat="31.404066" lon="-5.991356"><ele>1554.8</ele></trkpt>
    <trkpt lat="31.402710" lon="-5.990203"><ele>1556.0</ele></trkpt>
    <trkpt lat="31.401803" lon="-5.989793"><ele>1556.0</ele></trkpt>
    <trkpt lat="31.399671" lon="-5.989753"><ele>1555.0</ele></trkpt>
    <trkpt lat="31.397963" lon="-5.990371"><ele>1555.2</ele></trkpt>
    <trkpt lat="31.397413" lon="-5.989855"><ele>1547.8</ele></trkpt>
    <trkpt lat="31.396538" lon="-5.989715"><ele>1543.5</ele></trkpt>
    <trkpt lat="31.396138" lon="-5.990110"><ele>1542.2</ele></trkpt>
    <trkpt lat="31.395314" lon="-5.991167"><ele>1542.5</ele></trkpt>
    <trkpt lat="31.395368" lon="-5.991698"><ele>1542.2</ele></trkpt>
    <trkpt lat="31.395004" lon="-5.991779"><ele>1542.5</ele></trkpt>
    <trkpt lat="31.394337" lon="-5.992273"><ele>1543.5</ele></trkpt>
    <trkpt lat="31.393629" lon="-5.992514"><ele>1543.5</ele></trkpt>
    <trkpt lat="31.391242" lon="-5.992664"><ele>1545.5</ele></trkpt>
    <trkpt lat="31.390506" lon="-5.992587"><ele>1545.5</ele></trkpt>
    <trkpt lat="31.389544" lon="-5.992172"><ele>1545.5</ele></trkpt>
    <trkpt lat="31.388326" lon="-5.990814"><ele>1537.0</ele></trkpt>
    <trkpt lat="31.387446" lon="-5.990207"><ele>1537.0</ele></trkpt>
    <trkpt lat="31.387020" lon="-5.990081"><ele>1537.5</ele></trkpt>
    <trkpt lat="31.385209" lon="-5.990872"><ele>1537.5</ele></trkpt>
    <trkpt lat="31.383310" lon="-5.992279"><ele>1539.8</ele></trkpt>
    <trkpt lat="31.380738" lon="-5.992747"><ele>1538.5</ele></trkpt>
    <trkpt lat="31.379507" lon="-5.993156"><ele>1544.0</ele></trkpt>
    <trkpt lat="31.378568" lon="-5.993187"><ele>1544.0</ele></trkpt>
    <trkpt lat="31.378252" lon="-5.993129"><ele>1544.0</ele></trkpt>
    <trkpt lat="31.377591" lon="-5.992920"><ele>1542.5</ele></trkpt>
    <trkpt lat="31.375083" lon="-5.992588"><ele>1529.5</ele></trkpt>
    <trkpt lat="31.374616" lon="-5.992535"><ele>1529.2</ele></trkpt>
    <trkpt lat="31.374598" lon="-5.992399"><ele>1528.5</ele></trkpt>
    <trkpt lat="31.374663" lon="-5.991453"><ele>1522.2</ele></trkpt>
    <trkpt lat="31.374666" lon="-5.989578"><ele>1522.2</ele></trkpt>
    <trkpt lat="31.374554" lon="-5.988761"><ele>1524.0</ele></trkpt>
    <trkpt lat="31.374091" lon="-5.987968"><ele>1528.8</ele></trkpt>
    <trkpt lat="31.372710" lon="-5.986581"><ele>1534.2</ele></trkpt>
    </trkseg>
  </trk>
</gpx>
