<?xml version="1.0" encoding="UTF-8"?>
<gpx version="1.1" creator="tripplanner (routed with BRouter, gravel profile)" xmlns="http://www.topografix.com/GPX/1/1">
  <metadata>
    <name>M'Goun &amp; Lakes traverse — Day 5: Anergui → Imilchil</name>
    <desc>72 km, 2224 m, ~95% paved. Routed with BRouter (gravel profile) over OSM ways — a plan, not a ridden track.</desc>
  </metadata>
  <trk>
    <name>M'Goun &amp; Lakes traverse — Day 5: Anergui → Imilchil</name>
    <trkseg>
    <trkpt lat="32.079441" lon="-5.960210"><ele>1539.0</ele></trkpt>
    <trkpt lat="32.079039" lon="-5.959474"><ele>1539.0</ele></trkpt>
    <trkpt lat="32.078600" lon="-5.958197"><ele>1538.2</ele></trkpt>
    <trkpt lat="32.078416" lon="-5.957310"><ele>1538.2</ele></trkpt>
    <trkpt lat="32.078470" lon="-5.956821"><ele>1536.2</ele></trkpt>
    <trkpt lat="32.078362" lon="-5.956499"><ele>1535.5</ele></trkpt>
    <trkpt lat="32.078095" lon="-5.955565"><ele>1528.5</ele></trkpt>
    <trkpt lat="32.076275" lon="-5.952702"><ele>1506.0</ele></trkpt>
    <trkpt lat="32.075889" lon="-5.951405"><ele>1503.0</ele></trkpt>
    <trkpt lat="32.075841" lon="-5.950688"><ele>1500.0</ele></trkpt>
    <trkpt lat="32.076070" lon="-5.949562"><ele>1497.2</ele></trkpt>
    <trkpt lat="32.076139" lon="-5.948886"><ele>1490.0</ele></trkpt>
    <trkpt lat="32.076087" lon="-5.948163"><ele>1477.0</ele></trkpt>
    <trkpt lat="32.075773" lon="-5.946622"><ele>1475.8</ele></trkpt>
    <trkpt lat="32.076044" lon="-5.944687"><ele>1481.5</ele></trkpt>
    <trkpt lat="32.075439" lon="-5.943373"><ele>1484.2</ele></trkpt>
    <trkpt lat="32.073864" lon="-5.941937"><ele>1484.2</ele></trkpt>
    <trkpt lat="32.073487" lon="-5.941407"><ele>1482.2</ele></trkpt>
    <trkpt lat="32.072482" lon="-5.940856"><ele>1471.0</ele></trkpt>
    <trkpt lat="32.071106" lon="-5.939200"><ele>1471.0</ele></trkpt>
    <trkpt lat="32.070967" lon="-5.938974"><ele>1474.5</ele></trkpt>
    <trkpt lat="32.070103" lon="-5.938476"><ele>1478.2</ele></trkpt>
    <trkpt lat="32.069654" lon="-5.938373"><ele>1481.0</ele></trkpt>
    <trkpt lat="32.069202" lon="-5.938572"><ele>1481.8</ele></trkpt>
    <trkpt lat="32.068961" lon="-5.938547"><ele>1483.5</ele></trkpt>
    <trkpt lat="32.068862" lon="-5.938548"><ele>1483.5</ele></trkpt>
    <trkpt lat="32.067359" lon="-5.939124"><ele>1483.5</ele></trkpt>
    <trkpt lat="32.066895" lon="-5.938969"><ele>1482.5</ele></trkpt>
    <trkpt lat="32.065823" lon="-5.938250"><ele>1482.5</ele></trkpt>
    <trkpt lat="32.065132" lon="-5.937717"><ele>1482.2</ele></trkpt>
    <trkpt lat="32.064728" lon="-5.937121"><ele>1482.2</ele></trkpt>
    <trkpt lat="32.064406" lon="-5.936429"><ele>1482.2</ele></trkpt>
    <trkpt lat="32.064154" lon="-5.935428"><ele>1482.8</ele></trkpt>
    <trkpt lat="32.064668" lon="-5.935316"><ele>1489.0</ele></trkpt>
    <trkpt lat="32.065509" lon="-5.936260"><ele>1510.2</ele></trkpt>
    <trkpt lat="32.065547" lon="-5.936269"><ele>1511.5</ele></trkpt>
    <trkpt lat="32.065630" lon="-5.935847"><ele>1514.2</ele></trkpt>
    <trkpt lat="32.065864" lon="-5.935678"><ele>1518.0</ele></trkpt>
    <trkpt lat="32.068183" lon="-5.934007"><ele>1548.2</ele></trkpt>
    <trkpt lat="32.068820" lon="-5.933989"><ele>1560.5</ele></trkpt>
    <trkpt lat="32.069556" lon="-5.933695"><ele>1577.5</ele></trkpt>
    <trkpt lat="32.069679" lon="-5.933734"><ele>1578.8</ele></trkpt>
    <trkpt lat="32.069346" lon="-5.935010"><ele>1571.0</ele></trkpt>
    <trkpt lat="32.069391" lon="-5.935223"><ele>1570.0</ele></trkpt>
    <trkpt lat="32.069576" lon="-5.935352"><ele>1570.0</ele></trkpt>
    <trkpt lat="32.070214" lon="-5.934409"><ele>1587.2</ele></trkpt>
    <trkpt lat="32.070672" lon="-5.933997"><ele>1598.5</ele></trkpt>
    <trkpt lat="32.071874" lon="-5.933733"><ele>1611.8</ele></trkpt>
    <trkpt lat="32.071943" lon="-5.933579"><ele>1616.2</ele></trkpt>
    <trkpt lat="32.071957" lon="-5.933009"><ele>1625.8</ele></trkpt>
    <trkpt lat="32.072044" lon="-5.932742"><ele>1628.8</ele></trkpt>
    <trkpt lat="32.073283" lon="-5.931808"><ele>1646.8</ele></trkpt>
    <trkpt lat="32.073458" lon="-5.931525"><ele>1653.8</ele></trkpt>
    <trkpt lat="32.073483" lon="-5.931410"><ele>1656.0</ele></trkpt>
    <trkpt lat="32.073396" lon="-5.930990"><ele>1660.0</ele></trkpt>
    <trkpt lat="32.072927" lon="-5.930610"><ele>1661.2</ele></trkpt>
    <trkpt lat="32.072167" lon="-5.929858"><ele>1668.5</ele></trkpt>
    <trkpt lat="32.072293" lon="-5.928870"><ele>1682.5</ele></trkpt>
    <trkpt lat="32.072374" lon="-5.928503"><ele>1686.0</ele></trkpt>
    <trkpt lat="32.072593" lon="-5.928121"><ele>1689.5</ele></trkpt>
    <trkpt lat="32.072812" lon="-5.927934"><ele>1690.8</ele></trkpt>
    <trkpt lat="32.073295" lon="-5.927571"><ele>1701.5</ele></trkpt>
    <trkpt lat="32.073521" lon="-5.927335"><ele>1704.5</ele></trkpt>
    <trkpt lat="32.074028" lon="-5.925956"><ele>1710.8</ele></trkpt>
    <trkpt lat="32.074327" lon="-5.925681"><ele>1714.2</ele></trkpt>
    <trkpt lat="32.074484" lon="-5.925658"><ele>1714.8</ele></trkpt>
    <trkpt lat="32.074633" lon="-5.925698"><ele>1717.2</ele></trkpt>
    <trkpt lat="32.075318" lon="-5.926026"><ele>1729.0</ele></trkpt>
    <trkpt lat="32.076051" lon="-5.927099"><ele>1739.8</ele></trkpt>
    <trkpt lat="32.076235" lon="-5.927213"><ele>1744.0</ele></trkpt>
    <trkpt lat="32.076848" lon="-5.925961"><ele>1754.5</ele></trkpt>
    <trkpt lat="32.077478" lon="-5.925320"><ele>1763.0</ele></trkpt>
    <trkpt lat="32.077677" lon="-5.925326"><ele>1766.5</ele></trkpt>
    <trkpt lat="32.077629" lon="-5.926451"><ele>1778.2</ele></trkpt>
    <trkpt lat="32.077771" lon="-5.927413"><ele>1789.5</ele></trkpt>
    <trkpt lat="32.078029" lon="-5.928117"><ele>1794.5</ele></trkpt>
    <trkpt lat="32.078187" lon="-5.928281"><ele>1798.2</ele></trkpt>
    <trkpt lat="32.078572" lon="-5.928472"><ele>1807.8</ele></trkpt>
    <trkpt lat="32.078716" lon="-5.928608"><ele>1809.5</ele></trkpt>
    <trkpt lat="32.078710" lon="-5.929205"><ele>1808.5</ele></trkpt>
    <trkpt lat="32.078925" lon="-5.929718"><ele>1804.8</ele></trkpt>
    <trkpt lat="32.078949" lon="-5.929708"><ele>1805.5</ele></trkpt>
    <trkpt lat="32.079161" lon="-5.929193"><ele>1822.0</ele></trkpt>
    <trkpt lat="32.079650" lon="-5.928741"><ele>1833.8</ele></trkpt>
    <trkpt lat="32.079863" lon="-5.927697"><ele>1846.8</ele></trkpt>
    <trkpt lat="32.080503" lon="-5.926266"><ele>1860.5</ele></trkpt>
    <trkpt lat="32.080956" lon="-5.925835"><ele>1869.2</ele></trkpt>
    <trkpt lat="32.081339" lon="-5.925643"><ele>1873.0</ele></trkpt>
    <trkpt lat="32.081608" lon="-5.925510"><ele>1875.8</ele></trkpt>
    <trkpt lat="32.081711" lon="-5.925605"><ele>1880.5</ele></trkpt>
    <trkpt lat="32.081287" lon="-5.925953"><ele>1881.0</ele></trkpt>
    <trkpt lat="32.081118" lon="-5.926368"><ele>1882.0</ele></trkpt>
    <trkpt lat="32.081254" lon="-5.927710"><ele>1891.2</ele></trkpt>
    <trkpt lat="32.081509" lon="-5.928039"><ele>1894.0</ele></trkpt>
    <trkpt lat="32.081675" lon="-5.928117"><ele>1897.2</ele></trkpt>
    <trkpt lat="32.082259" lon="-5.928226"><ele>1906.8</ele></trkpt>
    <trkpt lat="32.082914" lon="-5.928381"><ele>1914.5</ele></trkpt>
    <trkpt lat="32.083386" lon="-5.928233"><ele>1922.0</ele></trkpt>
    <trkpt lat="32.083942" lon="-5.926482"><ele>1940.8</ele></trkpt>
    <trkpt lat="32.084068" lon="-5.926233"><ele>1943.0</ele></trkpt>
    <trkpt lat="32.085397" lon="-5.925239"><ele>1956.2</ele></trkpt>
    <trkpt lat="32.085648" lon="-5.925213"><ele>1961.0</ele></trkpt>
    <trkpt lat="32.086988" lon="-5.925464"><ele>1982.0</ele></trkpt>
    <trkpt lat="32.087114" lon="-5.925477"><ele>1983.5</ele></trkpt>
    <trkpt lat="32.087982" lon="-5.925501"><ele>1996.8</ele></trkpt>
    <trkpt lat="32.088439" lon="-5.925823"><ele>1998.0</ele></trkpt>
    <trkpt lat="32.089227" lon="-5.926248"><ele>2015.5</ele></trkpt>
    <trkpt lat="32.089254" lon="-5.926232"><ele>2016.2</ele></trkpt>
    <trkpt lat="32.089209" lon="-5.926016"><ele>2016.2</ele></trkpt>
    <trkpt lat="32.088733" lon="-5.925406"><ele>2017.2</ele></trkpt>
    <trkpt lat="32.088618" lon="-5.924821"><ele>2025.2</ele></trkpt>
    <trkpt lat="32.087925" lon="-5.923873"><ele>2027.5</ele></trkpt>
    <trkpt lat="32.087998" lon="-5.923757"><ele>2027.5</ele></trkpt>
    <trkpt lat="32.088108" lon="-5.923742"><ele>2030.5</ele></trkpt>
    <trkpt lat="32.088847" lon="-5.923964"><ele>2046.2</ele></trkpt>
    <trkpt lat="32.089082" lon="-5.924052"><ele>2049.5</ele></trkpt>
    <trkpt lat="32.089763" lon="-5.924677"><ele>2053.2</ele></trkpt>
    <trkpt lat="32.089838" lon="-5.924525"><ele>2056.8</ele></trkpt>
    <trkpt lat="32.089737" lon="-5.924094"><ele>2061.2</ele></trkpt>
    <trkpt lat="32.089251" lon="-5.923367"><ele>2066.8</ele></trkpt>
    <trkpt lat="32.089304" lon="-5.923199"><ele>2069.2</ele></trkpt>
    <trkpt lat="32.089340" lon="-5.923209"><ele>2070.0</ele></trkpt>
    <trkpt lat="32.090030" lon="-5.923492"><ele>2079.2</ele></trkpt>
    <trkpt lat="32.090673" lon="-5.923537"><ele>2093.2</ele></trkpt>
    <trkpt lat="32.091074" lon="-5.923699"><ele>2099.2</ele></trkpt>
    <trkpt lat="32.091725" lon="-5.924346"><ele>2104.2</ele></trkpt>
    <trkpt lat="32.092689" lon="-5.925476"><ele>2123.5</ele></trkpt>
    <trkpt lat="32.092835" lon="-5.925659"><ele>2127.5</ele></trkpt>
    <trkpt lat="32.093178" lon="-5.926214"><ele>2138.5</ele></trkpt>
    <trkpt lat="32.093257" lon="-5.926419"><ele>2138.5</ele></trkpt>
    <trkpt lat="32.093095" lon="-5.927001"><ele>2138.5</ele></trkpt>
    <trkpt lat="32.093102" lon="-5.927295"><ele>2138.5</ele></trkpt>
    <trkpt lat="32.093151" lon="-5.928026"><ele>2147.0</ele></trkpt>
    <trkpt lat="32.093052" lon="-5.928668"><ele>2149.2</ele></trkpt>
    <trkpt lat="32.093169" lon="-5.928823"><ele>2152.8</ele></trkpt>
    <trkpt lat="32.093340" lon="-5.928521"><ele>2155.0</ele></trkpt>
    <trkpt lat="32.093654" lon="-5.927487"><ele>2162.5</ele></trkpt>
    <trkpt lat="32.094023" lon="-5.927046"><ele>2175.8</ele></trkpt>
    <trkpt lat="32.094080" lon="-5.926887"><ele>2177.2</ele></trkpt>
    <trkpt lat="32.093890" lon="-5.925438"><ele>2182.2</ele></trkpt>
    <trkpt lat="32.093898" lon="-5.925301"><ele>2183.5</ele></trkpt>
    <trkpt lat="32.094098" lon="-5.924366"><ele>2198.0</ele></trkpt>
    <trkpt lat="32.094104" lon="-5.924316"><ele>2198.2</ele></trkpt>
    <trkpt lat="32.094038" lon="-5.923765"><ele>2198.8</ele></trkpt>
    <trkpt lat="32.094120" lon="-5.923239"><ele>2205.2</ele></trkpt>
    <trkpt lat="32.093805" lon="-5.922366"><ele>2205.8</ele></trkpt>
    <trkpt lat="32.093942" lon="-5.922321"><ele>2206.2</ele></trkpt>
    <trkpt lat="32.094728" lon="-5.922998"><ele>2228.5</ele></trkpt>
    <trkpt lat="32.094885" lon="-5.923310"><ele>2233.5</ele></trkpt>
    <trkpt lat="32.095099" lon="-5.924406"><ele>2248.5</ele></trkpt>
    <trkpt lat="32.095100" lon="-5.925436"><ele>2251.8</ele></trkpt>
    <trkpt lat="32.095231" lon="-5.925685"><ele>2256.0</ele></trkpt>
    <trkpt lat="32.095755" lon="-5.926337"><ele>2273.0</ele></trkpt>
    <trkpt lat="32.095802" lon="-5.926427"><ele>2274.2</ele></trkpt>
    <trkpt lat="32.095961" lon="-5.926862"><ele>2277.2</ele></trkpt>
    <trkpt lat="32.096405" lon="-5.928041"><ele>2292.0</ele></trkpt>
    <trkpt lat="32.096439" lon="-5.928169"><ele>2293.5</ele></trkpt>
    <trkpt lat="32.096484" lon="-5.928385"><ele>2295.2</ele></trkpt>
    <trkpt lat="32.096725" lon="-5.930143"><ele>2310.8</ele></trkpt>
    <trkpt lat="32.096733" lon="-5.931283"><ele>2321.0</ele></trkpt>
    <trkpt lat="32.096406" lon="-5.932596"><ele>2333.8</ele></trkpt>
    <trkpt lat="32.096248" lon="-5.932997"><ele>2337.5</ele></trkpt>
    <trkpt lat="32.095584" lon="-5.934283"><ele>2353.0</ele></trkpt>
    <trkpt lat="32.095126" lon="-5.934910"><ele>2360.8</ele></trkpt>
    <trkpt lat="32.094123" lon="-5.935755"><ele>2367.2</ele></trkpt>
    <trkpt lat="32.094023" lon="-5.935857"><ele>2368.2</ele></trkpt>
    <trkpt lat="32.093438" lon="-5.936662"><ele>2375.5</ele></trkpt>
    <trkpt lat="32.093980" lon="-5.937086"><ele>2377.5</ele></trkpt>
    <trkpt lat="32.094517" lon="-5.937287"><ele>2381.5</ele></trkpt>
    <trkpt lat="32.095450" lon="-5.937459"><ele>2387.0</ele></trkpt>
    <trkpt lat="32.096478" lon="-5.937294"><ele>2391.0</ele></trkpt>
    <trkpt lat="32.097459" lon="-5.937605"><ele>2393.0</ele></trkpt>
    <trkpt lat="32.097757" lon="-5.937748"><ele>2396.8</ele></trkpt>
    <trkpt lat="32.097891" lon="-5.937894"><ele>2396.8</ele></trkpt>
    <trkpt lat="32.097608" lon="-5.938912"><ele>2391.5</ele></trkpt>
    <trkpt lat="32.097612" lon="-5.939368"><ele>2393.0</ele></trkpt>
    <trkpt lat="32.097759" lon="-5.940375"><ele>2410.0</ele></trkpt>
    <trkpt lat="32.097742" lon="-5.940585"><ele>2410.8</ele></trkpt>
    <trkpt lat="32.097186" lon="-5.941694"><ele>2411.5</ele></trkpt>
    <trkpt lat="32.097175" lon="-5.941765"><ele>2411.5</ele></trkpt>
    <trkpt lat="32.097220" lon="-5.942359"><ele>2421.2</ele></trkpt>
    <trkpt lat="32.096820" lon="-5.943025"><ele>2423.5</ele></trkpt>
    <trkpt lat="32.096787" lon="-5.943354"><ele>2427.8</ele></trkpt>
    <trkpt lat="32.096988" lon="-5.944019"><ele>2438.5</ele></trkpt>
    <trkpt lat="32.097107" lon="-5.944304"><ele>2442.0</ele></trkpt>
    <trkpt lat="32.098164" lon="-5.945559"><ele>2455.5</ele></trkpt>
    <trkpt lat="32.098244" lon="-5.945726"><ele>2456.0</ele></trkpt>
    <trkpt lat="32.098752" lon="-5.947377"><ele>2465.0</ele></trkpt>
    <trkpt lat="32.098780" lon="-5.949148"><ele>2465.2</ele></trkpt>
    <trkpt lat="32.099049" lon="-5.950206"><ele>2468.2</ele></trkpt>
    <trkpt lat="32.099469" lon="-5.950901"><ele>2472.8</ele></trkpt>
    <trkpt lat="32.099757" lon="-5.952175"><ele>2474.2</ele></trkpt>
    <trkpt lat="32.100188" lon="-5.952617"><ele>2479.2</ele></trkpt>
    <trkpt lat="32.100472" lon="-5.952702"><ele>2481.8</ele></trkpt>
    <trkpt lat="32.100898" lon="-5.952470"><ele>2489.2</ele></trkpt>
    <trkpt lat="32.101640" lon="-5.951190"><ele>2502.8</ele></trkpt>
    <trkpt lat="32.102194" lon="-5.950459"><ele>2509.0</ele></trkpt>
    <trkpt lat="32.102265" lon="-5.950399"><ele>2509.0</ele></trkpt>
    <trkpt lat="32.103135" lon="-5.950239"><ele>2508.2</ele></trkpt>
    <trkpt lat="32.103990" lon="-5.949284"><ele>2508.0</ele></trkpt>
    <trkpt lat="32.104107" lon="-5.949174"><ele>2507.2</ele></trkpt>
    <trkpt lat="32.104458" lon="-5.949019"><ele>2497.2</ele></trkpt>
    <trkpt lat="32.104564" lon="-5.948970"><ele>2497.2</ele></trkpt>
    <trkpt lat="32.104969" lon="-5.948457"><ele>2497.2</ele></trkpt>
    <trkpt lat="32.105322" lon="-5.948212"><ele>2497.2</ele></trkpt>
    <trkpt lat="32.105868" lon="-5.948169"><ele>2484.5</ele></trkpt>
    <trkpt lat="32.106015" lon="-5.948108"><ele>2484.5</ele></trkpt>
    <trkpt lat="32.106489" lon="-5.947367"><ele>2481.5</ele></trkpt>
    <trkpt lat="32.107131" lon="-5.946781"><ele>2475.5</ele></trkpt>
    <trkpt lat="32.107881" lon="-5.945234"><ele>2472.2</ele></trkpt>
    <trkpt lat="32.107941" lon="-5.945165"><ele>2472.2</ele></trkpt>
    <trkpt lat="32.108407" lon="-5.944841"><ele>2464.5</ele></trkpt>
    <trkpt lat="32.109329" lon="-5.944793"><ele>2454.5</ele></trkpt>
    <trkpt lat="32.109636" lon="-5.944841"><ele>2450.0</ele></trkpt>
    <trkpt lat="32.110700" lon="-5.945125"><ele>2429.0</ele></trkpt>
    <trkpt lat="32.110912" lon="-5.945128"><ele>2426.8</ele></trkpt>
    <trkpt lat="32.111164" lon="-5.944673"><ele>2428.8</ele></trkpt>
    <trkpt lat="32.111705" lon="-5.944102"><ele>2428.8</ele></trkpt>
    <trkpt lat="32.111941" lon="-5.944124"><ele>2428.5</ele></trkpt>
    <trkpt lat="32.113151" lon="-5.944243"><ele>2413.0</ele></trkpt>
    <trkpt lat="32.113348" lon="-5.944239"><ele>2410.5</ele></trkpt>
    <trkpt lat="32.114343" lon="-5.943996"><ele>2400.2</ele></trkpt>
    <trkpt lat="32.114523" lon="-5.943889"><ele>2397.2</ele></trkpt>
    <trkpt lat="32.114987" lon="-5.943478"><ele>2396.5</ele></trkpt>
    <trkpt lat="32.115108" lon="-5.943298"><ele>2396.5</ele></trkpt>
    <trkpt lat="32.115321" lon="-5.942788"><ele>2408.0</ele></trkpt>
    <trkpt lat="32.115411" lon="-5.942710"><ele>2408.0</ele></trkpt>
    <trkpt lat="32.115449" lon="-5.942722"><ele>2408.0</ele></trkpt>
    <trkpt lat="32.116083" lon="-5.943020"><ele>2390.2</ele></trkpt>
    <trkpt lat="32.116711" lon="-5.943323"><ele>2383.0</ele></trkpt>
    <trkpt lat="32.116891" lon="-5.943373"><ele>2379.8</ele></trkpt>
    <trkpt lat="32.117727" lon="-5.943176"><ele>2379.0</ele></trkpt>
    <trkpt lat="32.117999" lon="-5.942948"><ele>2379.5</ele></trkpt>
    <trkpt lat="32.118490" lon="-5.941855"><ele>2390.0</ele></trkpt>
    <trkpt lat="32.118808" lon="-5.941509"><ele>2394.5</ele></trkpt>
    <trkpt lat="32.118909" lon="-5.941436"><ele>2394.5</ele></trkpt>
    <trkpt lat="32.119007" lon="-5.941447"><ele>2394.5</ele></trkpt>
    <trkpt lat="32.119086" lon="-5.941521"><ele>2392.8</ele></trkpt>
    <trkpt lat="32.119494" lon="-5.942288"><ele>2381.0</ele></trkpt>
    <trkpt lat="32.119635" lon="-5.942476"><ele>2381.0</ele></trkpt>
    <trkpt lat="32.119889" lon="-5.942621"><ele>2381.0</ele></trkpt>
    <trkpt lat="32.120733" lon="-5.942533"><ele>2382.5</ele></trkpt>
    <trkpt lat="32.121903" lon="-5.941940"><ele>2383.2</ele></trkpt>
    <trkpt lat="32.122692" lon="-5.941951"><ele>2382.8</ele></trkpt>
    <trkpt lat="32.122761" lon="-5.942019"><ele>2382.2</ele></trkpt>
    <trkpt lat="32.123173" lon="-5.943072"><ele>2370.0</ele></trkpt>
    <trkpt lat="32.123558" lon="-5.943325"><ele>2364.8</ele></trkpt>
    <trkpt lat="32.123636" lon="-5.943333"><ele>2363.8</ele></trkpt>
    <trkpt lat="32.124231" lon="-5.942701"><ele>2363.2</ele></trkpt>
    <trkpt lat="32.124389" lon="-5.942592"><ele>2363.2</ele></trkpt>
    <trkpt lat="32.124976" lon="-5.942310"><ele>2357.8</ele></trkpt>
    <trkpt lat="32.125419" lon="-5.942331"><ele>2353.2</ele></trkpt>
    <trkpt lat="32.126474" lon="-5.942734"><ele>2342.2</ele></trkpt>
    <trkpt lat="32.126656" lon="-5.942768"><ele>2340.8</ele></trkpt>
    <trkpt lat="32.127453" lon="-5.942252"><ele>2333.2</ele></trkpt>
    <trkpt lat="32.127831" lon="-5.942204"><ele>2328.5</ele></trkpt>
    <trkpt lat="32.129062" lon="-5.942183"><ele>2309.5</ele></trkpt>
    <trkpt lat="32.129196" lon="-5.942129"><ele>2308.8</ele></trkpt>
    <trkpt lat="32.129698" lon="-5.941110"><ele>2307.8</ele></trkpt>
    <trkpt lat="32.130741" lon="-5.940081"><ele>2291.0</ele></trkpt>
    <trkpt lat="32.130991" lon="-5.940007"><ele>2288.0</ele></trkpt>
    <trkpt lat="32.131672" lon="-5.940266"><ele>2277.0</ele></trkpt>
    <trkpt lat="32.132146" lon="-5.940238"><ele>2271.2</ele></trkpt>
    <trkpt lat="32.133955" lon="-5.938930"><ele>2271.2</ele></trkpt>
    <trkpt lat="32.134173" lon="-5.938649"><ele>2271.2</ele></trkpt>
    <trkpt lat="32.135138" lon="-5.936804"><ele>2282.8</ele></trkpt>
    <trkpt lat="32.135825" lon="-5.936048"><ele>2289.0</ele></trkpt>
    <trkpt lat="32.137605" lon="-5.935179"><ele>2300.5</ele></trkpt>
    <trkpt lat="32.138207" lon="-5.934751"><ele>2307.2</ele></trkpt>
    <trkpt lat="32.138545" lon="-5.934546"><ele>2309.0</ele></trkpt>
    <trkpt lat="32.140407" lon="-5.933829"><ele>2317.2</ele></trkpt>
    <trkpt lat="32.141465" lon="-5.932657"><ele>2324.8</ele></trkpt>
    <trkpt lat="32.141861" lon="-5.932207"><ele>2324.8</ele></trkpt>
    <trkpt lat="32.142419" lon="-5.931835"><ele>2324.2</ele></trkpt>
    <trkpt lat="32.142742" lon="-5.931739"><ele>2322.0</ele></trkpt>
    <trkpt lat="32.142920" lon="-5.931735"><ele>2320.8</ele></trkpt>
    <trkpt lat="32.144913" lon="-5.931855"><ele>2309.5</ele></trkpt>
    <trkpt lat="32.147272" lon="-5.930315"><ele>2301.0</ele></trkpt>
    <trkpt lat="32.150777" lon="-5.928116"><ele>2302.2</ele></trkpt>
    <trkpt lat="32.152195" lon="-5.926840"><ele>2306.2</ele></trkpt>
    <trkpt lat="32.153005" lon="-5.924662"><ele>2312.0</ele></trkpt>
    <trkpt lat="32.153416" lon="-5.923906"><ele>2313.8</ele></trkpt>
    <trkpt lat="32.153869" lon="-5.923512"><ele>2314.8</ele></trkpt>
    <trkpt lat="32.157717" lon="-5.920408"><ele>2328.2</ele></trkpt>
    <trkpt lat="32.159257" lon="-5.919167"><ele>2345.2</ele></trkpt>
    <trkpt lat="32.159555" lon="-5.918906"><ele>2349.2</ele></trkpt>
    <trkpt lat="32.160592" lon="-5.916560"><ele>2367.2</ele></trkpt>
    <trkpt lat="32.160694" lon="-5.916392"><ele>2369.2</ele></trkpt>
    <trkpt lat="32.162212" lon="-5.915345"><ele>2385.2</ele></trkpt>
    <trkpt lat="32.162329" lon="-5.915267"><ele>2385.2</ele></trkpt>
    <trkpt lat="32.162667" lon="-5.915190"><ele>2385.8</ele></trkpt>
    <trkpt lat="32.164439" lon="-5.915253"><ele>2385.8</ele></trkpt>
    <trkpt lat="32.166869" lon="-5.915345"><ele>2408.0</ele></trkpt>
    <trkpt lat="32.167354" lon="-5.915391"><ele>2408.8</ele></trkpt>
    <trkpt lat="32.168413" lon="-5.914539"><ele>2408.8</ele></trkpt>
    <trkpt lat="32.169479" lon="-5.913610"><ele>2400.5</ele></trkpt>
    <trkpt lat="32.169778" lon="-5.913484"><ele>2399.0</ele></trkpt>
    <trkpt lat="32.170161" lon="-5.913426"><ele>2398.0</ele></trkpt>
    <trkpt lat="32.171699" lon="-5.913191"><ele>2382.0</ele></trkpt>
    <trkpt lat="32.172002" lon="-5.913235"><ele>2378.0</ele></trkpt>
    <trkpt lat="32.172061" lon="-5.913262"><ele>2378.0</ele></trkpt>
    <trkpt lat="32.172692" lon="-5.913838"><ele>2379.8</ele></trkpt>
    <trkpt lat="32.172956" lon="-5.913704"><ele>2379.8</ele></trkpt>
    <trkpt lat="32.173029" lon="-5.913602"><ele>2379.2</ele></trkpt>
    <trkpt lat="32.173279" lon="-5.913135"><ele>2373.8</ele></trkpt>
    <trkpt lat="32.173658" lon="-5.911810"><ele>2361.0</ele></trkpt>
    <trkpt lat="32.174277" lon="-5.910402"><ele>2348.2</ele></trkpt>
    <trkpt lat="32.174356" lon="-5.910280"><ele>2347.2</ele></trkpt>
    <trkpt lat="32.177145" lon="-5.906923"><ele>2327.0</ele></trkpt>
    <trkpt lat="32.177996" lon="-5.906282"><ele>2326.5</ele></trkpt>
    <trkpt lat="32.178270" lon="-5.905511"><ele>2325.8</ele></trkpt>
    <trkpt lat="32.179621" lon="-5.903584"><ele>2324.8</ele></trkpt>
    <trkpt lat="32.179629" lon="-5.903510"><ele>2324.0</ele></trkpt>
    <trkpt lat="32.179667" lon="-5.902877"><ele>2318.0</ele></trkpt>
    <trkpt lat="32.179831" lon="-5.902000"><ele>2307.2</ele></trkpt>
    <trkpt lat="32.180034" lon="-5.901205"><ele>2297.2</ele></trkpt>
    <trkpt lat="32.180297" lon="-5.900030"><ele>2292.2</ele></trkpt>
    <trkpt lat="32.180353" lon="-5.899140"><ele>2284.8</ele></trkpt>
    <trkpt lat="32.180395" lon="-5.898821"><ele>2284.2</ele></trkpt>
    <trkpt lat="32.180287" lon="-5.897520"><ele>2273.8</ele></trkpt>
    <trkpt lat="32.180748" lon="-5.896489"><ele>2268.8</ele></trkpt>
    <trkpt lat="32.180643" lon="-5.896112"><ele>2265.2</ele></trkpt>
    <trkpt lat="32.180588" lon="-5.895300"><ele>2256.0</ele></trkpt>
    <trkpt lat="32.180600" lon="-5.895237"><ele>2255.2</ele></trkpt>
    <trkpt lat="32.180716" lon="-5.895071"><ele>2254.2</ele></trkpt>
    <trkpt lat="32.181175" lon="-5.894940"><ele>2253.5</ele></trkpt>
    <trkpt lat="32.181300" lon="-5.894600"><ele>2253.0</ele></trkpt>
    <trkpt lat="32.181662" lon="-5.893910"><ele>2243.5</ele></trkpt>
    <trkpt lat="32.181681" lon="-5.893840"><ele>2242.5</ele></trkpt>
    <trkpt lat="32.181573" lon="-5.893671"><ele>2238.8</ele></trkpt>
    <trkpt lat="32.180955" lon="-5.893752"><ele>2233.8</ele></trkpt>
    <trkpt lat="32.180808" lon="-5.893618"><ele>2230.5</ele></trkpt>
    <trkpt lat="32.180950" lon="-5.892586"><ele>2219.0</ele></trkpt>
    <trkpt lat="32.180975" lon="-5.891117"><ele>2209.0</ele></trkpt>
    <trkpt lat="32.180849" lon="-5.890236"><ele>2203.5</ele></trkpt>
    <trkpt lat="32.180868" lon="-5.889011"><ele>2201.0</ele></trkpt>
    <trkpt lat="32.180542" lon="-5.886468"><ele>2191.5</ele></trkpt>
    <trkpt lat="32.180529" lon="-5.886148"><ele>2189.2</ele></trkpt>
    <trkpt lat="32.180534" lon="-5.884649"><ele>2178.5</ele></trkpt>
    <trkpt lat="32.180528" lon="-5.884518"><ele>2177.8</ele></trkpt>
    <trkpt lat="32.180277" lon="-5.882970"><ele>2171.2</ele></trkpt>
    <trkpt lat="32.179574" lon="-5.882104"><ele>2164.2</ele></trkpt>
    <trkpt lat="32.179818" lon="-5.880923"><ele>2161.5</ele></trkpt>
    <trkpt lat="32.179899" lon="-5.880687"><ele>2161.0</ele></trkpt>
    <trkpt lat="32.180278" lon="-5.879827"><ele>2156.0</ele></trkpt>
    <trkpt lat="32.180491" lon="-5.879489"><ele>2152.5</ele></trkpt>
    <trkpt lat="32.181437" lon="-5.878725"><ele>2141.8</ele></trkpt>
    <trkpt lat="32.181563" lon="-5.878660"><ele>2141.8</ele></trkpt>
    <trkpt lat="32.182512" lon="-5.879236"><ele>2145.0</ele></trkpt>
    <trkpt lat="32.183581" lon="-5.879344"><ele>2145.2</ele></trkpt>
    <trkpt lat="32.183921" lon="-5.879713"><ele>2147.8</ele></trkpt>
    <trkpt lat="32.184092" lon="-5.880271"><ele>2152.2</ele></trkpt>
    <trkpt lat="32.184239" lon="-5.880265"><ele>2152.2</ele></trkpt>
    <trkpt lat="32.184284" lon="-5.880220"><ele>2152.0</ele></trkpt>
    <trkpt lat="32.184397" lon="-5.880016"><ele>2150.2</ele></trkpt>
    <trkpt lat="32.184475" lon="-5.879462"><ele>2145.2</ele></trkpt>
    <trkpt lat="32.184287" lon="-5.878876"><ele>2139.0</ele></trkpt>
    <trkpt lat="32.184228" lon="-5.878159"><ele>2133.2</ele></trkpt>
    <trkpt lat="32.184505" lon="-5.877315"><ele>2129.0</ele></trkpt>
    <trkpt lat="32.184527" lon="-5.877278"><ele>2128.8</ele></trkpt>
    <trkpt lat="32.185833" lon="-5.876642"><ele>2124.0</ele></trkpt>
    <trkpt lat="32.187319" lon="-5.875320"><ele>2122.0</ele></trkpt>
    <trkpt lat="32.187355" lon="-5.875270"><ele>2122.0</ele></trkpt>
    <trkpt lat="32.187898" lon="-5.874032"><ele>2112.2</ele></trkpt>
    <trkpt lat="32.189300" lon="-5.872153"><ele>2105.2</ele></trkpt>
    <trkpt lat="32.191196" lon="-5.871638"><ele>2094.2</ele></trkpt>
    <trkpt lat="32.191245" lon="-5.871605"><ele>2094.0</ele></trkpt>
    <trkpt lat="32.192122" lon="-5.870686"><ele>2085.8</ele></trkpt>
    <trkpt lat="32.192188" lon="-5.870637"><ele>2085.2</ele></trkpt>
    <trkpt lat="32.193236" lon="-5.870316"><ele>2081.0</ele></trkpt>
    <trkpt lat="32.194094" lon="-5.869532"><ele>2078.8</ele></trkpt>
    <trkpt lat="32.194382" lon="-5.868996"><ele>2075.8</ele></trkpt>
    <trkpt lat="32.195798" lon="-5.868170"><ele>2071.8</ele></trkpt>
    <trkpt lat="32.196206" lon="-5.867486"><ele>2067.8</ele></trkpt>
    <trkpt lat="32.196731" lon="-5.867032"><ele>2063.5</ele></trkpt>
    <trkpt lat="32.197638" lon="-5.866023"><ele>2062.2</ele></trkpt>
    <trkpt lat="32.198196" lon="-5.865736"><ele>2062.2</ele></trkpt>
    <trkpt lat="32.198737" lon="-5.865066"><ele>2059.5</ele></trkpt>
    <trkpt lat="32.199430" lon="-5.864669"><ele>2057.8</ele></trkpt>
    <trkpt lat="32.199423" lon="-5.864481"><ele>2057.5</ele></trkpt>
    <trkpt lat="32.199333" lon="-5.864175"><ele>2051.2</ele></trkpt>
    <trkpt lat="32.199427" lon="-5.863151"><ele>2045.2</ele></trkpt>
    <trkpt lat="32.199689" lon="-5.862684"><ele>2044.8</ele></trkpt>
    <trkpt lat="32.199953" lon="-5.862414"><ele>2044.2</ele></trkpt>
    <trkpt lat="32.200441" lon="-5.862101"><ele>2042.8</ele></trkpt>
    <trkpt lat="32.201482" lon="-5.861565"><ele>2035.0</ele></trkpt>
    <trkpt lat="32.201606" lon="-5.861264"><ele>2030.5</ele></trkpt>
    <trkpt lat="32.201492" lon="-5.860861"><ele>2025.8</ele></trkpt>
    <trkpt lat="32.201499" lon="-5.860763"><ele>2025.8</ele></trkpt>
    <trkpt lat="32.201932" lon="-5.860166"><ele>2030.0</ele></trkpt>
    <trkpt lat="32.202370" lon="-5.859997"><ele>2030.5</ele></trkpt>
    <trkpt lat="32.202980" lon="-5.859970"><ele>2025.5</ele></trkpt>
    <trkpt lat="32.202991" lon="-5.859638"><ele>2024.8</ele></trkpt>
    <trkpt lat="32.203168" lon="-5.859447"><ele>2023.0</ele></trkpt>
    <trkpt lat="32.203180" lon="-5.859039"><ele>2022.5</ele></trkpt>
    <trkpt lat="32.203452" lon="-5.858918"><ele>2018.0</ele></trkpt>
    <trkpt lat="32.203716" lon="-5.858081"><ele>2014.8</ele></trkpt>
    <trkpt lat="32.204002" lon="-5.857601"><ele>2012.0</ele></trkpt>
    <trkpt lat="32.204683" lon="-5.856680"><ele>2016.5</ele></trkpt>
    <trkpt lat="32.204821" lon="-5.856025"><ele>2020.8</ele></trkpt>
    <trkpt lat="32.204969" lon="-5.855779"><ele>2020.8</ele></trkpt>
    <trkpt lat="32.205315" lon="-5.855168"><ele>2018.0</ele></trkpt>
    <trkpt lat="32.205340" lon="-5.855046"><ele>2018.0</ele></trkpt>
    <trkpt lat="32.205500" lon="-5.854250"><ele>2011.2</ele></trkpt>
    <trkpt lat="32.205834" lon="-5.853858"><ele>2000.8</ele></trkpt>
    <trkpt lat="32.205862" lon="-5.853788"><ele>2000.8</ele></trkpt>
    <trkpt lat="32.206096" lon="-5.853877"><ele>2001.5</ele></trkpt>
    <trkpt lat="32.206141" lon="-5.853618"><ele>2001.8</ele></trkpt>
    <trkpt lat="32.206350" lon="-5.853473"><ele>2002.8</ele></trkpt>
    <trkpt lat="32.206498" lon="-5.852725"><ele>2002.8</ele></trkpt>
    <trkpt lat="32.206644" lon="-5.852186"><ele>2000.8</ele></trkpt>
    <trkpt lat="32.206763" lon="-5.850913"><ele>1993.0</ele></trkpt>
    <trkpt lat="32.206828" lon="-5.850509"><ele>1992.2</ele></trkpt>
    <trkpt lat="32.207677" lon="-5.849082"><ele>1989.5</ele></trkpt>
    <trkpt lat="32.207901" lon="-5.848252"><ele>1985.8</ele></trkpt>
    <trkpt lat="32.208249" lon="-5.847870"><ele>1984.8</ele></trkpt>
    <trkpt lat="32.208891" lon="-5.846770"><ele>1979.8</ele></trkpt>
    <trkpt lat="32.209392" lon="-5.846588"><ele>1976.8</ele></trkpt>
    <trkpt lat="32.209998" lon="-5.846256"><ele>1977.0</ele></trkpt>
    <trkpt lat="32.209846" lon="-5.845366"><ele>1975.2</ele></trkpt>
    <trkpt lat="32.210095" lon="-5.844852"><ele>1974.8</ele></trkpt>
    <trkpt lat="32.210696" lon="-5.842137"><ele>1959.5</ele></trkpt>
    <trkpt lat="32.210935" lon="-5.841928"><ele>1955.8</ele></trkpt>
    <trkpt lat="32.211892" lon="-5.841772"><ele>1948.8</ele></trkpt>
    <trkpt lat="32.212035" lon="-5.840907"><ele>1946.8</ele></trkpt>
    <trkpt lat="32.212354" lon="-5.840327"><ele>1945.8</ele></trkpt>
    <trkpt lat="32.212837" lon="-5.840000"><ele>1945.2</ele></trkpt>
    <trkpt lat="32.213380" lon="-5.838466"><ele>1935.8</ele></trkpt>
    <trkpt lat="32.213464" lon="-5.838427"><ele>1935.8</ele></trkpt>
    <trkpt lat="32.213485" lon="-5.838036"><ele>1935.8</ele></trkpt>
    <trkpt lat="32.213376" lon="-5.837845"><ele>1936.8</ele></trkpt>
    <trkpt lat="32.212987" lon="-5.837291"><ele>1949.0</ele></trkpt>
    <trkpt lat="32.212946" lon="-5.837208"><ele>1950.0</ele></trkpt>
    <trkpt lat="32.212837" lon="-5.836498"><ele>1950.0</ele></trkpt>
    <trkpt lat="32.212573" lon="-5.835943"><ele>1950.0</ele></trkpt>
    <trkpt lat="32.212107" lon="-5.835645"><ele>1943.2</ele></trkpt>
    <trkpt lat="32.212421" lon="-5.835100"><ele>1937.0</ele></trkpt>
    <trkpt lat="32.211449" lon="-5.835266"><ele>1935.0</ele></trkpt>
    <trkpt lat="32.211297" lon="-5.834639"><ele>1929.2</ele></trkpt>
    <trkpt lat="32.210742" lon="-5.834237"><ele>1929.2</ele></trkpt>
    <trkpt lat="32.210190" lon="-5.833339"><ele>1929.5</ele></trkpt>
    <trkpt lat="32.209555" lon="-5.832450"><ele>1935.0</ele></trkpt>
    <trkpt lat="32.208983" lon="-5.832016"><ele>1936.8</ele></trkpt>
    <trkpt lat="32.208248" lon="-5.831206"><ele>1943.2</ele></trkpt>
    <trkpt lat="32.208210" lon="-5.830854"><ele>1945.0</ele></trkpt>
    <trkpt lat="32.208080" lon="-5.830268"><ele>1955.2</ele></trkpt>
    <trkpt lat="32.208071" lon="-5.830095"><ele>1955.2</ele></trkpt>
    <trkpt lat="32.208557" lon="-5.829231"><ele>1953.8</ele></trkpt>
    <trkpt lat="32.208270" lon="-5.828870"><ele>1954.5</ele></trkpt>
    <trkpt lat="32.207931" lon="-5.828383"><ele>1970.5</ele></trkpt>
    <trkpt lat="32.207873" lon="-5.828224"><ele>1972.8</ele></trkpt>
    <trkpt lat="32.207907" lon="-5.827424"><ele>1977.0</ele></trkpt>
    <trkpt lat="32.207922" lon="-5.827346"><ele>1977.0</ele></trkpt>
    <trkpt lat="32.208153" lon="-5.827227"><ele>1975.8</ele></trkpt>
    <trkpt lat="32.208291" lon="-5.826972"><ele>1975.8</ele></trkpt>
    <trkpt lat="32.208238" lon="-5.826574"><ele>1980.0</ele></trkpt>
    <trkpt lat="32.207800" lon="-5.826035"><ele>1983.2</ele></trkpt>
    <trkpt lat="32.207325" lon="-5.825447"><ele>1970.0</ele></trkpt>
    <trkpt lat="32.207266" lon="-5.825362"><ele>1969.5</ele></trkpt>
    <trkpt lat="32.206699" lon="-5.824080"><ele>1969.2</ele></trkpt>
    <trkpt lat="32.206454" lon="-5.823881"><ele>1968.2</ele></trkpt>
    <trkpt lat="32.206392" lon="-5.823865"><ele>1968.2</ele></trkpt>
    <trkpt lat="32.205921" lon="-5.823819"><ele>1969.2</ele></trkpt>
    <trkpt lat="32.205555" lon="-5.823451"><ele>1973.0</ele></trkpt>
    <trkpt lat="32.204901" lon="-5.823110"><ele>1977.5</ele></trkpt>
    <trkpt lat="32.204977" lon="-5.822974"><ele>1978.8</ele></trkpt>
    <trkpt lat="32.206039" lon="-5.823345"><ele>1978.2</ele></trkpt>
    <trkpt lat="32.206787" lon="-5.823216"><ele>1984.0</ele></trkpt>
    <trkpt lat="32.207459" lon="-5.823493"><ele>1983.0</ele></trkpt>
    <trkpt lat="32.207623" lon="-5.823398"><ele>1983.5</ele></trkpt>
    <trkpt lat="32.207583" lon="-5.823175"><ele>1991.0</ele></trkpt>
    <trkpt lat="32.206998" lon="-5.822682"><ele>2009.2</ele></trkpt>
    <trkpt lat="32.205622" lon="-5.822109"><ele>2019.8</ele></trkpt>
    <trkpt lat="32.205145" lon="-5.821861"><ele>2020.5</ele></trkpt>
    <trkpt lat="32.204436" lon="-5.821167"><ele>2014.5</ele></trkpt>
    <trkpt lat="32.204442" lon="-5.821111"><ele>2014.5</ele></trkpt>
    <trkpt lat="32.204676" lon="-5.820825"><ele>2027.2</ele></trkpt>
    <trkpt lat="32.205010" lon="-5.820734"><ele>2036.2</ele></trkpt>
    <trkpt lat="32.205466" lon="-5.820343"><ele>2036.8</ele></trkpt>
    <trkpt lat="32.206544" lon="-5.818665"><ele>2035.8</ele></trkpt>
    <trkpt lat="32.206781" lon="-5.818187"><ele>2033.8</ele></trkpt>
    <trkpt lat="32.207255" lon="-5.816388"><ele>2026.8</ele></trkpt>
    <trkpt lat="32.207474" lon="-5.815140"><ele>2024.2</ele></trkpt>
    <trkpt lat="32.207637" lon="-5.812488"><ele>2021.8</ele></trkpt>
    <trkpt lat="32.208287" lon="-5.809978"><ele>2022.5</ele></trkpt>
    <trkpt lat="32.208886" lon="-5.807819"><ele>2033.5</ele></trkpt>
    <trkpt lat="32.209013" lon="-5.807267"><ele>2035.8</ele></trkpt>
    <trkpt lat="32.209575" lon="-5.804041"><ele>2049.0</ele></trkpt>
    <trkpt lat="32.210073" lon="-5.801921"><ele>2059.5</ele></trkpt>
    <trkpt lat="32.210106" lon="-5.800919"><ele>2069.2</ele></trkpt>
    <trkpt lat="32.210641" lon="-5.799509"><ele>2068.2</ele></trkpt>
    <trkpt lat="32.211138" lon="-5.797673"><ele>2066.5</ele></trkpt>
    <trkpt lat="32.211014" lon="-5.797268"><ele>2066.5</ele></trkpt>
    <trkpt lat="32.210968" lon="-5.796657"><ele>2068.5</ele></trkpt>
    <trkpt lat="32.211300" lon="-5.793637"><ele>2076.5</ele></trkpt>
    <trkpt lat="32.212205" lon="-5.789237"><ele>2086.0</ele></trkpt>
    <trkpt lat="32.212479" lon="-5.788305"><ele>2087.0</ele></trkpt>
    <trkpt lat="32.213035" lon="-5.785790"><ele>2101.0</ele></trkpt>
    <trkpt lat="32.213177" lon="-5.785350"><ele>2101.5</ele></trkpt>
    <trkpt lat="32.215035" lon="-5.781971"><ele>2104.0</ele></trkpt>
    <trkpt lat="32.215458" lon="-5.780964"><ele>2104.8</ele></trkpt>
    <trkpt lat="32.215592" lon="-5.780742"><ele>2105.2</ele></trkpt>
    <trkpt lat="32.216468" lon="-5.779622"><ele>2108.8</ele></trkpt>
    <trkpt lat="32.217374" lon="-5.777890"><ele>2115.2</ele></trkpt>
    <trkpt lat="32.218784" lon="-5.775976"><ele>2127.5</ele></trkpt>
    <trkpt lat="32.219189" lon="-5.775008"><ele>2130.2</ele></trkpt>
    <trkpt lat="32.219418" lon="-5.774384"><ele>2130.2</ele></trkpt>
    <trkpt lat="32.219745" lon="-5.772755"><ele>2131.0</ele></trkpt>
    <trkpt lat="32.220492" lon="-5.770275"><ele>2137.5</ele></trkpt>
    <trkpt lat="32.220544" lon="-5.770160"><ele>2137.8</ele></trkpt>
    <trkpt lat="32.222186" lon="-5.767440"><ele>2146.8</ele></trkpt>
    <trkpt lat="32.222800" lon="-5.766757"><ele>2152.0</ele></trkpt>
    <trkpt lat="32.224047" lon="-5.765790"><ele>2154.8</ele></trkpt>
    <trkpt lat="32.224195" lon="-5.765674"><ele>2155.5</ele></trkpt>
    <trkpt lat="32.225809" lon="-5.764119"><ele>2158.0</ele></trkpt>
    <trkpt lat="32.226136" lon="-5.763831"><ele>2159.5</ele></trkpt>
    <trkpt lat="32.227444" lon="-5.762697"><ele>2170.2</ele></trkpt>
    <trkpt lat="32.229110" lon="-5.761522"><ele>2178.5</ele></trkpt>
    <trkpt lat="32.231391" lon="-5.759444"><ele>2196.5</ele></trkpt>
    <trkpt lat="32.231628" lon="-5.759143"><ele>2200.5</ele></trkpt>
    <trkpt lat="32.232119" lon="-5.758083"><ele>2214.5</ele></trkpt>
    <trkpt lat="32.232186" lon="-5.757930"><ele>2216.2</ele></trkpt>
    <trkpt lat="32.232334" lon="-5.756985"><ele>2218.5</ele></trkpt>
    <trkpt lat="32.232482" lon="-5.756994"><ele>2221.2</ele></trkpt>
    <trkpt lat="32.232736" lon="-5.757505"><ele>2229.0</ele></trkpt>
    <trkpt lat="32.232913" lon="-5.758813"><ele>2232.2</ele></trkpt>
    <trkpt lat="32.233200" lon="-5.759046"><ele>2233.5</ele></trkpt>
    <trkpt lat="32.233588" lon="-5.758907"><ele>2236.5</ele></trkpt>
    <trkpt lat="32.234058" lon="-5.757482"><ele>2252.8</ele></trkpt>
    <trkpt lat="32.235274" lon="-5.755267"><ele>2271.8</ele></trkpt>
    <trkpt lat="32.235814" lon="-5.754600"><ele>2277.0</ele></trkpt>
    <trkpt lat="32.236561" lon="-5.753730"><ele>2277.0</ele></trkpt>
    <trkpt lat="32.236496" lon="-5.753530"><ele>2274.0</ele></trkpt>
    <trkpt lat="32.236023" lon="-5.753562"><ele>2270.2</ele></trkpt>
    <trkpt lat="32.235877" lon="-5.753140"><ele>2268.2</ele></trkpt>
    <trkpt lat="32.235515" lon="-5.752761"><ele>2268.2</ele></trkpt>
    <trkpt lat="32.235876" lon="-5.751967"><ele>2266.8</ele></trkpt>
    <trkpt lat="32.236095" lon="-5.750990"><ele>2264.8</ele></trkpt>
    <trkpt lat="32.236563" lon="-5.749617"><ele>2246.2</ele></trkpt>
    <trkpt lat="32.237220" lon="-5.746735"><ele>2224.2</ele></trkpt>
    <trkpt lat="32.238167" lon="-5.744846"><ele>2214.8</ele></trkpt>
    <trkpt lat="32.238410" lon="-5.743997"><ele>2210.8</ele></trkpt>
    <trkpt lat="32.238874" lon="-5.743409"><ele>2208.2</ele></trkpt>
    <trkpt lat="32.239143" lon="-5.742322"><ele>2197.2</ele></trkpt>
    <trkpt lat="32.239377" lon="-5.742063"><ele>2197.0</ele></trkpt>
    <trkpt lat="32.240077" lon="-5.740844"><ele>2190.2</ele></trkpt>
    <trkpt lat="32.240980" lon="-5.738441"><ele>2180.2</ele></trkpt>
    <trkpt lat="32.241086" lon="-5.738244"><ele>2179.0</ele></trkpt>
    <trkpt lat="32.241725" lon="-5.737539"><ele>2177.2</ele></trkpt>
    <trkpt lat="32.242080" lon="-5.736849"><ele>2176.2</ele></trkpt>
    <trkpt lat="32.242499" lon="-5.736554"><ele>2174.8</ele></trkpt>
    <trkpt lat="32.242833" lon="-5.736105"><ele>2173.0</ele></trkpt>
    <trkpt lat="32.244134" lon="-5.733294"><ele>2166.2</ele></trkpt>
    <trkpt lat="32.245690" lon="-5.730603"><ele>2157.8</ele></trkpt>
    <trkpt lat="32.245880" lon="-5.729321"><ele>2152.5</ele></trkpt>
    <trkpt lat="32.246454" lon="-5.728830"><ele>2155.5</ele></trkpt>
    <trkpt lat="32.246560" lon="-5.728524"><ele>2155.5</ele></trkpt>
    <trkpt lat="32.246614" lon="-5.727909"><ele>2147.0</ele></trkpt>
    <trkpt lat="32.246695" lon="-5.727621"><ele>2142.2</ele></trkpt>
    <trkpt lat="32.247109" lon="-5.726994"><ele>2142.2</ele></trkpt>
    <trkpt lat="32.247622" lon="-5.726896"><ele>2155.8</ele></trkpt>
    <trkpt lat="32.247628" lon="-5.726825"><ele>2155.8</ele></trkpt>
    <trkpt lat="32.247540" lon="-5.726129"><ele>2142.0</ele></trkpt>
    <trkpt lat="32.247833" lon="-5.725350"><ele>2134.5</ele></trkpt>
    <trkpt lat="32.248129" lon="-5.725059"><ele>2132.5</ele></trkpt>
    <trkpt lat="32.248066" lon="-5.724631"><ele>2117.5</ele></trkpt>
    <trkpt lat="32.248087" lon="-5.724583"><ele>2117.5</ele></trkpt>
    <trkpt lat="32.249280" lon="-5.724348"><ele>2121.0</ele></trkpt>
    <trkpt lat="32.249444" lon="-5.724234"><ele>2121.0</ele></trkpt>
    <trkpt lat="32.250837" lon="-5.722738"><ele>2111.8</ele></trkpt>
    <trkpt lat="32.250715" lon="-5.722638"><ele>2104.8</ele></trkpt>
    <trkpt lat="32.249295" lon="-5.723629"><ele>2097.8</ele></trkpt>
    <trkpt lat="32.248444" lon="-5.723766"><ele>2089.2</ele></trkpt>
    <trkpt lat="32.248332" lon="-5.723782"><ele>2088.0</ele></trkpt>
    <trkpt lat="32.247003" lon="-5.723591"><ele>2080.2</ele></trkpt>
    <trkpt lat="32.246956" lon="-5.723595"><ele>2080.2</ele></trkpt>
    <trkpt lat="32.246832" lon="-5.723728"><ele>2080.2</ele></trkpt>
    <trkpt lat="32.246592" lon="-5.724190"><ele>2088.5</ele></trkpt>
    <trkpt lat="32.246550" lon="-5.724215"><ele>2090.0</ele></trkpt>
    <trkpt lat="32.246453" lon="-5.724214"><ele>2090.0</ele></trkpt>
    <trkpt lat="32.246204" lon="-5.722905"><ele>2090.0</ele></trkpt>
    <trkpt lat="32.245384" lon="-5.721362"><ele>2098.8</ele></trkpt>
    <trkpt lat="32.243497" lon="-5.719351"><ele>2109.5</ele></trkpt>
    <trkpt lat="32.242167" lon="-5.718841"><ele>2120.8</ele></trkpt>
    <trkpt lat="32.241946" lon="-5.718723"><ele>2120.8</ele></trkpt>
    <trkpt lat="32.241749" lon="-5.718525"><ele>2120.8</ele></trkpt>
    <trkpt lat="32.241017" lon="-5.717723"><ele>2115.5</ele></trkpt>
    <trkpt lat="32.240808" lon="-5.717791"><ele>2112.2</ele></trkpt>
    <trkpt lat="32.240732" lon="-5.717861"><ele>2112.2</ele></trkpt>
    <trkpt lat="32.240540" lon="-5.718305"><ele>2110.8</ele></trkpt>
    <trkpt lat="32.239961" lon="-5.718664"><ele>2111.8</ele></trkpt>
    <trkpt lat="32.239397" lon="-5.718679"><ele>2111.5</ele></trkpt>
    <trkpt lat="32.238775" lon="-5.718462"><ele>2092.8</ele></trkpt>
    <trkpt lat="32.238552" lon="-5.718576"><ele>2092.8</ele></trkpt>
    <trkpt lat="32.238256" lon="-5.719444"><ele>2093.8</ele></trkpt>
    <trkpt lat="32.238185" lon="-5.719524"><ele>2093.8</ele></trkpt>
    <trkpt lat="32.237924" lon="-5.719697"><ele>2081.5</ele></trkpt>
    <trkpt lat="32.237860" lon="-5.719769"><ele>2079.5</ele></trkpt>
    <trkpt lat="32.237826" lon="-5.719825"><ele>2079.5</ele></trkpt>
    <trkpt lat="32.237761" lon="-5.720354"><ele>2082.5</ele></trkpt>
    <trkpt lat="32.237713" lon="-5.720444"><ele>2082.5</ele></trkpt>
    <trkpt lat="32.237507" lon="-5.720692"><ele>2075.8</ele></trkpt>
    <trkpt lat="32.237476" lon="-5.720964"><ele>2075.8</ele></trkpt>
    <trkpt lat="32.237573" lon="-5.721366"><ele>2086.0</ele></trkpt>
    <trkpt lat="32.237529" lon="-5.721814"><ele>2088.2</ele></trkpt>
    <trkpt lat="32.237284" lon="-5.722441"><ele>2094.5</ele></trkpt>
    <trkpt lat="32.237123" lon="-5.722528"><ele>2094.5</ele></trkpt>
    <trkpt lat="32.237088" lon="-5.722497"><ele>2093.8</ele></trkpt>
    <trkpt lat="32.236489" lon="-5.721729"><ele>2059.2</ele></trkpt>
    <trkpt lat="32.236341" lon="-5.721645"><ele>2052.5</ele></trkpt>
    <trkpt lat="32.236222" lon="-5.721650"><ele>2052.5</ele></trkpt>
    <trkpt lat="32.236120" lon="-5.721783"><ele>2052.5</ele></trkpt>
    <trkpt lat="32.236045" lon="-5.721976"><ele>2054.8</ele></trkpt>
    <trkpt lat="32.236044" lon="-5.722530"><ele>2070.8</ele></trkpt>
    <trkpt lat="32.236017" lon="-5.722620"><ele>2070.8</ele></trkpt>
    <trkpt lat="32.235703" lon="-5.723112"><ele>2070.8</ele></trkpt>
    <trkpt lat="32.235326" lon="-5.723292"><ele>2072.0</ele></trkpt>
    <trkpt lat="32.235060" lon="-5.723622"><ele>2072.0</ele></trkpt>
    <trkpt lat="32.235008" lon="-5.723806"><ele>2072.0</ele></trkpt>
    <trkpt lat="32.235011" lon="-5.724073"><ele>2080.2</ele></trkpt>
    <trkpt lat="32.234955" lon="-5.724155"><ele>2080.2</ele></trkpt>
    <trkpt lat="32.234566" lon="-5.724115"><ele>2071.5</ele></trkpt>
    <trkpt lat="32.234445" lon="-5.724140"><ele>2071.5</ele></trkpt>
    <trkpt lat="32.233764" lon="-5.724753"><ele>2073.8</ele></trkpt>
    <trkpt lat="32.233690" lon="-5.724746"><ele>2073.8</ele></trkpt>
    <trkpt lat="32.233335" lon="-5.724422"><ele>2060.0</ele></trkpt>
    <trkpt lat="32.233252" lon="-5.724391"><ele>2058.0</ele></trkpt>
    <trkpt lat="32.233049" lon="-5.724422"><ele>2057.8</ele></trkpt>
    <trkpt lat="32.232667" lon="-5.724969"><ele>2064.5</ele></trkpt>
    <trkpt lat="32.232584" lon="-5.724923"><ele>2064.5</ele></trkpt>
    <trkpt lat="32.232429" lon="-5.724608"><ele>2053.5</ele></trkpt>
    <trkpt lat="32.232322" lon="-5.724453"><ele>2047.5</ele></trkpt>
    <trkpt lat="32.232243" lon="-5.724413"><ele>2046.2</ele></trkpt>
    <trkpt lat="32.232153" lon="-5.724405"><ele>2046.2</ele></trkpt>
    <trkpt lat="32.231690" lon="-5.724584"><ele>2043.8</ele></trkpt>
    <trkpt lat="32.231103" lon="-5.724613"><ele>2042.0</ele></trkpt>
    <trkpt lat="32.230425" lon="-5.725045"><ele>2044.2</ele></trkpt>
    <trkpt lat="32.230479" lon="-5.724837"><ele>2042.5</ele></trkpt>
    <trkpt lat="32.231944" lon="-5.723902"><ele>2026.8</ele></trkpt>
    <trkpt lat="32.233441" lon="-5.721745"><ele>1997.0</ele></trkpt>
    <trkpt lat="32.233994" lon="-5.720835"><ele>1986.2</ele></trkpt>
    <trkpt lat="32.234588" lon="-5.720031"><ele>1979.5</ele></trkpt>
    <trkpt lat="32.234611" lon="-5.719135"><ele>1967.5</ele></trkpt>
    <trkpt lat="32.234232" lon="-5.718701"><ele>1957.8</ele></trkpt>
    <trkpt lat="32.234092" lon="-5.718498"><ele>1955.5</ele></trkpt>
    <trkpt lat="32.234123" lon="-5.717755"><ele>1949.0</ele></trkpt>
    <trkpt lat="32.233743" lon="-5.716243"><ele>1937.0</ele></trkpt>
    <trkpt lat="32.233249" lon="-5.715679"><ele>1935.5</ele></trkpt>
    <trkpt lat="32.233267" lon="-5.715427"><ele>1935.0</ele></trkpt>
    <trkpt lat="32.233440" lon="-5.714559"><ele>1931.0</ele></trkpt>
    <trkpt lat="32.233344" lon="-5.713554"><ele>1928.0</ele></trkpt>
    <trkpt lat="32.233383" lon="-5.712347"><ele>1917.8</ele></trkpt>
    <trkpt lat="32.233129" lon="-5.711521"><ele>1913.5</ele></trkpt>
    <trkpt lat="32.233562" lon="-5.710342"><ele>1909.5</ele></trkpt>
    <trkpt lat="32.234241" lon="-5.709667"><ele>1903.0</ele></trkpt>
    <trkpt lat="32.234248" lon="-5.709628"><ele>1903.0</ele></trkpt>
    <trkpt lat="32.233730" lon="-5.708512"><ele>1905.0</ele></trkpt>
    <trkpt lat="32.233758" lon="-5.708087"><ele>1906.0</ele></trkpt>
    <trkpt lat="32.232393" lon="-5.707938"><ele>1907.8</ele></trkpt>
    <trkpt lat="32.229761" lon="-5.708207"><ele>1926.0</ele></trkpt>
    <trkpt lat="32.228632" lon="-5.708478"><ele>1927.0</ele></trkpt>
    <trkpt lat="32.228232" lon="-5.708359"><ele>1928.5</ele></trkpt>
    <trkpt lat="32.228067" lon="-5.708222"><ele>1929.0</ele></trkpt>
    <trkpt lat="32.227476" lon="-5.707312"><ele>1933.8</ele></trkpt>
    <trkpt lat="32.225445" lon="-5.706243"><ele>1944.0</ele></trkpt>
    <trkpt lat="32.225364" lon="-5.705867"><ele>1946.8</ele></trkpt>
    <trkpt lat="32.225381" lon="-5.705773"><ele>1947.8</ele></trkpt>
    <trkpt lat="32.225535" lon="-5.704918"><ele>1956.5</ele></trkpt>
    <trkpt lat="32.225528" lon="-5.704784"><ele>1958.2</ele></trkpt>
    <trkpt lat="32.225384" lon="-5.703862"><ele>1971.2</ele></trkpt>
    <trkpt lat="32.225317" lon="-5.703646"><ele>1972.5</ele></trkpt>
    <trkpt lat="32.225123" lon="-5.703428"><ele>1974.0</ele></trkpt>
    <trkpt lat="32.224545" lon="-5.703196"><ele>1974.8</ele></trkpt>
    <trkpt lat="32.224119" lon="-5.702693"><ele>1983.5</ele></trkpt>
    <trkpt lat="32.223279" lon="-5.702771"><ele>1985.8</ele></trkpt>
    <trkpt lat="32.223192" lon="-5.702756"><ele>1986.5</ele></trkpt>
    <trkpt lat="32.221591" lon="-5.702282"><ele>2005.5</ele></trkpt>
    <trkpt lat="32.221370" lon="-5.702167"><ele>2010.2</ele></trkpt>
    <trkpt lat="32.221112" lon="-5.701725"><ele>2019.0</ele></trkpt>
    <trkpt lat="32.221003" lon="-5.701652"><ele>2020.2</ele></trkpt>
    <trkpt lat="32.220654" lon="-5.701815"><ele>2022.0</ele></trkpt>
    <trkpt lat="32.220331" lon="-5.702211"><ele>2025.0</ele></trkpt>
    <trkpt lat="32.220030" lon="-5.702493"><ele>2025.0</ele></trkpt>
    <trkpt lat="32.219557" lon="-5.702607"><ele>2020.8</ele></trkpt>
    <trkpt lat="32.219546" lon="-5.702547"><ele>2020.8</ele></trkpt>
    <trkpt lat="32.219995" lon="-5.702140"><ele>2034.0</ele></trkpt>
    <trkpt lat="32.220110" lon="-5.701312"><ele>2041.8</ele></trkpt>
    <trkpt lat="32.220054" lon="-5.700483"><ele>2053.8</ele></trkpt>
    <trkpt lat="32.220060" lon="-5.700414"><ele>2055.0</ele></trkpt>
    <trkpt lat="32.220485" lon="-5.699677"><ele>2061.8</ele></trkpt>
    <trkpt lat="32.220501" lon="-5.699391"><ele>2068.8</ele></trkpt>
    <trkpt lat="32.220053" lon="-5.699901"><ele>2068.0</ele></trkpt>
    <trkpt lat="32.219559" lon="-5.700089"><ele>2074.8</ele></trkpt>
    <trkpt lat="32.219472" lon="-5.700601"><ele>2072.2</ele></trkpt>
    <trkpt lat="32.219237" lon="-5.700911"><ele>2072.2</ele></trkpt>
    <trkpt lat="32.218685" lon="-5.700828"><ele>2078.2</ele></trkpt>
    <trkpt lat="32.218563" lon="-5.700735"><ele>2080.8</ele></trkpt>
    <trkpt lat="32.218078" lon="-5.700253"><ele>2097.5</ele></trkpt>
    <trkpt lat="32.217086" lon="-5.700665"><ele>2096.8</ele></trkpt>
    <trkpt lat="32.216775" lon="-5.700672"><ele>2096.8</ele></trkpt>
    <trkpt lat="32.216792" lon="-5.700489"><ele>2103.5</ele></trkpt>
    <trkpt lat="32.217319" lon="-5.700196"><ele>2109.0</ele></trkpt>
    <trkpt lat="32.218751" lon="-5.698808"><ele>2129.8</ele></trkpt>
    <trkpt lat="32.219614" lon="-5.697992"><ele>2144.0</ele></trkpt>
    <trkpt lat="32.220577" lon="-5.697422"><ele>2147.0</ele></trkpt>
    <trkpt lat="32.220610" lon="-5.697225"><ele>2149.2</ele></trkpt>
    <trkpt lat="32.219855" lon="-5.697520"><ele>2161.2</ele></trkpt>
    <trkpt lat="32.219437" lon="-5.697563"><ele>2166.5</ele></trkpt>
    <trkpt lat="32.219274" lon="-5.697586"><ele>2166.8</ele></trkpt>
    <trkpt lat="32.218769" lon="-5.697852"><ele>2168.8</ele></trkpt>
    <trkpt lat="32.218562" lon="-5.697891"><ele>2169.0</ele></trkpt>
    <trkpt lat="32.217871" lon="-5.697908"><ele>2178.2</ele></trkpt>
    <trkpt lat="32.217769" lon="-5.697927"><ele>2179.0</ele></trkpt>
    <trkpt lat="32.216664" lon="-5.698551"><ele>2182.5</ele></trkpt>
    <trkpt lat="32.214969" lon="-5.698175"><ele>2194.0</ele></trkpt>
    <trkpt lat="32.214659" lon="-5.697780"><ele>2216.2</ele></trkpt>
    <trkpt lat="32.214576" lon="-5.697711"><ele>2219.0</ele></trkpt>
    <trkpt lat="32.214380" lon="-5.697643"><ele>2219.0</ele></trkpt>
    <trkpt lat="32.213856" lon="-5.697928"><ele>2206.2</ele></trkpt>
    <trkpt lat="32.212187" lon="-5.698264"><ele>2202.0</ele></trkpt>
    <trkpt lat="32.211750" lon="-5.698399"><ele>2207.0</ele></trkpt>
    <trkpt lat="32.211531" lon="-5.698400"><ele>2212.0</ele></trkpt>
    <trkpt lat="32.211012" lon="-5.698283"><ele>2245.2</ele></trkpt>
    <trkpt lat="32.210224" lon="-5.698348"><ele>2245.2</ele></trkpt>
    <trkpt lat="32.209890" lon="-5.698333"><ele>2231.8</ele></trkpt>
    <trkpt lat="32.209701" lon="-5.698208"><ele>2231.8</ele></trkpt>
    <trkpt lat="32.209456" lon="-5.697173"><ele>2242.5</ele></trkpt>
    <trkpt lat="32.209462" lon="-5.697019"><ele>2244.8</ele></trkpt>
    <trkpt lat="32.209510" lon="-5.696812"><ele>2249.8</ele></trkpt>
    <trkpt lat="32.210068" lon="-5.694921"><ele>2277.0</ele></trkpt>
    <trkpt lat="32.210077" lon="-5.694827"><ele>2279.5</ele></trkpt>
    <trkpt lat="32.210034" lon="-5.694681"><ele>2281.0</ele></trkpt>
    <trkpt lat="32.209720" lon="-5.694678"><ele>2281.2</ele></trkpt>
    <trkpt lat="32.209569" lon="-5.694740"><ele>2281.2</ele></trkpt>
    <trkpt lat="32.208322" lon="-5.695380"><ele>2276.2</ele></trkpt>
    <trkpt lat="32.207918" lon="-5.695417"><ele>2272.8</ele></trkpt>
    <trkpt lat="32.207731" lon="-5.695301"><ele>2272.8</ele></trkpt>
    <trkpt lat="32.207698" lon="-5.695248"><ele>2274.8</ele></trkpt>
    <trkpt lat="32.207636" lon="-5.695008"><ele>2280.8</ele></trkpt>
    <trkpt lat="32.207537" lon="-5.694220"><ele>2284.0</ele></trkpt>
    <trkpt lat="32.207783" lon="-5.692968"><ele>2286.2</ele></trkpt>
    <trkpt lat="32.207786" lon="-5.691680"><ele>2286.2</ele></trkpt>
    <trkpt lat="32.207600" lon="-5.690888"><ele>2279.2</ele></trkpt>
    <trkpt lat="32.207563" lon="-5.690741"><ele>2279.2</ele></trkpt>
    <trkpt lat="32.208064" lon="-5.689166"><ele>2280.0</ele></trkpt>
    <trkpt lat="32.207962" lon="-5.688999"><ele>2279.0</ele></trkpt>
    <trkpt lat="32.207107" lon="-5.688707"><ele>2260.0</ele></trkpt>
    <trkpt lat="32.207005" lon="-5.688649"><ele>2259.5</ele></trkpt>
    <trkpt lat="32.206925" lon="-5.688279"><ele>2259.2</ele></trkpt>
    <trkpt lat="32.207136" lon="-5.687239"><ele>2264.2</ele></trkpt>
    <trkpt lat="32.207102" lon="-5.686680"><ele>2265.0</ele></trkpt>
    <trkpt lat="32.207044" lon="-5.686597"><ele>2264.8</ele></trkpt>
    <trkpt lat="32.205897" lon="-5.685543"><ele>2254.0</ele></trkpt>
    <trkpt lat="32.205382" lon="-5.684869"><ele>2250.8</ele></trkpt>
    <trkpt lat="32.205308" lon="-5.684572"><ele>2250.2</ele></trkpt>
    <trkpt lat="32.205354" lon="-5.684373"><ele>2250.2</ele></trkpt>
    <trkpt lat="32.205690" lon="-5.683371"><ele>2258.2</ele></trkpt>
    <trkpt lat="32.206128" lon="-5.680619"><ele>2260.8</ele></trkpt>
    <trkpt lat="32.205967" lon="-5.677352"><ele>2265.2</ele></trkpt>
    <trkpt lat="32.206079" lon="-5.675365"><ele>2270.0</ele></trkpt>
    <trkpt lat="32.206212" lon="-5.674438"><ele>2272.5</ele></trkpt>
    <trkpt lat="32.207089" lon="-5.669305"><ele>2289.8</ele></trkpt>
    <trkpt lat="32.206970" lon="-5.668506"><ele>2290.8</ele></trkpt>
    <trkpt lat="32.206282" lon="-5.666949"><ele>2298.8</ele></trkpt>
    <trkpt lat="32.206224" lon="-5.666183"><ele>2300.2</ele></trkpt>
    <trkpt lat="32.206292" lon="-5.663812"><ele>2307.8</ele></trkpt>
    <trkpt lat="32.205790" lon="-5.661858"><ele>2313.0</ele></trkpt>
    <trkpt lat="32.205749" lon="-5.661190"><ele>2316.5</ele></trkpt>
    <trkpt lat="32.205974" lon="-5.658081"><ele>2331.2</ele></trkpt>
    <trkpt lat="32.206058" lon="-5.657102"><ele>2335.0</ele></trkpt>
    <trkpt lat="32.206522" lon="-5.655520"><ele>2340.0</ele></trkpt>
    <trkpt lat="32.206647" lon="-5.654871"><ele>2344.8</ele></trkpt>
    <trkpt lat="32.206299" lon="-5.651791"><ele>2361.0</ele></trkpt>
    <trkpt lat="32.206297" lon="-5.650727"><ele>2365.8</ele></trkpt>
    <trkpt lat="32.206438" lon="-5.650099"><ele>2367.2</ele></trkpt>
    <trkpt lat="32.207447" lon="-5.647643"><ele>2370.2</ele></trkpt>
    <trkpt lat="32.207730" lon="-5.645288"><ele>2373.2</ele></trkpt>
    <trkpt lat="32.207754" lon="-5.643762"><ele>2373.2</ele></trkpt>
    <trkpt lat="32.207507" lon="-5.642928"><ele>2370.0</ele></trkpt>
    <trkpt lat="32.207441" lon="-5.642554"><ele>2370.0</ele></trkpt>
    <trkpt lat="32.207307" lon="-5.641473"><ele>2353.2</ele></trkpt>
    <trkpt lat="32.207113" lon="-5.640973"><ele>2344.8</ele></trkpt>
    <trkpt lat="32.206432" lon="-5.640610"><ele>2342.5</ele></trkpt>
    <trkpt lat="32.205947" lon="-5.640116"><ele>2330.0</ele></trkpt>
    <trkpt lat="32.205777" lon="-5.640057"><ele>2327.5</ele></trkpt>
    <trkpt lat="32.205627" lon="-5.640063"><ele>2327.5</ele></trkpt>
    <trkpt lat="32.204579" lon="-5.640451"><ele>2323.8</ele></trkpt>
    <trkpt lat="32.204000" lon="-5.641117"><ele>2322.8</ele></trkpt>
    <trkpt lat="32.203655" lon="-5.641221"><ele>2321.0</ele></trkpt>
    <trkpt lat="32.203349" lon="-5.640853"><ele>2311.5</ele></trkpt>
    <trkpt lat="32.203274" lon="-5.639373"><ele>2298.8</ele></trkpt>
    <trkpt lat="32.202961" lon="-5.639092"><ele>2292.2</ele></trkpt>
    <trkpt lat="32.201799" lon="-5.639818"><ele>2283.2</ele></trkpt>
    <trkpt lat="32.201081" lon="-5.640519"><ele>2278.2</ele></trkpt>
    <trkpt lat="32.200814" lon="-5.640842"><ele>2274.8</ele></trkpt>
    <trkpt lat="32.199486" lon="-5.642921"><ele>2274.5</ele></trkpt>
    <trkpt lat="32.198928" lon="-5.643489"><ele>2273.8</ele></trkpt>
    <trkpt lat="32.197822" lon="-5.643738"><ele>2272.8</ele></trkpt>
    <trkpt lat="32.196679" lon="-5.643543"><ele>2266.5</ele></trkpt>
    <trkpt lat="32.196111" lon="-5.643289"><ele>2266.2</ele></trkpt>
    <trkpt lat="32.194553" lon="-5.642119"><ele>2266.2</ele></trkpt>
    <trkpt lat="32.193261" lon="-5.640729"><ele>2266.8</ele></trkpt>
    <trkpt lat="32.192960" lon="-5.640214"><ele>2266.8</ele></trkpt>
    <trkpt lat="32.192501" lon="-5.638577"><ele>2266.8</ele></trkpt>
    <trkpt lat="32.191944" lon="-5.637872"><ele>2265.8</ele></trkpt>
    <trkpt lat="32.191054" lon="-5.637156"><ele>2265.2</ele></trkpt>
    <trkpt lat="32.185605" lon="-5.632471"><ele>2243.5</ele></trkpt>
    <trkpt lat="32.185220" lon="-5.632153"><ele>2243.0</ele></trkpt>
    <trkpt lat="32.184336" lon="-5.631812"><ele>2239.8</ele></trkpt>
    <trkpt lat="32.182261" lon="-5.632307"><ele>2229.2</ele></trkpt>
    <trkpt lat="32.181329" lon="-5.632207"><ele>2226.2</ele></trkpt>
    <trkpt lat="32.180519" lon="-5.631852"><ele>2220.8</ele></trkpt>
    <trkpt lat="32.179375" lon="-5.630891"><ele>2215.2</ele></trkpt>
    <trkpt lat="32.179172" lon="-5.630770"><ele>2213.8</ele></trkpt>
    <trkpt lat="32.178992" lon="-5.630715"><ele>2213.0</ele></trkpt>
    <trkpt lat="32.178201" lon="-5.630797"><ele>2210.0</ele></trkpt>
    <trkpt lat="32.176975" lon="-5.631510"><ele>2205.2</ele></trkpt>
    <trkpt lat="32.176477" lon="-5.632001"><ele>2203.5</ele></trkpt>
    <trkpt lat="32.175855" lon="-5.633095"><ele>2201.2</ele></trkpt>
    <trkpt lat="32.175522" lon="-5.633448"><ele>2199.8</ele></trkpt>
    <trkpt lat="32.175035" lon="-5.633720"><ele>2195.8</ele></trkpt>
    <trkpt lat="32.174637" lon="-5.633755"><ele>2193.8</ele></trkpt>
    <trkpt lat="32.174249" lon="-5.633652"><ele>2191.0</ele></trkpt>
    <trkpt lat="32.173911" lon="-5.633392"><ele>2190.8</ele></trkpt>
    <trkpt lat="32.172862" lon="-5.632084"><ele>2191.5</ele></trkpt>
    <trkpt lat="32.171748" lon="-5.631899"><ele>2188.5</ele></trkpt>
    <trkpt lat="32.170409" lon="-5.631114"><ele>2185.5</ele></trkpt>
    <trkpt lat="32.168338" lon="-5.630756"><ele>2185.5</ele></trkpt>
    <trkpt lat="32.165186" lon="-5.630009"><ele>2169.5</ele></trkpt>
    <trkpt lat="32.164571" lon="-5.629876"><ele>2169.0</ele></trkpt>
    <trkpt lat="32.161866" lon="-5.629796"><ele>2167.0</ele></trkpt>
    <trkpt lat="32.159769" lon="-5.630139"><ele>2164.8</ele></trkpt>
    <trkpt lat="32.159104" lon="-5.630456"><ele>2162.2</ele></trkpt>
    <trkpt lat="32.157798" lon="-5.631097"><ele>2162.0</ele></trkpt>
    <trkpt lat="32.156581" lon="-5.631097"><ele>2161.8</ele></trkpt>
    <trkpt lat="32.156373" lon="-5.631332"><ele>2162.2</ele></trkpt>
    <trkpt lat="32.156066" lon="-5.632395"><ele>2162.8</ele></trkpt>
    <trkpt lat="32.156438" lon="-5.632548"><ele>2165.0</ele></trkpt>
    <trkpt lat="32.156730" lon="-5.633227"><ele>2168.5</ele></trkpt>
    <trkpt lat="32.156513" lon="-5.633466"><ele>2168.5</ele></trkpt>
    <trkpt lat="32.156235" lon="-5.633307"><ele>2168.5</ele></trkpt>
    <trkpt lat="32.156104" lon="-5.633577"><ele>2168.2</ele></trkpt>
    </trkseg>
  </trk>
</gpx>
