<?xml version="1.0" encoding="UTF-8"?>
<gpx version="1.1" creator="tripplanner (routed with BRouter, gravel profile)" xmlns="http://www.topografix.com/GPX/1/1">
  <metadata>
    <name>M'Goun &amp; Lakes traverse — Day 2: Aït Mhamed → Tabant (Aït Bouguemez)</name>
    <desc>49 km, 1396 m. Routed with BRouter (gravel profile) over OSM ways — a plan, not a ridden track.</desc>
  </metadata>
  <trk>
    <name>M'Goun &amp; Lakes traverse — Day 2: Aït Mhamed → Tabant (Aït Bouguemez)</name>
    <trkseg>
    <trkpt lat="31.877901" lon="-6.473284"><ele>1655.2</ele></trkpt>
    <trkpt lat="31.877629" lon="-6.472489"><ele>1655.2</ele></trkpt>
    <trkpt lat="31.877880" lon="-6.471579"><ele>1658.8</ele></trkpt>
    <trkpt lat="31.878903" lon="-6.471147"><ele>1667.5</ele></trkpt>
    <trkpt lat="31.879213" lon="-6.470928"><ele>1667.5</ele></trkpt>
    <trkpt lat="31.879305" lon="-6.470691"><ele>1667.5</ele></trkpt>
    <trkpt lat="31.879028" lon="-6.468596"><ele>1666.8</ele></trkpt>
    <trkpt lat="31.878578" lon="-6.467265"><ele>1667.0</ele></trkpt>
    <trkpt lat="31.878572" lon="-6.467160"><ele>1667.2</ele></trkpt>
    <trkpt lat="31.878674" lon="-6.465430"><ele>1675.2</ele></trkpt>
    <trkpt lat="31.878178" lon="-6.464346"><ele>1677.2</ele></trkpt>
    <trkpt lat="31.877838" lon="-6.463535"><ele>1678.0</ele></trkpt>
    <trkpt lat="31.877977" lon="-6.463052"><ele>1679.0</ele></trkpt>
    <trkpt lat="31.878552" lon="-6.462151"><ele>1680.8</ele></trkpt>
    <trkpt lat="31.878659" lon="-6.460929"><ele>1682.0</ele></trkpt>
    <trkpt lat="31.878486" lon="-6.460531"><ele>1681.0</ele></trkpt>
    <trkpt lat="31.877624" lon="-6.459699"><ele>1680.5</ele></trkpt>
    <trkpt lat="31.877071" lon="-6.458919"><ele>1681.2</ele></trkpt>
    <trkpt lat="31.876649" lon="-6.458635"><ele>1681.8</ele></trkpt>
    <trkpt lat="31.874727" lon="-6.457563"><ele>1686.8</ele></trkpt>
    <trkpt lat="31.874355" lon="-6.457071"><ele>1687.5</ele></trkpt>
    <trkpt lat="31.874295" lon="-6.456646"><ele>1689.0</ele></trkpt>
    <trkpt lat="31.874532" lon="-6.455598"><ele>1697.0</ele></trkpt>
    <trkpt lat="31.874556" lon="-6.454145"><ele>1697.8</ele></trkpt>
    <trkpt lat="31.874170" lon="-6.452701"><ele>1699.0</ele></trkpt>
    <trkpt lat="31.873821" lon="-6.450082"><ele>1708.0</ele></trkpt>
    <trkpt lat="31.873659" lon="-6.449597"><ele>1709.5</ele></trkpt>
    <trkpt lat="31.873571" lon="-6.449424"><ele>1709.5</ele></trkpt>
    <trkpt lat="31.873269" lon="-6.449083"><ele>1709.5</ele></trkpt>
    <trkpt lat="31.872427" lon="-6.448659"><ele>1707.8</ele></trkpt>
    <trkpt lat="31.872032" lon="-6.447812"><ele>1711.2</ele></trkpt>
    <trkpt lat="31.871647" lon="-6.447451"><ele>1711.2</ele></trkpt>
    <trkpt lat="31.870104" lon="-6.447503"><ele>1709.8</ele></trkpt>
    <trkpt lat="31.868392" lon="-6.445205"><ele>1721.2</ele></trkpt>
    <trkpt lat="31.867935" lon="-6.444872"><ele>1721.2</ele></trkpt>
    <trkpt lat="31.867408" lon="-6.444817"><ele>1721.2</ele></trkpt>
    <trkpt lat="31.866254" lon="-6.444973"><ele>1724.0</ele></trkpt>
    <trkpt lat="31.865887" lon="-6.444875"><ele>1725.2</ele></trkpt>
    <trkpt lat="31.865740" lon="-6.444643"><ele>1727.5</ele></trkpt>
    <trkpt lat="31.865572" lon="-6.443436"><ele>1733.5</ele></trkpt>
    <trkpt lat="31.865508" lon="-6.443204"><ele>1733.5</ele></trkpt>
    <trkpt lat="31.865175" lon="-6.442675"><ele>1733.5</ele></trkpt>
    <trkpt lat="31.864972" lon="-6.442551"><ele>1731.2</ele></trkpt>
    <trkpt lat="31.864097" lon="-6.442280"><ele>1729.0</ele></trkpt>
    <trkpt lat="31.863121" lon="-6.441660"><ele>1729.5</ele></trkpt>
    <trkpt lat="31.862146" lon="-6.441747"><ele>1731.5</ele></trkpt>
    <trkpt lat="31.860654" lon="-6.441789"><ele>1740.5</ele></trkpt>
    <trkpt lat="31.860409" lon="-6.441790"><ele>1740.8</ele></trkpt>
    <trkpt lat="31.859692" lon="-6.441651"><ele>1742.5</ele></trkpt>
    <trkpt lat="31.859216" lon="-6.441407"><ele>1746.5</ele></trkpt>
    <trkpt lat="31.859068" lon="-6.441187"><ele>1748.8</ele></trkpt>
    <trkpt lat="31.858978" lon="-6.440906"><ele>1751.8</ele></trkpt>
    <trkpt lat="31.858654" lon="-6.438892"><ele>1770.8</ele></trkpt>
    <trkpt lat="31.858553" lon="-6.438397"><ele>1773.2</ele></trkpt>
    <trkpt lat="31.858233" lon="-6.437334"><ele>1778.8</ele></trkpt>
    <trkpt lat="31.858191" lon="-6.435999"><ele>1785.2</ele></trkpt>
    <trkpt lat="31.858252" lon="-6.435566"><ele>1786.5</ele></trkpt>
    <trkpt lat="31.858869" lon="-6.434817"><ele>1789.8</ele></trkpt>
    <trkpt lat="31.859068" lon="-6.434311"><ele>1792.5</ele></trkpt>
    <trkpt lat="31.859065" lon="-6.434017"><ele>1794.8</ele></trkpt>
    <trkpt lat="31.858965" lon="-6.433679"><ele>1798.5</ele></trkpt>
    <trkpt lat="31.858438" lon="-6.432432"><ele>1812.0</ele></trkpt>
    <trkpt lat="31.858200" lon="-6.432203"><ele>1816.0</ele></trkpt>
    <trkpt lat="31.855551" lon="-6.430546"><ele>1842.2</ele></trkpt>
    <trkpt lat="31.855240" lon="-6.430255"><ele>1844.5</ele></trkpt>
    <trkpt lat="31.853829" lon="-6.427662"><ele>1848.8</ele></trkpt>
    <trkpt lat="31.851835" lon="-6.423916"><ele>1868.8</ele></trkpt>
    <trkpt lat="31.851525" lon="-6.423288"><ele>1874.8</ele></trkpt>
    <trkpt lat="31.851270" lon="-6.422820"><ele>1875.8</ele></trkpt>
    <trkpt lat="31.849669" lon="-6.420298"><ele>1891.0</ele></trkpt>
    <trkpt lat="31.849307" lon="-6.419987"><ele>1895.2</ele></trkpt>
    <trkpt lat="31.848430" lon="-6.419068"><ele>1898.0</ele></trkpt>
    <trkpt lat="31.847997" lon="-6.418887"><ele>1898.0</ele></trkpt>
    <trkpt lat="31.846490" lon="-6.418682"><ele>1893.2</ele></trkpt>
    <trkpt lat="31.845490" lon="-6.417994"><ele>1889.0</ele></trkpt>
    <trkpt lat="31.845206" lon="-6.417374"><ele>1889.0</ele></trkpt>
    <trkpt lat="31.845054" lon="-6.416413"><ele>1889.0</ele></trkpt>
    <trkpt lat="31.844775" lon="-6.415918"><ele>1889.5</ele></trkpt>
    <trkpt lat="31.844520" lon="-6.415596"><ele>1890.2</ele></trkpt>
    <trkpt lat="31.843613" lon="-6.414850"><ele>1895.5</ele></trkpt>
    <trkpt lat="31.842575" lon="-6.414286"><ele>1902.5</ele></trkpt>
    <trkpt lat="31.841992" lon="-6.413712"><ele>1906.5</ele></trkpt>
    <trkpt lat="31.841415" lon="-6.412802"><ele>1914.5</ele></trkpt>
    <trkpt lat="31.841241" lon="-6.412594"><ele>1914.5</ele></trkpt>
    <trkpt lat="31.840241" lon="-6.412049"><ele>1912.2</ele></trkpt>
    <trkpt lat="31.839845" lon="-6.411453"><ele>1913.2</ele></trkpt>
    <trkpt lat="31.838954" lon="-6.409586"><ele>1917.5</ele></trkpt>
    <trkpt lat="31.838443" lon="-6.408862"><ele>1923.5</ele></trkpt>
    <trkpt lat="31.837495" lon="-6.407934"><ele>1935.0</ele></trkpt>
    <trkpt lat="31.836373" lon="-6.407128"><ele>1947.8</ele></trkpt>
    <trkpt lat="31.835083" lon="-6.405426"><ele>1961.8</ele></trkpt>
    <trkpt lat="31.833809" lon="-6.404329"><ele>1968.0</ele></trkpt>
    <trkpt lat="31.833703" lon="-6.404090"><ele>1969.0</ele></trkpt>
    <trkpt lat="31.833152" lon="-6.402560"><ele>1981.0</ele></trkpt>
    <trkpt lat="31.832695" lon="-6.402064"><ele>1984.8</ele></trkpt>
    <trkpt lat="31.831796" lon="-6.401467"><ele>1992.2</ele></trkpt>
    <trkpt lat="31.831309" lon="-6.400903"><ele>1997.0</ele></trkpt>
    <trkpt lat="31.830954" lon="-6.400416"><ele>2002.0</ele></trkpt>
    <trkpt lat="31.830376" lon="-6.399368"><ele>2015.0</ele></trkpt>
    <trkpt lat="31.828556" lon="-6.396680"><ele>2043.0</ele></trkpt>
    <trkpt lat="31.828160" lon="-6.395965"><ele>2047.2</ele></trkpt>
    <trkpt lat="31.826760" lon="-6.395637"><ele>2051.8</ele></trkpt>
    <trkpt lat="31.825005" lon="-6.394927"><ele>2069.8</ele></trkpt>
    <trkpt lat="31.824879" lon="-6.394862"><ele>2071.8</ele></trkpt>
    <trkpt lat="31.824574" lon="-6.394307"><ele>2076.2</ele></trkpt>
    <trkpt lat="31.823595" lon="-6.393791"><ele>2086.5</ele></trkpt>
    <trkpt lat="31.822572" lon="-6.394177"><ele>2095.2</ele></trkpt>
    <trkpt lat="31.822325" lon="-6.394161"><ele>2098.0</ele></trkpt>
    <trkpt lat="31.821892" lon="-6.394007"><ele>2103.5</ele></trkpt>
    <trkpt lat="31.821475" lon="-6.393543"><ele>2111.0</ele></trkpt>
    <trkpt lat="31.821268" lon="-6.392137"><ele>2117.8</ele></trkpt>
    <trkpt lat="31.821150" lon="-6.391983"><ele>2119.0</ele></trkpt>
    <trkpt lat="31.820032" lon="-6.391932"><ele>2129.5</ele></trkpt>
    <trkpt lat="31.819454" lon="-6.391640"><ele>2133.0</ele></trkpt>
    <trkpt lat="31.818476" lon="-6.391728"><ele>2142.8</ele></trkpt>
    <trkpt lat="31.817651" lon="-6.391629"><ele>2148.8</ele></trkpt>
    <trkpt lat="31.817273" lon="-6.391530"><ele>2149.2</ele></trkpt>
    <trkpt lat="31.814450" lon="-6.390038"><ele>2154.0</ele></trkpt>
    <trkpt lat="31.814114" lon="-6.389954"><ele>2154.8</ele></trkpt>
    <trkpt lat="31.812442" lon="-6.389730"><ele>2167.5</ele></trkpt>
    <trkpt lat="31.811499" lon="-6.389141"><ele>2176.5</ele></trkpt>
    <trkpt lat="31.810446" lon="-6.388681"><ele>2177.2</ele></trkpt>
    <trkpt lat="31.808940" lon="-6.388662"><ele>2183.0</ele></trkpt>
    <trkpt lat="31.807638" lon="-6.387697"><ele>2185.5</ele></trkpt>
    <trkpt lat="31.805712" lon="-6.385811"><ele>2200.2</ele></trkpt>
    <trkpt lat="31.805605" lon="-6.385653"><ele>2202.5</ele></trkpt>
    <trkpt lat="31.805572" lon="-6.385454"><ele>2204.2</ele></trkpt>
    <trkpt lat="31.805961" lon="-6.384813"><ele>2205.0</ele></trkpt>
    <trkpt lat="31.805841" lon="-6.384433"><ele>2205.8</ele></trkpt>
    <trkpt lat="31.805454" lon="-6.384549"><ele>2207.5</ele></trkpt>
    <trkpt lat="31.804509" lon="-6.385120"><ele>2213.8</ele></trkpt>
    <trkpt lat="31.803229" lon="-6.385276"><ele>2223.8</ele></trkpt>
    <trkpt lat="31.801966" lon="-6.384707"><ele>2231.5</ele></trkpt>
    <trkpt lat="31.801670" lon="-6.384452"><ele>2234.5</ele></trkpt>
    <trkpt lat="31.801627" lon="-6.384052"><ele>2236.0</ele></trkpt>
    <trkpt lat="31.802194" lon="-6.382947"><ele>2237.2</ele></trkpt>
    <trkpt lat="31.802193" lon="-6.382717"><ele>2238.2</ele></trkpt>
    <trkpt lat="31.802050" lon="-6.382707"><ele>2239.8</ele></trkpt>
    <trkpt lat="31.800848" lon="-6.383136"><ele>2248.8</ele></trkpt>
    <trkpt lat="31.800317" lon="-6.383167"><ele>2253.2</ele></trkpt>
    <trkpt lat="31.800056" lon="-6.383093"><ele>2256.0</ele></trkpt>
    <trkpt lat="31.799358" lon="-6.382432"><ele>2267.5</ele></trkpt>
    <trkpt lat="31.799150" lon="-6.382387"><ele>2270.0</ele></trkpt>
    <trkpt lat="31.798169" lon="-6.382192"><ele>2288.8</ele></trkpt>
    <trkpt lat="31.798103" lon="-6.382159"><ele>2289.2</ele></trkpt>
    <trkpt lat="31.798023" lon="-6.381623"><ele>2290.2</ele></trkpt>
    <trkpt lat="31.797595" lon="-6.381345"><ele>2295.8</ele></trkpt>
    <trkpt lat="31.797485" lon="-6.380777"><ele>2296.5</ele></trkpt>
    <trkpt lat="31.797366" lon="-6.380683"><ele>2297.2</ele></trkpt>
    <trkpt lat="31.797023" lon="-6.380448"><ele>2302.0</ele></trkpt>
    <trkpt lat="31.796528" lon="-6.379833"><ele>2307.2</ele></trkpt>
    <trkpt lat="31.795954" lon="-6.379118"><ele>2307.2</ele></trkpt>
    <trkpt lat="31.793801" lon="-6.378140"><ele>2302.8</ele></trkpt>
    <trkpt lat="31.793428" lon="-6.377411"><ele>2300.8</ele></trkpt>
    <trkpt lat="31.793161" lon="-6.375257"><ele>2299.0</ele></trkpt>
    <trkpt lat="31.792849" lon="-6.373854"><ele>2298.5</ele></trkpt>
    <trkpt lat="31.791701" lon="-6.371500"><ele>2295.8</ele></trkpt>
    <trkpt lat="31.790934" lon="-6.370576"><ele>2295.8</ele></trkpt>
    <trkpt lat="31.790559" lon="-6.370847"><ele>2295.8</ele></trkpt>
    <trkpt lat="31.790062" lon="-6.371051"><ele>2295.8</ele></trkpt>
    <trkpt lat="31.788020" lon="-6.371813"><ele>2315.5</ele></trkpt>
    <trkpt lat="31.787358" lon="-6.372317"><ele>2327.0</ele></trkpt>
    <trkpt lat="31.786574" lon="-6.372263"><ele>2336.0</ele></trkpt>
    <trkpt lat="31.785594" lon="-6.372553"><ele>2344.2</ele></trkpt>
    <trkpt lat="31.783793" lon="-6.372011"><ele>2356.8</ele></trkpt>
    <trkpt lat="31.782826" lon="-6.371936"><ele>2362.5</ele></trkpt>
    <trkpt lat="31.782146" lon="-6.371802"><ele>2362.5</ele></trkpt>
    <trkpt lat="31.781590" lon="-6.371330"><ele>2362.5</ele></trkpt>
    <trkpt lat="31.781348" lon="-6.370933"><ele>2361.0</ele></trkpt>
    <trkpt lat="31.781043" lon="-6.370176"><ele>2360.8</ele></trkpt>
    <trkpt lat="31.780819" lon="-6.369001"><ele>2360.2</ele></trkpt>
    <trkpt lat="31.780687" lon="-6.368615"><ele>2354.2</ele></trkpt>
    <trkpt lat="31.779926" lon="-6.367092"><ele>2351.5</ele></trkpt>
    <trkpt lat="31.779315" lon="-6.366158"><ele>2351.0</ele></trkpt>
    <trkpt lat="31.777810" lon="-6.364613"><ele>2345.2</ele></trkpt>
    <trkpt lat="31.777411" lon="-6.363650"><ele>2343.0</ele></trkpt>
    <trkpt lat="31.777338" lon="-6.363500"><ele>2342.8</ele></trkpt>
    <trkpt lat="31.777055" lon="-6.363372"><ele>2342.8</ele></trkpt>
    <trkpt lat="31.776713" lon="-6.363342"><ele>2342.8</ele></trkpt>
    <trkpt lat="31.775635" lon="-6.363484"><ele>2354.5</ele></trkpt>
    <trkpt lat="31.774695" lon="-6.363608"><ele>2354.5</ele></trkpt>
    <trkpt lat="31.773373" lon="-6.364616"><ele>2352.5</ele></trkpt>
    <trkpt lat="31.773044" lon="-6.364482"><ele>2350.2</ele></trkpt>
    <trkpt lat="31.772575" lon="-6.363594"><ele>2349.8</ele></trkpt>
    <trkpt lat="31.772335" lon="-6.363305"><ele>2349.2</ele></trkpt>
    <trkpt lat="31.772157" lon="-6.363272"><ele>2349.2</ele></trkpt>
    <trkpt lat="31.772130" lon="-6.363350"><ele>2348.5</ele></trkpt>
    <trkpt lat="31.772262" lon="-6.364206"><ele>2339.5</ele></trkpt>
    <trkpt lat="31.772264" lon="-6.365509"><ele>2323.8</ele></trkpt>
    <trkpt lat="31.772237" lon="-6.365869"><ele>2323.8</ele></trkpt>
    <trkpt lat="31.771751" lon="-6.364919"><ele>2321.5</ele></trkpt>
    <trkpt lat="31.771687" lon="-6.364981"><ele>2321.5</ele></trkpt>
    <trkpt lat="31.770823" lon="-6.366604"><ele>2305.0</ele></trkpt>
    <trkpt lat="31.769984" lon="-6.366802"><ele>2305.0</ele></trkpt>
    <trkpt lat="31.769063" lon="-6.366808"><ele>2307.0</ele></trkpt>
    <trkpt lat="31.769190" lon="-6.367043"><ele>2307.0</ele></trkpt>
    <trkpt lat="31.769738" lon="-6.367387"><ele>2303.2</ele></trkpt>
    <trkpt lat="31.770823" lon="-6.368916"><ele>2302.5</ele></trkpt>
    <trkpt lat="31.770910" lon="-6.369055"><ele>2303.2</ele></trkpt>
    <trkpt lat="31.770896" lon="-6.369763"><ele>2313.0</ele></trkpt>
    <trkpt lat="31.771161" lon="-6.370616"><ele>2316.0</ele></trkpt>
    <trkpt lat="31.770203" lon="-6.371276"><ele>2328.2</ele></trkpt>
    <trkpt lat="31.769751" lon="-6.371931"><ele>2328.2</ele></trkpt>
    <trkpt lat="31.769551" lon="-6.372579"><ele>2328.2</ele></trkpt>
    <trkpt lat="31.768976" lon="-6.373583"><ele>2322.2</ele></trkpt>
    <trkpt lat="31.768702" lon="-6.373620"><ele>2320.5</ele></trkpt>
    <trkpt lat="31.767959" lon="-6.373331"><ele>2319.2</ele></trkpt>
    <trkpt lat="31.767818" lon="-6.373358"><ele>2319.0</ele></trkpt>
    <trkpt lat="31.767695" lon="-6.373416"><ele>2317.5</ele></trkpt>
    <trkpt lat="31.767489" lon="-6.373722"><ele>2310.5</ele></trkpt>
    <trkpt lat="31.767284" lon="-6.373840"><ele>2310.5</ele></trkpt>
    <trkpt lat="31.766614" lon="-6.374066"><ele>2310.5</ele></trkpt>
    <trkpt lat="31.765852" lon="-6.374119"><ele>2311.0</ele></trkpt>
    <trkpt lat="31.765907" lon="-6.375063"><ele>2311.5</ele></trkpt>
    <trkpt lat="31.765569" lon="-6.376238"><ele>2313.2</ele></trkpt>
    <trkpt lat="31.765847" lon="-6.376957"><ele>2314.2</ele></trkpt>
    <trkpt lat="31.765907" lon="-6.377290"><ele>2313.8</ele></trkpt>
    <trkpt lat="31.765802" lon="-6.377826"><ele>2312.8</ele></trkpt>
    <trkpt lat="31.765241" lon="-6.378824"><ele>2310.2</ele></trkpt>
    <trkpt lat="31.765318" lon="-6.379983"><ele>2307.2</ele></trkpt>
    <trkpt lat="31.765154" lon="-6.379950"><ele>2307.2</ele></trkpt>
    <trkpt lat="31.764379" lon="-6.379848"><ele>2312.2</ele></trkpt>
    <trkpt lat="31.762299" lon="-6.380691"><ele>2323.0</ele></trkpt>
    <trkpt lat="31.761441" lon="-6.380202"><ele>2333.8</ele></trkpt>
    <trkpt lat="31.761259" lon="-6.379902"><ele>2335.0</ele></trkpt>
    <trkpt lat="31.761277" lon="-6.379618"><ele>2336.0</ele></trkpt>
    <trkpt lat="31.761875" lon="-6.378878"><ele>2340.5</ele></trkpt>
    <trkpt lat="31.761925" lon="-6.378641"><ele>2341.5</ele></trkpt>
    <trkpt lat="31.762176" lon="-6.377681"><ele>2347.8</ele></trkpt>
    <trkpt lat="31.762372" lon="-6.376410"><ele>2358.8</ele></trkpt>
    <trkpt lat="31.762404" lon="-6.375943"><ele>2361.2</ele></trkpt>
    <trkpt lat="31.762363" lon="-6.375498"><ele>2364.8</ele></trkpt>
    <trkpt lat="31.762367" lon="-6.374763"><ele>2371.0</ele></trkpt>
    <trkpt lat="31.761998" lon="-6.374022"><ele>2377.8</ele></trkpt>
    <trkpt lat="31.761962" lon="-6.372816"><ele>2387.8</ele></trkpt>
    <trkpt lat="31.761141" lon="-6.372483"><ele>2393.2</ele></trkpt>
    <trkpt lat="31.760976" lon="-6.372360"><ele>2395.0</ele></trkpt>
    <trkpt lat="31.760689" lon="-6.372016"><ele>2398.2</ele></trkpt>
    <trkpt lat="31.760123" lon="-6.370611"><ele>2410.5</ele></trkpt>
    <trkpt lat="31.760128" lon="-6.369554"><ele>2419.8</ele></trkpt>
    <trkpt lat="31.759845" lon="-6.368047"><ele>2424.0</ele></trkpt>
    <trkpt lat="31.759909" lon="-6.367607"><ele>2428.5</ele></trkpt>
    <trkpt lat="31.759827" lon="-6.366864"><ele>2430.8</ele></trkpt>
    <trkpt lat="31.759528" lon="-6.365695"><ele>2433.8</ele></trkpt>
    <trkpt lat="31.758541" lon="-6.363973"><ele>2435.5</ele></trkpt>
    <trkpt lat="31.758487" lon="-6.361860"><ele>2466.2</ele></trkpt>
    <trkpt lat="31.758440" lon="-6.361748"><ele>2466.2</ele></trkpt>
    <trkpt lat="31.757485" lon="-6.362043"><ele>2466.8</ele></trkpt>
    <trkpt lat="31.756988" lon="-6.361950"><ele>2469.0</ele></trkpt>
    <trkpt lat="31.756675" lon="-6.361781"><ele>2477.2</ele></trkpt>
    <trkpt lat="31.754652" lon="-6.359754"><ele>2508.8</ele></trkpt>
    <trkpt lat="31.754344" lon="-6.359335"><ele>2517.8</ele></trkpt>
    <trkpt lat="31.753450" lon="-6.358074"><ele>2528.5</ele></trkpt>
    <trkpt lat="31.752011" lon="-6.356165"><ele>2543.2</ele></trkpt>
    <trkpt lat="31.751966" lon="-6.356131"><ele>2544.0</ele></trkpt>
    <trkpt lat="31.749805" lon="-6.355706"><ele>2551.2</ele></trkpt>
    <trkpt lat="31.748747" lon="-6.355116"><ele>2556.2</ele></trkpt>
    <trkpt lat="31.747848" lon="-6.355428"><ele>2569.5</ele></trkpt>
    <trkpt lat="31.747486" lon="-6.355457"><ele>2571.0</ele></trkpt>
    <trkpt lat="31.747210" lon="-6.355423"><ele>2571.5</ele></trkpt>
    <trkpt lat="31.746801" lon="-6.354975"><ele>2571.5</ele></trkpt>
    <trkpt lat="31.746494" lon="-6.354830"><ele>2571.5</ele></trkpt>
    <trkpt lat="31.745945" lon="-6.354868"><ele>2573.0</ele></trkpt>
    <trkpt lat="31.744823" lon="-6.355356"><ele>2580.8</ele></trkpt>
    <trkpt lat="31.744537" lon="-6.355219"><ele>2580.5</ele></trkpt>
    <trkpt lat="31.743400" lon="-6.354443"><ele>2574.2</ele></trkpt>
    <trkpt lat="31.743375" lon="-6.354187"><ele>2570.2</ele></trkpt>
    <trkpt lat="31.743209" lon="-6.354008"><ele>2568.5</ele></trkpt>
    <trkpt lat="31.743104" lon="-6.353949"><ele>2568.5</ele></trkpt>
    <trkpt lat="31.742222" lon="-6.353981"><ele>2569.8</ele></trkpt>
    <trkpt lat="31.741227" lon="-6.353790"><ele>2570.0</ele></trkpt>
    <trkpt lat="31.740402" lon="-6.353323"><ele>2567.8</ele></trkpt>
    <trkpt lat="31.740141" lon="-6.352856"><ele>2564.5</ele></trkpt>
    <trkpt lat="31.739856" lon="-6.352791"><ele>2563.5</ele></trkpt>
    <trkpt lat="31.739241" lon="-6.352328"><ele>2563.2</ele></trkpt>
    <trkpt lat="31.739188" lon="-6.352250"><ele>2562.5</ele></trkpt>
    <trkpt lat="31.739122" lon="-6.350694"><ele>2548.0</ele></trkpt>
    <trkpt lat="31.739058" lon="-6.350411"><ele>2548.0</ele></trkpt>
    <trkpt lat="31.738628" lon="-6.349874"><ele>2548.0</ele></trkpt>
    <trkpt lat="31.738779" lon="-6.349510"><ele>2549.5</ele></trkpt>
    <trkpt lat="31.738709" lon="-6.349035"><ele>2548.8</ele></trkpt>
    <trkpt lat="31.738887" lon="-6.348803"><ele>2547.2</ele></trkpt>
    <trkpt lat="31.740260" lon="-6.347952"><ele>2547.5</ele></trkpt>
    <trkpt lat="31.740627" lon="-6.347362"><ele>2551.2</ele></trkpt>
    <trkpt lat="31.740629" lon="-6.346804"><ele>2552.0</ele></trkpt>
    <trkpt lat="31.740404" lon="-6.346250"><ele>2552.0</ele></trkpt>
    <trkpt lat="31.740472" lon="-6.345701"><ele>2552.2</ele></trkpt>
    <trkpt lat="31.740547" lon="-6.345435"><ele>2552.8</ele></trkpt>
    <trkpt lat="31.741129" lon="-6.344048"><ele>2565.0</ele></trkpt>
    <trkpt lat="31.741365" lon="-6.343611"><ele>2565.8</ele></trkpt>
    <trkpt lat="31.741306" lon="-6.343125"><ele>2570.5</ele></trkpt>
    <trkpt lat="31.741230" lon="-6.341914"><ele>2572.8</ele></trkpt>
    <trkpt lat="31.740976" lon="-6.341452"><ele>2582.5</ele></trkpt>
    <trkpt lat="31.740916" lon="-6.341197"><ele>2582.5</ele></trkpt>
    <trkpt lat="31.741323" lon="-6.340676"><ele>2582.2</ele></trkpt>
    <trkpt lat="31.741463" lon="-6.340207"><ele>2582.2</ele></trkpt>
    <trkpt lat="31.741441" lon="-6.340039"><ele>2582.2</ele></trkpt>
    <trkpt lat="31.741284" lon="-6.339625"><ele>2585.2</ele></trkpt>
    <trkpt lat="31.740846" lon="-6.339048"><ele>2598.5</ele></trkpt>
    <trkpt lat="31.740726" lon="-6.338675"><ele>2600.8</ele></trkpt>
    <trkpt lat="31.740637" lon="-6.338174"><ele>2602.8</ele></trkpt>
    <trkpt lat="31.740552" lon="-6.336401"><ele>2605.8</ele></trkpt>
    <trkpt lat="31.741064" lon="-6.335186"><ele>2601.2</ele></trkpt>
    <trkpt lat="31.741026" lon="-6.334782"><ele>2601.2</ele></trkpt>
    <trkpt lat="31.740940" lon="-6.333700"><ele>2608.2</ele></trkpt>
    <trkpt lat="31.741284" lon="-6.331354"><ele>2613.5</ele></trkpt>
    <trkpt lat="31.741297" lon="-6.331160"><ele>2613.5</ele></trkpt>
    <trkpt lat="31.742005" lon="-6.330208"><ele>2611.2</ele></trkpt>
    <trkpt lat="31.742202" lon="-6.329614"><ele>2611.2</ele></trkpt>
    <trkpt lat="31.742195" lon="-6.329202"><ele>2611.8</ele></trkpt>
    <trkpt lat="31.741608" lon="-6.327889"><ele>2612.2</ele></trkpt>
    <trkpt lat="31.741462" lon="-6.327417"><ele>2612.5</ele></trkpt>
    <trkpt lat="31.741230" lon="-6.326237"><ele>2614.0</ele></trkpt>
    <trkpt lat="31.740747" lon="-6.325043"><ele>2621.0</ele></trkpt>
    <trkpt lat="31.740262" lon="-6.325593"><ele>2623.5</ele></trkpt>
    <trkpt lat="31.740139" lon="-6.325818"><ele>2623.5</ele></trkpt>
    <trkpt lat="31.739638" lon="-6.327292"><ele>2623.5</ele></trkpt>
    <trkpt lat="31.739423" lon="-6.327472"><ele>2623.5</ele></trkpt>
    <trkpt lat="31.739306" lon="-6.327495"><ele>2623.5</ele></trkpt>
    <trkpt lat="31.738891" lon="-6.327519"><ele>2611.0</ele></trkpt>
    <trkpt lat="31.738535" lon="-6.327615"><ele>2602.2</ele></trkpt>
    <trkpt lat="31.738310" lon="-6.327755"><ele>2602.2</ele></trkpt>
    <trkpt lat="31.738121" lon="-6.329058"><ele>2598.0</ele></trkpt>
    <trkpt lat="31.737517" lon="-6.329872"><ele>2597.0</ele></trkpt>
    <trkpt lat="31.736797" lon="-6.331200"><ele>2595.5</ele></trkpt>
    <trkpt lat="31.736065" lon="-6.331845"><ele>2593.2</ele></trkpt>
    <trkpt lat="31.735881" lon="-6.331775"><ele>2589.2</ele></trkpt>
    <trkpt lat="31.735430" lon="-6.331028"><ele>2588.5</ele></trkpt>
    <trkpt lat="31.735184" lon="-6.330831"><ele>2587.8</ele></trkpt>
    <trkpt lat="31.734980" lon="-6.330101"><ele>2585.5</ele></trkpt>
    <trkpt lat="31.734645" lon="-6.328492"><ele>2570.2</ele></trkpt>
    <trkpt lat="31.734579" lon="-6.328180"><ele>2568.2</ele></trkpt>
    <trkpt lat="31.733793" lon="-6.326907"><ele>2567.0</ele></trkpt>
    <trkpt lat="31.733447" lon="-6.325888"><ele>2565.8</ele></trkpt>
    <trkpt lat="31.733403" lon="-6.325680"><ele>2564.0</ele></trkpt>
    <trkpt lat="31.733345" lon="-6.324874"><ele>2551.8</ele></trkpt>
    <trkpt lat="31.733061" lon="-6.323970"><ele>2535.8</ele></trkpt>
    <trkpt lat="31.732999" lon="-6.323943"><ele>2535.8</ele></trkpt>
    <trkpt lat="31.732631" lon="-6.324177"><ele>2534.5</ele></trkpt>
    <trkpt lat="31.731614" lon="-6.326687"><ele>2534.5</ele></trkpt>
    <trkpt lat="31.731187" lon="-6.327461"><ele>2532.8</ele></trkpt>
    <trkpt lat="31.730775" lon="-6.327960"><ele>2526.8</ele></trkpt>
    <trkpt lat="31.730348" lon="-6.328121"><ele>2516.0</ele></trkpt>
    <trkpt lat="31.730245" lon="-6.328238"><ele>2516.0</ele></trkpt>
    <trkpt lat="31.729944" lon="-6.329418"><ele>2518.2</ele></trkpt>
    <trkpt lat="31.729696" lon="-6.329752"><ele>2518.2</ele></trkpt>
    <trkpt lat="31.729569" lon="-6.329777"><ele>2518.2</ele></trkpt>
    <trkpt lat="31.729090" lon="-6.329648"><ele>2506.5</ele></trkpt>
    <trkpt lat="31.728992" lon="-6.329597"><ele>2505.0</ele></trkpt>
    <trkpt lat="31.728290" lon="-6.329155"><ele>2492.2</ele></trkpt>
    <trkpt lat="31.727972" lon="-6.328947"><ele>2485.2</ele></trkpt>
    <trkpt lat="31.727654" lon="-6.328621"><ele>2477.8</ele></trkpt>
    <trkpt lat="31.727332" lon="-6.328262"><ele>2471.8</ele></trkpt>
    <trkpt lat="31.727235" lon="-6.328354"><ele>2470.5</ele></trkpt>
    <trkpt lat="31.726865" lon="-6.329159"><ele>2469.5</ele></trkpt>
    <trkpt lat="31.726012" lon="-6.330916"><ele>2453.2</ele></trkpt>
    <trkpt lat="31.725947" lon="-6.331039"><ele>2451.8</ele></trkpt>
    <trkpt lat="31.724559" lon="-6.333472"><ele>2417.2</ele></trkpt>
    <trkpt lat="31.724079" lon="-6.333688"><ele>2405.5</ele></trkpt>
    <trkpt lat="31.723829" lon="-6.333953"><ele>2402.2</ele></trkpt>
    <trkpt lat="31.723424" lon="-6.334675"><ele>2395.8</ele></trkpt>
    <trkpt lat="31.723002" lon="-6.335494"><ele>2385.0</ele></trkpt>
    <trkpt lat="31.722720" lon="-6.336086"><ele>2371.8</ele></trkpt>
    <trkpt lat="31.722306" lon="-6.336384"><ele>2368.5</ele></trkpt>
    <trkpt lat="31.722388" lon="-6.336518"><ele>2362.5</ele></trkpt>
    <trkpt lat="31.722656" lon="-6.336469"><ele>2362.5</ele></trkpt>
    <trkpt lat="31.723748" lon="-6.335722"><ele>2364.5</ele></trkpt>
    <trkpt lat="31.725251" lon="-6.335712"><ele>2367.2</ele></trkpt>
    <trkpt lat="31.725398" lon="-6.335842"><ele>2367.2</ele></trkpt>
    <trkpt lat="31.725379" lon="-6.335950"><ele>2367.2</ele></trkpt>
    <trkpt lat="31.724052" lon="-6.337475"><ele>2336.5</ele></trkpt>
    <trkpt lat="31.723313" lon="-6.338105"><ele>2323.8</ele></trkpt>
    <trkpt lat="31.722871" lon="-6.338757"><ele>2313.0</ele></trkpt>
    <trkpt lat="31.722596" lon="-6.340314"><ele>2297.2</ele></trkpt>
    <trkpt lat="31.722470" lon="-6.340698"><ele>2290.2</ele></trkpt>
    <trkpt lat="31.722302" lon="-6.341178"><ele>2289.5</ele></trkpt>
    <trkpt lat="31.721824" lon="-6.341647"><ele>2279.8</ele></trkpt>
    <trkpt lat="31.721752" lon="-6.341869"><ele>2278.0</ele></trkpt>
    <trkpt lat="31.721867" lon="-6.343356"><ele>2275.0</ele></trkpt>
    <trkpt lat="31.721038" lon="-6.345051"><ele>2249.2</ele></trkpt>
    <trkpt lat="31.721041" lon="-6.346709"><ele>2238.8</ele></trkpt>
    <trkpt lat="31.720805" lon="-6.347425"><ele>2229.5</ele></trkpt>
    <trkpt lat="31.720377" lon="-6.347926"><ele>2220.0</ele></trkpt>
    <trkpt lat="31.719721" lon="-6.349140"><ele>2206.0</ele></trkpt>
    <trkpt lat="31.719539" lon="-6.349339"><ele>2202.2</ele></trkpt>
    <trkpt lat="31.718431" lon="-6.350364"><ele>2178.0</ele></trkpt>
    <trkpt lat="31.717230" lon="-6.351208"><ele>2162.8</ele></trkpt>
    <trkpt lat="31.716851" lon="-6.351492"><ele>2159.0</ele></trkpt>
    <trkpt lat="31.715758" lon="-6.352005"><ele>2147.2</ele></trkpt>
    <trkpt lat="31.715133" lon="-6.352568"><ele>2142.2</ele></trkpt>
    <trkpt lat="31.713371" lon="-6.353355"><ele>2122.5</ele></trkpt>
    <trkpt lat="31.713009" lon="-6.353212"><ele>2116.2</ele></trkpt>
    <trkpt lat="31.712187" lon="-6.352670"><ele>2105.5</ele></trkpt>
    <trkpt lat="31.710394" lon="-6.351970"><ele>2084.2</ele></trkpt>
    <trkpt lat="31.709463" lon="-6.351699"><ele>2075.8</ele></trkpt>
    <trkpt lat="31.708189" lon="-6.351146"><ele>2064.0</ele></trkpt>
    <trkpt lat="31.707261" lon="-6.350433"><ele>2055.0</ele></trkpt>
    <trkpt lat="31.706371" lon="-6.349711"><ele>2045.8</ele></trkpt>
    <trkpt lat="31.704745" lon="-6.348675"><ele>2032.0</ele></trkpt>
    <trkpt lat="31.703771" lon="-6.347916"><ele>2025.2</ele></trkpt>
    <trkpt lat="31.704341" lon="-6.348146"><ele>2025.2</ele></trkpt>
    <trkpt lat="31.704313" lon="-6.347757"><ele>2025.2</ele></trkpt>
    <trkpt lat="31.702982" lon="-6.346080"><ele>2007.5</ele></trkpt>
    <trkpt lat="31.702240" lon="-6.344980"><ele>2008.5</ele></trkpt>
    <trkpt lat="31.701996" lon="-6.345125"><ele>2010.5</ele></trkpt>
    <trkpt lat="31.701654" lon="-6.345211"><ele>2013.5</ele></trkpt>
    <trkpt lat="31.701024" lon="-6.345270"><ele>2018.5</ele></trkpt>
    <trkpt lat="31.700216" lon="-6.345136"><ele>2028.5</ele></trkpt>
    <trkpt lat="31.700139" lon="-6.345146"><ele>2029.0</ele></trkpt>
    <trkpt lat="31.699089" lon="-6.345452"><ele>2040.5</ele></trkpt>
    <trkpt lat="31.698596" lon="-6.346171"><ele>2040.5</ele></trkpt>
    <trkpt lat="31.698578" lon="-6.346836"><ele>2042.0</ele></trkpt>
    <trkpt lat="31.698473" lon="-6.346949"><ele>2043.8</ele></trkpt>
    <trkpt lat="31.698311" lon="-6.347013"><ele>2043.8</ele></trkpt>
    <trkpt lat="31.696976" lon="-6.347217"><ele>2057.2</ele></trkpt>
    <trkpt lat="31.696882" lon="-6.347233"><ele>2057.8</ele></trkpt>
    <trkpt lat="31.696674" lon="-6.347399"><ele>2057.8</ele></trkpt>
    <trkpt lat="31.696825" lon="-6.348349"><ele>2059.5</ele></trkpt>
    <trkpt lat="31.696608" lon="-6.349185"><ele>2071.2</ele></trkpt>
    <trkpt lat="31.696405" lon="-6.349368"><ele>2071.5</ele></trkpt>
    <trkpt lat="31.695933" lon="-6.349502"><ele>2072.0</ele></trkpt>
    <trkpt lat="31.695367" lon="-6.349234"><ele>2072.2</ele></trkpt>
    <trkpt lat="31.694789" lon="-6.348800"><ele>2084.5</ele></trkpt>
    <trkpt lat="31.694324" lon="-6.349304"><ele>2085.2</ele></trkpt>
    <trkpt lat="31.693667" lon="-6.349417"><ele>2085.5</ele></trkpt>
    <trkpt lat="31.692827" lon="-6.348987"><ele>2101.0</ele></trkpt>
    <trkpt lat="31.692548" lon="-6.348869"><ele>2102.0</ele></trkpt>
    <trkpt lat="31.692462" lon="-6.348944"><ele>2102.0</ele></trkpt>
    <trkpt lat="31.692548" lon="-6.349357"><ele>2103.0</ele></trkpt>
    <trkpt lat="31.692281" lon="-6.349598"><ele>2103.0</ele></trkpt>
    <trkpt lat="31.691270" lon="-6.349738"><ele>2122.8</ele></trkpt>
    <trkpt lat="31.690853" lon="-6.349802"><ele>2129.5</ele></trkpt>
    <trkpt lat="31.690659" lon="-6.349846"><ele>2129.5</ele></trkpt>
    <trkpt lat="31.691006" lon="-6.350264"><ele>2128.8</ele></trkpt>
    <trkpt lat="31.691152" lon="-6.350666"><ele>2128.8</ele></trkpt>
    <trkpt lat="31.691115" lon="-6.350854"><ele>2128.8</ele></trkpt>
    <trkpt lat="31.690896" lon="-6.351460"><ele>2145.0</ele></trkpt>
    <trkpt lat="31.690864" lon="-6.351793"><ele>2145.0</ele></trkpt>
    <trkpt lat="31.692147" lon="-6.351627"><ele>2140.0</ele></trkpt>
    <trkpt lat="31.692359" lon="-6.351846"><ele>2140.0</ele></trkpt>
    <trkpt lat="31.692444" lon="-6.352088"><ele>2140.0</ele></trkpt>
    <trkpt lat="31.692453" lon="-6.352383"><ele>2147.0</ele></trkpt>
    <trkpt lat="31.692170" lon="-6.353134"><ele>2152.5</ele></trkpt>
    <trkpt lat="31.691480" lon="-6.354287"><ele>2177.5</ele></trkpt>
    <trkpt lat="31.691371" lon="-6.354561"><ele>2177.8</ele></trkpt>
    <trkpt lat="31.691400" lon="-6.355719"><ele>2181.5</ele></trkpt>
    <trkpt lat="31.690193" lon="-6.356750"><ele>2196.8</ele></trkpt>
    <trkpt lat="31.690097" lon="-6.356809"><ele>2198.8</ele></trkpt>
    <trkpt lat="31.689919" lon="-6.356707"><ele>2200.0</ele></trkpt>
    <trkpt lat="31.689230" lon="-6.354995"><ele>2200.0</ele></trkpt>
    <trkpt lat="31.687867" lon="-6.354158"><ele>2198.5</ele></trkpt>
    <trkpt lat="31.686575" lon="-6.352774"><ele>2200.0</ele></trkpt>
    <trkpt lat="31.686592" lon="-6.353424"><ele>2198.5</ele></trkpt>
    <trkpt lat="31.686432" lon="-6.353585"><ele>2198.5</ele></trkpt>
    <trkpt lat="31.686487" lon="-6.354271"><ele>2198.5</ele></trkpt>
    <trkpt lat="31.686414" lon="-6.354953"><ele>2202.2</ele></trkpt>
    <trkpt lat="31.686256" lon="-6.355349"><ele>2203.0</ele></trkpt>
    <trkpt lat="31.686149" lon="-6.355462"><ele>2204.2</ele></trkpt>
    <trkpt lat="31.685510" lon="-6.355977"><ele>2215.8</ele></trkpt>
    <trkpt lat="31.685085" lon="-6.356610"><ele>2218.5</ele></trkpt>
    <trkpt lat="31.684521" lon="-6.357017"><ele>2218.5</ele></trkpt>
    <trkpt lat="31.684022" lon="-6.356835"><ele>2219.5</ele></trkpt>
    <trkpt lat="31.683501" lon="-6.356337"><ele>2220.2</ele></trkpt>
    <trkpt lat="31.683168" lon="-6.355832"><ele>2226.2</ele></trkpt>
    <trkpt lat="31.682789" lon="-6.356278"><ele>2230.2</ele></trkpt>
    <trkpt lat="31.682065" lon="-6.356551"><ele>2235.0</ele></trkpt>
    <trkpt lat="31.682018" lon="-6.357039"><ele>2240.2</ele></trkpt>
    <trkpt lat="31.680972" lon="-6.357994"><ele>2248.5</ele></trkpt>
    <trkpt lat="31.680269" lon="-6.358434"><ele>2254.8</ele></trkpt>
    <trkpt lat="31.679206" lon="-6.359813"><ele>2271.5</ele></trkpt>
    <trkpt lat="31.678982" lon="-6.360279"><ele>2274.0</ele></trkpt>
    <trkpt lat="31.678632" lon="-6.360418"><ele>2276.0</ele></trkpt>
    <trkpt lat="31.678537" lon="-6.360606"><ele>2276.8</ele></trkpt>
    <trkpt lat="31.678325" lon="-6.361224"><ele>2283.5</ele></trkpt>
    <trkpt lat="31.678192" lon="-6.362023"><ele>2293.5</ele></trkpt>
    <trkpt lat="31.677822" lon="-6.362667"><ele>2293.8</ele></trkpt>
    <trkpt lat="31.677526" lon="-6.364571"><ele>2293.8</ele></trkpt>
    <trkpt lat="31.677302" lon="-6.366202"><ele>2282.0</ele></trkpt>
    <trkpt lat="31.676973" lon="-6.368004"><ele>2278.2</ele></trkpt>
    <trkpt lat="31.676996" lon="-6.368659"><ele>2274.5</ele></trkpt>
    <trkpt lat="31.677126" lon="-6.369018"><ele>2271.0</ele></trkpt>
    <trkpt lat="31.676923" lon="-6.369388"><ele>2267.0</ele></trkpt>
    <trkpt lat="31.676900" lon="-6.369603"><ele>2263.5</ele></trkpt>
    <trkpt lat="31.677160" lon="-6.370987"><ele>2243.0</ele></trkpt>
    <trkpt lat="31.677147" lon="-6.371105"><ele>2241.2</ele></trkpt>
    <trkpt lat="31.676955" lon="-6.371255"><ele>2240.2</ele></trkpt>
    <trkpt lat="31.675480" lon="-6.372038"><ele>2224.0</ele></trkpt>
    <trkpt lat="31.675131" lon="-6.372070"><ele>2223.5</ele></trkpt>
    <trkpt lat="31.674889" lon="-6.372220"><ele>2222.8</ele></trkpt>
    <trkpt lat="31.674120" lon="-6.372655"><ele>2212.5</ele></trkpt>
    <trkpt lat="31.673656" lon="-6.372901"><ele>2208.0</ele></trkpt>
    <trkpt lat="31.673353" lon="-6.373229"><ele>2205.8</ele></trkpt>
    <trkpt lat="31.673189" lon="-6.373610"><ele>2203.0</ele></trkpt>
    <trkpt lat="31.672860" lon="-6.374560"><ele>2192.2</ele></trkpt>
    <trkpt lat="31.672700" lon="-6.375386"><ele>2178.8</ele></trkpt>
    <trkpt lat="31.672554" lon="-6.376292"><ele>2175.8</ele></trkpt>
    <trkpt lat="31.671696" lon="-6.376968"><ele>2164.0</ele></trkpt>
    <trkpt lat="31.671164" lon="-6.377756"><ele>2160.5</ele></trkpt>
    <trkpt lat="31.669856" lon="-6.381399"><ele>2139.5</ele></trkpt>
    <trkpt lat="31.669792" lon="-6.381554"><ele>2138.8</ele></trkpt>
    <trkpt lat="31.670006" lon="-6.383368"><ele>2135.0</ele></trkpt>
    <trkpt lat="31.669908" lon="-6.383389"><ele>2133.2</ele></trkpt>
    <trkpt lat="31.669239" lon="-6.383132"><ele>2121.0</ele></trkpt>
    <trkpt lat="31.668988" lon="-6.383335"><ele>2114.2</ele></trkpt>
    <trkpt lat="31.668824" lon="-6.385288"><ele>2099.0</ele></trkpt>
    <trkpt lat="31.668751" lon="-6.385814"><ele>2099.0</ele></trkpt>
    <trkpt lat="31.668797" lon="-6.386061"><ele>2099.0</ele></trkpt>
    <trkpt lat="31.669086" lon="-6.386168"><ele>2096.2</ele></trkpt>
    <trkpt lat="31.669107" lon="-6.386441"><ele>2096.2</ele></trkpt>
    <trkpt lat="31.669004" lon="-6.386725"><ele>2096.2</ele></trkpt>
    <trkpt lat="31.668433" lon="-6.387460"><ele>2081.5</ele></trkpt>
    <trkpt lat="31.668189" lon="-6.387884"><ele>2081.2</ele></trkpt>
    <trkpt lat="31.667692" lon="-6.389413"><ele>2079.2</ele></trkpt>
    <trkpt lat="31.667500" lon="-6.390143"><ele>2078.0</ele></trkpt>
    <trkpt lat="31.667326" lon="-6.391838"><ele>2072.8</ele></trkpt>
    <trkpt lat="31.667345" lon="-6.392782"><ele>2070.5</ele></trkpt>
    <trkpt lat="31.667130" lon="-6.393614"><ele>2069.5</ele></trkpt>
    <trkpt lat="31.666596" lon="-6.393898"><ele>2066.0</ele></trkpt>
    <trkpt lat="31.666628" lon="-6.394746"><ele>2062.8</ele></trkpt>
    <trkpt lat="31.666591" lon="-6.394923"><ele>2062.8</ele></trkpt>
    <trkpt lat="31.666450" lon="-6.396124"><ele>2053.2</ele></trkpt>
    <trkpt lat="31.666290" lon="-6.396934"><ele>2044.0</ele></trkpt>
    <trkpt lat="31.665998" lon="-6.397782"><ele>2027.0</ele></trkpt>
    <trkpt lat="31.665906" lon="-6.398131"><ele>2021.5</ele></trkpt>
    <trkpt lat="31.665842" lon="-6.398216"><ele>2020.2</ele></trkpt>
    <trkpt lat="31.665888" lon="-6.398544"><ele>2017.8</ele></trkpt>
    <trkpt lat="31.665363" lon="-6.400341"><ele>2001.5</ele></trkpt>
    <trkpt lat="31.665126" lon="-6.401000"><ele>1990.2</ele></trkpt>
    <trkpt lat="31.664957" lon="-6.401081"><ele>1984.0</ele></trkpt>
    <trkpt lat="31.664884" lon="-6.401199"><ele>1984.0</ele></trkpt>
    <trkpt lat="31.664756" lon="-6.401698"><ele>1983.5</ele></trkpt>
    <trkpt lat="31.664721" lon="-6.401762"><ele>1983.2</ele></trkpt>
    <trkpt lat="31.664226" lon="-6.402535"><ele>1966.5</ele></trkpt>
    <trkpt lat="31.663952" lon="-6.403162"><ele>1962.5</ele></trkpt>
    <trkpt lat="31.663395" lon="-6.404477"><ele>1939.2</ele></trkpt>
    <trkpt lat="31.663368" lon="-6.404509"><ele>1937.8</ele></trkpt>
    <trkpt lat="31.663074" lon="-6.403643"><ele>1931.8</ele></trkpt>
    <trkpt lat="31.663035" lon="-6.403684"><ele>1930.8</ele></trkpt>
    <trkpt lat="31.662795" lon="-6.404435"><ele>1921.0</ele></trkpt>
    <trkpt lat="31.662384" lon="-6.404803"><ele>1909.2</ele></trkpt>
    <trkpt lat="31.662282" lon="-6.404896"><ele>1907.8</ele></trkpt>
    <trkpt lat="31.662295" lon="-6.405281"><ele>1907.0</ele></trkpt>
    <trkpt lat="31.662190" lon="-6.405469"><ele>1905.2</ele></trkpt>
    <trkpt lat="31.661505" lon="-6.405877"><ele>1892.2</ele></trkpt>
    <trkpt lat="31.660445" lon="-6.406022"><ele>1884.8</ele></trkpt>
    <trkpt lat="31.659257" lon="-6.406985"><ele>1874.8</ele></trkpt>
    <trkpt lat="31.660563" lon="-6.408717"><ele>1875.8</ele></trkpt>
    <trkpt lat="31.660601" lon="-6.409797"><ele>1875.8</ele></trkpt>
    <trkpt lat="31.660416" lon="-6.409696"><ele>1874.2</ele></trkpt>
    <trkpt lat="31.660245" lon="-6.409224"><ele>1872.2</ele></trkpt>
    <trkpt lat="31.659897" lon="-6.408943"><ele>1869.5</ele></trkpt>
    <trkpt lat="31.659028" lon="-6.409500"><ele>1861.8</ele></trkpt>
    <trkpt lat="31.658536" lon="-6.409719"><ele>1861.5</ele></trkpt>
    <trkpt lat="31.658731" lon="-6.413699"><ele>1859.5</ele></trkpt>
    <trkpt lat="31.658379" lon="-6.414471"><ele>1858.8</ele></trkpt>
    <trkpt lat="31.658417" lon="-6.414824"><ele>1858.8</ele></trkpt>
    <trkpt lat="31.658757" lon="-6.415474"><ele>1859.8</ele></trkpt>
    <trkpt lat="31.658923" lon="-6.416089"><ele>1859.8</ele></trkpt>
    <trkpt lat="31.659003" lon="-6.417312"><ele>1861.0</ele></trkpt>
    <trkpt lat="31.658851" lon="-6.418690"><ele>1861.0</ele></trkpt>
    <trkpt lat="31.658669" lon="-6.419577"><ele>1861.0</ele></trkpt>
    <trkpt lat="31.658463" lon="-6.419961"><ele>1860.2</ele></trkpt>
    </trkseg>
  </trk>
</gpx>
