<?xml version="1.0" encoding="UTF-8"?>
<gpx version="1.1" creator="tripplanner (routed with BRouter, gravel profile)" xmlns="http://www.topografix.com/GPX/1/1">
  <metadata>
    <name>M'Goun &amp; Lakes traverse — Day 3: Tabant → Zaouiat Ahansal</name>
    <desc>62 km, 1938 m. Routed with BRouter (gravel profile) over OSM ways — a plan, not a ridden track.</desc>
  </metadata>
  <trk>
    <name>M'Goun &amp; Lakes traverse — Day 3: Tabant → Zaouiat Ahansal</name>
    <trkseg>
    <trkpt lat="31.658463" lon="-6.419961"><ele>1860.2</ele></trkpt>
    <trkpt lat="31.658669" lon="-6.419577"><ele>1861.0</ele></trkpt>
    <trkpt lat="31.658851" lon="-6.418690"><ele>1861.0</ele></trkpt>
    <trkpt lat="31.659003" lon="-6.417312"><ele>1861.0</ele></trkpt>
    <trkpt lat="31.658923" lon="-6.416089"><ele>1859.8</ele></trkpt>
    <trkpt lat="31.658757" lon="-6.415474"><ele>1859.8</ele></trkpt>
    <trkpt lat="31.658417" lon="-6.414824"><ele>1858.8</ele></trkpt>
    <trkpt lat="31.658379" lon="-6.414471"><ele>1858.8</ele></trkpt>
    <trkpt lat="31.658731" lon="-6.413699"><ele>1859.5</ele></trkpt>
    <trkpt lat="31.658536" lon="-6.409719"><ele>1861.5</ele></trkpt>
    <trkpt lat="31.659028" lon="-6.409500"><ele>1861.8</ele></trkpt>
    <trkpt lat="31.659897" lon="-6.408943"><ele>1869.5</ele></trkpt>
    <trkpt lat="31.660245" lon="-6.409224"><ele>1872.2</ele></trkpt>
    <trkpt lat="31.660416" lon="-6.409696"><ele>1874.2</ele></trkpt>
    <trkpt lat="31.660601" lon="-6.409797"><ele>1875.8</ele></trkpt>
    <trkpt lat="31.660563" lon="-6.408717"><ele>1875.8</ele></trkpt>
    <trkpt lat="31.659257" lon="-6.406985"><ele>1874.8</ele></trkpt>
    <trkpt lat="31.660445" lon="-6.406022"><ele>1884.8</ele></trkpt>
    <trkpt lat="31.661505" lon="-6.405877"><ele>1892.2</ele></trkpt>
    <trkpt lat="31.662190" lon="-6.405469"><ele>1905.2</ele></trkpt>
    <trkpt lat="31.662295" lon="-6.405281"><ele>1907.0</ele></trkpt>
    <trkpt lat="31.662282" lon="-6.404896"><ele>1907.8</ele></trkpt>
    <trkpt lat="31.662384" lon="-6.404803"><ele>1909.2</ele></trkpt>
    <trkpt lat="31.662795" lon="-6.404435"><ele>1921.0</ele></trkpt>
    <trkpt lat="31.663035" lon="-6.403684"><ele>1930.8</ele></trkpt>
    <trkpt lat="31.663074" lon="-6.403643"><ele>1931.8</ele></trkpt>
    <trkpt lat="31.663368" lon="-6.404509"><ele>1937.8</ele></trkpt>
    <trkpt lat="31.663395" lon="-6.404477"><ele>1939.2</ele></trkpt>
    <trkpt lat="31.663952" lon="-6.403162"><ele>1962.5</ele></trkpt>
    <trkpt lat="31.664226" lon="-6.402535"><ele>1966.5</ele></trkpt>
    <trkpt lat="31.664721" lon="-6.401762"><ele>1983.2</ele></trkpt>
    <trkpt lat="31.664756" lon="-6.401698"><ele>1983.5</ele></trkpt>
    <trkpt lat="31.664884" lon="-6.401199"><ele>1984.0</ele></trkpt>
    <trkpt lat="31.664957" lon="-6.401081"><ele>1984.0</ele></trkpt>
    <trkpt lat="31.665126" lon="-6.401000"><ele>1990.2</ele></trkpt>
    <trkpt lat="31.665363" lon="-6.400341"><ele>2001.5</ele></trkpt>
    <trkpt lat="31.665888" lon="-6.398544"><ele>2017.8</ele></trkpt>
    <trkpt lat="31.665842" lon="-6.398216"><ele>2020.2</ele></trkpt>
    <trkpt lat="31.665906" lon="-6.398131"><ele>2021.5</ele></trkpt>
    <trkpt lat="31.665998" lon="-6.397782"><ele>2027.0</ele></trkpt>
    <trkpt lat="31.666290" lon="-6.396934"><ele>2044.0</ele></trkpt>
    <trkpt lat="31.666450" lon="-6.396124"><ele>2053.2</ele></trkpt>
    <trkpt lat="31.666591" lon="-6.394923"><ele>2062.8</ele></trkpt>
    <trkpt lat="31.666628" lon="-6.394746"><ele>2062.8</ele></trkpt>
    <trkpt lat="31.666596" lon="-6.393898"><ele>2066.0</ele></trkpt>
    <trkpt lat="31.667130" lon="-6.393614"><ele>2069.5</ele></trkpt>
    <trkpt lat="31.667345" lon="-6.392782"><ele>2070.5</ele></trkpt>
    <trkpt lat="31.667326" lon="-6.391838"><ele>2072.8</ele></trkpt>
    <trkpt lat="31.667500" lon="-6.390143"><ele>2078.0</ele></trkpt>
    <trkpt lat="31.667692" lon="-6.389413"><ele>2079.2</ele></trkpt>
    <trkpt lat="31.668189" lon="-6.387884"><ele>2081.2</ele></trkpt>
    <trkpt lat="31.668433" lon="-6.387460"><ele>2081.5</ele></trkpt>
    <trkpt lat="31.669004" lon="-6.386725"><ele>2096.2</ele></trkpt>
    <trkpt lat="31.669107" lon="-6.386441"><ele>2096.2</ele></trkpt>
    <trkpt lat="31.669086" lon="-6.386168"><ele>2096.2</ele></trkpt>
    <trkpt lat="31.668797" lon="-6.386061"><ele>2099.0</ele></trkpt>
    <trkpt lat="31.668751" lon="-6.385814"><ele>2099.0</ele></trkpt>
    <trkpt lat="31.668824" lon="-6.385288"><ele>2099.0</ele></trkpt>
    <trkpt lat="31.668988" lon="-6.383335"><ele>2114.2</ele></trkpt>
    <trkpt lat="31.669239" lon="-6.383132"><ele>2121.0</ele></trkpt>
    <trkpt lat="31.669908" lon="-6.383389"><ele>2133.2</ele></trkpt>
    <trkpt lat="31.670006" lon="-6.383368"><ele>2135.0</ele></trkpt>
    <trkpt lat="31.669792" lon="-6.381554"><ele>2138.8</ele></trkpt>
    <trkpt lat="31.669856" lon="-6.381399"><ele>2139.5</ele></trkpt>
    <trkpt lat="31.671164" lon="-6.377756"><ele>2160.5</ele></trkpt>
    <trkpt lat="31.671696" lon="-6.376968"><ele>2164.0</ele></trkpt>
    <trkpt lat="31.672554" lon="-6.376292"><ele>2175.8</ele></trkpt>
    <trkpt lat="31.672700" lon="-6.375386"><ele>2178.8</ele></trkpt>
    <trkpt lat="31.672860" lon="-6.374560"><ele>2192.2</ele></trkpt>
    <trkpt lat="31.673189" lon="-6.373610"><ele>2203.0</ele></trkpt>
    <trkpt lat="31.673353" lon="-6.373229"><ele>2205.8</ele></trkpt>
    <trkpt lat="31.673656" lon="-6.372901"><ele>2208.0</ele></trkpt>
    <trkpt lat="31.674120" lon="-6.372655"><ele>2212.5</ele></trkpt>
    <trkpt lat="31.674889" lon="-6.372220"><ele>2222.8</ele></trkpt>
    <trkpt lat="31.675131" lon="-6.372070"><ele>2223.5</ele></trkpt>
    <trkpt lat="31.675480" lon="-6.372038"><ele>2224.0</ele></trkpt>
    <trkpt lat="31.676955" lon="-6.371255"><ele>2240.2</ele></trkpt>
    <trkpt lat="31.677147" lon="-6.371105"><ele>2241.2</ele></trkpt>
    <trkpt lat="31.677160" lon="-6.370987"><ele>2243.0</ele></trkpt>
    <trkpt lat="31.676900" lon="-6.369603"><ele>2263.5</ele></trkpt>
    <trkpt lat="31.676923" lon="-6.369388"><ele>2267.0</ele></trkpt>
    <trkpt lat="31.677126" lon="-6.369018"><ele>2271.0</ele></trkpt>
    <trkpt lat="31.676996" lon="-6.368659"><ele>2274.5</ele></trkpt>
    <trkpt lat="31.676973" lon="-6.368004"><ele>2278.2</ele></trkpt>
    <trkpt lat="31.677302" lon="-6.366202"><ele>2282.0</ele></trkpt>
    <trkpt lat="31.677526" lon="-6.364571"><ele>2293.8</ele></trkpt>
    <trkpt lat="31.677822" lon="-6.362667"><ele>2293.8</ele></trkpt>
    <trkpt lat="31.678192" lon="-6.362023"><ele>2293.5</ele></trkpt>
    <trkpt lat="31.678325" lon="-6.361224"><ele>2283.5</ele></trkpt>
    <trkpt lat="31.678537" lon="-6.360606"><ele>2276.8</ele></trkpt>
    <trkpt lat="31.678632" lon="-6.360418"><ele>2276.0</ele></trkpt>
    <trkpt lat="31.678982" lon="-6.360279"><ele>2274.0</ele></trkpt>
    <trkpt lat="31.679206" lon="-6.359813"><ele>2271.5</ele></trkpt>
    <trkpt lat="31.680269" lon="-6.358434"><ele>2254.8</ele></trkpt>
    <trkpt lat="31.680972" lon="-6.357994"><ele>2248.5</ele></trkpt>
    <trkpt lat="31.682018" lon="-6.357039"><ele>2240.2</ele></trkpt>
    <trkpt lat="31.682065" lon="-6.356551"><ele>2235.0</ele></trkpt>
    <trkpt lat="31.682789" lon="-6.356278"><ele>2230.2</ele></trkpt>
    <trkpt lat="31.683168" lon="-6.355832"><ele>2226.2</ele></trkpt>
    <trkpt lat="31.683501" lon="-6.356337"><ele>2220.2</ele></trkpt>
    <trkpt lat="31.684022" lon="-6.356835"><ele>2219.5</ele></trkpt>
    <trkpt lat="31.684521" lon="-6.357017"><ele>2218.5</ele></trkpt>
    <trkpt lat="31.684716" lon="-6.356937"><ele>2218.5</ele></trkpt>
    <trkpt lat="31.685085" lon="-6.356610"><ele>2218.5</ele></trkpt>
    <trkpt lat="31.685510" lon="-6.355977"><ele>2215.8</ele></trkpt>
    <trkpt lat="31.686149" lon="-6.355462"><ele>2204.2</ele></trkpt>
    <trkpt lat="31.686256" lon="-6.355349"><ele>2203.0</ele></trkpt>
    <trkpt lat="31.686446" lon="-6.354733"><ele>2200.8</ele></trkpt>
    <trkpt lat="31.686487" lon="-6.354271"><ele>2198.5</ele></trkpt>
    <trkpt lat="31.686432" lon="-6.353585"><ele>2198.5</ele></trkpt>
    <trkpt lat="31.686592" lon="-6.353424"><ele>2198.5</ele></trkpt>
    <trkpt lat="31.686575" lon="-6.352774"><ele>2200.0</ele></trkpt>
    <trkpt lat="31.687867" lon="-6.354158"><ele>2198.5</ele></trkpt>
    <trkpt lat="31.689230" lon="-6.354995"><ele>2200.0</ele></trkpt>
    <trkpt lat="31.689919" lon="-6.356707"><ele>2200.0</ele></trkpt>
    <trkpt lat="31.690097" lon="-6.356809"><ele>2198.8</ele></trkpt>
    <trkpt lat="31.690193" lon="-6.356750"><ele>2196.8</ele></trkpt>
    <trkpt lat="31.691400" lon="-6.355719"><ele>2181.5</ele></trkpt>
    <trkpt lat="31.691371" lon="-6.354561"><ele>2177.8</ele></trkpt>
    <trkpt lat="31.691480" lon="-6.354287"><ele>2177.5</ele></trkpt>
    <trkpt lat="31.692170" lon="-6.353134"><ele>2152.5</ele></trkpt>
    <trkpt lat="31.692453" lon="-6.352383"><ele>2147.0</ele></trkpt>
    <trkpt lat="31.692444" lon="-6.352088"><ele>2140.0</ele></trkpt>
    <trkpt lat="31.692359" lon="-6.351846"><ele>2140.0</ele></trkpt>
    <trkpt lat="31.692147" lon="-6.351627"><ele>2140.0</ele></trkpt>
    <trkpt lat="31.690864" lon="-6.351793"><ele>2145.0</ele></trkpt>
    <trkpt lat="31.690896" lon="-6.351460"><ele>2145.0</ele></trkpt>
    <trkpt lat="31.691115" lon="-6.350854"><ele>2128.8</ele></trkpt>
    <trkpt lat="31.691152" lon="-6.350666"><ele>2128.8</ele></trkpt>
    <trkpt lat="31.691006" lon="-6.350264"><ele>2128.8</ele></trkpt>
    <trkpt lat="31.690659" lon="-6.349846"><ele>2129.5</ele></trkpt>
    <trkpt lat="31.690853" lon="-6.349802"><ele>2129.5</ele></trkpt>
    <trkpt lat="31.691270" lon="-6.349738"><ele>2122.8</ele></trkpt>
    <trkpt lat="31.692281" lon="-6.349598"><ele>2103.0</ele></trkpt>
    <trkpt lat="31.692548" lon="-6.349357"><ele>2103.0</ele></trkpt>
    <trkpt lat="31.692462" lon="-6.348944"><ele>2102.0</ele></trkpt>
    <trkpt lat="31.692548" lon="-6.348869"><ele>2102.0</ele></trkpt>
    <trkpt lat="31.692827" lon="-6.348987"><ele>2101.0</ele></trkpt>
    <trkpt lat="31.693667" lon="-6.349417"><ele>2085.5</ele></trkpt>
    <trkpt lat="31.694324" lon="-6.349304"><ele>2085.2</ele></trkpt>
    <trkpt lat="31.694789" lon="-6.348800"><ele>2084.5</ele></trkpt>
    <trkpt lat="31.695367" lon="-6.349234"><ele>2072.2</ele></trkpt>
    <trkpt lat="31.695933" lon="-6.349502"><ele>2072.0</ele></trkpt>
    <trkpt lat="31.696405" lon="-6.349368"><ele>2071.5</ele></trkpt>
    <trkpt lat="31.696608" lon="-6.349185"><ele>2071.2</ele></trkpt>
    <trkpt lat="31.696825" lon="-6.348349"><ele>2059.5</ele></trkpt>
    <trkpt lat="31.696674" lon="-6.347399"><ele>2057.8</ele></trkpt>
    <trkpt lat="31.696882" lon="-6.347233"><ele>2057.8</ele></trkpt>
    <trkpt lat="31.696976" lon="-6.347217"><ele>2057.2</ele></trkpt>
    <trkpt lat="31.698311" lon="-6.347013"><ele>2043.8</ele></trkpt>
    <trkpt lat="31.698473" lon="-6.346949"><ele>2043.8</ele></trkpt>
    <trkpt lat="31.698578" lon="-6.346836"><ele>2042.0</ele></trkpt>
    <trkpt lat="31.698596" lon="-6.346171"><ele>2040.5</ele></trkpt>
    <trkpt lat="31.699089" lon="-6.345452"><ele>2040.5</ele></trkpt>
    <trkpt lat="31.700216" lon="-6.345136"><ele>2028.5</ele></trkpt>
    <trkpt lat="31.701024" lon="-6.345270"><ele>2018.5</ele></trkpt>
    <trkpt lat="31.701654" lon="-6.345211"><ele>2013.5</ele></trkpt>
    <trkpt lat="31.701996" lon="-6.345125"><ele>2010.5</ele></trkpt>
    <trkpt lat="31.702240" lon="-6.344980"><ele>2008.5</ele></trkpt>
    <trkpt lat="31.702982" lon="-6.346080"><ele>2007.5</ele></trkpt>
    <trkpt lat="31.704313" lon="-6.347757"><ele>2025.2</ele></trkpt>
    <trkpt lat="31.704341" lon="-6.348146"><ele>2025.2</ele></trkpt>
    <trkpt lat="31.703771" lon="-6.347916"><ele>2025.2</ele></trkpt>
    <trkpt lat="31.704745" lon="-6.348675"><ele>2032.0</ele></trkpt>
    <trkpt lat="31.706371" lon="-6.349711"><ele>2045.8</ele></trkpt>
    <trkpt lat="31.707261" lon="-6.350433"><ele>2055.0</ele></trkpt>
    <trkpt lat="31.708189" lon="-6.351146"><ele>2064.0</ele></trkpt>
    <trkpt lat="31.709463" lon="-6.351699"><ele>2075.8</ele></trkpt>
    <trkpt lat="31.710394" lon="-6.351970"><ele>2084.2</ele></trkpt>
    <trkpt lat="31.712187" lon="-6.352670"><ele>2105.5</ele></trkpt>
    <trkpt lat="31.713009" lon="-6.353212"><ele>2116.2</ele></trkpt>
    <trkpt lat="31.713371" lon="-6.353355"><ele>2122.5</ele></trkpt>
    <trkpt lat="31.715133" lon="-6.352568"><ele>2142.2</ele></trkpt>
    <trkpt lat="31.715758" lon="-6.352005"><ele>2147.2</ele></trkpt>
    <trkpt lat="31.716851" lon="-6.351492"><ele>2159.0</ele></trkpt>
    <trkpt lat="31.717230" lon="-6.351208"><ele>2162.8</ele></trkpt>
    <trkpt lat="31.718431" lon="-6.350364"><ele>2178.0</ele></trkpt>
    <trkpt lat="31.719539" lon="-6.349339"><ele>2202.2</ele></trkpt>
    <trkpt lat="31.719721" lon="-6.349140"><ele>2206.0</ele></trkpt>
    <trkpt lat="31.720377" lon="-6.347926"><ele>2220.0</ele></trkpt>
    <trkpt lat="31.720805" lon="-6.347425"><ele>2229.5</ele></trkpt>
    <trkpt lat="31.721041" lon="-6.346709"><ele>2238.8</ele></trkpt>
    <trkpt lat="31.721038" lon="-6.345051"><ele>2249.2</ele></trkpt>
    <trkpt lat="31.721867" lon="-6.343356"><ele>2275.0</ele></trkpt>
    <trkpt lat="31.721752" lon="-6.341869"><ele>2278.0</ele></trkpt>
    <trkpt lat="31.721824" lon="-6.341647"><ele>2279.8</ele></trkpt>
    <trkpt lat="31.722302" lon="-6.341178"><ele>2289.5</ele></trkpt>
    <trkpt lat="31.722470" lon="-6.340698"><ele>2290.2</ele></trkpt>
    <trkpt lat="31.722596" lon="-6.340314"><ele>2297.2</ele></trkpt>
    <trkpt lat="31.722871" lon="-6.338757"><ele>2313.0</ele></trkpt>
    <trkpt lat="31.723313" lon="-6.338105"><ele>2323.8</ele></trkpt>
    <trkpt lat="31.724052" lon="-6.337475"><ele>2336.5</ele></trkpt>
    <trkpt lat="31.725379" lon="-6.335950"><ele>2367.2</ele></trkpt>
    <trkpt lat="31.725398" lon="-6.335842"><ele>2367.2</ele></trkpt>
    <trkpt lat="31.725251" lon="-6.335712"><ele>2367.2</ele></trkpt>
    <trkpt lat="31.723748" lon="-6.335722"><ele>2364.5</ele></trkpt>
    <trkpt lat="31.722656" lon="-6.336469"><ele>2362.5</ele></trkpt>
    <trkpt lat="31.722388" lon="-6.336518"><ele>2362.5</ele></trkpt>
    <trkpt lat="31.722306" lon="-6.336384"><ele>2368.5</ele></trkpt>
    <trkpt lat="31.722638" lon="-6.336197"><ele>2369.5</ele></trkpt>
    <trkpt lat="31.722720" lon="-6.336086"><ele>2371.8</ele></trkpt>
    <trkpt lat="31.723424" lon="-6.334675"><ele>2395.8</ele></trkpt>
    <trkpt lat="31.723829" lon="-6.333953"><ele>2402.2</ele></trkpt>
    <trkpt lat="31.724079" lon="-6.333688"><ele>2405.5</ele></trkpt>
    <trkpt lat="31.724559" lon="-6.333472"><ele>2417.2</ele></trkpt>
    <trkpt lat="31.725947" lon="-6.331039"><ele>2451.8</ele></trkpt>
    <trkpt lat="31.726865" lon="-6.329159"><ele>2469.5</ele></trkpt>
    <trkpt lat="31.727332" lon="-6.328262"><ele>2471.8</ele></trkpt>
    <trkpt lat="31.727654" lon="-6.328621"><ele>2477.8</ele></trkpt>
    <trkpt lat="31.727972" lon="-6.328947"><ele>2485.2</ele></trkpt>
    <trkpt lat="31.728290" lon="-6.329155"><ele>2492.2</ele></trkpt>
    <trkpt lat="31.728831" lon="-6.329498"><ele>2502.2</ele></trkpt>
    <trkpt lat="31.729090" lon="-6.329648"><ele>2506.5</ele></trkpt>
    <trkpt lat="31.729482" lon="-6.329764"><ele>2516.5</ele></trkpt>
    <trkpt lat="31.729696" lon="-6.329752"><ele>2518.2</ele></trkpt>
    <trkpt lat="31.729944" lon="-6.329418"><ele>2518.2</ele></trkpt>
    <trkpt lat="31.730245" lon="-6.328238"><ele>2516.0</ele></trkpt>
    <trkpt lat="31.730348" lon="-6.328121"><ele>2516.0</ele></trkpt>
    <trkpt lat="31.730775" lon="-6.327960"><ele>2526.8</ele></trkpt>
    <trkpt lat="31.731187" lon="-6.327461"><ele>2532.8</ele></trkpt>
    <trkpt lat="31.731614" lon="-6.326687"><ele>2534.5</ele></trkpt>
    <trkpt lat="31.732631" lon="-6.324177"><ele>2534.5</ele></trkpt>
    <trkpt lat="31.732999" lon="-6.323943"><ele>2535.8</ele></trkpt>
    <trkpt lat="31.733061" lon="-6.323970"><ele>2535.8</ele></trkpt>
    <trkpt lat="31.733345" lon="-6.324874"><ele>2551.8</ele></trkpt>
    <trkpt lat="31.733403" lon="-6.325680"><ele>2564.0</ele></trkpt>
    <trkpt lat="31.733447" lon="-6.325888"><ele>2565.8</ele></trkpt>
    <trkpt lat="31.733793" lon="-6.326907"><ele>2567.0</ele></trkpt>
    <trkpt lat="31.734579" lon="-6.328180"><ele>2568.2</ele></trkpt>
    <trkpt lat="31.734645" lon="-6.328492"><ele>2570.2</ele></trkpt>
    <trkpt lat="31.734980" lon="-6.330101"><ele>2585.5</ele></trkpt>
    <trkpt lat="31.735184" lon="-6.330831"><ele>2587.8</ele></trkpt>
    <trkpt lat="31.735430" lon="-6.331028"><ele>2588.5</ele></trkpt>
    <trkpt lat="31.735881" lon="-6.331775"><ele>2589.2</ele></trkpt>
    <trkpt lat="31.736115" lon="-6.331821"><ele>2594.5</ele></trkpt>
    <trkpt lat="31.736797" lon="-6.331200"><ele>2595.5</ele></trkpt>
    <trkpt lat="31.737517" lon="-6.329872"><ele>2597.0</ele></trkpt>
    <trkpt lat="31.738121" lon="-6.329058"><ele>2598.0</ele></trkpt>
    <trkpt lat="31.738310" lon="-6.327755"><ele>2602.2</ele></trkpt>
    <trkpt lat="31.738535" lon="-6.327615"><ele>2602.2</ele></trkpt>
    <trkpt lat="31.738891" lon="-6.327519"><ele>2611.0</ele></trkpt>
    <trkpt lat="31.739306" lon="-6.327495"><ele>2623.5</ele></trkpt>
    <trkpt lat="31.739423" lon="-6.327472"><ele>2623.5</ele></trkpt>
    <trkpt lat="31.739638" lon="-6.327292"><ele>2623.5</ele></trkpt>
    <trkpt lat="31.740262" lon="-6.325593"><ele>2623.5</ele></trkpt>
    <trkpt lat="31.740872" lon="-6.324872"><ele>2625.0</ele></trkpt>
    <trkpt lat="31.741355" lon="-6.323882"><ele>2631.0</ele></trkpt>
    <trkpt lat="31.741473" lon="-6.323736"><ele>2631.2</ele></trkpt>
    <trkpt lat="31.742101" lon="-6.322912"><ele>2631.2</ele></trkpt>
    <trkpt lat="31.742616" lon="-6.322449"><ele>2630.0</ele></trkpt>
    <trkpt lat="31.743030" lon="-6.321788"><ele>2626.2</ele></trkpt>
    <trkpt lat="31.743592" lon="-6.321205"><ele>2626.2</ele></trkpt>
    <trkpt lat="31.744481" lon="-6.320682"><ele>2617.2</ele></trkpt>
    <trkpt lat="31.744877" lon="-6.320290"><ele>2616.5</ele></trkpt>
    <trkpt lat="31.745291" lon="-6.320020"><ele>2614.5</ele></trkpt>
    <trkpt lat="31.745754" lon="-6.319939"><ele>2608.0</ele></trkpt>
    <trkpt lat="31.745838" lon="-6.319877"><ele>2608.0</ele></trkpt>
    <trkpt lat="31.746275" lon="-6.318551"><ele>2614.5</ele></trkpt>
    <trkpt lat="31.746562" lon="-6.318114"><ele>2614.5</ele></trkpt>
    <trkpt lat="31.747738" lon="-6.318326"><ele>2609.2</ele></trkpt>
    <trkpt lat="31.748348" lon="-6.318099"><ele>2608.8</ele></trkpt>
    <trkpt lat="31.748490" lon="-6.316542"><ele>2614.8</ele></trkpt>
    <trkpt lat="31.749034" lon="-6.316272"><ele>2614.8</ele></trkpt>
    <trkpt lat="31.749597" lon="-6.316134"><ele>2597.8</ele></trkpt>
    <trkpt lat="31.749775" lon="-6.315975"><ele>2596.8</ele></trkpt>
    <trkpt lat="31.750028" lon="-6.315524"><ele>2596.8</ele></trkpt>
    <trkpt lat="31.750143" lon="-6.314713"><ele>2599.2</ele></trkpt>
    <trkpt lat="31.750434" lon="-6.314568"><ele>2594.0</ele></trkpt>
    <trkpt lat="31.750694" lon="-6.314354"><ele>2594.0</ele></trkpt>
    <trkpt lat="31.750806" lon="-6.313508"><ele>2603.0</ele></trkpt>
    <trkpt lat="31.750948" lon="-6.313520"><ele>2603.0</ele></trkpt>
    <trkpt lat="31.751556" lon="-6.313840"><ele>2585.0</ele></trkpt>
    <trkpt lat="31.751731" lon="-6.313878"><ele>2583.5</ele></trkpt>
    <trkpt lat="31.751955" lon="-6.313868"><ele>2583.5</ele></trkpt>
    <trkpt lat="31.752321" lon="-6.313467"><ele>2593.8</ele></trkpt>
    <trkpt lat="31.752782" lon="-6.313390"><ele>2595.0</ele></trkpt>
    <trkpt lat="31.753496" lon="-6.312983"><ele>2601.0</ele></trkpt>
    <trkpt lat="31.753600" lon="-6.313003"><ele>2601.0</ele></trkpt>
    <trkpt lat="31.753639" lon="-6.314619"><ele>2588.8</ele></trkpt>
    <trkpt lat="31.753682" lon="-6.314674"><ele>2588.8</ele></trkpt>
    <trkpt lat="31.754480" lon="-6.315684"><ele>2602.2</ele></trkpt>
    <trkpt lat="31.755162" lon="-6.317139"><ele>2606.8</ele></trkpt>
    <trkpt lat="31.756407" lon="-6.318266"><ele>2620.5</ele></trkpt>
    <trkpt lat="31.756530" lon="-6.318442"><ele>2621.2</ele></trkpt>
    <trkpt lat="31.757049" lon="-6.319490"><ele>2621.8</ele></trkpt>
    <trkpt lat="31.758300" lon="-6.319160"><ele>2620.8</ele></trkpt>
    <trkpt lat="31.758573" lon="-6.318563"><ele>2620.2</ele></trkpt>
    <trkpt lat="31.759077" lon="-6.317794"><ele>2615.0</ele></trkpt>
    <trkpt lat="31.759461" lon="-6.317493"><ele>2612.0</ele></trkpt>
    <trkpt lat="31.759899" lon="-6.317432"><ele>2604.8</ele></trkpt>
    <trkpt lat="31.760045" lon="-6.317296"><ele>2603.2</ele></trkpt>
    <trkpt lat="31.760041" lon="-6.316884"><ele>2603.5</ele></trkpt>
    <trkpt lat="31.759599" lon="-6.316426"><ele>2609.2</ele></trkpt>
    <trkpt lat="31.758259" lon="-6.315636"><ele>2626.2</ele></trkpt>
    <trkpt lat="31.758147" lon="-6.315499"><ele>2627.0</ele></trkpt>
    <trkpt lat="31.757851" lon="-6.314495"><ele>2628.8</ele></trkpt>
    <trkpt lat="31.757782" lon="-6.314343"><ele>2628.8</ele></trkpt>
    <trkpt lat="31.757219" lon="-6.313445"><ele>2639.8</ele></trkpt>
    <trkpt lat="31.757095" lon="-6.313115"><ele>2645.0</ele></trkpt>
    <trkpt lat="31.757077" lon="-6.313001"><ele>2646.2</ele></trkpt>
    <trkpt lat="31.757050" lon="-6.312173"><ele>2649.5</ele></trkpt>
    <trkpt lat="31.757278" lon="-6.311105"><ele>2651.0</ele></trkpt>
    <trkpt lat="31.757270" lon="-6.310970"><ele>2652.0</ele></trkpt>
    <trkpt lat="31.757075" lon="-6.309756"><ele>2666.0</ele></trkpt>
    <trkpt lat="31.757269" lon="-6.308042"><ele>2687.2</ele></trkpt>
    <trkpt lat="31.757595" lon="-6.307731"><ele>2687.2</ele></trkpt>
    <trkpt lat="31.758092" lon="-6.307503"><ele>2687.2</ele></trkpt>
    <trkpt lat="31.759487" lon="-6.307293"><ele>2681.0</ele></trkpt>
    <trkpt lat="31.759627" lon="-6.307141"><ele>2680.2</ele></trkpt>
    <trkpt lat="31.759593" lon="-6.306944"><ele>2680.2</ele></trkpt>
    <trkpt lat="31.759522" lon="-6.306838"><ele>2680.2</ele></trkpt>
    <trkpt lat="31.758655" lon="-6.305949"><ele>2693.0</ele></trkpt>
    <trkpt lat="31.758256" lon="-6.304976"><ele>2694.8</ele></trkpt>
    <trkpt lat="31.757839" lon="-6.304469"><ele>2705.5</ele></trkpt>
    <trkpt lat="31.757431" lon="-6.302621"><ele>2707.0</ele></trkpt>
    <trkpt lat="31.756613" lon="-6.301281"><ele>2711.8</ele></trkpt>
    <trkpt lat="31.756367" lon="-6.300473"><ele>2709.0</ele></trkpt>
    <trkpt lat="31.756134" lon="-6.300389"><ele>2710.0</ele></trkpt>
    <trkpt lat="31.755998" lon="-6.300428"><ele>2713.0</ele></trkpt>
    <trkpt lat="31.754607" lon="-6.301246"><ele>2734.2</ele></trkpt>
    <trkpt lat="31.754350" lon="-6.301316"><ele>2737.5</ele></trkpt>
    <trkpt lat="31.754103" lon="-6.301253"><ele>2738.8</ele></trkpt>
    <trkpt lat="31.753124" lon="-6.299757"><ele>2745.0</ele></trkpt>
    <trkpt lat="31.753095" lon="-6.299470"><ele>2745.0</ele></trkpt>
    <trkpt lat="31.753161" lon="-6.298838"><ele>2735.5</ele></trkpt>
    <trkpt lat="31.753096" lon="-6.298507"><ele>2735.5</ele></trkpt>
    <trkpt lat="31.752465" lon="-6.297880"><ele>2753.2</ele></trkpt>
    <trkpt lat="31.752427" lon="-6.297788"><ele>2753.2</ele></trkpt>
    <trkpt lat="31.752425" lon="-6.297248"><ele>2753.8</ele></trkpt>
    <trkpt lat="31.752667" lon="-6.296364"><ele>2753.2</ele></trkpt>
    <trkpt lat="31.753368" lon="-6.295747"><ele>2744.8</ele></trkpt>
    <trkpt lat="31.753586" lon="-6.295405"><ele>2744.8</ele></trkpt>
    <trkpt lat="31.753619" lon="-6.295304"><ele>2745.2</ele></trkpt>
    <trkpt lat="31.753523" lon="-6.294303"><ele>2763.8</ele></trkpt>
    <trkpt lat="31.753584" lon="-6.294057"><ele>2764.2</ele></trkpt>
    <trkpt lat="31.754711" lon="-6.293243"><ele>2754.5</ele></trkpt>
    <trkpt lat="31.754978" lon="-6.292884"><ele>2753.2</ele></trkpt>
    <trkpt lat="31.754990" lon="-6.292790"><ele>2753.2</ele></trkpt>
    <trkpt lat="31.754750" lon="-6.291985"><ele>2765.8</ele></trkpt>
    <trkpt lat="31.754767" lon="-6.291851"><ele>2766.2</ele></trkpt>
    <trkpt lat="31.755035" lon="-6.290857"><ele>2765.8</ele></trkpt>
    <trkpt lat="31.755514" lon="-6.290457"><ele>2762.0</ele></trkpt>
    <trkpt lat="31.755823" lon="-6.289816"><ele>2762.5</ele></trkpt>
    <trkpt lat="31.756406" lon="-6.289036"><ele>2765.0</ele></trkpt>
    <trkpt lat="31.756937" lon="-6.288676"><ele>2765.0</ele></trkpt>
    <trkpt lat="31.757698" lon="-6.288759"><ele>2759.2</ele></trkpt>
    <trkpt lat="31.758052" lon="-6.288651"><ele>2759.0</ele></trkpt>
    <trkpt lat="31.759175" lon="-6.287571"><ele>2758.0</ele></trkpt>
    <trkpt lat="31.759436" lon="-6.287219"><ele>2756.5</ele></trkpt>
    <trkpt lat="31.761058" lon="-6.284760"><ele>2737.8</ele></trkpt>
    <trkpt lat="31.762730" lon="-6.280982"><ele>2725.2</ele></trkpt>
    <trkpt lat="31.763050" lon="-6.280243"><ele>2724.0</ele></trkpt>
    <trkpt lat="31.763958" lon="-6.278936"><ele>2721.8</ele></trkpt>
    <trkpt lat="31.764695" lon="-6.277508"><ele>2709.8</ele></trkpt>
    <trkpt lat="31.765495" lon="-6.276247"><ele>2705.8</ele></trkpt>
    <trkpt lat="31.766612" lon="-6.274453"><ele>2693.2</ele></trkpt>
    <trkpt lat="31.766788" lon="-6.274068"><ele>2691.0</ele></trkpt>
    <trkpt lat="31.767066" lon="-6.273436"><ele>2690.0</ele></trkpt>
    <trkpt lat="31.767039" lon="-6.271870"><ele>2685.0</ele></trkpt>
    <trkpt lat="31.767081" lon="-6.271658"><ele>2684.2</ele></trkpt>
    <trkpt lat="31.767476" lon="-6.270366"><ele>2673.2</ele></trkpt>
    <trkpt lat="31.768372" lon="-6.269000"><ele>2665.5</ele></trkpt>
    <trkpt lat="31.768830" lon="-6.268054"><ele>2663.8</ele></trkpt>
    <trkpt lat="31.769104" lon="-6.267604"><ele>2658.8</ele></trkpt>
    <trkpt lat="31.769976" lon="-6.266524"><ele>2652.2</ele></trkpt>
    <trkpt lat="31.770349" lon="-6.266013"><ele>2651.5</ele></trkpt>
    <trkpt lat="31.771118" lon="-6.263898"><ele>2645.2</ele></trkpt>
    <trkpt lat="31.771559" lon="-6.263090"><ele>2641.5</ele></trkpt>
    <trkpt lat="31.771591" lon="-6.262880"><ele>2640.8</ele></trkpt>
    <trkpt lat="31.771679" lon="-6.261854"><ele>2632.2</ele></trkpt>
    <trkpt lat="31.771932" lon="-6.260867"><ele>2628.8</ele></trkpt>
    <trkpt lat="31.772005" lon="-6.260665"><ele>2628.8</ele></trkpt>
    <trkpt lat="31.773758" lon="-6.258364"><ele>2630.8</ele></trkpt>
    <trkpt lat="31.773803" lon="-6.258230"><ele>2629.5</ele></trkpt>
    <trkpt lat="31.774139" lon="-6.256491"><ele>2602.2</ele></trkpt>
    <trkpt lat="31.774269" lon="-6.256120"><ele>2597.5</ele></trkpt>
    <trkpt lat="31.774826" lon="-6.255411"><ele>2594.5</ele></trkpt>
    <trkpt lat="31.775439" lon="-6.254096"><ele>2589.0</ele></trkpt>
    <trkpt lat="31.775484" lon="-6.253887"><ele>2587.2</ele></trkpt>
    <trkpt lat="31.775501" lon="-6.253449"><ele>2580.2</ele></trkpt>
    <trkpt lat="31.775845" lon="-6.252235"><ele>2566.2</ele></trkpt>
    <trkpt lat="31.775998" lon="-6.251913"><ele>2564.8</ele></trkpt>
    <trkpt lat="31.776796" lon="-6.250726"><ele>2558.8</ele></trkpt>
    <trkpt lat="31.777423" lon="-6.250098"><ele>2554.8</ele></trkpt>
    <trkpt lat="31.777994" lon="-6.249981"><ele>2561.5</ele></trkpt>
    <trkpt lat="31.778030" lon="-6.249839"><ele>2561.5</ele></trkpt>
    <trkpt lat="31.777834" lon="-6.249177"><ele>2549.0</ele></trkpt>
    <trkpt lat="31.777877" lon="-6.248665"><ele>2542.0</ele></trkpt>
    <trkpt lat="31.778068" lon="-6.248392"><ele>2540.8</ele></trkpt>
    <trkpt lat="31.778823" lon="-6.247875"><ele>2543.2</ele></trkpt>
    <trkpt lat="31.778880" lon="-6.247673"><ele>2542.2</ele></trkpt>
    <trkpt lat="31.778822" lon="-6.247197"><ele>2533.5</ele></trkpt>
    <trkpt lat="31.779235" lon="-6.245953"><ele>2522.2</ele></trkpt>
    <trkpt lat="31.779823" lon="-6.244997"><ele>2522.2</ele></trkpt>
    <trkpt lat="31.780253" lon="-6.244706"><ele>2522.2</ele></trkpt>
    <trkpt lat="31.780292" lon="-6.244229"><ele>2515.2</ele></trkpt>
    <trkpt lat="31.781057" lon="-6.243197"><ele>2515.0</ele></trkpt>
    <trkpt lat="31.781284" lon="-6.242497"><ele>2501.2</ele></trkpt>
    <trkpt lat="31.781335" lon="-6.242389"><ele>2500.5</ele></trkpt>
    <trkpt lat="31.782069" lon="-6.241337"><ele>2498.0</ele></trkpt>
    <trkpt lat="31.782629" lon="-6.240828"><ele>2493.5</ele></trkpt>
    <trkpt lat="31.782594" lon="-6.240294"><ele>2486.5</ele></trkpt>
    <trkpt lat="31.782811" lon="-6.239593"><ele>2484.5</ele></trkpt>
    <trkpt lat="31.783096" lon="-6.238470"><ele>2473.8</ele></trkpt>
    <trkpt lat="31.783119" lon="-6.238376"><ele>2473.8</ele></trkpt>
    <trkpt lat="31.783556" lon="-6.237858"><ele>2471.8</ele></trkpt>
    <trkpt lat="31.783702" lon="-6.237300"><ele>2470.0</ele></trkpt>
    <trkpt lat="31.783973" lon="-6.237059"><ele>2470.2</ele></trkpt>
    <trkpt lat="31.783936" lon="-6.236954"><ele>2469.5</ele></trkpt>
    <trkpt lat="31.783830" lon="-6.236916"><ele>2466.2</ele></trkpt>
    <trkpt lat="31.783543" lon="-6.237006"><ele>2460.0</ele></trkpt>
    <trkpt lat="31.783436" lon="-6.237055"><ele>2458.0</ele></trkpt>
    <trkpt lat="31.783088" lon="-6.237431"><ele>2455.8</ele></trkpt>
    <trkpt lat="31.782922" lon="-6.237245"><ele>2450.5</ele></trkpt>
    <trkpt lat="31.782962" lon="-6.236965"><ele>2448.2</ele></trkpt>
    <trkpt lat="31.783276" lon="-6.236419"><ele>2445.0</ele></trkpt>
    <trkpt lat="31.783408" lon="-6.236124"><ele>2445.0</ele></trkpt>
    <trkpt lat="31.783747" lon="-6.235915"><ele>2445.8</ele></trkpt>
    <trkpt lat="31.784074" lon="-6.235464"><ele>2445.8</ele></trkpt>
    <trkpt lat="31.784105" lon="-6.235388"><ele>2445.2</ele></trkpt>
    <trkpt lat="31.784008" lon="-6.234772"><ele>2433.8</ele></trkpt>
    <trkpt lat="31.784029" lon="-6.234667"><ele>2432.2</ele></trkpt>
    <trkpt lat="31.784103" lon="-6.234509"><ele>2432.2</ele></trkpt>
    <trkpt lat="31.784514" lon="-6.234241"><ele>2433.0</ele></trkpt>
    <trkpt lat="31.784632" lon="-6.233824"><ele>2432.2</ele></trkpt>
    <trkpt lat="31.784900" lon="-6.233603"><ele>2431.2</ele></trkpt>
    <trkpt lat="31.784898" lon="-6.233012"><ele>2426.8</ele></trkpt>
    <trkpt lat="31.785306" lon="-6.232149"><ele>2425.8</ele></trkpt>
    <trkpt lat="31.785317" lon="-6.232076"><ele>2425.2</ele></trkpt>
    <trkpt lat="31.785381" lon="-6.231462"><ele>2419.2</ele></trkpt>
    <trkpt lat="31.786185" lon="-6.229941"><ele>2414.8</ele></trkpt>
    <trkpt lat="31.786933" lon="-6.226003"><ele>2386.0</ele></trkpt>
    <trkpt lat="31.787006" lon="-6.225825"><ele>2384.2</ele></trkpt>
    <trkpt lat="31.787500" lon="-6.225076"><ele>2381.5</ele></trkpt>
    <trkpt lat="31.787730" lon="-6.224314"><ele>2379.5</ele></trkpt>
    <trkpt lat="31.788545" lon="-6.223500"><ele>2361.2</ele></trkpt>
    <trkpt lat="31.788873" lon="-6.222965"><ele>2354.5</ele></trkpt>
    <trkpt lat="31.788941" lon="-6.222722"><ele>2353.8</ele></trkpt>
    <trkpt lat="31.788849" lon="-6.221995"><ele>2352.0</ele></trkpt>
    <trkpt lat="31.789020" lon="-6.221960"><ele>2349.0</ele></trkpt>
    <trkpt lat="31.790224" lon="-6.222292"><ele>2340.8</ele></trkpt>
    <trkpt lat="31.791405" lon="-6.222879"><ele>2333.5</ele></trkpt>
    <trkpt lat="31.792373" lon="-6.223182"><ele>2330.8</ele></trkpt>
    <trkpt lat="31.792520" lon="-6.223240"><ele>2330.8</ele></trkpt>
    <trkpt lat="31.794214" lon="-6.224224"><ele>2331.5</ele></trkpt>
    <trkpt lat="31.795370" lon="-6.225517"><ele>2331.5</ele></trkpt>
    <trkpt lat="31.795511" lon="-6.225571"><ele>2335.5</ele></trkpt>
    <trkpt lat="31.797044" lon="-6.225383"><ele>2339.8</ele></trkpt>
    <trkpt lat="31.798661" lon="-6.224960"><ele>2346.8</ele></trkpt>
    <trkpt lat="31.798876" lon="-6.224631"><ele>2354.0</ele></trkpt>
    <trkpt lat="31.798923" lon="-6.224561"><ele>2354.2</ele></trkpt>
    <trkpt lat="31.799381" lon="-6.224419"><ele>2356.8</ele></trkpt>
    <trkpt lat="31.800575" lon="-6.223308"><ele>2363.8</ele></trkpt>
    <trkpt lat="31.800609" lon="-6.223072"><ele>2364.2</ele></trkpt>
    <trkpt lat="31.800569" lon="-6.222973"><ele>2364.8</ele></trkpt>
    <trkpt lat="31.800104" lon="-6.221940"><ele>2385.5</ele></trkpt>
    <trkpt lat="31.799938" lon="-6.221687"><ele>2392.2</ele></trkpt>
    <trkpt lat="31.799921" lon="-6.221575"><ele>2392.2</ele></trkpt>
    <trkpt lat="31.800559" lon="-6.221306"><ele>2386.2</ele></trkpt>
    <trkpt lat="31.800843" lon="-6.221027"><ele>2386.2</ele></trkpt>
    <trkpt lat="31.800919" lon="-6.220587"><ele>2389.8</ele></trkpt>
    <trkpt lat="31.800791" lon="-6.220035"><ele>2397.2</ele></trkpt>
    <trkpt lat="31.800800" lon="-6.219917"><ele>2397.2</ele></trkpt>
    <trkpt lat="31.801460" lon="-6.218883"><ele>2393.2</ele></trkpt>
    <trkpt lat="31.801547" lon="-6.218503"><ele>2393.2</ele></trkpt>
    <trkpt lat="31.801526" lon="-6.218431"><ele>2393.2</ele></trkpt>
    <trkpt lat="31.800953" lon="-6.217246"><ele>2409.0</ele></trkpt>
    <trkpt lat="31.800475" lon="-6.216879"><ele>2422.0</ele></trkpt>
    <trkpt lat="31.800367" lon="-6.216784"><ele>2422.0</ele></trkpt>
    <trkpt lat="31.800583" lon="-6.215789"><ele>2418.5</ele></trkpt>
    <trkpt lat="31.800552" lon="-6.215590"><ele>2418.5</ele></trkpt>
    <trkpt lat="31.800324" lon="-6.215102"><ele>2433.0</ele></trkpt>
    <trkpt lat="31.800291" lon="-6.214933"><ele>2433.0</ele></trkpt>
    <trkpt lat="31.800932" lon="-6.214476"><ele>2425.5</ele></trkpt>
    <trkpt lat="31.800978" lon="-6.214245"><ele>2425.5</ele></trkpt>
    <trkpt lat="31.800849" lon="-6.213872"><ele>2435.5</ele></trkpt>
    <trkpt lat="31.800844" lon="-6.213769"><ele>2435.5</ele></trkpt>
    <trkpt lat="31.801512" lon="-6.212936"><ele>2433.8</ele></trkpt>
    <trkpt lat="31.801541" lon="-6.212805"><ele>2433.8</ele></trkpt>
    <trkpt lat="31.801408" lon="-6.212313"><ele>2440.8</ele></trkpt>
    <trkpt lat="31.800819" lon="-6.211682"><ele>2456.5</ele></trkpt>
    <trkpt lat="31.800805" lon="-6.211580"><ele>2456.5</ele></trkpt>
    <trkpt lat="31.801273" lon="-6.211187"><ele>2451.8</ele></trkpt>
    <trkpt lat="31.801281" lon="-6.211096"><ele>2451.8</ele></trkpt>
    <trkpt lat="31.801183" lon="-6.210655"><ele>2460.2</ele></trkpt>
    <trkpt lat="31.801238" lon="-6.210411"><ele>2460.2</ele></trkpt>
    <trkpt lat="31.801295" lon="-6.210380"><ele>2460.2</ele></trkpt>
    <trkpt lat="31.801651" lon="-6.210255"><ele>2452.8</ele></trkpt>
    <trkpt lat="31.801801" lon="-6.210011"><ele>2452.8</ele></trkpt>
    <trkpt lat="31.801808" lon="-6.209917"><ele>2452.8</ele></trkpt>
    <trkpt lat="31.801718" lon="-6.208481"><ele>2477.2</ele></trkpt>
    <trkpt lat="31.801755" lon="-6.208335"><ele>2477.2</ele></trkpt>
    <trkpt lat="31.802364" lon="-6.208111"><ele>2470.0</ele></trkpt>
    <trkpt lat="31.802566" lon="-6.207832"><ele>2470.0</ele></trkpt>
    <trkpt lat="31.802592" lon="-6.207656"><ele>2470.0</ele></trkpt>
    <trkpt lat="31.802831" lon="-6.206139"><ele>2481.8</ele></trkpt>
    <trkpt lat="31.802897" lon="-6.205543"><ele>2482.8</ele></trkpt>
    <trkpt lat="31.802857" lon="-6.204505"><ele>2484.2</ele></trkpt>
    <trkpt lat="31.802776" lon="-6.204352"><ele>2485.2</ele></trkpt>
    <trkpt lat="31.802659" lon="-6.204254"><ele>2489.0</ele></trkpt>
    <trkpt lat="31.802274" lon="-6.204171"><ele>2505.0</ele></trkpt>
    <trkpt lat="31.802131" lon="-6.203906"><ele>2509.5</ele></trkpt>
    <trkpt lat="31.802008" lon="-6.203469"><ele>2510.2</ele></trkpt>
    <trkpt lat="31.802401" lon="-6.202341"><ele>2510.0</ele></trkpt>
    <trkpt lat="31.802810" lon="-6.202102"><ele>2504.0</ele></trkpt>
    <trkpt lat="31.802947" lon="-6.201848"><ele>2504.0</ele></trkpt>
    <trkpt lat="31.802996" lon="-6.201293"><ele>2511.0</ele></trkpt>
    <trkpt lat="31.802963" lon="-6.201228"><ele>2513.5</ele></trkpt>
    <trkpt lat="31.802745" lon="-6.200896"><ele>2528.8</ele></trkpt>
    <trkpt lat="31.802770" lon="-6.200622"><ele>2528.8</ele></trkpt>
    <trkpt lat="31.803183" lon="-6.199909"><ele>2527.0</ele></trkpt>
    <trkpt lat="31.803574" lon="-6.199645"><ele>2524.8</ele></trkpt>
    <trkpt lat="31.803719" lon="-6.199263"><ele>2524.8</ele></trkpt>
    <trkpt lat="31.803748" lon="-6.199020"><ele>2526.5</ele></trkpt>
    <trkpt lat="31.803467" lon="-6.198669"><ele>2539.0</ele></trkpt>
    <trkpt lat="31.803640" lon="-6.197285"><ele>2549.0</ele></trkpt>
    <trkpt lat="31.803948" lon="-6.196501"><ele>2551.8</ele></trkpt>
    <trkpt lat="31.803992" lon="-6.196412"><ele>2551.8</ele></trkpt>
    <trkpt lat="31.804470" lon="-6.196205"><ele>2551.8</ele></trkpt>
    <trkpt lat="31.804847" lon="-6.195830"><ele>2551.8</ele></trkpt>
    <trkpt lat="31.804881" lon="-6.195741"><ele>2551.8</ele></trkpt>
    <trkpt lat="31.805070" lon="-6.194898"><ele>2556.0</ele></trkpt>
    <trkpt lat="31.805056" lon="-6.194301"><ele>2559.2</ele></trkpt>
    <trkpt lat="31.805693" lon="-6.193467"><ele>2560.2</ele></trkpt>
    <trkpt lat="31.805525" lon="-6.193039"><ele>2567.5</ele></trkpt>
    <trkpt lat="31.805529" lon="-6.192844"><ele>2567.5</ele></trkpt>
    <trkpt lat="31.805911" lon="-6.191987"><ele>2564.2</ele></trkpt>
    <trkpt lat="31.806549" lon="-6.191594"><ele>2556.5</ele></trkpt>
    <trkpt lat="31.806565" lon="-6.191519"><ele>2556.5</ele></trkpt>
    <trkpt lat="31.806590" lon="-6.190798"><ele>2567.0</ele></trkpt>
    <trkpt lat="31.806657" lon="-6.190236"><ele>2569.0</ele></trkpt>
    <trkpt lat="31.807376" lon="-6.189252"><ele>2566.8</ele></trkpt>
    <trkpt lat="31.807400" lon="-6.189107"><ele>2566.8</ele></trkpt>
    <trkpt lat="31.807442" lon="-6.188702"><ele>2572.5</ele></trkpt>
    <trkpt lat="31.807935" lon="-6.188100"><ele>2582.5</ele></trkpt>
    <trkpt lat="31.808069" lon="-6.188073"><ele>2582.5</ele></trkpt>
    <trkpt lat="31.808987" lon="-6.189775"><ele>2574.5</ele></trkpt>
    <trkpt lat="31.809925" lon="-6.190430"><ele>2568.5</ele></trkpt>
    <trkpt lat="31.810156" lon="-6.190389"><ele>2568.5</ele></trkpt>
    <trkpt lat="31.810945" lon="-6.190031"><ele>2578.2</ele></trkpt>
    <trkpt lat="31.811704" lon="-6.189523"><ele>2584.0</ele></trkpt>
    <trkpt lat="31.812234" lon="-6.188688"><ele>2593.2</ele></trkpt>
    <trkpt lat="31.812812" lon="-6.188057"><ele>2600.0</ele></trkpt>
    <trkpt lat="31.812889" lon="-6.188039"><ele>2600.5</ele></trkpt>
    <trkpt lat="31.813025" lon="-6.188212"><ele>2600.5</ele></trkpt>
    <trkpt lat="31.812881" lon="-6.188771"><ele>2597.5</ele></trkpt>
    <trkpt lat="31.812888" lon="-6.189743"><ele>2592.0</ele></trkpt>
    <trkpt lat="31.812920" lon="-6.190010"><ele>2592.0</ele></trkpt>
    <trkpt lat="31.813181" lon="-6.190422"><ele>2592.0</ele></trkpt>
    <trkpt lat="31.813735" lon="-6.190564"><ele>2594.8</ele></trkpt>
    <trkpt lat="31.814589" lon="-6.190421"><ele>2600.8</ele></trkpt>
    <trkpt lat="31.815345" lon="-6.190875"><ele>2602.8</ele></trkpt>
    <trkpt lat="31.815375" lon="-6.190719"><ele>2604.5</ele></trkpt>
    <trkpt lat="31.814981" lon="-6.190135"><ele>2605.2</ele></trkpt>
    <trkpt lat="31.814952" lon="-6.189989"><ele>2605.2</ele></trkpt>
    <trkpt lat="31.815191" lon="-6.189503"><ele>2603.5</ele></trkpt>
    <trkpt lat="31.815529" lon="-6.189293"><ele>2601.0</ele></trkpt>
    <trkpt lat="31.815805" lon="-6.189463"><ele>2599.5</ele></trkpt>
    <trkpt lat="31.815887" lon="-6.189431"><ele>2599.5</ele></trkpt>
    <trkpt lat="31.817109" lon="-6.188777"><ele>2582.2</ele></trkpt>
    <trkpt lat="31.817223" lon="-6.188761"><ele>2581.5</ele></trkpt>
    <trkpt lat="31.817512" lon="-6.188871"><ele>2581.5</ele></trkpt>
    <trkpt lat="31.817733" lon="-6.189720"><ele>2588.2</ele></trkpt>
    <trkpt lat="31.817831" lon="-6.189853"><ele>2588.2</ele></trkpt>
    <trkpt lat="31.817887" lon="-6.189833"><ele>2586.5</ele></trkpt>
    <trkpt lat="31.817810" lon="-6.189375"><ele>2580.5</ele></trkpt>
    <trkpt lat="31.817864" lon="-6.189025"><ele>2574.5</ele></trkpt>
    <trkpt lat="31.818149" lon="-6.188782"><ele>2566.8</ele></trkpt>
    <trkpt lat="31.818627" lon="-6.187947"><ele>2554.8</ele></trkpt>
    <trkpt lat="31.819230" lon="-6.187340"><ele>2545.8</ele></trkpt>
    <trkpt lat="31.819560" lon="-6.187026"><ele>2542.2</ele></trkpt>
    <trkpt lat="31.820422" lon="-6.186451"><ele>2540.2</ele></trkpt>
    <trkpt lat="31.820542" lon="-6.186231"><ele>2538.2</ele></trkpt>
    <trkpt lat="31.820758" lon="-6.185511"><ele>2529.0</ele></trkpt>
    <trkpt lat="31.821395" lon="-6.184564"><ele>2521.5</ele></trkpt>
    <trkpt lat="31.822571" lon="-6.184179"><ele>2517.8</ele></trkpt>
    <trkpt lat="31.823261" lon="-6.184223"><ele>2516.0</ele></trkpt>
    <trkpt lat="31.824253" lon="-6.183888"><ele>2509.2</ele></trkpt>
    <trkpt lat="31.824414" lon="-6.183528"><ele>2505.8</ele></trkpt>
    <trkpt lat="31.824470" lon="-6.182551"><ele>2490.5</ele></trkpt>
    <trkpt lat="31.824484" lon="-6.182387"><ele>2487.0</ele></trkpt>
    <trkpt lat="31.824524" lon="-6.182230"><ele>2485.0</ele></trkpt>
    <trkpt lat="31.824621" lon="-6.182045"><ele>2484.0</ele></trkpt>
    <trkpt lat="31.825188" lon="-6.181636"><ele>2482.8</ele></trkpt>
    <trkpt lat="31.825414" lon="-6.181238"><ele>2476.5</ele></trkpt>
    <trkpt lat="31.825657" lon="-6.181017"><ele>2476.5</ele></trkpt>
    <trkpt lat="31.826306" lon="-6.180897"><ele>2482.5</ele></trkpt>
    <trkpt lat="31.826742" lon="-6.180555"><ele>2482.5</ele></trkpt>
    <trkpt lat="31.826764" lon="-6.180455"><ele>2481.5</ele></trkpt>
    <trkpt lat="31.826756" lon="-6.179477"><ele>2461.2</ele></trkpt>
    <trkpt lat="31.826760" lon="-6.179242"><ele>2458.5</ele></trkpt>
    <trkpt lat="31.827084" lon="-6.178403"><ele>2456.0</ele></trkpt>
    <trkpt lat="31.827191" lon="-6.177920"><ele>2445.5</ele></trkpt>
    <trkpt lat="31.827256" lon="-6.177793"><ele>2444.5</ele></trkpt>
    <trkpt lat="31.827582" lon="-6.177618"><ele>2444.5</ele></trkpt>
    <trkpt lat="31.828079" lon="-6.177633"><ele>2455.2</ele></trkpt>
    <trkpt lat="31.828185" lon="-6.177626"><ele>2455.5</ele></trkpt>
    <trkpt lat="31.829030" lon="-6.176991"><ele>2455.2</ele></trkpt>
    <trkpt lat="31.828968" lon="-6.176050"><ele>2442.8</ele></trkpt>
    <trkpt lat="31.827949" lon="-6.173626"><ele>2415.8</ele></trkpt>
    <trkpt lat="31.827921" lon="-6.173379"><ele>2414.8</ele></trkpt>
    <trkpt lat="31.828595" lon="-6.172199"><ele>2413.2</ele></trkpt>
    <trkpt lat="31.829182" lon="-6.172126"><ele>2405.0</ele></trkpt>
    <trkpt lat="31.829759" lon="-6.171597"><ele>2405.0</ele></trkpt>
    <trkpt lat="31.830574" lon="-6.171319"><ele>2402.0</ele></trkpt>
    <trkpt lat="31.831039" lon="-6.170654"><ele>2400.5</ele></trkpt>
    <trkpt lat="31.831076" lon="-6.170520"><ele>2393.2</ele></trkpt>
    <trkpt lat="31.830887" lon="-6.170202"><ele>2392.2</ele></trkpt>
    <trkpt lat="31.830212" lon="-6.169435"><ele>2381.0</ele></trkpt>
    <trkpt lat="31.829866" lon="-6.169142"><ele>2376.2</ele></trkpt>
    <trkpt lat="31.829040" lon="-6.168475"><ele>2359.8</ele></trkpt>
    <trkpt lat="31.828701" lon="-6.168197"><ele>2352.5</ele></trkpt>
    <trkpt lat="31.828632" lon="-6.168104"><ele>2349.8</ele></trkpt>
    <trkpt lat="31.828612" lon="-6.168043"><ele>2348.5</ele></trkpt>
    <trkpt lat="31.828677" lon="-6.167819"><ele>2345.5</ele></trkpt>
    <trkpt lat="31.828983" lon="-6.167691"><ele>2345.5</ele></trkpt>
    <trkpt lat="31.829174" lon="-6.167713"><ele>2345.5</ele></trkpt>
    <trkpt lat="31.829616" lon="-6.167807"><ele>2354.5</ele></trkpt>
    <trkpt lat="31.829746" lon="-6.167791"><ele>2354.5</ele></trkpt>
    <trkpt lat="31.830585" lon="-6.167537"><ele>2354.5</ele></trkpt>
    <trkpt lat="31.830715" lon="-6.167473"><ele>2354.5</ele></trkpt>
    <trkpt lat="31.831191" lon="-6.167065"><ele>2339.5</ele></trkpt>
    <trkpt lat="31.831289" lon="-6.166999"><ele>2338.0</ele></trkpt>
    <trkpt lat="31.831647" lon="-6.167037"><ele>2334.8</ele></trkpt>
    <trkpt lat="31.831764" lon="-6.166976"><ele>2333.0</ele></trkpt>
    <trkpt lat="31.832057" lon="-6.166753"><ele>2337.8</ele></trkpt>
    <trkpt lat="31.832641" lon="-6.166989"><ele>2331.2</ele></trkpt>
    <trkpt lat="31.833094" lon="-6.166169"><ele>2328.5</ele></trkpt>
    <trkpt lat="31.834333" lon="-6.165877"><ele>2332.0</ele></trkpt>
    <trkpt lat="31.834249" lon="-6.165615"><ele>2332.0</ele></trkpt>
    <trkpt lat="31.833687" lon="-6.164891"><ele>2322.2</ele></trkpt>
    <trkpt lat="31.833464" lon="-6.164668"><ele>2318.2</ele></trkpt>
    <trkpt lat="31.832881" lon="-6.164206"><ele>2304.8</ele></trkpt>
    <trkpt lat="31.832811" lon="-6.164125"><ele>2304.8</ele></trkpt>
    <trkpt lat="31.832975" lon="-6.162989"><ele>2313.2</ele></trkpt>
    <trkpt lat="31.832891" lon="-6.162827"><ele>2313.2</ele></trkpt>
    <trkpt lat="31.832727" lon="-6.162760"><ele>2313.2</ele></trkpt>
    <trkpt lat="31.831658" lon="-6.162442"><ele>2290.5</ele></trkpt>
    <trkpt lat="31.829947" lon="-6.161053"><ele>2274.2</ele></trkpt>
    <trkpt lat="31.829421" lon="-6.160616"><ele>2268.5</ele></trkpt>
    <trkpt lat="31.826982" lon="-6.159077"><ele>2244.5</ele></trkpt>
    <trkpt lat="31.826786" lon="-6.158876"><ele>2239.2</ele></trkpt>
    <trkpt lat="31.826730" lon="-6.158655"><ele>2239.2</ele></trkpt>
    <trkpt lat="31.826848" lon="-6.158391"><ele>2239.5</ele></trkpt>
    <trkpt lat="31.827228" lon="-6.158223"><ele>2240.8</ele></trkpt>
    <trkpt lat="31.829138" lon="-6.158223"><ele>2238.8</ele></trkpt>
    <trkpt lat="31.829545" lon="-6.157959"><ele>2238.5</ele></trkpt>
    <trkpt lat="31.830419" lon="-6.157802"><ele>2242.8</ele></trkpt>
    <trkpt lat="31.830503" lon="-6.157657"><ele>2242.8</ele></trkpt>
    <trkpt lat="31.829703" lon="-6.156181"><ele>2217.0</ele></trkpt>
    <trkpt lat="31.827398" lon="-6.153910"><ele>2186.0</ele></trkpt>
    <trkpt lat="31.827300" lon="-6.153788"><ele>2184.0</ele></trkpt>
    <trkpt lat="31.827116" lon="-6.153109"><ele>2179.5</ele></trkpt>
    <trkpt lat="31.827152" lon="-6.152853"><ele>2177.2</ele></trkpt>
    <trkpt lat="31.827316" lon="-6.152412"><ele>2177.2</ele></trkpt>
    <trkpt lat="31.828803" lon="-6.151512"><ele>2177.0</ele></trkpt>
    <trkpt lat="31.828833" lon="-6.151444"><ele>2177.0</ele></trkpt>
    <trkpt lat="31.828954" lon="-6.150459"><ele>2153.8</ele></trkpt>
    <trkpt lat="31.829398" lon="-6.150144"><ele>2150.8</ele></trkpt>
    <trkpt lat="31.829810" lon="-6.150198"><ele>2150.8</ele></trkpt>
    <trkpt lat="31.831345" lon="-6.151446"><ele>2154.2</ele></trkpt>
    <trkpt lat="31.832054" lon="-6.151810"><ele>2154.2</ele></trkpt>
    <trkpt lat="31.832238" lon="-6.151702"><ele>2153.0</ele></trkpt>
    <trkpt lat="31.832186" lon="-6.151487"><ele>2151.8</ele></trkpt>
    <trkpt lat="31.831646" lon="-6.150205"><ele>2133.8</ele></trkpt>
    <trkpt lat="31.831460" lon="-6.149535"><ele>2128.8</ele></trkpt>
    <trkpt lat="31.831430" lon="-6.148939"><ele>2123.2</ele></trkpt>
    <trkpt lat="31.831469" lon="-6.148439"><ele>2123.2</ele></trkpt>
    <trkpt lat="31.831738" lon="-6.147829"><ele>2126.0</ele></trkpt>
    <trkpt lat="31.831633" lon="-6.147714"><ele>2125.0</ele></trkpt>
    <trkpt lat="31.830917" lon="-6.147323"><ele>2109.0</ele></trkpt>
    <trkpt lat="31.830252" lon="-6.146808"><ele>2100.0</ele></trkpt>
    <trkpt lat="31.829028" lon="-6.144992"><ele>2082.0</ele></trkpt>
    <trkpt lat="31.828677" lon="-6.143969"><ele>2072.2</ele></trkpt>
    <trkpt lat="31.828870" lon="-6.143437"><ele>2071.5</ele></trkpt>
    <trkpt lat="31.829597" lon="-6.143063"><ele>2069.2</ele></trkpt>
    <trkpt lat="31.830166" lon="-6.142542"><ele>2069.0</ele></trkpt>
    <trkpt lat="31.830789" lon="-6.142356"><ele>2069.0</ele></trkpt>
    <trkpt lat="31.831610" lon="-6.142028"><ele>2078.5</ele></trkpt>
    <trkpt lat="31.831675" lon="-6.142003"><ele>2078.5</ele></trkpt>
    <trkpt lat="31.831686" lon="-6.141814"><ele>2078.5</ele></trkpt>
    <trkpt lat="31.831542" lon="-6.141708"><ele>2071.8</ele></trkpt>
    <trkpt lat="31.830945" lon="-6.141294"><ele>2057.5</ele></trkpt>
    <trkpt lat="31.830798" lon="-6.141178"><ele>2054.5</ele></trkpt>
    <trkpt lat="31.830574" lon="-6.140896"><ele>2051.5</ele></trkpt>
    <trkpt lat="31.830435" lon="-6.140337"><ele>2047.5</ele></trkpt>
    <trkpt lat="31.830509" lon="-6.139839"><ele>2046.5</ele></trkpt>
    <trkpt lat="31.830970" lon="-6.139183"><ele>2042.0</ele></trkpt>
    <trkpt lat="31.831192" lon="-6.138970"><ele>2041.0</ele></trkpt>
    <trkpt lat="31.831821" lon="-6.138528"><ele>2041.0</ele></trkpt>
    <trkpt lat="31.833217" lon="-6.138119"><ele>2042.5</ele></trkpt>
    <trkpt lat="31.833386" lon="-6.137936"><ele>2042.5</ele></trkpt>
    <trkpt lat="31.833382" lon="-6.137840"><ele>2042.5</ele></trkpt>
    <trkpt lat="31.832826" lon="-6.136175"><ele>2029.2</ele></trkpt>
    <trkpt lat="31.832276" lon="-6.135078"><ele>2021.2</ele></trkpt>
    <trkpt lat="31.831377" lon="-6.132542"><ele>2013.0</ele></trkpt>
    <trkpt lat="31.830983" lon="-6.131897"><ele>2004.5</ele></trkpt>
    <trkpt lat="31.830912" lon="-6.131770"><ele>2003.0</ele></trkpt>
    <trkpt lat="31.830918" lon="-6.131547"><ele>2002.5</ele></trkpt>
    <trkpt lat="31.831348" lon="-6.130964"><ele>2001.8</ele></trkpt>
    <trkpt lat="31.832167" lon="-6.130227"><ele>1992.8</ele></trkpt>
    <trkpt lat="31.833113" lon="-6.129843"><ele>1986.0</ele></trkpt>
    <trkpt lat="31.833907" lon="-6.129769"><ele>1980.0</ele></trkpt>
    <trkpt lat="31.834171" lon="-6.129517"><ele>1977.8</ele></trkpt>
    <trkpt lat="31.834297" lon="-6.129249"><ele>1967.8</ele></trkpt>
    <trkpt lat="31.834513" lon="-6.128988"><ele>1965.2</ele></trkpt>
    <trkpt lat="31.835514" lon="-6.128532"><ele>1963.2</ele></trkpt>
    <trkpt lat="31.836348" lon="-6.128736"><ele>1961.2</ele></trkpt>
    <trkpt lat="31.836442" lon="-6.128706"><ele>1961.0</ele></trkpt>
    <trkpt lat="31.836754" lon="-6.128545"><ele>1950.8</ele></trkpt>
    <trkpt lat="31.836974" lon="-6.128530"><ele>1948.5</ele></trkpt>
    <trkpt lat="31.838067" lon="-6.128797"><ele>1942.5</ele></trkpt>
    <trkpt lat="31.838225" lon="-6.128861"><ele>1942.5</ele></trkpt>
    <trkpt lat="31.838740" lon="-6.129403"><ele>1942.8</ele></trkpt>
    <trkpt lat="31.839128" lon="-6.130201"><ele>1949.5</ele></trkpt>
    <trkpt lat="31.839246" lon="-6.130090"><ele>1948.5</ele></trkpt>
    <trkpt lat="31.839284" lon="-6.129925"><ele>1947.8</ele></trkpt>
    <trkpt lat="31.839406" lon="-6.129171"><ele>1939.8</ele></trkpt>
    <trkpt lat="31.839311" lon="-6.127258"><ele>1919.8</ele></trkpt>
    <trkpt lat="31.839358" lon="-6.126628"><ele>1919.5</ele></trkpt>
    <trkpt lat="31.839206" lon="-6.125991"><ele>1918.0</ele></trkpt>
    <trkpt lat="31.839015" lon="-6.125815"><ele>1915.5</ele></trkpt>
    <trkpt lat="31.838434" lon="-6.125607"><ele>1904.8</ele></trkpt>
    <trkpt lat="31.838015" lon="-6.125153"><ele>1898.5</ele></trkpt>
    <trkpt lat="31.837813" lon="-6.124614"><ele>1894.8</ele></trkpt>
    <trkpt lat="31.837779" lon="-6.124385"><ele>1894.8</ele></trkpt>
    <trkpt lat="31.837926" lon="-6.122971"><ele>1894.0</ele></trkpt>
    <trkpt lat="31.837885" lon="-6.122882"><ele>1893.0</ele></trkpt>
    <trkpt lat="31.837556" lon="-6.122552"><ele>1878.2</ele></trkpt>
    <trkpt lat="31.837200" lon="-6.121807"><ele>1872.2</ele></trkpt>
    <trkpt lat="31.836737" lon="-6.120264"><ele>1863.8</ele></trkpt>
    <trkpt lat="31.836659" lon="-6.120042"><ele>1861.5</ele></trkpt>
    <trkpt lat="31.836034" lon="-6.119091"><ele>1854.2</ele></trkpt>
    <trkpt lat="31.835486" lon="-6.118742"><ele>1844.2</ele></trkpt>
    <trkpt lat="31.835524" lon="-6.118542"><ele>1844.2</ele></trkpt>
    <trkpt lat="31.835982" lon="-6.118390"><ele>1842.5</ele></trkpt>
    <trkpt lat="31.836527" lon="-6.117431"><ele>1834.5</ele></trkpt>
    <trkpt lat="31.836754" lon="-6.116492"><ele>1818.5</ele></trkpt>
    <trkpt lat="31.836644" lon="-6.115151"><ele>1808.2</ele></trkpt>
    <trkpt lat="31.836763" lon="-6.114386"><ele>1803.0</ele></trkpt>
    <trkpt lat="31.836555" lon="-6.113280"><ele>1792.2</ele></trkpt>
    <trkpt lat="31.836564" lon="-6.113124"><ele>1791.0</ele></trkpt>
    <trkpt lat="31.836703" lon="-6.113144"><ele>1790.8</ele></trkpt>
    <trkpt lat="31.837117" lon="-6.114283"><ele>1790.8</ele></trkpt>
    <trkpt lat="31.837340" lon="-6.114439"><ele>1787.0</ele></trkpt>
    <trkpt lat="31.837421" lon="-6.114317"><ele>1787.0</ele></trkpt>
    <trkpt lat="31.837133" lon="-6.113873"><ele>1784.5</ele></trkpt>
    <trkpt lat="31.837118" lon="-6.113609"><ele>1784.5</ele></trkpt>
    <trkpt lat="31.837094" lon="-6.111549"><ele>1755.8</ele></trkpt>
    <trkpt lat="31.837054" lon="-6.111402"><ele>1754.5</ele></trkpt>
    <trkpt lat="31.836858" lon="-6.111440"><ele>1755.2</ele></trkpt>
    <trkpt lat="31.835851" lon="-6.112714"><ele>1759.5</ele></trkpt>
    <trkpt lat="31.835726" lon="-6.112774"><ele>1759.5</ele></trkpt>
    <trkpt lat="31.835649" lon="-6.112647"><ele>1755.2</ele></trkpt>
    <trkpt lat="31.836243" lon="-6.111921"><ele>1752.2</ele></trkpt>
    <trkpt lat="31.836865" lon="-6.110464"><ele>1730.0</ele></trkpt>
    <trkpt lat="31.836930" lon="-6.110362"><ele>1728.0</ele></trkpt>
    <trkpt lat="31.837275" lon="-6.110209"><ele>1726.2</ele></trkpt>
    <trkpt lat="31.838020" lon="-6.110567"><ele>1723.0</ele></trkpt>
    <trkpt lat="31.838859" lon="-6.112505"><ele>1711.0</ele></trkpt>
    <trkpt lat="31.839191" lon="-6.113679"><ele>1707.0</ele></trkpt>
    <trkpt lat="31.839281" lon="-6.113690"><ele>1706.0</ele></trkpt>
    <trkpt lat="31.839333" lon="-6.113604"><ele>1703.8</ele></trkpt>
    <trkpt lat="31.839440" lon="-6.111869"><ele>1686.2</ele></trkpt>
    <trkpt lat="31.839361" lon="-6.110466"><ele>1675.2</ele></trkpt>
    <trkpt lat="31.839335" lon="-6.110316"><ele>1674.0</ele></trkpt>
    <trkpt lat="31.839191" lon="-6.110039"><ele>1674.0</ele></trkpt>
    <trkpt lat="31.838487" lon="-6.109591"><ele>1674.0</ele></trkpt>
    <trkpt lat="31.837795" lon="-6.108559"><ele>1670.8</ele></trkpt>
    <trkpt lat="31.837300" lon="-6.108236"><ele>1669.2</ele></trkpt>
    <trkpt lat="31.837138" lon="-6.107483"><ele>1652.5</ele></trkpt>
    <trkpt lat="31.837099" lon="-6.107425"><ele>1650.8</ele></trkpt>
    <trkpt lat="31.836794" lon="-6.107331"><ele>1650.2</ele></trkpt>
    <trkpt lat="31.836517" lon="-6.107572"><ele>1650.8</ele></trkpt>
    <trkpt lat="31.836286" lon="-6.108656"><ele>1657.2</ele></trkpt>
    <trkpt lat="31.835282" lon="-6.109495"><ele>1653.0</ele></trkpt>
    <trkpt lat="31.834938" lon="-6.110023"><ele>1653.0</ele></trkpt>
    <trkpt lat="31.834822" lon="-6.110633"><ele>1657.5</ele></trkpt>
    <trkpt lat="31.834754" lon="-6.110643"><ele>1657.5</ele></trkpt>
    <trkpt lat="31.834683" lon="-6.110493"><ele>1652.2</ele></trkpt>
    <trkpt lat="31.834985" lon="-6.109537"><ele>1640.8</ele></trkpt>
    <trkpt lat="31.834983" lon="-6.109442"><ele>1638.5</ele></trkpt>
    <trkpt lat="31.834964" lon="-6.109406"><ele>1638.5</ele></trkpt>
    <trkpt lat="31.834855" lon="-6.109416"><ele>1638.5</ele></trkpt>
    <trkpt lat="31.834026" lon="-6.111620"><ele>1648.8</ele></trkpt>
    <trkpt lat="31.833923" lon="-6.111722"><ele>1651.0</ele></trkpt>
    <trkpt lat="31.833716" lon="-6.111667"><ele>1651.5</ele></trkpt>
    <trkpt lat="31.833668" lon="-6.111463"><ele>1651.5</ele></trkpt>
    <trkpt lat="31.833811" lon="-6.110700"><ele>1645.8</ele></trkpt>
    <trkpt lat="31.834103" lon="-6.109745"><ele>1638.2</ele></trkpt>
    <trkpt lat="31.834351" lon="-6.108798"><ele>1635.8</ele></trkpt>
    <trkpt lat="31.834982" lon="-6.107916"><ele>1622.0</ele></trkpt>
    <trkpt lat="31.835027" lon="-6.107675"><ele>1620.8</ele></trkpt>
    <trkpt lat="31.834753" lon="-6.106769"><ele>1611.5</ele></trkpt>
    <trkpt lat="31.834678" lon="-6.106625"><ele>1611.5</ele></trkpt>
    <trkpt lat="31.833655" lon="-6.106143"><ele>1611.5</ele></trkpt>
    <trkpt lat="31.834233" lon="-6.106242"><ele>1610.2</ele></trkpt>
    <trkpt lat="31.834429" lon="-6.105826"><ele>1610.2</ele></trkpt>
    <trkpt lat="31.834522" lon="-6.105768"><ele>1610.5</ele></trkpt>
    <trkpt lat="31.834779" lon="-6.105688"><ele>1615.0</ele></trkpt>
    <trkpt lat="31.834185" lon="-6.105098"><ele>1620.0</ele></trkpt>
    <trkpt lat="31.833731" lon="-6.104905"><ele>1621.2</ele></trkpt>
    <trkpt lat="31.833508" lon="-6.104720"><ele>1622.0</ele></trkpt>
    <trkpt lat="31.832953" lon="-6.104140"><ele>1626.2</ele></trkpt>
    <trkpt lat="31.833727" lon="-6.104600"><ele>1628.8</ele></trkpt>
    <trkpt lat="31.833980" lon="-6.104568"><ele>1633.5</ele></trkpt>
    <trkpt lat="31.834177" lon="-6.104379"><ele>1642.5</ele></trkpt>
    <trkpt lat="31.834188" lon="-6.104354"><ele>1643.8</ele></trkpt>
    <trkpt lat="31.834147" lon="-6.104276"><ele>1643.8</ele></trkpt>
    <trkpt lat="31.833842" lon="-6.104322"><ele>1641.0</ele></trkpt>
    <trkpt lat="31.833194" lon="-6.103574"><ele>1644.8</ele></trkpt>
    <trkpt lat="31.833871" lon="-6.103604"><ele>1659.5</ele></trkpt>
    <trkpt lat="31.833659" lon="-6.103131"><ele>1663.0</ele></trkpt>
    <trkpt lat="31.833909" lon="-6.102774"><ele>1670.2</ele></trkpt>
    <trkpt lat="31.834035" lon="-6.103033"><ele>1672.2</ele></trkpt>
    <trkpt lat="31.834222" lon="-6.103019"><ele>1677.8</ele></trkpt>
    <trkpt lat="31.834455" lon="-6.101814"><ele>1681.5</ele></trkpt>
    <trkpt lat="31.834596" lon="-6.101868"><ele>1687.0</ele></trkpt>
    <trkpt lat="31.834620" lon="-6.102287"><ele>1695.5</ele></trkpt>
    <trkpt lat="31.834839" lon="-6.102561"><ele>1703.8</ele></trkpt>
    <trkpt lat="31.835231" lon="-6.103175"><ele>1704.0</ele></trkpt>
    <trkpt lat="31.835358" lon="-6.103146"><ele>1706.0</ele></trkpt>
    <trkpt lat="31.834968" lon="-6.102028"><ele>1707.2</ele></trkpt>
    <trkpt lat="31.835239" lon="-6.101652"><ele>1708.2</ele></trkpt>
    <trkpt lat="31.835340" lon="-6.101568"><ele>1712.2</ele></trkpt>
    <trkpt lat="31.835781" lon="-6.101405"><ele>1736.8</ele></trkpt>
    <trkpt lat="31.835843" lon="-6.101316"><ele>1738.0</ele></trkpt>
    <trkpt lat="31.835932" lon="-6.100946"><ele>1738.0</ele></trkpt>
    <trkpt lat="31.835754" lon="-6.099755"><ele>1736.0</ele></trkpt>
    <trkpt lat="31.835840" lon="-6.098577"><ele>1736.0</ele></trkpt>
    <trkpt lat="31.835716" lon="-6.098114"><ele>1738.5</ele></trkpt>
    <trkpt lat="31.835734" lon="-6.097645"><ele>1738.5</ele></trkpt>
    <trkpt lat="31.835681" lon="-6.095607"><ele>1746.8</ele></trkpt>
    <trkpt lat="31.835475" lon="-6.094481"><ele>1750.8</ele></trkpt>
    <trkpt lat="31.835732" lon="-6.093900"><ele>1758.5</ele></trkpt>
    <trkpt lat="31.836145" lon="-6.092676"><ele>1760.2</ele></trkpt>
    <trkpt lat="31.837331" lon="-6.092354"><ele>1769.5</ele></trkpt>
    <trkpt lat="31.837484" lon="-6.092024"><ele>1774.5</ele></trkpt>
    <trkpt lat="31.838066" lon="-6.091833"><ele>1775.2</ele></trkpt>
    <trkpt lat="31.838141" lon="-6.091552"><ele>1777.0</ele></trkpt>
    <trkpt lat="31.838474" lon="-6.091479"><ele>1777.5</ele></trkpt>
    <trkpt lat="31.839075" lon="-6.091248"><ele>1782.2</ele></trkpt>
    <trkpt lat="31.839318" lon="-6.091108"><ele>1785.8</ele></trkpt>
    <trkpt lat="31.840075" lon="-6.090614"><ele>1798.5</ele></trkpt>
    <trkpt lat="31.840351" lon="-6.090508"><ele>1803.0</ele></trkpt>
    <trkpt lat="31.841510" lon="-6.090576"><ele>1824.0</ele></trkpt>
    <trkpt lat="31.841942" lon="-6.090620"><ele>1831.5</ele></trkpt>
    <trkpt lat="31.842452" lon="-6.090519"><ele>1845.5</ele></trkpt>
    <trkpt lat="31.844043" lon="-6.090728"><ele>1863.8</ele></trkpt>
    <trkpt lat="31.844717" lon="-6.090572"><ele>1877.8</ele></trkpt>
    <trkpt lat="31.845369" lon="-6.090620"><ele>1885.8</ele></trkpt>
    <trkpt lat="31.845665" lon="-6.090432"><ele>1887.8</ele></trkpt>
    </trkseg>
  </trk>
</gpx>
