<?xml version="1.0" encoding="UTF-8"?>
<gpx version="1.1" creator="tripplanner (simplified from Strava export)" xmlns="http://www.topografix.com/GPX/1/1">
  <metadata>
    <name>Manaslu — Shyala → Samagaon</name>
    <time>2025-10-25T02:25:12Z</time>
  </metadata>
  <trk>
    <name>Manaslu — Shyala → Samagaon</name>
    <trkseg>
    <trkpt lat="28.573998" lon="84.670792"><ele>3520.2</ele><time>2025-10-25T02:25:12Z</time></trkpt>
    <trkpt lat="28.574076" lon="84.670782"><ele>3520.2</ele><time>2025-10-25T02:25:23Z</time></trkpt>
    <trkpt lat="28.574029" lon="84.670737"><ele>3520.6</ele><time>2025-10-25T02:25:29Z</time></trkpt>
    <trkpt lat="28.574003" lon="84.670568"><ele>3520.8</ele><time>2025-10-25T02:25:44Z</time></trkpt>
    <trkpt lat="28.573274" lon="84.670631"><ele>3522.8</ele><time>2025-10-25T02:26:51Z</time></trkpt>
    <trkpt lat="28.572953" lon="84.670608"><ele>3524.0</ele><time>2025-10-25T02:27:20Z</time></trkpt>
    <trkpt lat="28.572918" lon="84.670601"><ele>3524.4</ele><time>2025-10-25T02:27:23Z</time></trkpt>
    <trkpt lat="28.572695" lon="84.670485"><ele>3528.4</ele><time>2025-10-25T02:27:48Z</time></trkpt>
    <trkpt lat="28.572345" lon="84.670172"><ele>3534.8</ele><time>2025-10-25T02:28:40Z</time></trkpt>
    <trkpt lat="28.572277" lon="84.669994"><ele>3538.0</ele><time>2025-10-25T02:29:01Z</time></trkpt>
    <trkpt lat="28.572171" lon="84.669925"><ele>3541.6</ele><time>2025-10-25T02:29:22Z</time></trkpt>
    <trkpt lat="28.572159" lon="84.669769"><ele>3546.0</ele><time>2025-10-25T02:29:49Z</time></trkpt>
    <trkpt lat="28.572105" lon="84.669704"><ele>3549.4</ele><time>2025-10-25T02:30:11Z</time></trkpt>
    <trkpt lat="28.571970" lon="84.669667"><ele>3553.0</ele><time>2025-10-25T02:30:35Z</time></trkpt>
    <trkpt lat="28.571907" lon="84.669593"><ele>3555.0</ele><time>2025-10-25T02:30:47Z</time></trkpt>
    <trkpt lat="28.571913" lon="84.669524"><ele>3556.4</ele><time>2025-10-25T02:30:55Z</time></trkpt>
    <trkpt lat="28.571908" lon="84.669478"><ele>3556.8</ele><time>2025-10-25T02:31:26Z</time></trkpt>
    <trkpt lat="28.571890" lon="84.669466"><ele>3556.8</ele><time>2025-10-25T02:31:58Z</time></trkpt>
    <trkpt lat="28.571774" lon="84.669324"><ele>3558.8</ele><time>2025-10-25T02:32:20Z</time></trkpt>
    <trkpt lat="28.571700" lon="84.669112"><ele>3564.2</ele><time>2025-10-25T02:32:48Z</time></trkpt>
    <trkpt lat="28.571371" lon="84.668904"><ele>3569.8</ele><time>2025-10-25T02:33:33Z</time></trkpt>
    <trkpt lat="28.571227" lon="84.668906"><ele>3574.4</ele><time>2025-10-25T02:34:03Z</time></trkpt>
    <trkpt lat="28.571197" lon="84.668924"><ele>3575.6</ele><time>2025-10-25T02:34:09Z</time></trkpt>
    <trkpt lat="28.570971" lon="84.669065"><ele>3577.0</ele><time>2025-10-25T02:34:39Z</time></trkpt>
    <trkpt lat="28.570910" lon="84.669083"><ele>3577.4</ele><time>2025-10-25T02:34:48Z</time></trkpt>
    <trkpt lat="28.570785" lon="84.669102"><ele>3579.0</ele><time>2025-10-25T02:35:07Z</time></trkpt>
    <trkpt lat="28.570158" lon="84.669002"><ele>3586.0</ele><time>2025-10-25T02:36:34Z</time></trkpt>
    <trkpt lat="28.570116" lon="84.669039"><ele>3586.8</ele><time>2025-10-25T02:36:41Z</time></trkpt>
    <trkpt lat="28.570036" lon="84.669033"><ele>3587.6</ele><time>2025-10-25T02:36:49Z</time></trkpt>
    <trkpt lat="28.569661" lon="84.668894"><ele>3594.2</ele><time>2025-10-25T02:37:34Z</time></trkpt>
    <trkpt lat="28.569415" lon="84.668586"><ele>3598.0</ele><time>2025-10-25T02:38:14Z</time></trkpt>
    <trkpt lat="28.569294" lon="84.668367"><ele>3600.6</ele><time>2025-10-25T02:38:39Z</time></trkpt>
    <trkpt lat="28.569179" lon="84.668128"><ele>3605.0</ele><time>2025-10-25T02:39:08Z</time></trkpt>
    <trkpt lat="28.569003" lon="84.667989"><ele>3609.2</ele><time>2025-10-25T02:39:37Z</time></trkpt>
    <trkpt lat="28.568782" lon="84.667898"><ele>3610.6</ele><time>2025-10-25T02:40:01Z</time></trkpt>
    <trkpt lat="28.568650" lon="84.667736"><ele>3613.6</ele><time>2025-10-25T02:40:24Z</time></trkpt>
    <trkpt lat="28.568576" lon="84.667519"><ele>3620.2</ele><time>2025-10-25T02:41:00Z</time></trkpt>
    <trkpt lat="28.568617" lon="84.667348"><ele>3623.8</ele><time>2025-10-25T02:41:23Z</time></trkpt>
    <trkpt lat="28.568599" lon="84.667258"><ele>3626.6</ele><time>2025-10-25T02:41:42Z</time></trkpt>
    <trkpt lat="28.568651" lon="84.667255"><ele>3629.0</ele><time>2025-10-25T02:41:57Z</time></trkpt>
    <trkpt lat="28.568575" lon="84.667092"><ele>3635.0</ele><time>2025-10-25T02:42:35Z</time></trkpt>
    <trkpt lat="28.568556" lon="84.666917"><ele>3639.6</ele><time>2025-10-25T02:43:06Z</time></trkpt>
    <trkpt lat="28.568546" lon="84.666884"><ele>3640.6</ele><time>2025-10-25T02:43:15Z</time></trkpt>
    <trkpt lat="28.568212" lon="84.666334"><ele>3654.8</ele><time>2025-10-25T02:45:11Z</time></trkpt>
    <trkpt lat="28.568290" lon="84.666306"><ele>3657.0</ele><time>2025-10-25T02:45:32Z</time></trkpt>
    <trkpt lat="28.568049" lon="84.666117"><ele>3663.2</ele><time>2025-10-25T02:46:25Z</time></trkpt>
    <trkpt lat="28.567834" lon="84.665839"><ele>3671.6</ele><time>2025-10-25T02:47:33Z</time></trkpt>
    <trkpt lat="28.567862" lon="84.665815"><ele>3672.6</ele><time>2025-10-25T02:47:38Z</time></trkpt>
    <trkpt lat="28.567752" lon="84.665757"><ele>3677.6</ele><time>2025-10-25T02:48:19Z</time></trkpt>
    <trkpt lat="28.567778" lon="84.665702"><ele>3678.8</ele><time>2025-10-25T02:48:37Z</time></trkpt>
    <trkpt lat="28.567756" lon="84.665643"><ele>3680.2</ele><time>2025-10-25T02:48:49Z</time></trkpt>
    <trkpt lat="28.567625" lon="84.665536"><ele>3681.0</ele><time>2025-10-25T02:49:08Z</time></trkpt>
    <trkpt lat="28.567581" lon="84.665386"><ele>3684.4</ele><time>2025-10-25T02:49:30Z</time></trkpt>
    <trkpt lat="28.567453" lon="84.665395"><ele>3687.6</ele><time>2025-10-25T02:49:55Z</time></trkpt>
    <trkpt lat="28.567359" lon="84.665497"><ele>3692.0</ele><time>2025-10-25T02:50:24Z</time></trkpt>
    <trkpt lat="28.567283" lon="84.665359"><ele>3694.8</ele><time>2025-10-25T02:50:48Z</time></trkpt>
    <trkpt lat="28.567065" lon="84.665400"><ele>3699.6</ele><time>2025-10-25T02:51:23Z</time></trkpt>
    <trkpt lat="28.567060" lon="84.665215"><ele>3703.4</ele><time>2025-10-25T02:51:48Z</time></trkpt>
    <trkpt lat="28.566925" lon="84.665231"><ele>3707.2</ele><time>2025-10-25T02:52:20Z</time></trkpt>
    <trkpt lat="28.566884" lon="84.665129"><ele>3710.4</ele><time>2025-10-25T02:52:42Z</time></trkpt>
    <trkpt lat="28.566848" lon="84.665161"><ele>3711.4</ele><time>2025-10-25T02:52:52Z</time></trkpt>
    <trkpt lat="28.566792" lon="84.665104"><ele>3713.6</ele><time>2025-10-25T02:53:07Z</time></trkpt>
    <trkpt lat="28.566772" lon="84.665141"><ele>3715.8</ele><time>2025-10-25T02:53:22Z</time></trkpt>
    <trkpt lat="28.566766" lon="84.665131"><ele>3715.8</ele><time>2025-10-25T02:53:23Z</time></trkpt>
    <trkpt lat="28.566701" lon="84.665087"><ele>3718.4</ele><time>2025-10-25T02:53:41Z</time></trkpt>
    <trkpt lat="28.566409" lon="84.665015"><ele>3725.2</ele><time>2025-10-25T02:54:32Z</time></trkpt>
    <trkpt lat="28.566334" lon="84.664769"><ele>3726.4</ele><time>2025-10-25T02:54:58Z</time></trkpt>
    <trkpt lat="28.566283" lon="84.664688"><ele>3728.6</ele><time>2025-10-25T02:55:14Z</time></trkpt>
    <trkpt lat="28.565949" lon="84.664503"><ele>3738.2</ele><time>2025-10-25T02:56:30Z</time></trkpt>
    <trkpt lat="28.565894" lon="84.664547"><ele>3739.4</ele><time>2025-10-25T02:56:46Z</time></trkpt>
    <trkpt lat="28.565839" lon="84.664493"><ele>3742.2</ele><time>2025-10-25T02:57:10Z</time></trkpt>
    <trkpt lat="28.565809" lon="84.664717"><ele>3747.8</ele><time>2025-10-25T02:57:53Z</time></trkpt>
    <trkpt lat="28.565492" lon="84.664762"><ele>3754.6</ele><time>2025-10-25T02:58:54Z</time></trkpt>
    <trkpt lat="28.565527" lon="84.664581"><ele>3756.4</ele><time>2025-10-25T02:59:20Z</time></trkpt>
    <trkpt lat="28.565540" lon="84.664562"><ele>3757.2</ele><time>2025-10-25T02:59:26Z</time></trkpt>
    <trkpt lat="28.565435" lon="84.664547"><ele>3761.4</ele><time>2025-10-25T02:59:56Z</time></trkpt>
    <trkpt lat="28.565389" lon="84.664495"><ele>3762.6</ele><time>2025-10-25T03:00:05Z</time></trkpt>
    <trkpt lat="28.565443" lon="84.664345"><ele>3766.0</ele><time>2025-10-25T03:00:31Z</time></trkpt>
    <trkpt lat="28.565330" lon="84.664337"><ele>3770.4</ele><time>2025-10-25T03:00:59Z</time></trkpt>
    <trkpt lat="28.565341" lon="84.664258"><ele>3772.0</ele><time>2025-10-25T03:01:28Z</time></trkpt>
    <trkpt lat="28.565251" lon="84.664242"><ele>3776.0</ele><time>2025-10-25T03:01:58Z</time></trkpt>
    <trkpt lat="28.565195" lon="84.664179"><ele>3779.0</ele><time>2025-10-25T03:02:19Z</time></trkpt>
    <trkpt lat="28.565267" lon="84.663861"><ele>3787.0</ele><time>2025-10-25T03:03:15Z</time></trkpt>
    <trkpt lat="28.565249" lon="84.663893"><ele>3788.2</ele><time>2025-10-25T03:03:23Z</time></trkpt>
    <trkpt lat="28.564994" lon="84.663837"><ele>3795.0</ele><time>2025-10-25T03:04:12Z</time></trkpt>
    <trkpt lat="28.564851" lon="84.663717"><ele>3801.2</ele><time>2025-10-25T03:05:00Z</time></trkpt>
    <trkpt lat="28.564781" lon="84.663680"><ele>3803.4</ele><time>2025-10-25T03:06:05Z</time></trkpt>
    <trkpt lat="28.564712" lon="84.663620"><ele>3806.6</ele><time>2025-10-25T03:06:25Z</time></trkpt>
    <trkpt lat="28.564725" lon="84.663546"><ele>3807.6</ele><time>2025-10-25T03:06:33Z</time></trkpt>
    <trkpt lat="28.564836" lon="84.663461"><ele>3811.8</ele><time>2025-10-25T03:07:00Z</time></trkpt>
    <trkpt lat="28.564704" lon="84.663382"><ele>3816.4</ele><time>2025-10-25T03:07:35Z</time></trkpt>
    <trkpt lat="28.564782" lon="84.663308"><ele>3819.2</ele><time>2025-10-25T03:07:56Z</time></trkpt>
    <trkpt lat="28.564810" lon="84.663273"><ele>3819.8</ele><time>2025-10-25T03:09:32Z</time></trkpt>
    <trkpt lat="28.564835" lon="84.663318"><ele>3819.6</ele><time>2025-10-25T03:09:42Z</time></trkpt>
    <trkpt lat="28.564804" lon="84.663305"><ele>3820.4</ele><time>2025-10-25T03:11:48Z</time></trkpt>
    <trkpt lat="28.564794" lon="84.663292"><ele>3820.8</ele><time>2025-10-25T03:12:20Z</time></trkpt>
    <trkpt lat="28.564739" lon="84.663122"><ele>3821.4</ele><time>2025-10-25T03:12:52Z</time></trkpt>
    <trkpt lat="28.564834" lon="84.662599"><ele>3822.0</ele><time>2025-10-25T03:13:39Z</time></trkpt>
    <trkpt lat="28.564859" lon="84.662523"><ele>3822.8</ele><time>2025-10-25T03:13:46Z</time></trkpt>
    <trkpt lat="28.564859" lon="84.662342"><ele>3824.0</ele><time>2025-10-25T03:14:03Z</time></trkpt>
    <trkpt lat="28.564842" lon="84.662288"><ele>3824.8</ele><time>2025-10-25T03:14:11Z</time></trkpt>
    <trkpt lat="28.564718" lon="84.662207"><ele>3827.4</ele><time>2025-10-25T03:14:37Z</time></trkpt>
    <trkpt lat="28.564689" lon="84.662206"><ele>3827.8</ele><time>2025-10-25T03:15:25Z</time></trkpt>
    <trkpt lat="28.564709" lon="84.662133"><ele>3827.4</ele><time>2025-10-25T03:17:14Z</time></trkpt>
    <trkpt lat="28.564719" lon="84.662177"><ele>3826.6</ele><time>2025-10-25T03:18:08Z</time></trkpt>
    <trkpt lat="28.564724" lon="84.662195"><ele>3827.2</ele><time>2025-10-25T03:18:27Z</time></trkpt>
    <trkpt lat="28.564665" lon="84.662221"><ele>3828.2</ele><time>2025-10-25T03:19:10Z</time></trkpt>
    <trkpt lat="28.564692" lon="84.662220"><ele>3828.8</ele><time>2025-10-25T03:19:43Z</time></trkpt>
    <trkpt lat="28.564671" lon="84.662143"><ele>3831.4</ele><time>2025-10-25T03:21:42Z</time></trkpt>
    <trkpt lat="28.564677" lon="84.662142"><ele>3831.4</ele><time>2025-10-25T03:21:43Z</time></trkpt>
    <trkpt lat="28.564666" lon="84.662213"><ele>3830.4</ele><time>2025-10-25T03:22:52Z</time></trkpt>
    <trkpt lat="28.564681" lon="84.662174"><ele>3830.4</ele><time>2025-10-25T03:24:01Z</time></trkpt>
    <trkpt lat="28.564709" lon="84.662208"><ele>3829.8</ele><time>2025-10-25T03:25:41Z</time></trkpt>
    <trkpt lat="28.564684" lon="84.662197"><ele>3829.8</ele><time>2025-10-25T03:26:09Z</time></trkpt>
    <trkpt lat="28.564708" lon="84.662158"><ele>3829.2</ele><time>2025-10-25T03:27:17Z</time></trkpt>
    <trkpt lat="28.564725" lon="84.662190"><ele>3829.0</ele><time>2025-10-25T03:28:13Z</time></trkpt>
    <trkpt lat="28.564726" lon="84.662154"><ele>3829.2</ele><time>2025-10-25T03:28:46Z</time></trkpt>
    <trkpt lat="28.564725" lon="84.662189"><ele>3829.0</ele><time>2025-10-25T03:29:53Z</time></trkpt>
    <trkpt lat="28.564719" lon="84.662175"><ele>3829.0</ele><time>2025-10-25T03:30:24Z</time></trkpt>
    <trkpt lat="28.564809" lon="84.662220"><ele>3827.8</ele><time>2025-10-25T03:30:59Z</time></trkpt>
    <trkpt lat="28.564791" lon="84.662130"><ele>3825.8</ele><time>2025-10-25T03:31:15Z</time></trkpt>
    <trkpt lat="28.564585" lon="84.661870"><ele>3823.6</ele><time>2025-10-25T03:31:44Z</time></trkpt>
    <trkpt lat="28.564456" lon="84.661788"><ele>3823.2</ele><time>2025-10-25T03:31:57Z</time></trkpt>
    <trkpt lat="28.564430" lon="84.661728"><ele>3822.8</ele><time>2025-10-25T03:32:03Z</time></trkpt>
    <trkpt lat="28.564335" lon="84.661648"><ele>3823.2</ele><time>2025-10-25T03:32:19Z</time></trkpt>
    <trkpt lat="28.564243" lon="84.661488"><ele>3823.4</ele><time>2025-10-25T03:32:37Z</time></trkpt>
    <trkpt lat="28.564234" lon="84.661407"><ele>3823.4</ele><time>2025-10-25T03:32:44Z</time></trkpt>
    <trkpt lat="28.564536" lon="84.660786"><ele>3825.0</ele><time>2025-10-25T03:34:19Z</time></trkpt>
    <trkpt lat="28.564711" lon="84.660595"><ele>3825.0</ele><time>2025-10-25T03:34:47Z</time></trkpt>
    <trkpt lat="28.564709" lon="84.660397"><ele>3825.0</ele><time>2025-10-25T03:35:05Z</time></trkpt>
    <trkpt lat="28.564771" lon="84.660087"><ele>3825.0</ele><time>2025-10-25T03:35:36Z</time></trkpt>
    <trkpt lat="28.564844" lon="84.660021"><ele>3825.2</ele><time>2025-10-25T03:35:44Z</time></trkpt>
    <trkpt lat="28.564974" lon="84.659989"><ele>3825.2</ele><time>2025-10-25T03:35:58Z</time></trkpt>
    <trkpt lat="28.564950" lon="84.659871"><ele>3825.2</ele><time>2025-10-25T03:36:13Z</time></trkpt>
    <trkpt lat="28.565024" lon="84.659616"><ele>3825.0</ele><time>2025-10-25T03:36:34Z</time></trkpt>
    <trkpt lat="28.564996" lon="84.659501"><ele>3824.6</ele><time>2025-10-25T03:36:47Z</time></trkpt>
    <trkpt lat="28.564902" lon="84.659386"><ele>3824.4</ele><time>2025-10-25T03:37:06Z</time></trkpt>
    <trkpt lat="28.564915" lon="84.659287"><ele>3824.6</ele><time>2025-10-25T03:37:17Z</time></trkpt>
    <trkpt lat="28.564968" lon="84.659251"><ele>3824.6</ele><time>2025-10-25T03:37:26Z</time></trkpt>
    <trkpt lat="28.564974" lon="84.659222"><ele>3825.0</ele><time>2025-10-25T03:37:29Z</time></trkpt>
    <trkpt lat="28.564970" lon="84.659109"><ele>3827.2</ele><time>2025-10-25T03:37:44Z</time></trkpt>
    <trkpt lat="28.564917" lon="84.658989"><ele>3828.2</ele><time>2025-10-25T03:37:59Z</time></trkpt>
    <trkpt lat="28.565091" lon="84.658734"><ele>3826.8</ele><time>2025-10-25T03:38:43Z</time></trkpt>
    <trkpt lat="28.565110" lon="84.658572"><ele>3826.4</ele><time>2025-10-25T03:39:00Z</time></trkpt>
    <trkpt lat="28.565077" lon="84.658454"><ele>3826.4</ele><time>2025-10-25T03:39:14Z</time></trkpt>
    <trkpt lat="28.565117" lon="84.658224"><ele>3826.6</ele><time>2025-10-25T03:39:36Z</time></trkpt>
    <trkpt lat="28.565153" lon="84.658182"><ele>3826.6</ele><time>2025-10-25T03:39:41Z</time></trkpt>
    <trkpt lat="28.565153" lon="84.657922"><ele>3826.4</ele><time>2025-10-25T03:40:13Z</time></trkpt>
    <trkpt lat="28.565200" lon="84.657762"><ele>3826.0</ele><time>2025-10-25T03:40:30Z</time></trkpt>
    <trkpt lat="28.565290" lon="84.657666"><ele>3826.0</ele><time>2025-10-25T03:40:48Z</time></trkpt>
    <trkpt lat="28.565362" lon="84.657593"><ele>3826.6</ele><time>2025-10-25T03:40:58Z</time></trkpt>
    <trkpt lat="28.565749" lon="84.657367"><ele>3835.4</ele><time>2025-10-25T03:42:21Z</time></trkpt>
    <trkpt lat="28.565771" lon="84.657271"><ele>3837.2</ele><time>2025-10-25T03:42:41Z</time></trkpt>
    <trkpt lat="28.565899" lon="84.657155"><ele>3839.4</ele><time>2025-10-25T03:43:14Z</time></trkpt>
    <trkpt lat="28.565905" lon="84.657140"><ele>3839.4</ele><time>2025-10-25T03:43:16Z</time></trkpt>
    <trkpt lat="28.565832" lon="84.656858"><ele>3837.4</ele><time>2025-10-25T03:44:04Z</time></trkpt>
    <trkpt lat="28.565915" lon="84.656825"><ele>3837.4</ele><time>2025-10-25T03:44:19Z</time></trkpt>
    <trkpt lat="28.565924" lon="84.656823"><ele>3838.0</ele><time>2025-10-25T03:44:22Z</time></trkpt>
    <trkpt lat="28.565882" lon="84.656800"><ele>3839.4</ele><time>2025-10-25T03:44:30Z</time></trkpt>
    <trkpt lat="28.565970" lon="84.656744"><ele>3844.6</ele><time>2025-10-25T03:45:06Z</time></trkpt>
    <trkpt lat="28.565996" lon="84.656742"><ele>3844.6</ele><time>2025-10-25T03:45:13Z</time></trkpt>
    <trkpt lat="28.566009" lon="84.656683"><ele>3844.4</ele><time>2025-10-25T03:45:31Z</time></trkpt>
    <trkpt lat="28.566000" lon="84.656656"><ele>3844.2</ele><time>2025-10-25T03:45:34Z</time></trkpt>
    <trkpt lat="28.565874" lon="84.656542"><ele>3842.4</ele><time>2025-10-25T03:45:50Z</time></trkpt>
    <trkpt lat="28.565799" lon="84.656403"><ele>3839.8</ele><time>2025-10-25T03:46:05Z</time></trkpt>
    <trkpt lat="28.565708" lon="84.656189"><ele>3838.6</ele><time>2025-10-25T03:46:37Z</time></trkpt>
    <trkpt lat="28.565750" lon="84.656097"><ele>3837.8</ele><time>2025-10-25T03:46:59Z</time></trkpt>
    <trkpt lat="28.565752" lon="84.655925"><ele>3837.2</ele><time>2025-10-25T03:47:14Z</time></trkpt>
    <trkpt lat="28.565782" lon="84.655846"><ele>3836.2</ele><time>2025-10-25T03:47:22Z</time></trkpt>
    <trkpt lat="28.565872" lon="84.655649"><ele>3836.4</ele><time>2025-10-25T03:47:47Z</time></trkpt>
    <trkpt lat="28.565757" lon="84.655514"><ele>3837.8</ele><time>2025-10-25T03:48:08Z</time></trkpt>
    <trkpt lat="28.565754" lon="84.655425"><ele>3838.0</ele><time>2025-10-25T03:48:41Z</time></trkpt>
    <trkpt lat="28.565785" lon="84.655472"><ele>3838.2</ele><time>2025-10-25T03:48:51Z</time></trkpt>
    <trkpt lat="28.565760" lon="84.655442"><ele>3838.2</ele><time>2025-10-25T03:49:04Z</time></trkpt>
    <trkpt lat="28.565698" lon="84.655435"><ele>3838.8</ele><time>2025-10-25T03:49:28Z</time></trkpt>
    <trkpt lat="28.565488" lon="84.655162"><ele>3844.6</ele><time>2025-10-25T03:50:11Z</time></trkpt>
    <trkpt lat="28.565365" lon="84.654652"><ele>3854.0</ele><time>2025-10-25T03:51:27Z</time></trkpt>
    <trkpt lat="28.565134" lon="84.654497"><ele>3858.6</ele><time>2025-10-25T03:52:11Z</time></trkpt>
    <trkpt lat="28.564935" lon="84.654121"><ele>3865.0</ele><time>2025-10-25T03:53:14Z</time></trkpt>
    <trkpt lat="28.564631" lon="84.653846"><ele>3871.8</ele><time>2025-10-25T03:54:18Z</time></trkpt>
    <trkpt lat="28.564453" lon="84.653554"><ele>3874.6</ele><time>2025-10-25T03:54:58Z</time></trkpt>
    <trkpt lat="28.564313" lon="84.653429"><ele>3876.2</ele><time>2025-10-25T03:55:21Z</time></trkpt>
    <trkpt lat="28.564147" lon="84.653223"><ele>3876.6</ele><time>2025-10-25T03:55:48Z</time></trkpt>
    <trkpt lat="28.563902" lon="84.653063"><ele>3876.8</ele><time>2025-10-25T03:56:20Z</time></trkpt>
    <trkpt lat="28.563890" lon="84.653086"><ele>3877.0</ele><time>2025-10-25T03:56:40Z</time></trkpt>
    <trkpt lat="28.563805" lon="84.652934"><ele>3877.8</ele><time>2025-10-25T03:57:12Z</time></trkpt>
    <trkpt lat="28.563787" lon="84.652868"><ele>3878.8</ele><time>2025-10-25T03:57:19Z</time></trkpt>
    <trkpt lat="28.563390" lon="84.652659"><ele>3887.4</ele><time>2025-10-25T03:59:01Z</time></trkpt>
    <trkpt lat="28.563238" lon="84.652082"><ele>3893.2</ele><time>2025-10-25T04:00:08Z</time></trkpt>
    <trkpt lat="28.563159" lon="84.651923"><ele>3897.0</ele><time>2025-10-25T04:00:35Z</time></trkpt>
    <trkpt lat="28.562899" lon="84.651487"><ele>3898.4</ele><time>2025-10-25T04:01:33Z</time></trkpt>
    <trkpt lat="28.562886" lon="84.651454"><ele>3898.6</ele><time>2025-10-25T04:01:40Z</time></trkpt>
    <trkpt lat="28.562792" lon="84.651035"><ele>3906.8</ele><time>2025-10-25T04:02:45Z</time></trkpt>
    <trkpt lat="28.563016" lon="84.650639"><ele>3919.6</ele><time>2025-10-25T04:04:19Z</time></trkpt>
    <trkpt lat="28.563072" lon="84.650498"><ele>3923.0</ele><time>2025-10-25T04:04:53Z</time></trkpt>
    <trkpt lat="28.563128" lon="84.650467"><ele>3924.0</ele><time>2025-10-25T04:05:21Z</time></trkpt>
    <trkpt lat="28.563275" lon="84.650116"><ele>3933.4</ele><time>2025-10-25T04:06:41Z</time></trkpt>
    <trkpt lat="28.563206" lon="84.649685"><ele>3934.8</ele><time>2025-10-25T04:07:29Z</time></trkpt>
    <trkpt lat="28.562862" lon="84.649292"><ele>3938.0</ele><time>2025-10-25T04:08:31Z</time></trkpt>
    <trkpt lat="28.562824" lon="84.649279"><ele>3938.4</ele><time>2025-10-25T04:08:42Z</time></trkpt>
    <trkpt lat="28.562834" lon="84.649317"><ele>3939.2</ele><time>2025-10-25T04:08:54Z</time></trkpt>
    <trkpt lat="28.562860" lon="84.649269"><ele>3939.4</ele><time>2025-10-25T04:09:29Z</time></trkpt>
    <trkpt lat="28.562742" lon="84.649107"><ele>3940.6</ele><time>2025-10-25T04:10:31Z</time></trkpt>
    <trkpt lat="28.562727" lon="84.649111"><ele>3941.0</ele><time>2025-10-25T04:10:34Z</time></trkpt>
    <trkpt lat="28.562438" lon="84.649058"><ele>3943.8</ele><time>2025-10-25T04:11:09Z</time></trkpt>
    <trkpt lat="28.562149" lon="84.648835"><ele>3948.2</ele><time>2025-10-25T04:11:58Z</time></trkpt>
    <trkpt lat="28.562058" lon="84.648784"><ele>3950.4</ele><time>2025-10-25T04:12:13Z</time></trkpt>
    <trkpt lat="28.561833" lon="84.648670"><ele>3950.8</ele><time>2025-10-25T04:12:43Z</time></trkpt>
    <trkpt lat="28.561716" lon="84.648557"><ele>3951.2</ele><time>2025-10-25T04:12:57Z</time></trkpt>
    <trkpt lat="28.561649" lon="84.648414"><ele>3951.8</ele><time>2025-10-25T04:13:12Z</time></trkpt>
    <trkpt lat="28.561539" lon="84.648303"><ele>3952.6</ele><time>2025-10-25T04:13:32Z</time></trkpt>
    <trkpt lat="28.561393" lon="84.647982"><ele>3955.4</ele><time>2025-10-25T04:14:07Z</time></trkpt>
    <trkpt lat="28.561014" lon="84.647484"><ele>3958.2</ele><time>2025-10-25T04:15:17Z</time></trkpt>
    <trkpt lat="28.560857" lon="84.647064"><ele>3963.6</ele><time>2025-10-25T04:16:08Z</time></trkpt>
    <trkpt lat="28.560660" lon="84.646776"><ele>3970.4</ele><time>2025-10-25T04:17:00Z</time></trkpt>
    <trkpt lat="28.560470" lon="84.646252"><ele>3973.8</ele><time>2025-10-25T04:17:55Z</time></trkpt>
    <trkpt lat="28.560257" lon="84.645931"><ele>3976.6</ele><time>2025-10-25T04:18:33Z</time></trkpt>
    <trkpt lat="28.560201" lon="84.645777"><ele>3979.2</ele><time>2025-10-25T04:18:52Z</time></trkpt>
    <trkpt lat="28.560240" lon="84.645744"><ele>3979.8</ele><time>2025-10-25T04:19:02Z</time></trkpt>
    <trkpt lat="28.560152" lon="84.645674"><ele>3980.8</ele><time>2025-10-25T04:19:25Z</time></trkpt>
    <trkpt lat="28.560139" lon="84.645558"><ele>3983.2</ele><time>2025-10-25T04:19:37Z</time></trkpt>
    <trkpt lat="28.560075" lon="84.645516"><ele>3987.0</ele><time>2025-10-25T04:19:56Z</time></trkpt>
    <trkpt lat="28.560080" lon="84.645410"><ele>3987.2</ele><time>2025-10-25T04:20:18Z</time></trkpt>
    <trkpt lat="28.560016" lon="84.645411"><ele>3987.2</ele><time>2025-10-25T04:20:51Z</time></trkpt>
    <trkpt lat="28.559998" lon="84.645386"><ele>3987.2</ele><time>2025-10-25T04:20:55Z</time></trkpt>
    <trkpt lat="28.559983" lon="84.645352"><ele>3987.6</ele><time>2025-10-25T04:21:00Z</time></trkpt>
    <trkpt lat="28.559920" lon="84.645178"><ele>3991.0</ele><time>2025-10-25T04:21:21Z</time></trkpt>
    <trkpt lat="28.559893" lon="84.644961"><ele>3992.6</ele><time>2025-10-25T04:21:43Z</time></trkpt>
    <trkpt lat="28.559869" lon="84.644765"><ele>3993.0</ele><time>2025-10-25T04:22:02Z</time></trkpt>
    <trkpt lat="28.559650" lon="84.644098"><ele>3993.4</ele><time>2025-10-25T04:23:06Z</time></trkpt>
    <trkpt lat="28.559612" lon="84.643841"><ele>3994.4</ele><time>2025-10-25T04:23:33Z</time></trkpt>
    <trkpt lat="28.559524" lon="84.643588"><ele>3994.6</ele><time>2025-10-25T04:23:58Z</time></trkpt>
    <trkpt lat="28.559414" lon="84.643414"><ele>3996.2</ele><time>2025-10-25T04:24:22Z</time></trkpt>
    <trkpt lat="28.559386" lon="84.643202"><ele>4000.4</ele><time>2025-10-25T04:24:51Z</time></trkpt>
    <trkpt lat="28.559303" lon="84.643057"><ele>4003.4</ele><time>2025-10-25T04:25:16Z</time></trkpt>
    <trkpt lat="28.559240" lon="84.642954"><ele>4003.8</ele><time>2025-10-25T04:25:30Z</time></trkpt>
    <trkpt lat="28.559236" lon="84.642858"><ele>4004.6</ele><time>2025-10-25T04:26:02Z</time></trkpt>
    <trkpt lat="28.559209" lon="84.642860"><ele>4004.6</ele><time>2025-10-25T04:26:19Z</time></trkpt>
    <trkpt lat="28.559079" lon="84.642763"><ele>4009.0</ele><time>2025-10-25T04:26:42Z</time></trkpt>
    <trkpt lat="28.559043" lon="84.642678"><ele>4011.4</ele><time>2025-10-25T04:26:53Z</time></trkpt>
    <trkpt lat="28.558944" lon="84.642487"><ele>4012.2</ele><time>2025-10-25T04:27:14Z</time></trkpt>
    <trkpt lat="28.558682" lon="84.642103"><ele>4017.0</ele><time>2025-10-25T04:28:08Z</time></trkpt>
    <trkpt lat="28.558653" lon="84.642081"><ele>4017.0</ele><time>2025-10-25T04:28:11Z</time></trkpt>
    <trkpt lat="28.558333" lon="84.641378"><ele>4016.2</ele><time>2025-10-25T04:30:06Z</time></trkpt>
    <trkpt lat="28.558285" lon="84.641050"><ele>4015.8</ele><time>2025-10-25T04:30:38Z</time></trkpt>
    <trkpt lat="28.558303" lon="84.640951"><ele>4015.8</ele><time>2025-10-25T04:30:46Z</time></trkpt>
    <trkpt lat="28.558187" lon="84.640364"><ele>4016.0</ele><time>2025-10-25T04:31:50Z</time></trkpt>
    <trkpt lat="28.558044" lon="84.640104"><ele>4017.4</ele><time>2025-10-25T04:32:23Z</time></trkpt>
    <trkpt lat="28.557955" lon="84.639538"><ele>4021.2</ele><time>2025-10-25T04:33:25Z</time></trkpt>
    <trkpt lat="28.557836" lon="84.639301"><ele>4023.6</ele><time>2025-10-25T04:33:57Z</time></trkpt>
    <trkpt lat="28.557819" lon="84.639121"><ele>4024.6</ele><time>2025-10-25T04:34:39Z</time></trkpt>
    <trkpt lat="28.557721" lon="84.639018"><ele>4024.8</ele><time>2025-10-25T04:34:55Z</time></trkpt>
    <trkpt lat="28.557620" lon="84.638849"><ele>4025.2</ele><time>2025-10-25T04:35:25Z</time></trkpt>
    <trkpt lat="28.557621" lon="84.638773"><ele>4026.8</ele><time>2025-10-25T04:35:36Z</time></trkpt>
    <trkpt lat="28.557357" lon="84.638388"><ele>4030.0</ele><time>2025-10-25T04:36:39Z</time></trkpt>
    <trkpt lat="28.557127" lon="84.637778"><ele>4033.2</ele><time>2025-10-25T04:37:50Z</time></trkpt>
    <trkpt lat="28.556762" lon="84.637243"><ele>4035.2</ele><time>2025-10-25T04:38:59Z</time></trkpt>
    <trkpt lat="28.556285" lon="84.636359"><ele>4039.2</ele><time>2025-10-25T04:40:45Z</time></trkpt>
    <trkpt lat="28.556235" lon="84.636198"><ele>4041.0</ele><time>2025-10-25T04:41:28Z</time></trkpt>
    <trkpt lat="28.556138" lon="84.636087"><ele>4041.4</ele><time>2025-10-25T04:41:47Z</time></trkpt>
    <trkpt lat="28.556104" lon="84.635920"><ele>4042.4</ele><time>2025-10-25T04:42:02Z</time></trkpt>
    <trkpt lat="28.556100" lon="84.635886"><ele>4042.4</ele><time>2025-10-25T04:42:05Z</time></trkpt>
    <trkpt lat="28.555938" lon="84.635483"><ele>4042.8</ele><time>2025-10-25T04:42:42Z</time></trkpt>
    <trkpt lat="28.555532" lon="84.635013"><ele>4043.8</ele><time>2025-10-25T04:43:46Z</time></trkpt>
    <trkpt lat="28.554888" lon="84.634115"><ele>4045.2</ele><time>2025-10-25T04:45:38Z</time></trkpt>
    <trkpt lat="28.554764" lon="84.634002"><ele>4045.4</ele><time>2025-10-25T04:45:55Z</time></trkpt>
    <trkpt lat="28.554690" lon="84.633750"><ele>4046.4</ele><time>2025-10-25T04:46:20Z</time></trkpt>
    <trkpt lat="28.554408" lon="84.633376"><ele>4047.8</ele><time>2025-10-25T04:47:10Z</time></trkpt>
    <trkpt lat="28.554363" lon="84.633283"><ele>4048.2</ele><time>2025-10-25T04:47:19Z</time></trkpt>
    <trkpt lat="28.553864" lon="84.632264"><ele>4048.8</ele><time>2025-10-25T04:48:57Z</time></trkpt>
    <trkpt lat="28.553676" lon="84.632067"><ele>4049.0</ele><time>2025-10-25T04:49:22Z</time></trkpt>
    <trkpt lat="28.553338" lon="84.631518"><ele>4049.2</ele><time>2025-10-25T04:50:18Z</time></trkpt>
    <trkpt lat="28.553074" lon="84.631000"><ele>4050.2</ele><time>2025-10-25T04:51:23Z</time></trkpt>
    <trkpt lat="28.552786" lon="84.630625"><ele>4050.4</ele><time>2025-10-25T04:52:03Z</time></trkpt>
    <trkpt lat="28.552353" lon="84.629770"><ele>4050.4</ele><time>2025-10-25T04:53:25Z</time></trkpt>
    <trkpt lat="28.552162" lon="84.629525"><ele>4050.2</ele><time>2025-10-25T04:53:56Z</time></trkpt>
    <trkpt lat="28.552067" lon="84.629286"><ele>4050.0</ele><time>2025-10-25T04:54:27Z</time></trkpt>
    <trkpt lat="28.551943" lon="84.629206"><ele>4050.0</ele><time>2025-10-25T04:54:48Z</time></trkpt>
    <trkpt lat="28.551896" lon="84.629002"><ele>4050.2</ele><time>2025-10-25T04:55:06Z</time></trkpt>
    <trkpt lat="28.551776" lon="84.628788"><ele>4050.2</ele><time>2025-10-25T04:55:30Z</time></trkpt>
    <trkpt lat="28.551578" lon="84.628263"><ele>4051.0</ele><time>2025-10-25T04:56:41Z</time></trkpt>
    <trkpt lat="28.551565" lon="84.628123"><ele>4051.6</ele><time>2025-10-25T04:57:46Z</time></trkpt>
    <trkpt lat="28.551444" lon="84.627964"><ele>4052.8</ele><time>2025-10-25T05:00:14Z</time></trkpt>
    <trkpt lat="28.551559" lon="84.628151"><ele>4055.0</ele><time>2025-10-25T05:32:14Z</time></trkpt>
    <trkpt lat="28.551686" lon="84.628420"><ele>4054.4</ele><time>2025-10-25T05:32:39Z</time></trkpt>
    <trkpt lat="28.552159" lon="84.629619"><ele>4052.0</ele><time>2025-10-25T05:34:20Z</time></trkpt>
    <trkpt lat="28.552387" lon="84.629958"><ele>4052.0</ele><time>2025-10-25T05:34:54Z</time></trkpt>
    <trkpt lat="28.552562" lon="84.630149"><ele>4052.2</ele><time>2025-10-25T05:35:19Z</time></trkpt>
    <trkpt lat="28.552764" lon="84.630489"><ele>4052.2</ele><time>2025-10-25T05:35:50Z</time></trkpt>
    <trkpt lat="28.552896" lon="84.630861"><ele>4052.4</ele><time>2025-10-25T05:36:27Z</time></trkpt>
    <trkpt lat="28.553045" lon="84.631146"><ele>4053.2</ele><time>2025-10-25T05:36:56Z</time></trkpt>
    <trkpt lat="28.553502" lon="84.631685"><ele>4053.6</ele><time>2025-10-25T05:37:59Z</time></trkpt>
    <trkpt lat="28.554118" lon="84.632842"><ele>4052.4</ele><time>2025-10-25T05:39:48Z</time></trkpt>
    <trkpt lat="28.554719" lon="84.633724"><ele>4050.4</ele><time>2025-10-25T05:41:10Z</time></trkpt>
    <trkpt lat="28.554833" lon="84.634018"><ele>4049.6</ele><time>2025-10-25T05:41:34Z</time></trkpt>
    <trkpt lat="28.555036" lon="84.634207"><ele>4049.6</ele><time>2025-10-25T05:41:55Z</time></trkpt>
    <trkpt lat="28.555559" lon="84.634978"><ele>4049.2</ele><time>2025-10-25T05:43:11Z</time></trkpt>
    <trkpt lat="28.555765" lon="84.635203"><ele>4048.6</ele><time>2025-10-25T05:43:37Z</time></trkpt>
    <trkpt lat="28.555790" lon="84.635300"><ele>4048.4</ele><time>2025-10-25T05:43:44Z</time></trkpt>
    <trkpt lat="28.556001" lon="84.635587"><ele>4048.4</ele><time>2025-10-25T05:44:11Z</time></trkpt>
    <trkpt lat="28.556156" lon="84.635956"><ele>4048.4</ele><time>2025-10-25T05:44:40Z</time></trkpt>
    <trkpt lat="28.556281" lon="84.636339"><ele>4046.2</ele><time>2025-10-25T05:45:11Z</time></trkpt>
    <trkpt lat="28.556589" lon="84.636920"><ele>4041.8</ele><time>2025-10-25T05:46:00Z</time></trkpt>
    <trkpt lat="28.556762" lon="84.637574"><ele>4037.4</ele><time>2025-10-25T05:46:48Z</time></trkpt>
    <trkpt lat="28.556784" lon="84.637796"><ele>4036.4</ele><time>2025-10-25T05:47:04Z</time></trkpt>
    <trkpt lat="28.556853" lon="84.638092"><ele>4035.4</ele><time>2025-10-25T05:47:27Z</time></trkpt>
    <trkpt lat="28.556883" lon="84.638524"><ele>4034.0</ele><time>2025-10-25T05:47:58Z</time></trkpt>
    <trkpt lat="28.556996" lon="84.638937"><ele>4032.4</ele><time>2025-10-25T05:48:28Z</time></trkpt>
    <trkpt lat="28.556986" lon="84.639280"><ele>4031.4</ele><time>2025-10-25T05:48:51Z</time></trkpt>
    <trkpt lat="28.556993" lon="84.639490"><ele>4031.4</ele><time>2025-10-25T05:49:06Z</time></trkpt>
    <trkpt lat="28.557259" lon="84.640169"><ele>4032.2</ele><time>2025-10-25T05:50:12Z</time></trkpt>
    <trkpt lat="28.557278" lon="84.640329"><ele>4032.2</ele><time>2025-10-25T06:05:21Z</time></trkpt>
    <trkpt lat="28.557528" lon="84.640222"><ele>4031.8</ele><time>2025-10-25T06:05:45Z</time></trkpt>
    <trkpt lat="28.557636" lon="84.640290"><ele>4031.8</ele><time>2025-10-25T06:06:02Z</time></trkpt>
    <trkpt lat="28.557677" lon="84.640446"><ele>4031.2</ele><time>2025-10-25T06:06:15Z</time></trkpt>
    <trkpt lat="28.557800" lon="84.640673"><ele>4030.4</ele><time>2025-10-25T06:06:37Z</time></trkpt>
    <trkpt lat="28.557973" lon="84.640872"><ele>4028.8</ele><time>2025-10-25T06:06:59Z</time></trkpt>
    <trkpt lat="28.558092" lon="84.641131"><ele>4027.8</ele><time>2025-10-25T06:07:22Z</time></trkpt>
    <trkpt lat="28.558399" lon="84.641457"><ele>4027.8</ele><time>2025-10-25T06:07:58Z</time></trkpt>
    <trkpt lat="28.558619" lon="84.641898"><ele>4027.2</ele><time>2025-10-25T06:08:39Z</time></trkpt>
    <trkpt lat="28.558776" lon="84.642150"><ele>4026.8</ele><time>2025-10-25T06:09:02Z</time></trkpt>
    <trkpt lat="28.559067" lon="84.642572"><ele>4023.2</ele><time>2025-10-25T06:09:44Z</time></trkpt>
    <trkpt lat="28.559079" lon="84.642669"><ele>4021.8</ele><time>2025-10-25T06:09:52Z</time></trkpt>
    <trkpt lat="28.559246" lon="84.642815"><ele>4017.4</ele><time>2025-10-25T06:10:15Z</time></trkpt>
    <trkpt lat="28.559452" lon="84.643156"><ele>4014.0</ele><time>2025-10-25T06:10:49Z</time></trkpt>
    <trkpt lat="28.559464" lon="84.643337"><ele>4009.0</ele><time>2025-10-25T06:11:04Z</time></trkpt>
    <trkpt lat="28.559480" lon="84.643373"><ele>4008.6</ele><time>2025-10-25T06:11:08Z</time></trkpt>
    <trkpt lat="28.559589" lon="84.643546"><ele>4007.6</ele><time>2025-10-25T06:11:27Z</time></trkpt>
    <trkpt lat="28.559805" lon="84.644325"><ele>4004.2</ele><time>2025-10-25T06:12:37Z</time></trkpt>
    <trkpt lat="28.559973" lon="84.644757"><ele>4002.8</ele><time>2025-10-25T06:13:14Z</time></trkpt>
    <trkpt lat="28.559977" lon="84.644967"><ele>4002.0</ele><time>2025-10-25T06:13:31Z</time></trkpt>
    <trkpt lat="28.559989" lon="84.645177"><ele>3999.2</ele><time>2025-10-25T06:13:57Z</time></trkpt>
    <trkpt lat="28.560059" lon="84.645290"><ele>3997.0</ele><time>2025-10-25T06:14:21Z</time></trkpt>
    <trkpt lat="28.560091" lon="84.645342"><ele>3995.4</ele><time>2025-10-25T06:14:26Z</time></trkpt>
    <trkpt lat="28.560234" lon="84.645472"><ele>3993.2</ele><time>2025-10-25T06:14:45Z</time></trkpt>
    <trkpt lat="28.560204" lon="84.645633"><ele>3987.6</ele><time>2025-10-25T06:14:57Z</time></trkpt>
    <trkpt lat="28.560241" lon="84.645744"><ele>3987.4</ele><time>2025-10-25T06:15:06Z</time></trkpt>
    <trkpt lat="28.560370" lon="84.645868"><ele>3986.2</ele><time>2025-10-25T06:15:20Z</time></trkpt>
    <trkpt lat="28.560391" lon="84.645927"><ele>3985.0</ele><time>2025-10-25T06:15:25Z</time></trkpt>
    <trkpt lat="28.560441" lon="84.646048"><ele>3984.4</ele><time>2025-10-25T06:15:35Z</time></trkpt>
    <trkpt lat="28.560585" lon="84.646223"><ele>3984.0</ele><time>2025-10-25T06:15:53Z</time></trkpt>
    <trkpt lat="28.560734" lon="84.646713"><ele>3982.4</ele><time>2025-10-25T06:16:38Z</time></trkpt>
    <trkpt lat="28.560795" lon="84.646761"><ele>3982.2</ele><time>2025-10-25T06:16:45Z</time></trkpt>
    <trkpt lat="28.560831" lon="84.646794"><ele>3981.4</ele><time>2025-10-25T06:16:49Z</time></trkpt>
    <trkpt lat="28.560919" lon="84.646959"><ele>3978.2</ele><time>2025-10-25T06:17:06Z</time></trkpt>
    <trkpt lat="28.560988" lon="84.647271"><ele>3973.6</ele><time>2025-10-25T06:17:29Z</time></trkpt>
    <trkpt lat="28.561012" lon="84.647326"><ele>3973.0</ele><time>2025-10-25T06:17:33Z</time></trkpt>
    <trkpt lat="28.561088" lon="84.647479"><ele>3971.6</ele><time>2025-10-25T06:17:45Z</time></trkpt>
    <trkpt lat="28.561481" lon="84.647973"><ele>3968.2</ele><time>2025-10-25T06:18:33Z</time></trkpt>
    <trkpt lat="28.561601" lon="84.648247"><ele>3965.6</ele><time>2025-10-25T06:19:00Z</time></trkpt>
    <trkpt lat="28.561693" lon="84.648351"><ele>3963.8</ele><time>2025-10-25T06:19:11Z</time></trkpt>
    <trkpt lat="28.561818" lon="84.648546"><ele>3963.8</ele><time>2025-10-25T06:19:29Z</time></trkpt>
    <trkpt lat="28.561950" lon="84.648662"><ele>3963.6</ele><time>2025-10-25T06:20:17Z</time></trkpt>
    <trkpt lat="28.562082" lon="84.648693"><ele>3963.4</ele><time>2025-10-25T06:20:30Z</time></trkpt>
    <trkpt lat="28.562144" lon="84.648725"><ele>3961.6</ele><time>2025-10-25T06:20:38Z</time></trkpt>
    <trkpt lat="28.562432" lon="84.648977"><ele>3955.2</ele><time>2025-10-25T06:21:20Z</time></trkpt>
    <trkpt lat="28.562795" lon="84.649049"><ele>3953.4</ele><time>2025-10-25T06:21:56Z</time></trkpt>
    <trkpt lat="28.562896" lon="84.649245"><ele>3951.2</ele><time>2025-10-25T06:22:14Z</time></trkpt>
    <trkpt lat="28.563083" lon="84.649411"><ele>3949.2</ele><time>2025-10-25T06:22:37Z</time></trkpt>
    <trkpt lat="28.563171" lon="84.649512"><ele>3948.0</ele><time>2025-10-25T06:22:47Z</time></trkpt>
    <trkpt lat="28.563241" lon="84.649619"><ele>3947.4</ele><time>2025-10-25T06:22:59Z</time></trkpt>
    <trkpt lat="28.563345" lon="84.650084"><ele>3946.6</ele><time>2025-10-25T06:23:40Z</time></trkpt>
    <trkpt lat="28.563256" lon="84.650204"><ele>3944.2</ele><time>2025-10-25T06:23:59Z</time></trkpt>
    <trkpt lat="28.563276" lon="84.650233"><ele>3942.8</ele><time>2025-10-25T06:24:30Z</time></trkpt>
    <trkpt lat="28.563242" lon="84.650335"><ele>3940.4</ele><time>2025-10-25T06:24:42Z</time></trkpt>
    <trkpt lat="28.562871" lon="84.650954"><ele>3921.6</ele><time>2025-10-25T06:26:22Z</time></trkpt>
    <trkpt lat="28.562926" lon="84.651323"><ele>3916.2</ele><time>2025-10-25T06:27:08Z</time></trkpt>
    <trkpt lat="28.562945" lon="84.651362"><ele>3915.0</ele><time>2025-10-25T06:27:13Z</time></trkpt>
    <trkpt lat="28.563100" lon="84.651735"><ele>3913.4</ele><time>2025-10-25T06:28:01Z</time></trkpt>
    <trkpt lat="28.563211" lon="84.651881"><ele>3912.6</ele><time>2025-10-25T06:28:20Z</time></trkpt>
    <trkpt lat="28.563231" lon="84.651943"><ele>3912.2</ele><time>2025-10-25T06:28:28Z</time></trkpt>
    <trkpt lat="28.563236" lon="84.652074"><ele>3907.6</ele><time>2025-10-25T06:28:39Z</time></trkpt>
    <trkpt lat="28.563370" lon="84.652365"><ele>3905.2</ele><time>2025-10-25T06:29:04Z</time></trkpt>
    <trkpt lat="28.563435" lon="84.652615"><ele>3902.8</ele><time>2025-10-25T06:29:27Z</time></trkpt>
    <trkpt lat="28.563784" lon="84.652802"><ele>3895.6</ele><time>2025-10-25T06:30:06Z</time></trkpt>
    <trkpt lat="28.563884" lon="84.652942"><ele>3893.8</ele><time>2025-10-25T06:30:20Z</time></trkpt>
    <trkpt lat="28.563909" lon="84.653023"><ele>3893.6</ele><time>2025-10-25T06:30:27Z</time></trkpt>
    <trkpt lat="28.564015" lon="84.653118"><ele>3893.2</ele><time>2025-10-25T06:30:39Z</time></trkpt>
    <trkpt lat="28.564154" lon="84.653124"><ele>3893.2</ele><time>2025-10-25T06:30:54Z</time></trkpt>
    <trkpt lat="28.564267" lon="84.653311"><ele>3893.0</ele><time>2025-10-25T06:31:14Z</time></trkpt>
    <trkpt lat="28.564491" lon="84.653496"><ele>3892.0</ele><time>2025-10-25T06:31:42Z</time></trkpt>
    <trkpt lat="28.564673" lon="84.653803"><ele>3889.0</ele><time>2025-10-25T06:32:16Z</time></trkpt>
    <trkpt lat="28.564743" lon="84.653840"><ele>3889.0</ele><time>2025-10-25T06:32:24Z</time></trkpt>
    <trkpt lat="28.564891" lon="84.653950"><ele>3885.4</ele><time>2025-10-25T06:32:42Z</time></trkpt>
    <trkpt lat="28.565158" lon="84.654334"><ele>3876.6</ele><time>2025-10-25T06:33:25Z</time></trkpt>
    <trkpt lat="28.565179" lon="84.654438"><ele>3875.2</ele><time>2025-10-25T06:33:33Z</time></trkpt>
    <trkpt lat="28.565240" lon="84.654482"><ele>3873.2</ele><time>2025-10-25T06:33:46Z</time></trkpt>
    <trkpt lat="28.565427" lon="84.654659"><ele>3870.2</ele><time>2025-10-25T06:34:12Z</time></trkpt>
    <trkpt lat="28.565468" lon="84.654739"><ele>3869.0</ele><time>2025-10-25T06:34:24Z</time></trkpt>
    <trkpt lat="28.565448" lon="84.654828"><ele>3867.0</ele><time>2025-10-25T06:34:31Z</time></trkpt>
    <trkpt lat="28.565520" lon="84.654949"><ele>3864.0</ele><time>2025-10-25T06:34:45Z</time></trkpt>
    <trkpt lat="28.565578" lon="84.655205"><ele>3858.4</ele><time>2025-10-25T06:35:25Z</time></trkpt>
    <trkpt lat="28.565574" lon="84.655201"><ele>3858.2</ele><time>2025-10-25T06:35:34Z</time></trkpt>
    <trkpt lat="28.565686" lon="84.655273"><ele>3856.0</ele><time>2025-10-25T06:36:06Z</time></trkpt>
    <trkpt lat="28.565722" lon="84.655368"><ele>3854.6</ele><time>2025-10-25T06:36:17Z</time></trkpt>
    <trkpt lat="28.565795" lon="84.655368"><ele>3854.0</ele><time>2025-10-25T06:36:35Z</time></trkpt>
    <trkpt lat="28.565920" lon="84.655624"><ele>3852.6</ele><time>2025-10-25T06:36:57Z</time></trkpt>
    <trkpt lat="28.565933" lon="84.655672"><ele>3852.6</ele><time>2025-10-25T06:37:00Z</time></trkpt>
    <trkpt lat="28.565850" lon="84.655779"><ele>3852.6</ele><time>2025-10-25T06:37:12Z</time></trkpt>
    <trkpt lat="28.565811" lon="84.655918"><ele>3852.6</ele><time>2025-10-25T06:37:26Z</time></trkpt>
    <trkpt lat="28.565805" lon="84.655928"><ele>3852.8</ele><time>2025-10-25T06:37:27Z</time></trkpt>
    <trkpt lat="28.565793" lon="84.656125"><ele>3853.2</ele><time>2025-10-25T06:37:44Z</time></trkpt>
    <trkpt lat="28.565734" lon="84.656211"><ele>3855.0</ele><time>2025-10-25T06:37:56Z</time></trkpt>
    <trkpt lat="28.565894" lon="84.656515"><ele>3858.4</ele><time>2025-10-25T06:38:55Z</time></trkpt>
    <trkpt lat="28.566030" lon="84.656619"><ele>3860.2</ele><time>2025-10-25T06:39:14Z</time></trkpt>
    <trkpt lat="28.566060" lon="84.656733"><ele>3860.2</ele><time>2025-10-25T06:39:51Z</time></trkpt>
    <trkpt lat="28.564804" lon="84.663368"><ele>3834.8</ele><time>2025-10-25T06:58:07Z</time></trkpt>
    <trkpt lat="28.564804" lon="84.663367"><ele>3834.8</ele><time>2025-10-25T06:58:08Z</time></trkpt>
    <trkpt lat="28.564901" lon="84.663450"><ele>3830.4</ele><time>2025-10-25T06:58:27Z</time></trkpt>
    <trkpt lat="28.564825" lon="84.663536"><ele>3827.0</ele><time>2025-10-25T06:58:44Z</time></trkpt>
    <trkpt lat="28.564800" lon="84.663594"><ele>3824.8</ele><time>2025-10-25T06:58:55Z</time></trkpt>
    <trkpt lat="28.565055" lon="84.663800"><ele>3814.0</ele><time>2025-10-25T06:59:49Z</time></trkpt>
    <trkpt lat="28.565329" lon="84.663857"><ele>3807.4</ele><time>2025-10-25T07:00:28Z</time></trkpt>
    <trkpt lat="28.565254" lon="84.664170"><ele>3799.4</ele><time>2025-10-25T07:01:07Z</time></trkpt>
    <trkpt lat="28.565371" lon="84.664205"><ele>3795.6</ele><time>2025-10-25T07:01:22Z</time></trkpt>
    <trkpt lat="28.565400" lon="84.664225"><ele>3794.8</ele><time>2025-10-25T07:01:25Z</time></trkpt>
    <trkpt lat="28.565385" lon="84.664270"><ele>3792.6</ele><time>2025-10-25T07:01:29Z</time></trkpt>
    <trkpt lat="28.565517" lon="84.664331"><ele>3788.8</ele><time>2025-10-25T07:01:41Z</time></trkpt>
    <trkpt lat="28.565467" lon="84.664471"><ele>3784.6</ele><time>2025-10-25T07:01:54Z</time></trkpt>
    <trkpt lat="28.565609" lon="84.664540"><ele>3779.8</ele><time>2025-10-25T07:02:10Z</time></trkpt>
    <trkpt lat="28.565572" lon="84.664652"><ele>3777.0</ele><time>2025-10-25T07:02:21Z</time></trkpt>
    <trkpt lat="28.565584" lon="84.664737"><ele>3776.2</ele><time>2025-10-25T07:02:28Z</time></trkpt>
    <trkpt lat="28.565845" lon="84.664681"><ele>3769.2</ele><time>2025-10-25T07:02:50Z</time></trkpt>
    <trkpt lat="28.565880" lon="84.664537"><ele>3765.0</ele><time>2025-10-25T07:02:59Z</time></trkpt>
    <trkpt lat="28.565877" lon="84.664476"><ele>3764.0</ele><time>2025-10-25T07:03:03Z</time></trkpt>
    <trkpt lat="28.565916" lon="84.664508"><ele>3761.6</ele><time>2025-10-25T07:03:10Z</time></trkpt>
    <trkpt lat="28.566024" lon="84.664466"><ele>3759.0</ele><time>2025-10-25T07:03:26Z</time></trkpt>
    <trkpt lat="28.566197" lon="84.664569"><ele>3754.4</ele><time>2025-10-25T07:03:49Z</time></trkpt>
    <trkpt lat="28.566311" lon="84.664615"><ele>3752.2</ele><time>2025-10-25T07:03:57Z</time></trkpt>
    <trkpt lat="28.566449" lon="84.664878"><ele>3746.2</ele><time>2025-10-25T07:04:17Z</time></trkpt>
    <trkpt lat="28.566514" lon="84.664994"><ele>3745.8</ele><time>2025-10-25T07:04:34Z</time></trkpt>
    <trkpt lat="28.566726" lon="84.665036"><ele>3740.6</ele><time>2025-10-25T07:04:54Z</time></trkpt>
    <trkpt lat="28.566817" lon="84.665104"><ele>3736.4</ele><time>2025-10-25T07:05:11Z</time></trkpt>
    <trkpt lat="28.566839" lon="84.665067"><ele>3735.0</ele><time>2025-10-25T07:05:18Z</time></trkpt>
    <trkpt lat="28.566901" lon="84.665124"><ele>3732.8</ele><time>2025-10-25T07:05:28Z</time></trkpt>
    <trkpt lat="28.566937" lon="84.665094"><ele>3731.6</ele><time>2025-10-25T07:05:33Z</time></trkpt>
    <trkpt lat="28.566952" lon="84.665176"><ele>3728.6</ele><time>2025-10-25T07:05:43Z</time></trkpt>
    <trkpt lat="28.567126" lon="84.665180"><ele>3725.0</ele><time>2025-10-25T07:05:58Z</time></trkpt>
    <trkpt lat="28.567141" lon="84.665350"><ele>3721.2</ele><time>2025-10-25T07:06:12Z</time></trkpt>
    <trkpt lat="28.567280" lon="84.665315"><ele>3717.4</ele><time>2025-10-25T07:06:27Z</time></trkpt>
    <trkpt lat="28.567323" lon="84.665304"><ele>3716.4</ele><time>2025-10-25T07:06:34Z</time></trkpt>
    <trkpt lat="28.567387" lon="84.665471"><ele>3714.0</ele><time>2025-10-25T07:06:50Z</time></trkpt>
    <trkpt lat="28.567509" lon="84.665352"><ele>3709.6</ele><time>2025-10-25T07:07:07Z</time></trkpt>
    <trkpt lat="28.567642" lon="84.665341"><ele>3707.4</ele><time>2025-10-25T07:07:16Z</time></trkpt>
    <trkpt lat="28.567695" lon="84.665513"><ele>3703.8</ele><time>2025-10-25T07:07:30Z</time></trkpt>
    <trkpt lat="28.567808" lon="84.665607"><ele>3702.2</ele><time>2025-10-25T07:07:42Z</time></trkpt>
    <trkpt lat="28.567844" lon="84.665685"><ele>3702.0</ele><time>2025-10-25T07:07:48Z</time></trkpt>
    <trkpt lat="28.567814" lon="84.665723"><ele>3700.0</ele><time>2025-10-25T07:07:55Z</time></trkpt>
    <trkpt lat="28.567918" lon="84.665762"><ele>3696.6</ele><time>2025-10-25T07:08:09Z</time></trkpt>
    <trkpt lat="28.567901" lon="84.665788"><ele>3695.4</ele><time>2025-10-25T07:08:12Z</time></trkpt>
    <trkpt lat="28.567934" lon="84.665808"><ele>3694.2</ele><time>2025-10-25T07:08:15Z</time></trkpt>
    <trkpt lat="28.568222" lon="84.666146"><ele>3683.8</ele><time>2025-10-25T07:09:00Z</time></trkpt>
    <trkpt lat="28.568361" lon="84.666256"><ele>3680.2</ele><time>2025-10-25T07:09:11Z</time></trkpt>
    <trkpt lat="28.568309" lon="84.666308"><ele>3676.8</ele><time>2025-10-25T07:09:21Z</time></trkpt>
    <trkpt lat="28.568331" lon="84.666355"><ele>3675.6</ele><time>2025-10-25T07:09:27Z</time></trkpt>
    <trkpt lat="28.568631" lon="84.666776"><ele>3665.4</ele><time>2025-10-25T07:10:13Z</time></trkpt>
    <trkpt lat="28.568736" lon="84.667211"><ele>3653.6</ele><time>2025-10-25T07:10:51Z</time></trkpt>
    <trkpt lat="28.568686" lon="84.667227"><ele>3650.6</ele><time>2025-10-25T07:11:00Z</time></trkpt>
    <trkpt lat="28.568719" lon="84.667360"><ele>3647.6</ele><time>2025-10-25T07:11:15Z</time></trkpt>
    <trkpt lat="28.568691" lon="84.667503"><ele>3643.8</ele><time>2025-10-25T07:11:28Z</time></trkpt>
    <trkpt lat="28.568752" lon="84.667736"><ele>3636.6</ele><time>2025-10-25T07:11:50Z</time></trkpt>
    <trkpt lat="28.568803" lon="84.667799"><ele>3634.8</ele><time>2025-10-25T07:11:56Z</time></trkpt>
    <trkpt lat="28.568891" lon="84.667879"><ele>3634.0</ele><time>2025-10-25T07:12:05Z</time></trkpt>
    <trkpt lat="28.569226" lon="84.668038"><ele>3630.4</ele><time>2025-10-25T07:12:34Z</time></trkpt>
    <trkpt lat="28.569448" lon="84.668497"><ele>3622.2</ele><time>2025-10-25T07:13:10Z</time></trkpt>
    <trkpt lat="28.569759" lon="84.668875"><ele>3617.8</ele><time>2025-10-25T07:13:47Z</time></trkpt>
    <trkpt lat="28.570157" lon="84.669007"><ele>3610.8</ele><time>2025-10-25T07:14:25Z</time></trkpt>
    <trkpt lat="28.570214" lon="84.668967"><ele>3609.8</ele><time>2025-10-25T07:14:32Z</time></trkpt>
    <trkpt lat="28.570913" lon="84.669058"><ele>3602.0</ele><time>2025-10-25T07:15:29Z</time></trkpt>
    <trkpt lat="28.571039" lon="84.669001"><ele>3600.4</ele><time>2025-10-25T07:15:44Z</time></trkpt>
    <trkpt lat="28.571215" lon="84.668890"><ele>3599.6</ele><time>2025-10-25T07:16:29Z</time></trkpt>
    <trkpt lat="28.571359" lon="84.668844"><ele>3594.2</ele><time>2025-10-25T07:16:52Z</time></trkpt>
    <trkpt lat="28.571477" lon="84.668873"><ele>3591.6</ele><time>2025-10-25T07:17:03Z</time></trkpt>
    <trkpt lat="28.571737" lon="84.669039"><ele>3586.6</ele><time>2025-10-25T07:17:30Z</time></trkpt>
    <trkpt lat="28.571834" lon="84.669293"><ele>3580.8</ele><time>2025-10-25T07:17:58Z</time></trkpt>
    <trkpt lat="28.571961" lon="84.669440"><ele>3578.4</ele><time>2025-10-25T07:18:13Z</time></trkpt>
    <trkpt lat="28.571973" lon="84.669560"><ele>3576.2</ele><time>2025-10-25T07:18:26Z</time></trkpt>
    <trkpt lat="28.572229" lon="84.669740"><ele>3568.2</ele><time>2025-10-25T07:19:07Z</time></trkpt>
    <trkpt lat="28.572243" lon="84.669896"><ele>3563.8</ele><time>2025-10-25T07:19:26Z</time></trkpt>
    <trkpt lat="28.572336" lon="84.669966"><ele>3560.2</ele><time>2025-10-25T07:19:40Z</time></trkpt>
    <trkpt lat="28.572350" lon="84.670030"><ele>3558.4</ele><time>2025-10-25T07:19:47Z</time></trkpt>
    <trkpt lat="28.572370" lon="84.670105"><ele>3557.4</ele><time>2025-10-25T07:19:54Z</time></trkpt>
    <trkpt lat="28.572678" lon="84.670370"><ele>3551.4</ele><time>2025-10-25T07:20:29Z</time></trkpt>
    <trkpt lat="28.572620" lon="84.670629"><ele>3549.4</ele><time>2025-10-25T07:20:50Z</time></trkpt>
    <trkpt lat="28.572636" lon="84.670701"><ele>3548.8</ele><time>2025-10-25T07:20:56Z</time></trkpt>
    <trkpt lat="28.572946" lon="84.670993"><ele>3543.4</ele><time>2025-10-25T07:21:29Z</time></trkpt>
    <trkpt lat="28.572995" lon="84.670991"><ele>3543.2</ele><time>2025-10-25T07:21:36Z</time></trkpt>
    <trkpt lat="28.573228" lon="84.671156"><ele>3540.4</ele><time>2025-10-25T07:22:03Z</time></trkpt>
    <trkpt lat="28.573315" lon="84.671028"><ele>3537.6</ele><time>2025-10-25T07:22:19Z</time></trkpt>
    <trkpt lat="28.573514" lon="84.671320"><ele>3534.0</ele><time>2025-10-25T07:22:50Z</time></trkpt>
    <trkpt lat="28.573519" lon="84.671378"><ele>3533.4</ele><time>2025-10-25T07:22:55Z</time></trkpt>
    <trkpt lat="28.573575" lon="84.671551"><ele>3531.6</ele><time>2025-10-25T07:23:15Z</time></trkpt>
    <trkpt lat="28.573961" lon="84.671764"><ele>3531.2</ele><time>2025-10-25T07:24:00Z</time></trkpt>
    <trkpt lat="28.574090" lon="84.671715"><ele>3532.0</ele><time>2025-10-25T07:24:17Z</time></trkpt>
    <trkpt lat="28.574089" lon="84.670837"><ele>3539.2</ele><time>2025-10-25T07:25:42Z</time></trkpt>
    <trkpt lat="28.574108" lon="84.670792"><ele>3539.4</ele><time>2025-10-25T07:25:47Z</time></trkpt>
    <trkpt lat="28.574196" lon="84.670784"><ele>3539.4</ele><time>2025-10-25T07:25:57Z</time></trkpt>
    <trkpt lat="28.574249" lon="84.670701"><ele>3539.4</ele><time>2025-10-25T07:26:07Z</time></trkpt>
    <trkpt lat="28.574265" lon="84.670579"><ele>3539.4</ele><time>2025-10-25T07:26:26Z</time></trkpt>
    <trkpt lat="28.574180" lon="84.670702"><ele>3539.4</ele><time>2025-10-25T08:31:17Z</time></trkpt>
    <trkpt lat="28.574128" lon="84.670645"><ele>3539.4</ele><time>2025-10-25T08:31:28Z</time></trkpt>
    <trkpt lat="28.574169" lon="84.670638"><ele>3539.4</ele><time>2025-10-25T08:31:38Z</time></trkpt>
    <trkpt lat="28.574120" lon="84.670641"><ele>3539.2</ele><time>2025-10-25T08:32:03Z</time></trkpt>
    <trkpt lat="28.574269" lon="84.670448"><ele>3539.0</ele><time>2025-10-25T09:04:31Z</time></trkpt>
    <trkpt lat="28.574194" lon="84.670448"><ele>3537.8</ele><time>2025-10-25T09:04:38Z</time></trkpt>
    <trkpt lat="28.574230" lon="84.670287"><ele>3537.6</ele><time>2025-10-25T09:05:01Z</time></trkpt>
    <trkpt lat="28.574429" lon="84.669902"><ele>3536.8</ele><time>2025-10-25T09:05:39Z</time></trkpt>
    <trkpt lat="28.574465" lon="84.669878"><ele>3536.8</ele><time>2025-10-25T09:05:44Z</time></trkpt>
    <trkpt lat="28.574787" lon="84.669697"><ele>3539.2</ele><time>2025-10-25T09:06:20Z</time></trkpt>
    <trkpt lat="28.574810" lon="84.669265"><ele>3544.0</ele><time>2025-10-25T09:07:10Z</time></trkpt>
    <trkpt lat="28.574667" lon="84.668852"><ele>3546.4</ele><time>2025-10-25T09:08:02Z</time></trkpt>
    <trkpt lat="28.574516" lon="84.668621"><ele>3546.4</ele><time>2025-10-25T09:08:26Z</time></trkpt>
    <trkpt lat="28.574499" lon="84.668597"><ele>3545.8</ele><time>2025-10-25T09:08:29Z</time></trkpt>
    <trkpt lat="28.574014" lon="84.668252"><ele>3539.4</ele><time>2025-10-25T09:09:20Z</time></trkpt>
    <trkpt lat="28.573878" lon="84.668021"><ele>3536.8</ele><time>2025-10-25T09:09:41Z</time></trkpt>
    <trkpt lat="28.573769" lon="84.667957"><ele>3536.0</ele><time>2025-10-25T09:09:51Z</time></trkpt>
    <trkpt lat="28.573556" lon="84.667799"><ele>3536.4</ele><time>2025-10-25T09:10:20Z</time></trkpt>
    <trkpt lat="28.573531" lon="84.667683"><ele>3536.8</ele><time>2025-10-25T09:10:29Z</time></trkpt>
    <trkpt lat="28.574008" lon="84.666899"><ele>3535.6</ele><time>2025-10-25T09:11:50Z</time></trkpt>
    <trkpt lat="28.574132" lon="84.666677"><ele>3540.0</ele><time>2025-10-25T09:12:20Z</time></trkpt>
    <trkpt lat="28.574295" lon="84.666588"><ele>3541.0</ele><time>2025-10-25T09:12:38Z</time></trkpt>
    <trkpt lat="28.574383" lon="84.666398"><ele>3543.0</ele><time>2025-10-25T09:13:00Z</time></trkpt>
    <trkpt lat="28.574433" lon="84.666342"><ele>3543.8</ele><time>2025-10-25T09:13:08Z</time></trkpt>
    <trkpt lat="28.574533" lon="84.666218"><ele>3543.8</ele><time>2025-10-25T09:13:27Z</time></trkpt>
    <trkpt lat="28.574463" lon="84.666122"><ele>3543.8</ele><time>2025-10-25T09:13:38Z</time></trkpt>
    <trkpt lat="28.574452" lon="84.666104"><ele>3543.4</ele><time>2025-10-25T09:13:40Z</time></trkpt>
    <trkpt lat="28.574422" lon="84.665965"><ele>3542.8</ele><time>2025-10-25T09:13:52Z</time></trkpt>
    <trkpt lat="28.574264" lon="84.665929"><ele>3537.4</ele><time>2025-10-25T09:14:13Z</time></trkpt>
    <trkpt lat="28.574226" lon="84.665883"><ele>3535.8</ele><time>2025-10-25T09:14:19Z</time></trkpt>
    <trkpt lat="28.574153" lon="84.665633"><ele>3530.6</ele><time>2025-10-25T09:14:43Z</time></trkpt>
    <trkpt lat="28.574119" lon="84.665602"><ele>3529.4</ele><time>2025-10-25T09:14:47Z</time></trkpt>
    <trkpt lat="28.573996" lon="84.665399"><ele>3528.6</ele><time>2025-10-25T09:15:05Z</time></trkpt>
    <trkpt lat="28.573866" lon="84.665003"><ele>3528.4</ele><time>2025-10-25T09:15:36Z</time></trkpt>
    <trkpt lat="28.573597" lon="84.664708"><ele>3528.6</ele><time>2025-10-25T09:16:12Z</time></trkpt>
    <trkpt lat="28.573247" lon="84.664290"><ele>3538.0</ele><time>2025-10-25T09:17:32Z</time></trkpt>
    <trkpt lat="28.573213" lon="84.664128"><ele>3540.2</ele><time>2025-10-25T09:17:54Z</time></trkpt>
    <trkpt lat="28.572961" lon="84.663789"><ele>3546.0</ele><time>2025-10-25T09:18:55Z</time></trkpt>
    <trkpt lat="28.572876" lon="84.663631"><ele>3548.6</ele><time>2025-10-25T09:19:25Z</time></trkpt>
    <trkpt lat="28.572874" lon="84.663630"><ele>3548.6</ele><time>2025-10-25T09:19:26Z</time></trkpt>
    <trkpt lat="28.572899" lon="84.663606"><ele>3549.0</ele><time>2025-10-25T09:19:49Z</time></trkpt>
    <trkpt lat="28.572876" lon="84.663596"><ele>3549.4</ele><time>2025-10-25T09:20:17Z</time></trkpt>
    <trkpt lat="28.572835" lon="84.663542"><ele>3550.8</ele><time>2025-10-25T09:20:26Z</time></trkpt>
    <trkpt lat="28.572796" lon="84.663209"><ele>3557.8</ele><time>2025-10-25T09:21:16Z</time></trkpt>
    <trkpt lat="28.572695" lon="84.663264"><ele>3561.8</ele><time>2025-10-25T09:21:41Z</time></trkpt>
    <trkpt lat="28.572667" lon="84.663235"><ele>3562.4</ele><time>2025-10-25T09:21:48Z</time></trkpt>
    <trkpt lat="28.572674" lon="84.663062"><ele>3567.8</ele><time>2025-10-25T09:22:30Z</time></trkpt>
    <trkpt lat="28.572547" lon="84.663092"><ele>3572.6</ele><time>2025-10-25T09:23:05Z</time></trkpt>
    <trkpt lat="28.572541" lon="84.662956"><ele>3575.4</ele><time>2025-10-25T09:23:28Z</time></trkpt>
    <trkpt lat="28.572481" lon="84.662883"><ele>3577.6</ele><time>2025-10-25T09:23:48Z</time></trkpt>
    <trkpt lat="28.572465" lon="84.662886"><ele>3577.8</ele><time>2025-10-25T09:24:03Z</time></trkpt>
    <trkpt lat="28.572505" lon="84.662893"><ele>3577.8</ele><time>2025-10-25T09:24:15Z</time></trkpt>
    <trkpt lat="28.572471" lon="84.662866"><ele>3577.8</ele><time>2025-10-25T09:24:25Z</time></trkpt>
    <trkpt lat="28.572493" lon="84.662883"><ele>3577.6</ele><time>2025-10-25T09:24:35Z</time></trkpt>
    <trkpt lat="28.572477" lon="84.662872"><ele>3577.6</ele><time>2025-10-25T09:25:25Z</time></trkpt>
    <trkpt lat="28.572441" lon="84.662934"><ele>3579.4</ele><time>2025-10-25T09:25:43Z</time></trkpt>
    <trkpt lat="28.572325" lon="84.662912"><ele>3582.6</ele><time>2025-10-25T09:26:03Z</time></trkpt>
    <trkpt lat="28.572259" lon="84.662799"><ele>3584.0</ele><time>2025-10-25T09:26:18Z</time></trkpt>
    <trkpt lat="28.572257" lon="84.662739"><ele>3584.0</ele><time>2025-10-25T09:26:27Z</time></trkpt>
    <trkpt lat="28.572667" lon="84.662369"><ele>3579.8</ele><time>2025-10-25T09:27:17Z</time></trkpt>
    <trkpt lat="28.573131" lon="84.661992"><ele>3581.8</ele><time>2025-10-25T09:28:33Z</time></trkpt>
    <trkpt lat="28.573065" lon="84.661900"><ele>3581.2</ele><time>2025-10-25T09:28:57Z</time></trkpt>
    <trkpt lat="28.573421" lon="84.661585"><ele>3579.4</ele><time>2025-10-25T09:29:39Z</time></trkpt>
    <trkpt lat="28.573511" lon="84.661437"><ele>3579.4</ele><time>2025-10-25T09:29:53Z</time></trkpt>
    <trkpt lat="28.573603" lon="84.661161"><ele>3579.6</ele><time>2025-10-25T09:30:21Z</time></trkpt>
    <trkpt lat="28.573651" lon="84.660747"><ele>3581.0</ele><time>2025-10-25T09:30:59Z</time></trkpt>
    <trkpt lat="28.573771" lon="84.660568"><ele>3581.2</ele><time>2025-10-25T09:31:19Z</time></trkpt>
    <trkpt lat="28.573790" lon="84.660468"><ele>3581.2</ele><time>2025-10-25T09:31:28Z</time></trkpt>
    <trkpt lat="28.573790" lon="84.660405"><ele>3581.0</ele><time>2025-10-25T09:31:57Z</time></trkpt>
    <trkpt lat="28.573779" lon="84.660245"><ele>3578.8</ele><time>2025-10-25T09:32:12Z</time></trkpt>
    <trkpt lat="28.573715" lon="84.660078"><ele>3575.6</ele><time>2025-10-25T09:32:27Z</time></trkpt>
    <trkpt lat="28.573687" lon="84.659929"><ele>3575.4</ele><time>2025-10-25T09:32:55Z</time></trkpt>
    <trkpt lat="28.573788" lon="84.659505"><ele>3574.6</ele><time>2025-10-25T09:33:32Z</time></trkpt>
    <trkpt lat="28.573748" lon="84.659387"><ele>3574.2</ele><time>2025-10-25T09:33:43Z</time></trkpt>
    <trkpt lat="28.573723" lon="84.659288"><ele>3573.4</ele><time>2025-10-25T09:33:50Z</time></trkpt>
    <trkpt lat="28.573774" lon="84.659101"><ele>3571.8</ele><time>2025-10-25T09:34:06Z</time></trkpt>
    <trkpt lat="28.573940" lon="84.658925"><ele>3569.0</ele><time>2025-10-25T09:34:32Z</time></trkpt>
    <trkpt lat="28.574012" lon="84.658907"><ele>3567.4</ele><time>2025-10-25T09:34:42Z</time></trkpt>
    <trkpt lat="28.574027" lon="84.658846"><ele>3566.4</ele><time>2025-10-25T09:34:48Z</time></trkpt>
    <trkpt lat="28.574215" lon="84.658618"><ele>3560.4</ele><time>2025-10-25T09:35:17Z</time></trkpt>
    <trkpt lat="28.574696" lon="84.658594"><ele>3549.6</ele><time>2025-10-25T09:36:17Z</time></trkpt>
    <trkpt lat="28.574766" lon="84.658512"><ele>3547.2</ele><time>2025-10-25T09:36:29Z</time></trkpt>
    <trkpt lat="28.574769" lon="84.658272"><ele>3543.2</ele><time>2025-10-25T09:36:53Z</time></trkpt>
    <trkpt lat="28.575147" lon="84.657759"><ele>3543.2</ele><time>2025-10-25T09:37:52Z</time></trkpt>
    <trkpt lat="28.575388" lon="84.657582"><ele>3543.6</ele><time>2025-10-25T09:38:17Z</time></trkpt>
    <trkpt lat="28.575521" lon="84.657443"><ele>3544.8</ele><time>2025-10-25T09:38:36Z</time></trkpt>
    <trkpt lat="28.575590" lon="84.657282"><ele>3544.8</ele><time>2025-10-25T09:38:51Z</time></trkpt>
    <trkpt lat="28.575885" lon="84.657059"><ele>3543.0</ele><time>2025-10-25T09:39:23Z</time></trkpt>
    <trkpt lat="28.576162" lon="84.656767"><ele>3538.4</ele><time>2025-10-25T09:39:59Z</time></trkpt>
    <trkpt lat="28.576699" lon="84.655977"><ele>3536.2</ele><time>2025-10-25T09:41:21Z</time></trkpt>
    <trkpt lat="28.576742" lon="84.655880"><ele>3536.0</ele><time>2025-10-25T09:41:29Z</time></trkpt>
    <trkpt lat="28.577175" lon="84.655045"><ele>3536.4</ele><time>2025-10-25T09:42:41Z</time></trkpt>
    <trkpt lat="28.577606" lon="84.654526"><ele>3538.4</ele><time>2025-10-25T09:43:41Z</time></trkpt>
    <trkpt lat="28.577691" lon="84.654313"><ele>3539.0</ele><time>2025-10-25T09:44:00Z</time></trkpt>
    <trkpt lat="28.577849" lon="84.654165"><ele>3539.2</ele><time>2025-10-25T09:44:19Z</time></trkpt>
    <trkpt lat="28.577962" lon="84.653919"><ele>3539.2</ele><time>2025-10-25T09:44:42Z</time></trkpt>
    <trkpt lat="28.578338" lon="84.653484"><ele>3538.8</ele><time>2025-10-25T09:45:28Z</time></trkpt>
    <trkpt lat="28.578509" lon="84.653220"><ele>3538.8</ele><time>2025-10-25T09:45:52Z</time></trkpt>
    <trkpt lat="28.578582" lon="84.652985"><ele>3538.8</ele><time>2025-10-25T09:46:12Z</time></trkpt>
    <trkpt lat="28.578645" lon="84.652947"><ele>3538.8</ele><time>2025-10-25T09:46:27Z</time></trkpt>
    <trkpt lat="28.578751" lon="84.652874"><ele>3537.8</ele><time>2025-10-25T09:46:40Z</time></trkpt>
    <trkpt lat="28.578872" lon="84.652734"><ele>3536.8</ele><time>2025-10-25T09:47:00Z</time></trkpt>
    <trkpt lat="28.578914" lon="84.652582"><ele>3535.6</ele><time>2025-10-25T09:47:14Z</time></trkpt>
    <trkpt lat="28.579229" lon="84.652040"><ele>3533.8</ele><time>2025-10-25T09:48:10Z</time></trkpt>
    <trkpt lat="28.579269" lon="84.651954"><ele>3533.6</ele><time>2025-10-25T09:48:18Z</time></trkpt>
    <trkpt lat="28.579433" lon="84.651562"><ele>3533.6</ele><time>2025-10-25T09:48:55Z</time></trkpt>
    <trkpt lat="28.579798" lon="84.651109"><ele>3533.8</ele><time>2025-10-25T09:49:43Z</time></trkpt>
    <trkpt lat="28.580003" lon="84.650990"><ele>3534.8</ele><time>2025-10-25T09:50:04Z</time></trkpt>
    <trkpt lat="28.580177" lon="84.650831"><ele>3535.4</ele><time>2025-10-25T09:50:24Z</time></trkpt>
    <trkpt lat="28.580243" lon="84.650745"><ele>3536.0</ele><time>2025-10-25T09:50:34Z</time></trkpt>
    <trkpt lat="28.580475" lon="84.650408"><ele>3536.0</ele><time>2025-10-25T09:51:09Z</time></trkpt>
    <trkpt lat="28.580911" lon="84.650091"><ele>3534.8</ele><time>2025-10-25T09:51:56Z</time></trkpt>
    <trkpt lat="28.581191" lon="84.649794"><ele>3534.0</ele><time>2025-10-25T09:52:30Z</time></trkpt>
    <trkpt lat="28.581491" lon="84.649382"><ele>3534.2</ele><time>2025-10-25T09:53:13Z</time></trkpt>
    <trkpt lat="28.581657" lon="84.649097"><ele>3534.4</ele><time>2025-10-25T09:53:41Z</time></trkpt>
    <trkpt lat="28.581732" lon="84.648883"><ele>3534.4</ele><time>2025-10-25T09:54:01Z</time></trkpt>
    <trkpt lat="28.581784" lon="84.648855"><ele>3534.4</ele><time>2025-10-25T09:54:07Z</time></trkpt>
    <trkpt lat="28.581816" lon="84.648841"><ele>3534.0</ele><time>2025-10-25T09:54:14Z</time></trkpt>
    <trkpt lat="28.581891" lon="84.648715"><ele>3533.8</ele><time>2025-10-25T09:54:27Z</time></trkpt>
    <trkpt lat="28.582020" lon="84.648104"><ele>3529.8</ele><time>2025-10-25T09:55:24Z</time></trkpt>
    <trkpt lat="28.582299" lon="84.647809"><ele>3525.8</ele><time>2025-10-25T09:56:04Z</time></trkpt>
    <trkpt lat="28.582342" lon="84.647708"><ele>3525.0</ele><time>2025-10-25T09:56:12Z</time></trkpt>
    <trkpt lat="28.582504" lon="84.647583"><ele>3523.8</ele><time>2025-10-25T09:56:29Z</time></trkpt>
    <trkpt lat="28.582570" lon="84.647487"><ele>3522.8</ele><time>2025-10-25T09:56:38Z</time></trkpt>
    <trkpt lat="28.582940" lon="84.646985"><ele>3521.8</ele><time>2025-10-25T09:58:16Z</time></trkpt>
    <trkpt lat="28.583243" lon="84.646661"><ele>3522.0</ele><time>2025-10-25T10:02:19Z</time></trkpt>
    <trkpt lat="28.583486" lon="84.646464"><ele>3522.2</ele><time>2025-10-25T10:02:47Z</time></trkpt>
    <trkpt lat="28.583872" lon="84.645978"><ele>3522.4</ele><time>2025-10-25T10:03:41Z</time></trkpt>
    <trkpt lat="28.583953" lon="84.645889"><ele>3521.4</ele><time>2025-10-25T10:03:52Z</time></trkpt>
    <trkpt lat="28.584027" lon="84.645392"><ele>3519.8</ele><time>2025-10-25T10:04:30Z</time></trkpt>
    <trkpt lat="28.584115" lon="84.645188"><ele>3519.8</ele><time>2025-10-25T10:04:46Z</time></trkpt>
    <trkpt lat="28.584181" lon="84.645089"><ele>3519.8</ele><time>2025-10-25T10:04:54Z</time></trkpt>
    <trkpt lat="28.584323" lon="84.644963"><ele>3519.8</ele><time>2025-10-25T10:05:10Z</time></trkpt>
    <trkpt lat="28.584415" lon="84.644909"><ele>3520.2</ele><time>2025-10-25T10:05:24Z</time></trkpt>
    <trkpt lat="28.584585" lon="84.644530"><ele>3521.8</ele><time>2025-10-25T10:05:58Z</time></trkpt>
    <trkpt lat="28.584758" lon="84.644266"><ele>3526.0</ele><time>2025-10-25T10:06:26Z</time></trkpt>
    <trkpt lat="28.584930" lon="84.644145"><ele>3529.4</ele><time>2025-10-25T10:06:49Z</time></trkpt>
    <trkpt lat="28.584935" lon="84.644141"><ele>3529.4</ele><time>2025-10-25T10:06:50Z</time></trkpt>
    <trkpt lat="28.585087" lon="84.643740"><ele>3531.4</ele><time>2025-10-25T10:08:23Z</time></trkpt>
    <trkpt lat="28.585242" lon="84.643479"><ele>3531.8</ele><time>2025-10-25T10:08:50Z</time></trkpt>
    <trkpt lat="28.585651" lon="84.642923"><ele>3535.6</ele><time>2025-10-25T10:09:49Z</time></trkpt>
    <trkpt lat="28.585657" lon="84.642915"><ele>3535.6</ele><time>2025-10-25T10:09:50Z</time></trkpt>
    <trkpt lat="28.585823" lon="84.642626"><ele>3535.6</ele><time>2025-10-25T10:10:20Z</time></trkpt>
    <trkpt lat="28.585780" lon="84.642649"><ele>3535.8</ele><time>2025-10-25T10:10:47Z</time></trkpt>
    <trkpt lat="28.585822" lon="84.642699"><ele>3535.8</ele><time>2025-10-25T10:11:16Z</time></trkpt>
    <trkpt lat="28.585863" lon="84.642681"><ele>3535.8</ele><time>2025-10-25T10:12:10Z</time></trkpt>
    <trkpt lat="28.585843" lon="84.642645"><ele>3535.8</ele><time>2025-10-25T10:12:28Z</time></trkpt>
    <trkpt lat="28.585888" lon="84.642457"><ele>3536.0</ele><time>2025-10-25T10:12:44Z</time></trkpt>
    <trkpt lat="28.586172" lon="84.642275"><ele>3536.8</ele><time>2025-10-25T10:13:25Z</time></trkpt>
    </trkseg>
  </trk>
</gpx>
