<?xml version="1.0" encoding="UTF-8"?>
<gpx version="1.1" creator="tripplanner (simplified from Strava export)" xmlns="http://www.topografix.com/GPX/1/1">
  <metadata>
    <name>Manaslu — Samagaon → Samdo</name>
    <time>2025-10-27T03:22:05Z</time>
  </metadata>
  <trk>
    <name>Manaslu — Samagaon → Samdo</name>
    <trkseg>
    <trkpt lat="28.586010" lon="84.642288"><ele>3524.8</ele><time>2025-10-27T03:22:05Z</time></trkpt>
    <trkpt lat="28.585890" lon="84.642243"><ele>3525.0</ele><time>2025-10-27T03:22:19Z</time></trkpt>
    <trkpt lat="28.586097" lon="84.642226"><ele>3525.0</ele><time>2025-10-27T03:22:22Z</time></trkpt>
    <trkpt lat="28.585987" lon="84.642170"><ele>3525.2</ele><time>2025-10-27T03:22:24Z</time></trkpt>
    <trkpt lat="28.585981" lon="84.642223"><ele>3525.2</ele><time>2025-10-27T03:22:34Z</time></trkpt>
    <trkpt lat="28.586067" lon="84.642293"><ele>3526.0</ele><time>2025-10-27T03:22:47Z</time></trkpt>
    <trkpt lat="28.586457" lon="84.641891"><ele>3527.2</ele><time>2025-10-27T03:23:46Z</time></trkpt>
    <trkpt lat="28.586975" lon="84.641557"><ele>3528.4</ele><time>2025-10-27T03:24:43Z</time></trkpt>
    <trkpt lat="28.587243" lon="84.641455"><ele>3528.8</ele><time>2025-10-27T03:25:09Z</time></trkpt>
    <trkpt lat="28.587304" lon="84.641557"><ele>3529.2</ele><time>2025-10-27T03:25:56Z</time></trkpt>
    <trkpt lat="28.587319" lon="84.641374"><ele>3529.8</ele><time>2025-10-27T03:28:49Z</time></trkpt>
    <trkpt lat="28.587319" lon="84.641374"><ele>3529.8</ele><time>2025-10-27T03:29:17Z</time></trkpt>
    <trkpt lat="28.587759" lon="84.641300"><ele>3531.8</ele><time>2025-10-27T03:29:57Z</time></trkpt>
    <trkpt lat="28.588199" lon="84.641074"><ele>3534.2</ele><time>2025-10-27T03:30:36Z</time></trkpt>
    <trkpt lat="28.589143" lon="84.641260"><ele>3535.4</ele><time>2025-10-27T03:31:50Z</time></trkpt>
    <trkpt lat="28.589551" lon="84.641301"><ele>3537.2</ele><time>2025-10-27T03:32:23Z</time></trkpt>
    <trkpt lat="28.590169" lon="84.641101"><ele>3539.4</ele><time>2025-10-27T03:33:16Z</time></trkpt>
    <trkpt lat="28.590293" lon="84.641182"><ele>3540.6</ele><time>2025-10-27T03:33:31Z</time></trkpt>
    <trkpt lat="28.590508" lon="84.641247"><ele>3541.0</ele><time>2025-10-27T03:33:51Z</time></trkpt>
    <trkpt lat="28.590683" lon="84.641401"><ele>3542.6</ele><time>2025-10-27T03:34:16Z</time></trkpt>
    <trkpt lat="28.590875" lon="84.641418"><ele>3544.4</ele><time>2025-10-27T03:34:35Z</time></trkpt>
    <trkpt lat="28.591096" lon="84.641317"><ele>3544.8</ele><time>2025-10-27T03:34:56Z</time></trkpt>
    <trkpt lat="28.591363" lon="84.641402"><ele>3545.4</ele><time>2025-10-27T03:35:21Z</time></trkpt>
    <trkpt lat="28.591496" lon="84.641325"><ele>3546.4</ele><time>2025-10-27T03:35:36Z</time></trkpt>
    <trkpt lat="28.591651" lon="84.641413"><ele>3548.2</ele><time>2025-10-27T03:35:54Z</time></trkpt>
    <trkpt lat="28.591853" lon="84.641504"><ele>3548.2</ele><time>2025-10-27T03:36:13Z</time></trkpt>
    <trkpt lat="28.592082" lon="84.641565"><ele>3548.2</ele><time>2025-10-27T03:36:33Z</time></trkpt>
    <trkpt lat="28.592233" lon="84.641544"><ele>3547.8</ele><time>2025-10-27T03:36:45Z</time></trkpt>
    <trkpt lat="28.592415" lon="84.641587"><ele>3547.8</ele><time>2025-10-27T03:36:59Z</time></trkpt>
    <trkpt lat="28.592517" lon="84.641662"><ele>3547.6</ele><time>2025-10-27T03:37:08Z</time></trkpt>
    <trkpt lat="28.592663" lon="84.641606"><ele>3547.6</ele><time>2025-10-27T03:37:21Z</time></trkpt>
    <trkpt lat="28.592740" lon="84.641626"><ele>3547.6</ele><time>2025-10-27T03:37:27Z</time></trkpt>
    <trkpt lat="28.592917" lon="84.641586"><ele>3547.6</ele><time>2025-10-27T03:37:41Z</time></trkpt>
    <trkpt lat="28.592995" lon="84.641553"><ele>3547.6</ele><time>2025-10-27T03:37:55Z</time></trkpt>
    <trkpt lat="28.593179" lon="84.641459"><ele>3549.0</ele><time>2025-10-27T03:38:13Z</time></trkpt>
    <trkpt lat="28.593550" lon="84.641467"><ele>3551.4</ele><time>2025-10-27T03:38:49Z</time></trkpt>
    <trkpt lat="28.593832" lon="84.641198"><ele>3554.8</ele><time>2025-10-27T03:39:24Z</time></trkpt>
    <trkpt lat="28.594137" lon="84.641232"><ele>3557.2</ele><time>2025-10-27T03:39:54Z</time></trkpt>
    <trkpt lat="28.594360" lon="84.641264"><ele>3557.8</ele><time>2025-10-27T03:42:13Z</time></trkpt>
    <trkpt lat="28.594578" lon="84.641171"><ele>3558.0</ele><time>2025-10-27T03:42:34Z</time></trkpt>
    <trkpt lat="28.594714" lon="84.641009"><ele>3559.2</ele><time>2025-10-27T03:42:56Z</time></trkpt>
    <trkpt lat="28.594886" lon="84.640909"><ele>3559.6</ele><time>2025-10-27T03:43:15Z</time></trkpt>
    <trkpt lat="28.595041" lon="84.640892"><ele>3560.0</ele><time>2025-10-27T03:43:33Z</time></trkpt>
    <trkpt lat="28.595129" lon="84.640836"><ele>3560.2</ele><time>2025-10-27T03:43:44Z</time></trkpt>
    <trkpt lat="28.595263" lon="84.640844"><ele>3560.4</ele><time>2025-10-27T03:43:57Z</time></trkpt>
    <trkpt lat="28.595735" lon="84.640781"><ele>3563.4</ele><time>2025-10-27T03:44:43Z</time></trkpt>
    <trkpt lat="28.596174" lon="84.640622"><ele>3565.8</ele><time>2025-10-27T03:45:37Z</time></trkpt>
    <trkpt lat="28.596398" lon="84.640617"><ele>3567.6</ele><time>2025-10-27T03:46:01Z</time></trkpt>
    <trkpt lat="28.596713" lon="84.640311"><ele>3573.6</ele><time>2025-10-27T03:46:57Z</time></trkpt>
    <trkpt lat="28.596780" lon="84.640265"><ele>3575.4</ele><time>2025-10-27T03:47:09Z</time></trkpt>
    <trkpt lat="28.596862" lon="84.640240"><ele>3575.4</ele><time>2025-10-27T03:47:19Z</time></trkpt>
    <trkpt lat="28.597010" lon="84.640255"><ele>3575.4</ele><time>2025-10-27T03:47:37Z</time></trkpt>
    <trkpt lat="28.597141" lon="84.640355"><ele>3575.8</ele><time>2025-10-27T03:47:57Z</time></trkpt>
    <trkpt lat="28.597261" lon="84.640382"><ele>3575.8</ele><time>2025-10-27T03:48:16Z</time></trkpt>
    <trkpt lat="28.597395" lon="84.640626"><ele>3577.4</ele><time>2025-10-27T03:48:59Z</time></trkpt>
    <trkpt lat="28.597407" lon="84.640615"><ele>3577.6</ele><time>2025-10-27T03:49:02Z</time></trkpt>
    <trkpt lat="28.597425" lon="84.640590"><ele>3578.4</ele><time>2025-10-27T03:49:06Z</time></trkpt>
    <trkpt lat="28.597507" lon="84.640632"><ele>3580.4</ele><time>2025-10-27T03:49:19Z</time></trkpt>
    <trkpt lat="28.597606" lon="84.640572"><ele>3581.6</ele><time>2025-10-27T03:49:33Z</time></trkpt>
    <trkpt lat="28.597897" lon="84.640531"><ele>3586.4</ele><time>2025-10-27T03:50:16Z</time></trkpt>
    <trkpt lat="28.598067" lon="84.640516"><ele>3586.4</ele><time>2025-10-27T03:50:37Z</time></trkpt>
    <trkpt lat="28.598313" lon="84.640399"><ele>3586.4</ele><time>2025-10-27T03:51:13Z</time></trkpt>
    <trkpt lat="28.598669" lon="84.640213"><ele>3591.2</ele><time>2025-10-27T03:52:19Z</time></trkpt>
    <trkpt lat="28.598729" lon="84.640235"><ele>3591.6</ele><time>2025-10-27T03:52:26Z</time></trkpt>
    <trkpt lat="28.598789" lon="84.640253"><ele>3592.0</ele><time>2025-10-27T03:54:09Z</time></trkpt>
    <trkpt lat="28.599440" lon="84.640533"><ele>3589.2</ele><time>2025-10-27T03:55:33Z</time></trkpt>
    <trkpt lat="28.599914" lon="84.640682"><ele>3589.0</ele><time>2025-10-27T03:56:15Z</time></trkpt>
    <trkpt lat="28.600304" lon="84.640717"><ele>3587.6</ele><time>2025-10-27T03:56:49Z</time></trkpt>
    <trkpt lat="28.600362" lon="84.640677"><ele>3586.6</ele><time>2025-10-27T03:56:56Z</time></trkpt>
    <trkpt lat="28.600440" lon="84.640658"><ele>3586.6</ele><time>2025-10-27T03:57:03Z</time></trkpt>
    <trkpt lat="28.600641" lon="84.640646"><ele>3586.6</ele><time>2025-10-27T03:57:25Z</time></trkpt>
    <trkpt lat="28.600973" lon="84.640680"><ele>3587.2</ele><time>2025-10-27T03:57:56Z</time></trkpt>
    <trkpt lat="28.601135" lon="84.640656"><ele>3587.4</ele><time>2025-10-27T03:58:11Z</time></trkpt>
    <trkpt lat="28.601285" lon="84.640705"><ele>3587.6</ele><time>2025-10-27T03:58:26Z</time></trkpt>
    <trkpt lat="28.601650" lon="84.640688"><ele>3588.4</ele><time>2025-10-27T03:58:57Z</time></trkpt>
    <trkpt lat="28.601791" lon="84.640625"><ele>3588.8</ele><time>2025-10-27T03:59:11Z</time></trkpt>
    <trkpt lat="28.601950" lon="84.640761"><ele>3588.8</ele><time>2025-10-27T03:59:29Z</time></trkpt>
    <trkpt lat="28.602201" lon="84.640856"><ele>3588.8</ele><time>2025-10-27T03:59:53Z</time></trkpt>
    <trkpt lat="28.602278" lon="84.640844"><ele>3589.2</ele><time>2025-10-27T04:00:00Z</time></trkpt>
    <trkpt lat="28.602449" lon="84.640697"><ele>3589.2</ele><time>2025-10-27T04:00:18Z</time></trkpt>
    <trkpt lat="28.602541" lon="84.640665"><ele>3589.2</ele><time>2025-10-27T04:00:26Z</time></trkpt>
    <trkpt lat="28.602640" lon="84.640656"><ele>3589.2</ele><time>2025-10-27T04:00:34Z</time></trkpt>
    <trkpt lat="28.602767" lon="84.640663"><ele>3589.8</ele><time>2025-10-27T04:00:45Z</time></trkpt>
    <trkpt lat="28.603043" lon="84.640544"><ele>3591.4</ele><time>2025-10-27T04:01:11Z</time></trkpt>
    <trkpt lat="28.603677" lon="84.640475"><ele>3593.0</ele><time>2025-10-27T04:02:05Z</time></trkpt>
    <trkpt lat="28.604134" lon="84.640362"><ele>3593.2</ele><time>2025-10-27T04:02:45Z</time></trkpt>
    <trkpt lat="28.604219" lon="84.640325"><ele>3593.4</ele><time>2025-10-27T04:02:54Z</time></trkpt>
    <trkpt lat="28.604331" lon="84.640249"><ele>3595.2</ele><time>2025-10-27T04:03:09Z</time></trkpt>
    <trkpt lat="28.604477" lon="84.639975"><ele>3599.4</ele><time>2025-10-27T04:03:43Z</time></trkpt>
    <trkpt lat="28.604671" lon="84.639773"><ele>3600.6</ele><time>2025-10-27T04:04:08Z</time></trkpt>
    <trkpt lat="28.604798" lon="84.639691"><ele>3601.0</ele><time>2025-10-27T04:04:21Z</time></trkpt>
    <trkpt lat="28.604868" lon="84.639687"><ele>3601.2</ele><time>2025-10-27T04:04:27Z</time></trkpt>
    <trkpt lat="28.604922" lon="84.639670"><ele>3601.2</ele><time>2025-10-27T04:04:32Z</time></trkpt>
    <trkpt lat="28.605241" lon="84.639443"><ele>3601.8</ele><time>2025-10-27T04:05:05Z</time></trkpt>
    <trkpt lat="28.605558" lon="84.639410"><ele>3602.8</ele><time>2025-10-27T04:05:31Z</time></trkpt>
    <trkpt lat="28.606684" lon="84.638998"><ele>3604.4</ele><time>2025-10-27T04:07:20Z</time></trkpt>
    <trkpt lat="28.608177" lon="84.638704"><ele>3606.6</ele><time>2025-10-27T04:09:28Z</time></trkpt>
    <trkpt lat="28.608552" lon="84.638706"><ele>3606.6</ele><time>2025-10-27T04:10:01Z</time></trkpt>
    <trkpt lat="28.608826" lon="84.638655"><ele>3606.6</ele><time>2025-10-27T04:10:25Z</time></trkpt>
    <trkpt lat="28.609213" lon="84.638733"><ele>3605.2</ele><time>2025-10-27T04:10:57Z</time></trkpt>
    <trkpt lat="28.609518" lon="84.638724"><ele>3605.2</ele><time>2025-10-27T04:11:25Z</time></trkpt>
    <trkpt lat="28.609760" lon="84.638683"><ele>3605.4</ele><time>2025-10-27T04:11:48Z</time></trkpt>
    <trkpt lat="28.609854" lon="84.638693"><ele>3606.0</ele><time>2025-10-27T04:11:56Z</time></trkpt>
    <trkpt lat="28.610094" lon="84.638619"><ele>3606.8</ele><time>2025-10-27T04:12:18Z</time></trkpt>
    <trkpt lat="28.610468" lon="84.638629"><ele>3608.0</ele><time>2025-10-27T04:12:53Z</time></trkpt>
    <trkpt lat="28.610596" lon="84.638563"><ele>3608.4</ele><time>2025-10-27T04:13:07Z</time></trkpt>
    <trkpt lat="28.610852" lon="84.638572"><ele>3609.0</ele><time>2025-10-27T04:13:29Z</time></trkpt>
    <trkpt lat="28.611583" lon="84.638418"><ele>3610.0</ele><time>2025-10-27T04:14:36Z</time></trkpt>
    <trkpt lat="28.611908" lon="84.638444"><ele>3611.0</ele><time>2025-10-27T04:15:03Z</time></trkpt>
    <trkpt lat="28.612275" lon="84.638539"><ele>3611.6</ele><time>2025-10-27T04:15:36Z</time></trkpt>
    <trkpt lat="28.612611" lon="84.638510"><ele>3612.8</ele><time>2025-10-27T04:16:07Z</time></trkpt>
    <trkpt lat="28.612882" lon="84.638629"><ele>3613.2</ele><time>2025-10-27T04:16:32Z</time></trkpt>
    <trkpt lat="28.613086" lon="84.638606"><ele>3613.4</ele><time>2025-10-27T04:16:50Z</time></trkpt>
    <trkpt lat="28.613289" lon="84.638743"><ele>3614.4</ele><time>2025-10-27T04:17:11Z</time></trkpt>
    <trkpt lat="28.614087" lon="84.638851"><ele>3617.0</ele><time>2025-10-27T04:18:27Z</time></trkpt>
    <trkpt lat="28.614327" lon="84.638928"><ele>3617.6</ele><time>2025-10-27T04:18:49Z</time></trkpt>
    <trkpt lat="28.614570" lon="84.638889"><ele>3618.4</ele><time>2025-10-27T04:19:12Z</time></trkpt>
    <trkpt lat="28.614961" lon="84.638933"><ele>3620.2</ele><time>2025-10-27T04:19:49Z</time></trkpt>
    <trkpt lat="28.615144" lon="84.638877"><ele>3620.6</ele><time>2025-10-27T04:20:07Z</time></trkpt>
    <trkpt lat="28.615408" lon="84.638904"><ele>3622.8</ele><time>2025-10-27T04:20:34Z</time></trkpt>
    <trkpt lat="28.615656" lon="84.638841"><ele>3623.6</ele><time>2025-10-27T04:20:58Z</time></trkpt>
    <trkpt lat="28.615813" lon="84.638764"><ele>3624.4</ele><time>2025-10-27T04:21:14Z</time></trkpt>
    <trkpt lat="28.615935" lon="84.638679"><ele>3624.8</ele><time>2025-10-27T04:21:45Z</time></trkpt>
    <trkpt lat="28.615957" lon="84.638717"><ele>3625.0</ele><time>2025-10-27T04:28:11Z</time></trkpt>
    <trkpt lat="28.616132" lon="84.638680"><ele>3625.2</ele><time>2025-10-27T04:28:28Z</time></trkpt>
    <trkpt lat="28.616287" lon="84.638704"><ele>3625.2</ele><time>2025-10-27T04:28:42Z</time></trkpt>
    <trkpt lat="28.616506" lon="84.638628"><ele>3625.4</ele><time>2025-10-27T04:29:05Z</time></trkpt>
    <trkpt lat="28.616944" lon="84.638624"><ele>3626.2</ele><time>2025-10-27T04:29:47Z</time></trkpt>
    <trkpt lat="28.617420" lon="84.638815"><ele>3627.8</ele><time>2025-10-27T04:30:38Z</time></trkpt>
    <trkpt lat="28.617537" lon="84.638932"><ele>3628.2</ele><time>2025-10-27T04:30:54Z</time></trkpt>
    <trkpt lat="28.617963" lon="84.639173"><ele>3629.0</ele><time>2025-10-27T04:31:38Z</time></trkpt>
    <trkpt lat="28.618183" lon="84.639400"><ele>3629.2</ele><time>2025-10-27T04:32:06Z</time></trkpt>
    <trkpt lat="28.618282" lon="84.639471"><ele>3629.4</ele><time>2025-10-27T04:32:18Z</time></trkpt>
    <trkpt lat="28.618674" lon="84.639729"><ele>3636.4</ele><time>2025-10-27T04:33:17Z</time></trkpt>
    <trkpt lat="28.618712" lon="84.639743"><ele>3636.8</ele><time>2025-10-27T04:33:23Z</time></trkpt>
    <trkpt lat="28.618925" lon="84.639759"><ele>3637.2</ele><time>2025-10-27T04:33:47Z</time></trkpt>
    <trkpt lat="28.619090" lon="84.639849"><ele>3637.2</ele><time>2025-10-27T04:34:08Z</time></trkpt>
    <trkpt lat="28.619604" lon="84.639760"><ele>3636.6</ele><time>2025-10-27T04:35:17Z</time></trkpt>
    <trkpt lat="28.619765" lon="84.639706"><ele>3636.8</ele><time>2025-10-27T04:35:32Z</time></trkpt>
    <trkpt lat="28.619897" lon="84.639639"><ele>3638.2</ele><time>2025-10-27T04:35:48Z</time></trkpt>
    <trkpt lat="28.620039" lon="84.639658"><ele>3641.4</ele><time>2025-10-27T04:36:09Z</time></trkpt>
    <trkpt lat="28.620144" lon="84.639581"><ele>3643.6</ele><time>2025-10-27T04:36:27Z</time></trkpt>
    <trkpt lat="28.620292" lon="84.639580"><ele>3645.6</ele><time>2025-10-27T04:36:48Z</time></trkpt>
    <trkpt lat="28.620391" lon="84.639512"><ele>3647.4</ele><time>2025-10-27T04:37:05Z</time></trkpt>
    <trkpt lat="28.620516" lon="84.639313"><ele>3651.2</ele><time>2025-10-27T04:37:39Z</time></trkpt>
    <trkpt lat="28.620573" lon="84.639253"><ele>3652.6</ele><time>2025-10-27T04:37:50Z</time></trkpt>
    <trkpt lat="28.620637" lon="84.639200"><ele>3653.2</ele><time>2025-10-27T04:38:00Z</time></trkpt>
    <trkpt lat="28.621296" lon="84.639313"><ele>3654.0</ele><time>2025-10-27T04:39:10Z</time></trkpt>
    <trkpt lat="28.621738" lon="84.639277"><ele>3653.6</ele><time>2025-10-27T04:39:54Z</time></trkpt>
    <trkpt lat="28.622303" lon="84.639333"><ele>3656.2</ele><time>2025-10-27T04:40:57Z</time></trkpt>
    <trkpt lat="28.622310" lon="84.639325"><ele>3656.4</ele><time>2025-10-27T04:40:59Z</time></trkpt>
    <trkpt lat="28.622674" lon="84.639230"><ele>3663.8</ele><time>2025-10-27T04:41:55Z</time></trkpt>
    <trkpt lat="28.622971" lon="84.639335"><ele>3668.0</ele><time>2025-10-27T04:42:40Z</time></trkpt>
    <trkpt lat="28.623263" lon="84.639361"><ele>3673.6</ele><time>2025-10-27T04:43:25Z</time></trkpt>
    <trkpt lat="28.623582" lon="84.639282"><ele>3678.0</ele><time>2025-10-27T04:44:12Z</time></trkpt>
    <trkpt lat="28.623601" lon="84.639206"><ele>3678.8</ele><time>2025-10-27T04:44:26Z</time></trkpt>
    <trkpt lat="28.623607" lon="84.639208"><ele>3679.2</ele><time>2025-10-27T04:44:29Z</time></trkpt>
    <trkpt lat="28.623708" lon="84.639138"><ele>3679.4</ele><time>2025-10-27T04:49:28Z</time></trkpt>
    <trkpt lat="28.624030" lon="84.639022"><ele>3680.0</ele><time>2025-10-27T04:50:01Z</time></trkpt>
    <trkpt lat="28.624270" lon="84.638856"><ele>3680.6</ele><time>2025-10-27T04:50:25Z</time></trkpt>
    <trkpt lat="28.624828" lon="84.638734"><ele>3682.8</ele><time>2025-10-27T04:51:23Z</time></trkpt>
    <trkpt lat="28.624955" lon="84.638670"><ele>3683.0</ele><time>2025-10-27T04:51:37Z</time></trkpt>
    <trkpt lat="28.625232" lon="84.638413"><ele>3683.4</ele><time>2025-10-27T04:52:10Z</time></trkpt>
    <trkpt lat="28.625530" lon="84.638492"><ele>3684.2</ele><time>2025-10-27T04:52:38Z</time></trkpt>
    <trkpt lat="28.625679" lon="84.638587"><ele>3684.6</ele><time>2025-10-27T04:52:55Z</time></trkpt>
    <trkpt lat="28.625754" lon="84.638597"><ele>3685.0</ele><time>2025-10-27T04:53:02Z</time></trkpt>
    <trkpt lat="28.625868" lon="84.638574"><ele>3686.6</ele><time>2025-10-27T04:53:15Z</time></trkpt>
    <trkpt lat="28.626142" lon="84.638647"><ele>3690.6</ele><time>2025-10-27T04:53:49Z</time></trkpt>
    <trkpt lat="28.626291" lon="84.638585"><ele>3690.6</ele><time>2025-10-27T04:54:06Z</time></trkpt>
    <trkpt lat="28.626361" lon="84.638519"><ele>3690.6</ele><time>2025-10-27T04:54:14Z</time></trkpt>
    <trkpt lat="28.626406" lon="84.638400"><ele>3689.8</ele><time>2025-10-27T04:54:31Z</time></trkpt>
    <trkpt lat="28.626519" lon="84.638541"><ele>3688.6</ele><time>2025-10-27T04:54:47Z</time></trkpt>
    <trkpt lat="28.626674" lon="84.638622"><ele>3688.0</ele><time>2025-10-27T04:55:05Z</time></trkpt>
    <trkpt lat="28.627184" lon="84.638433"><ele>3687.8</ele><time>2025-10-27T04:55:59Z</time></trkpt>
    <trkpt lat="28.627274" lon="84.638459"><ele>3687.8</ele><time>2025-10-27T04:56:10Z</time></trkpt>
    <trkpt lat="28.627802" lon="84.638346"><ele>3688.4</ele><time>2025-10-27T04:57:02Z</time></trkpt>
    <trkpt lat="28.628131" lon="84.638372"><ele>3688.8</ele><time>2025-10-27T04:57:32Z</time></trkpt>
    <trkpt lat="28.628339" lon="84.638296"><ele>3688.6</ele><time>2025-10-27T04:57:53Z</time></trkpt>
    <trkpt lat="28.628587" lon="84.638325"><ele>3688.6</ele><time>2025-10-27T04:58:16Z</time></trkpt>
    <trkpt lat="28.628664" lon="84.638324"><ele>3688.8</ele><time>2025-10-27T04:58:22Z</time></trkpt>
    <trkpt lat="28.628788" lon="84.638267"><ele>3689.0</ele><time>2025-10-27T04:58:35Z</time></trkpt>
    <trkpt lat="28.629284" lon="84.638303"><ele>3690.6</ele><time>2025-10-27T04:59:21Z</time></trkpt>
    <trkpt lat="28.629489" lon="84.638210"><ele>3693.4</ele><time>2025-10-27T04:59:47Z</time></trkpt>
    <trkpt lat="28.629636" lon="84.638086"><ele>3694.2</ele><time>2025-10-27T05:00:04Z</time></trkpt>
    <trkpt lat="28.629785" lon="84.638033"><ele>3695.4</ele><time>2025-10-27T05:00:20Z</time></trkpt>
    <trkpt lat="28.630278" lon="84.637895"><ele>3695.4</ele><time>2025-10-27T05:01:10Z</time></trkpt>
    <trkpt lat="28.630438" lon="84.637753"><ele>3694.4</ele><time>2025-10-27T05:01:32Z</time></trkpt>
    <trkpt lat="28.630612" lon="84.637748"><ele>3694.2</ele><time>2025-10-27T05:01:46Z</time></trkpt>
    <trkpt lat="28.630762" lon="84.637546"><ele>3694.2</ele><time>2025-10-27T05:02:09Z</time></trkpt>
    <trkpt lat="28.630987" lon="84.637389"><ele>3694.0</ele><time>2025-10-27T05:02:33Z</time></trkpt>
    <trkpt lat="28.631743" lon="84.637183"><ele>3694.0</ele><time>2025-10-27T05:03:45Z</time></trkpt>
    <trkpt lat="28.632066" lon="84.636980"><ele>3695.0</ele><time>2025-10-27T05:04:21Z</time></trkpt>
    <trkpt lat="28.632176" lon="84.636830"><ele>3697.0</ele><time>2025-10-27T05:04:42Z</time></trkpt>
    <trkpt lat="28.632286" lon="84.636753"><ele>3698.2</ele><time>2025-10-27T05:04:56Z</time></trkpt>
    <trkpt lat="28.632463" lon="84.636677"><ele>3700.4</ele><time>2025-10-27T05:05:15Z</time></trkpt>
    <trkpt lat="28.632676" lon="84.636673"><ele>3703.4</ele><time>2025-10-27T05:05:40Z</time></trkpt>
    <trkpt lat="28.632725" lon="84.636610"><ele>3704.2</ele><time>2025-10-27T05:05:51Z</time></trkpt>
    <trkpt lat="28.632924" lon="84.636509"><ele>3708.0</ele><time>2025-10-27T05:06:22Z</time></trkpt>
    <trkpt lat="28.633091" lon="84.636568"><ele>3710.0</ele><time>2025-10-27T05:06:48Z</time></trkpt>
    <trkpt lat="28.633126" lon="84.636500"><ele>3711.0</ele><time>2025-10-27T05:07:03Z</time></trkpt>
    <trkpt lat="28.633234" lon="84.636541"><ele>3712.4</ele><time>2025-10-27T05:07:17Z</time></trkpt>
    <trkpt lat="28.633323" lon="84.636482"><ele>3713.8</ele><time>2025-10-27T05:07:29Z</time></trkpt>
    <trkpt lat="28.633453" lon="84.636523"><ele>3714.6</ele><time>2025-10-27T05:07:48Z</time></trkpt>
    <trkpt lat="28.633560" lon="84.636529"><ele>3717.6</ele><time>2025-10-27T05:08:04Z</time></trkpt>
    <trkpt lat="28.634002" lon="84.636489"><ele>3722.0</ele><time>2025-10-27T05:09:03Z</time></trkpt>
    <trkpt lat="28.634151" lon="84.636527"><ele>3722.8</ele><time>2025-10-27T05:09:20Z</time></trkpt>
    <trkpt lat="28.634362" lon="84.636413"><ele>3728.8</ele><time>2025-10-27T05:09:56Z</time></trkpt>
    <trkpt lat="28.634518" lon="84.636431"><ele>3731.0</ele><time>2025-10-27T05:10:23Z</time></trkpt>
    <trkpt lat="28.634765" lon="84.636361"><ele>3731.2</ele><time>2025-10-27T05:10:56Z</time></trkpt>
    <trkpt lat="28.634795" lon="84.636319"><ele>3731.2</ele><time>2025-10-27T05:11:03Z</time></trkpt>
    <trkpt lat="28.635007" lon="84.636348"><ele>3731.0</ele><time>2025-10-27T05:11:23Z</time></trkpt>
    <trkpt lat="28.635080" lon="84.636281"><ele>3731.2</ele><time>2025-10-27T05:11:37Z</time></trkpt>
    <trkpt lat="28.635191" lon="84.636280"><ele>3731.2</ele><time>2025-10-27T05:11:51Z</time></trkpt>
    <trkpt lat="28.635351" lon="84.636222"><ele>3732.8</ele><time>2025-10-27T05:12:17Z</time></trkpt>
    <trkpt lat="28.635459" lon="84.636235"><ele>3735.0</ele><time>2025-10-27T05:12:35Z</time></trkpt>
    <trkpt lat="28.635635" lon="84.636042"><ele>3735.8</ele><time>2025-10-27T05:13:09Z</time></trkpt>
    <trkpt lat="28.635735" lon="84.636005"><ele>3736.4</ele><time>2025-10-27T05:13:20Z</time></trkpt>
    <trkpt lat="28.635838" lon="84.635967"><ele>3736.0</ele><time>2025-10-27T05:13:39Z</time></trkpt>
    <trkpt lat="28.635887" lon="84.635995"><ele>3736.0</ele><time>2025-10-27T05:13:50Z</time></trkpt>
    <trkpt lat="28.636016" lon="84.635970"><ele>3736.0</ele><time>2025-10-27T05:14:04Z</time></trkpt>
    <trkpt lat="28.636509" lon="84.635718"><ele>3731.4</ele><time>2025-10-27T05:14:53Z</time></trkpt>
    <trkpt lat="28.636766" lon="84.635700"><ele>3731.0</ele><time>2025-10-27T05:15:18Z</time></trkpt>
    <trkpt lat="28.636876" lon="84.635628"><ele>3731.0</ele><time>2025-10-27T05:15:32Z</time></trkpt>
    <trkpt lat="28.637074" lon="84.635652"><ele>3731.0</ele><time>2025-10-27T05:15:52Z</time></trkpt>
    <trkpt lat="28.637133" lon="84.635624"><ele>3731.0</ele><time>2025-10-27T05:16:00Z</time></trkpt>
    <trkpt lat="28.637659" lon="84.635539"><ele>3734.0</ele><time>2025-10-27T05:16:55Z</time></trkpt>
    <trkpt lat="28.637908" lon="84.635425"><ele>3736.4</ele><time>2025-10-27T05:17:25Z</time></trkpt>
    <trkpt lat="28.638125" lon="84.635394"><ele>3738.6</ele><time>2025-10-27T05:17:53Z</time></trkpt>
    <trkpt lat="28.638436" lon="84.635193"><ele>3742.8</ele><time>2025-10-27T05:18:39Z</time></trkpt>
    <trkpt lat="28.638526" lon="84.635171"><ele>3743.8</ele><time>2025-10-27T05:18:52Z</time></trkpt>
    <trkpt lat="28.638626" lon="84.635121"><ele>3744.8</ele><time>2025-10-27T05:19:06Z</time></trkpt>
    <trkpt lat="28.638817" lon="84.634955"><ele>3747.2</ele><time>2025-10-27T05:19:54Z</time></trkpt>
    <trkpt lat="28.638867" lon="84.634950"><ele>3748.4</ele><time>2025-10-27T05:20:23Z</time></trkpt>
    <trkpt lat="28.638885" lon="84.634904"><ele>3749.2</ele><time>2025-10-27T05:20:57Z</time></trkpt>
    <trkpt lat="28.638911" lon="84.634868"><ele>3750.4</ele><time>2025-10-27T05:26:21Z</time></trkpt>
    <trkpt lat="28.639141" lon="84.634675"><ele>3753.2</ele><time>2025-10-27T05:26:52Z</time></trkpt>
    <trkpt lat="28.639450" lon="84.634537"><ele>3757.0</ele><time>2025-10-27T05:27:34Z</time></trkpt>
    <trkpt lat="28.639520" lon="84.634429"><ele>3758.4</ele><time>2025-10-27T05:27:50Z</time></trkpt>
    <trkpt lat="28.639568" lon="84.634414"><ele>3759.2</ele><time>2025-10-27T05:27:57Z</time></trkpt>
    <trkpt lat="28.639789" lon="84.634408"><ele>3762.0</ele><time>2025-10-27T05:28:28Z</time></trkpt>
    <trkpt lat="28.639810" lon="84.634416"><ele>3762.6</ele><time>2025-10-27T05:28:31Z</time></trkpt>
    <trkpt lat="28.640331" lon="84.634619"><ele>3763.4</ele><time>2025-10-27T05:29:29Z</time></trkpt>
    <trkpt lat="28.640468" lon="84.634580"><ele>3763.4</ele><time>2025-10-27T05:29:46Z</time></trkpt>
    <trkpt lat="28.640891" lon="84.634353"><ele>3760.6</ele><time>2025-10-27T05:30:37Z</time></trkpt>
    <trkpt lat="28.641798" lon="84.634156"><ele>3754.4</ele><time>2025-10-27T05:32:03Z</time></trkpt>
    <trkpt lat="28.642040" lon="84.633970"><ele>3753.4</ele><time>2025-10-27T05:32:37Z</time></trkpt>
    <trkpt lat="28.642120" lon="84.633972"><ele>3753.4</ele><time>2025-10-27T05:32:45Z</time></trkpt>
    <trkpt lat="28.642199" lon="84.634089"><ele>3753.4</ele><time>2025-10-27T05:33:06Z</time></trkpt>
    <trkpt lat="28.642399" lon="84.634216"><ele>3754.4</ele><time>2025-10-27T05:33:30Z</time></trkpt>
    <trkpt lat="28.642588" lon="84.634223"><ele>3755.0</ele><time>2025-10-27T05:33:58Z</time></trkpt>
    <trkpt lat="28.642660" lon="84.634291"><ele>3755.6</ele><time>2025-10-27T05:34:10Z</time></trkpt>
    <trkpt lat="28.642779" lon="84.634292"><ele>3756.0</ele><time>2025-10-27T05:34:25Z</time></trkpt>
    <trkpt lat="28.642884" lon="84.634266"><ele>3756.8</ele><time>2025-10-27T05:34:40Z</time></trkpt>
    <trkpt lat="28.643253" lon="84.634303"><ele>3760.8</ele><time>2025-10-27T05:35:33Z</time></trkpt>
    <trkpt lat="28.643352" lon="84.634229"><ele>3764.4</ele><time>2025-10-27T05:35:57Z</time></trkpt>
    <trkpt lat="28.643391" lon="84.634438"><ele>3771.0</ele><time>2025-10-27T05:36:44Z</time></trkpt>
    <trkpt lat="28.643567" lon="84.634337"><ele>3780.0</ele><time>2025-10-27T05:38:29Z</time></trkpt>
    <trkpt lat="28.643686" lon="84.634352"><ele>3785.2</ele><time>2025-10-27T05:38:56Z</time></trkpt>
    <trkpt lat="28.643657" lon="84.634309"><ele>3787.6</ele><time>2025-10-27T05:39:12Z</time></trkpt>
    <trkpt lat="28.643668" lon="84.634280"><ele>3788.8</ele><time>2025-10-27T05:39:19Z</time></trkpt>
    <trkpt lat="28.643698" lon="84.634196"><ele>3791.2</ele><time>2025-10-27T05:39:42Z</time></trkpt>
    <trkpt lat="28.643778" lon="84.634195"><ele>3794.6</ele><time>2025-10-27T05:40:10Z</time></trkpt>
    <trkpt lat="28.643845" lon="84.634109"><ele>3798.4</ele><time>2025-10-27T05:40:38Z</time></trkpt>
    <trkpt lat="28.643943" lon="84.634125"><ele>3801.6</ele><time>2025-10-27T05:41:04Z</time></trkpt>
    <trkpt lat="28.644032" lon="84.634032"><ele>3805.0</ele><time>2025-10-27T05:41:35Z</time></trkpt>
    <trkpt lat="28.644257" lon="84.633951"><ele>3810.4</ele><time>2025-10-27T05:42:24Z</time></trkpt>
    <trkpt lat="28.644349" lon="84.634002"><ele>3812.2</ele><time>2025-10-27T05:42:43Z</time></trkpt>
    <trkpt lat="28.644375" lon="84.634015"><ele>3812.4</ele><time>2025-10-27T05:42:49Z</time></trkpt>
    <trkpt lat="28.644843" lon="84.633782"><ele>3812.4</ele><time>2025-10-27T05:48:28Z</time></trkpt>
    <trkpt lat="28.645035" lon="84.633639"><ele>3812.4</ele><time>2025-10-27T05:48:53Z</time></trkpt>
    <trkpt lat="28.645216" lon="84.633577"><ele>3812.0</ele><time>2025-10-27T05:49:13Z</time></trkpt>
    <trkpt lat="28.645305" lon="84.633505"><ele>3812.0</ele><time>2025-10-27T05:49:24Z</time></trkpt>
    <trkpt lat="28.645386" lon="84.633337"><ele>3812.0</ele><time>2025-10-27T05:49:41Z</time></trkpt>
    <trkpt lat="28.645527" lon="84.633190"><ele>3812.0</ele><time>2025-10-27T05:50:01Z</time></trkpt>
    <trkpt lat="28.645644" lon="84.633071"><ele>3813.2</ele><time>2025-10-27T05:50:19Z</time></trkpt>
    <trkpt lat="28.645941" lon="84.632677"><ele>3815.6</ele><time>2025-10-27T05:51:09Z</time></trkpt>
    <trkpt lat="28.646140" lon="84.632612"><ele>3816.8</ele><time>2025-10-27T05:51:36Z</time></trkpt>
    <trkpt lat="28.646446" lon="84.632533"><ele>3823.0</ele><time>2025-10-27T05:52:36Z</time></trkpt>
    <trkpt lat="28.646894" lon="84.632512"><ele>3830.6</ele><time>2025-10-27T05:53:54Z</time></trkpt>
    <trkpt lat="28.647025" lon="84.632456"><ele>3832.6</ele><time>2025-10-27T05:54:20Z</time></trkpt>
    <trkpt lat="28.647156" lon="84.632561"><ele>3835.4</ele><time>2025-10-27T05:54:48Z</time></trkpt>
    <trkpt lat="28.647353" lon="84.632619"><ele>3840.2</ele><time>2025-10-27T05:55:29Z</time></trkpt>
    <trkpt lat="28.647413" lon="84.632628"><ele>3840.6</ele><time>2025-10-27T05:55:40Z</time></trkpt>
    <trkpt lat="28.647621" lon="84.632750"><ele>3842.2</ele><time>2025-10-27T05:56:10Z</time></trkpt>
    <trkpt lat="28.647857" lon="84.632684"><ele>3843.2</ele><time>2025-10-27T05:56:44Z</time></trkpt>
    <trkpt lat="28.648087" lon="84.632555"><ele>3844.4</ele><time>2025-10-27T05:57:16Z</time></trkpt>
    <trkpt lat="28.648264" lon="84.632549"><ele>3844.6</ele><time>2025-10-27T05:57:39Z</time></trkpt>
    <trkpt lat="28.648322" lon="84.632566"><ele>3844.8</ele><time>2025-10-27T05:57:46Z</time></trkpt>
    <trkpt lat="28.648401" lon="84.632619"><ele>3846.6</ele><time>2025-10-27T05:58:00Z</time></trkpt>
    <trkpt lat="28.648540" lon="84.632609"><ele>3849.2</ele><time>2025-10-27T05:58:25Z</time></trkpt>
    <trkpt lat="28.648586" lon="84.632661"><ele>3852.2</ele><time>2025-10-27T05:58:38Z</time></trkpt>
    <trkpt lat="28.648809" lon="84.632635"><ele>3855.6</ele><time>2025-10-27T05:59:31Z</time></trkpt>
    <trkpt lat="28.649451" lon="84.632935"><ele>3868.6</ele><time>2025-10-27T06:01:51Z</time></trkpt>
    <trkpt lat="28.649509" lon="84.633024"><ele>3868.6</ele><time>2025-10-27T06:02:04Z</time></trkpt>
    <trkpt lat="28.649581" lon="84.633056"><ele>3868.6</ele><time>2025-10-27T06:02:12Z</time></trkpt>
    <trkpt lat="28.649739" lon="84.633008"><ele>3868.2</ele><time>2025-10-27T06:02:33Z</time></trkpt>
    <trkpt lat="28.650168" lon="84.633229"><ele>3866.6</ele><time>2025-10-27T06:03:28Z</time></trkpt>
    <trkpt lat="28.650325" lon="84.633246"><ele>3866.6</ele><time>2025-10-27T06:03:50Z</time></trkpt>
    <trkpt lat="28.650523" lon="84.633224"><ele>3866.8</ele><time>2025-10-27T06:04:14Z</time></trkpt>
    <trkpt lat="28.650786" lon="84.633063"><ele>3867.2</ele><time>2025-10-27T06:04:54Z</time></trkpt>
    <trkpt lat="28.650817" lon="84.633083"><ele>3867.2</ele><time>2025-10-27T06:05:04Z</time></trkpt>
    <trkpt lat="28.650889" lon="84.633126"><ele>3865.0</ele><time>2025-10-27T06:05:16Z</time></trkpt>
    <trkpt lat="28.650930" lon="84.633002"><ele>3862.4</ele><time>2025-10-27T06:05:29Z</time></trkpt>
    <trkpt lat="28.650909" lon="84.632965"><ele>3861.6</ele><time>2025-10-27T06:05:35Z</time></trkpt>
    <trkpt lat="28.650891" lon="84.632945"><ele>3861.6</ele><time>2025-10-27T06:05:40Z</time></trkpt>
    <trkpt lat="28.650927" lon="84.632972"><ele>3861.4</ele><time>2025-10-27T06:06:02Z</time></trkpt>
    <trkpt lat="28.650882" lon="84.632982"><ele>3861.4</ele><time>2025-10-27T06:06:17Z</time></trkpt>
    <trkpt lat="28.650813" lon="84.632917"><ele>3861.6</ele><time>2025-10-27T06:06:29Z</time></trkpt>
    <trkpt lat="28.650818" lon="84.632855"><ele>3861.6</ele><time>2025-10-27T06:07:15Z</time></trkpt>
    <trkpt lat="28.651065" lon="84.632613"><ele>3861.8</ele><time>2025-10-27T06:08:02Z</time></trkpt>
    <trkpt lat="28.651213" lon="84.632563"><ele>3861.8</ele><time>2025-10-27T06:08:12Z</time></trkpt>
    <trkpt lat="28.651238" lon="84.632588"><ele>3861.8</ele><time>2025-10-27T06:08:24Z</time></trkpt>
    <trkpt lat="28.650893" lon="84.632816"><ele>3862.0</ele><time>2025-10-27T06:08:49Z</time></trkpt>
    <trkpt lat="28.650842" lon="84.632918"><ele>3862.0</ele><time>2025-10-27T06:09:03Z</time></trkpt>
    </trkseg>
  </trk>
</gpx>
