<?xml version="1.0" encoding="UTF-8"?>
<gpx version="1.1" creator="tripplanner (simplified from Strava export)" xmlns="http://www.topografix.com/GPX/1/1">
  <metadata>
    <name>Manaslu — Samdo → Lho</name>
    <time>2025-10-28T02:27:30Z</time>
  </metadata>
  <trk>
    <name>Manaslu — Samdo → Lho</name>
    <trkseg>
    <trkpt lat="28.650664" lon="84.633213"><ele>3872.4</ele><time>2025-10-28T02:27:30Z</time></trkpt>
    <trkpt lat="28.650288" lon="84.633293"><ele>3871.2</ele><time>2025-10-28T02:28:13Z</time></trkpt>
    <trkpt lat="28.650026" lon="84.633211"><ele>3871.2</ele><time>2025-10-28T02:28:50Z</time></trkpt>
    <trkpt lat="28.649743" lon="84.633049"><ele>3872.4</ele><time>2025-10-28T02:29:18Z</time></trkpt>
    <trkpt lat="28.649529" lon="84.633059"><ele>3872.4</ele><time>2025-10-28T02:29:44Z</time></trkpt>
    <trkpt lat="28.649299" lon="84.632904"><ele>3869.6</ele><time>2025-10-28T02:30:15Z</time></trkpt>
    <trkpt lat="28.649237" lon="84.632894"><ele>3868.0</ele><time>2025-10-28T02:32:01Z</time></trkpt>
    <trkpt lat="28.649236" lon="84.632922"><ele>3868.0</ele><time>2025-10-28T02:32:18Z</time></trkpt>
    <trkpt lat="28.649237" lon="84.632879"><ele>3868.0</ele><time>2025-10-28T02:34:08Z</time></trkpt>
    <trkpt lat="28.648894" lon="84.632688"><ele>3861.0</ele><time>2025-10-28T02:34:37Z</time></trkpt>
    <trkpt lat="28.648564" lon="84.632691"><ele>3854.6</ele><time>2025-10-28T02:35:11Z</time></trkpt>
    <trkpt lat="28.648532" lon="84.632636"><ele>3853.2</ele><time>2025-10-28T02:35:16Z</time></trkpt>
    <trkpt lat="28.648399" lon="84.632640"><ele>3851.0</ele><time>2025-10-28T02:35:28Z</time></trkpt>
    <trkpt lat="28.648250" lon="84.632576"><ele>3849.0</ele><time>2025-10-28T02:35:39Z</time></trkpt>
    <trkpt lat="28.648136" lon="84.632585"><ele>3848.2</ele><time>2025-10-28T02:35:48Z</time></trkpt>
    <trkpt lat="28.648040" lon="84.632607"><ele>3847.8</ele><time>2025-10-28T02:35:56Z</time></trkpt>
    <trkpt lat="28.647623" lon="84.632773"><ele>3844.4</ele><time>2025-10-28T02:36:37Z</time></trkpt>
    <trkpt lat="28.647412" lon="84.632668"><ele>3842.4</ele><time>2025-10-28T02:37:01Z</time></trkpt>
    <trkpt lat="28.647143" lon="84.632577"><ele>3836.6</ele><time>2025-10-28T02:37:30Z</time></trkpt>
    <trkpt lat="28.647002" lon="84.632481"><ele>3834.6</ele><time>2025-10-28T02:37:47Z</time></trkpt>
    <trkpt lat="28.646760" lon="84.632552"><ele>3828.8</ele><time>2025-10-28T02:38:11Z</time></trkpt>
    <trkpt lat="28.646527" lon="84.632528"><ele>3825.2</ele><time>2025-10-28T02:38:31Z</time></trkpt>
    <trkpt lat="28.646366" lon="84.632561"><ele>3821.8</ele><time>2025-10-28T02:38:47Z</time></trkpt>
    <trkpt lat="28.646031" lon="84.632691"><ele>3815.2</ele><time>2025-10-28T02:39:21Z</time></trkpt>
    <trkpt lat="28.645878" lon="84.632787"><ele>3814.4</ele><time>2025-10-28T02:39:36Z</time></trkpt>
    <trkpt lat="28.645660" lon="84.633028"><ele>3812.6</ele><time>2025-10-28T02:40:02Z</time></trkpt>
    <trkpt lat="28.645376" lon="84.633416"><ele>3810.8</ele><time>2025-10-28T02:40:42Z</time></trkpt>
    <trkpt lat="28.645319" lon="84.633506"><ele>3810.8</ele><time>2025-10-28T02:40:50Z</time></trkpt>
    <trkpt lat="28.645166" lon="84.633655"><ele>3810.8</ele><time>2025-10-28T02:41:08Z</time></trkpt>
    <trkpt lat="28.644849" lon="84.633771"><ele>3811.2</ele><time>2025-10-28T02:41:41Z</time></trkpt>
    <trkpt lat="28.644434" lon="84.634069"><ele>3810.2</ele><time>2025-10-28T02:42:41Z</time></trkpt>
    <trkpt lat="28.644307" lon="84.634100"><ele>3809.8</ele><time>2025-10-28T02:42:56Z</time></trkpt>
    <trkpt lat="28.644308" lon="84.633994"><ele>3809.8</ele><time>2025-10-28T02:43:12Z</time></trkpt>
    <trkpt lat="28.644268" lon="84.633984"><ele>3809.8</ele><time>2025-10-28T02:43:18Z</time></trkpt>
    <trkpt lat="28.644221" lon="84.633982"><ele>3809.0</ele><time>2025-10-28T02:43:25Z</time></trkpt>
    <trkpt lat="28.644107" lon="84.634031"><ele>3806.2</ele><time>2025-10-28T02:44:15Z</time></trkpt>
    <trkpt lat="28.644074" lon="84.634036"><ele>3805.2</ele><time>2025-10-28T02:44:19Z</time></trkpt>
    <trkpt lat="28.643945" lon="84.634158"><ele>3800.8</ele><time>2025-10-28T02:44:45Z</time></trkpt>
    <trkpt lat="28.643873" lon="84.634143"><ele>3797.2</ele><time>2025-10-28T02:44:57Z</time></trkpt>
    <trkpt lat="28.643833" lon="84.634150"><ele>3796.2</ele><time>2025-10-28T02:45:04Z</time></trkpt>
    <trkpt lat="28.643785" lon="84.634234"><ele>3793.0</ele><time>2025-10-28T02:45:53Z</time></trkpt>
    <trkpt lat="28.643700" lon="84.634244"><ele>3789.2</ele><time>2025-10-28T02:46:19Z</time></trkpt>
    <trkpt lat="28.643673" lon="84.634406"><ele>3782.6</ele><time>2025-10-28T02:47:09Z</time></trkpt>
    <trkpt lat="28.643547" lon="84.634387"><ele>3776.8</ele><time>2025-10-28T02:47:49Z</time></trkpt>
    <trkpt lat="28.643519" lon="84.634389"><ele>3775.6</ele><time>2025-10-28T02:47:55Z</time></trkpt>
    <trkpt lat="28.643480" lon="84.634449"><ele>3772.0</ele><time>2025-10-28T02:48:13Z</time></trkpt>
    <trkpt lat="28.643377" lon="84.634460"><ele>3768.6</ele><time>2025-10-28T02:48:34Z</time></trkpt>
    <trkpt lat="28.643356" lon="84.634279"><ele>3763.0</ele><time>2025-10-28T02:49:05Z</time></trkpt>
    <trkpt lat="28.643267" lon="84.634321"><ele>3759.6</ele><time>2025-10-28T02:49:24Z</time></trkpt>
    <trkpt lat="28.643249" lon="84.634336"><ele>3759.2</ele><time>2025-10-28T02:49:27Z</time></trkpt>
    <trkpt lat="28.642467" lon="84.634275"><ele>3750.4</ele><time>2025-10-28T02:51:01Z</time></trkpt>
    <trkpt lat="28.642330" lon="84.634198"><ele>3749.6</ele><time>2025-10-28T02:51:15Z</time></trkpt>
    <trkpt lat="28.642178" lon="84.634139"><ele>3749.2</ele><time>2025-10-28T02:51:36Z</time></trkpt>
    <trkpt lat="28.642077" lon="84.634000"><ele>3748.8</ele><time>2025-10-28T02:52:02Z</time></trkpt>
    <trkpt lat="28.642002" lon="84.634050"><ele>3748.0</ele><time>2025-10-28T02:52:30Z</time></trkpt>
    <trkpt lat="28.642003" lon="84.634099"><ele>3748.0</ele><time>2025-10-28T02:52:36Z</time></trkpt>
    <trkpt lat="28.641923" lon="84.634198"><ele>3748.0</ele><time>2025-10-28T02:52:48Z</time></trkpt>
    <trkpt lat="28.641793" lon="84.634208"><ele>3748.2</ele><time>2025-10-28T02:53:02Z</time></trkpt>
    <trkpt lat="28.641536" lon="84.634218"><ele>3751.6</ele><time>2025-10-28T02:53:44Z</time></trkpt>
    <trkpt lat="28.641094" lon="84.634341"><ele>3756.6</ele><time>2025-10-28T02:54:50Z</time></trkpt>
    <trkpt lat="28.640906" lon="84.634388"><ele>3757.0</ele><time>2025-10-28T02:55:09Z</time></trkpt>
    <trkpt lat="28.640617" lon="84.634490"><ele>3758.2</ele><time>2025-10-28T02:55:44Z</time></trkpt>
    <trkpt lat="28.640538" lon="84.634570"><ele>3758.8</ele><time>2025-10-28T02:55:57Z</time></trkpt>
    <trkpt lat="28.640371" lon="84.634644"><ele>3760.0</ele><time>2025-10-28T02:56:23Z</time></trkpt>
    <trkpt lat="28.640166" lon="84.634616"><ele>3760.6</ele><time>2025-10-28T02:56:43Z</time></trkpt>
    <trkpt lat="28.639902" lon="84.634502"><ele>3760.6</ele><time>2025-10-28T02:57:12Z</time></trkpt>
    <trkpt lat="28.639779" lon="84.634455"><ele>3760.0</ele><time>2025-10-28T02:57:25Z</time></trkpt>
    <trkpt lat="28.639562" lon="84.634454"><ele>3758.4</ele><time>2025-10-28T02:57:50Z</time></trkpt>
    <trkpt lat="28.639434" lon="84.634583"><ele>3756.2</ele><time>2025-10-28T02:58:09Z</time></trkpt>
    <trkpt lat="28.639266" lon="84.634654"><ele>3755.0</ele><time>2025-10-28T02:58:28Z</time></trkpt>
    <trkpt lat="28.639071" lon="84.634772"><ele>3751.6</ele><time>2025-10-28T02:58:52Z</time></trkpt>
    <trkpt lat="28.638628" lon="84.635161"><ele>3745.8</ele><time>2025-10-28T02:59:44Z</time></trkpt>
    <trkpt lat="28.638175" lon="84.635441"><ele>3740.8</ele><time>2025-10-28T03:00:42Z</time></trkpt>
    <trkpt lat="28.638114" lon="84.635481"><ele>3740.2</ele><time>2025-10-28T03:02:38Z</time></trkpt>
    <trkpt lat="28.637950" lon="84.635475"><ele>3738.2</ele><time>2025-10-28T03:02:54Z</time></trkpt>
    <trkpt lat="28.637453" lon="84.635620"><ele>3733.8</ele><time>2025-10-28T03:03:39Z</time></trkpt>
    <trkpt lat="28.636975" lon="84.635669"><ele>3731.6</ele><time>2025-10-28T03:04:21Z</time></trkpt>
    <trkpt lat="28.636902" lon="84.635658"><ele>3731.6</ele><time>2025-10-28T03:04:32Z</time></trkpt>
    <trkpt lat="28.636783" lon="84.635744"><ele>3731.4</ele><time>2025-10-28T03:04:48Z</time></trkpt>
    <trkpt lat="28.636525" lon="84.635749"><ele>3731.4</ele><time>2025-10-28T03:05:14Z</time></trkpt>
    <trkpt lat="28.636046" lon="84.636010"><ele>3735.0</ele><time>2025-10-28T03:06:14Z</time></trkpt>
    <trkpt lat="28.635680" lon="84.636027"><ele>3735.4</ele><time>2025-10-28T03:07:02Z</time></trkpt>
    <trkpt lat="28.635495" lon="84.636228"><ele>3735.2</ele><time>2025-10-28T03:08:15Z</time></trkpt>
    <trkpt lat="28.635087" lon="84.636291"><ele>3731.8</ele><time>2025-10-28T03:09:34Z</time></trkpt>
    <trkpt lat="28.634982" lon="84.636366"><ele>3731.4</ele><time>2025-10-28T03:09:56Z</time></trkpt>
    <trkpt lat="28.634797" lon="84.636341"><ele>3731.8</ele><time>2025-10-28T03:10:38Z</time></trkpt>
    <trkpt lat="28.634664" lon="84.636421"><ele>3733.0</ele><time>2025-10-28T03:10:56Z</time></trkpt>
    <trkpt lat="28.634450" lon="84.636466"><ele>3733.0</ele><time>2025-10-28T03:11:23Z</time></trkpt>
    <trkpt lat="28.634348" lon="84.636442"><ele>3731.6</ele><time>2025-10-28T03:11:45Z</time></trkpt>
    <trkpt lat="28.634206" lon="84.636529"><ele>3727.6</ele><time>2025-10-28T03:12:08Z</time></trkpt>
    <trkpt lat="28.633768" lon="84.636523"><ele>3723.8</ele><time>2025-10-28T03:13:14Z</time></trkpt>
    <trkpt lat="28.633572" lon="84.636573"><ele>3721.8</ele><time>2025-10-28T03:13:45Z</time></trkpt>
    <trkpt lat="28.633302" lon="84.636521"><ele>3717.8</ele><time>2025-10-28T03:14:24Z</time></trkpt>
    <trkpt lat="28.633168" lon="84.636525"><ele>3715.6</ele><time>2025-10-28T03:14:38Z</time></trkpt>
    <trkpt lat="28.633039" lon="84.636592"><ele>3712.8</ele><time>2025-10-28T03:14:53Z</time></trkpt>
    <trkpt lat="28.632894" lon="84.636545"><ele>3711.0</ele><time>2025-10-28T03:15:13Z</time></trkpt>
    <trkpt lat="28.632624" lon="84.636673"><ele>3706.6</ele><time>2025-10-28T03:15:48Z</time></trkpt>
    <trkpt lat="28.632308" lon="84.636745"><ele>3701.8</ele><time>2025-10-28T03:16:24Z</time></trkpt>
    <trkpt lat="28.632114" lon="84.636944"><ele>3698.6</ele><time>2025-10-28T03:16:55Z</time></trkpt>
    <trkpt lat="28.632075" lon="84.636987"><ele>3698.6</ele><time>2025-10-28T03:17:02Z</time></trkpt>
    <trkpt lat="28.631721" lon="84.637218"><ele>3697.6</ele><time>2025-10-28T03:17:40Z</time></trkpt>
    <trkpt lat="28.631328" lon="84.637274"><ele>3698.0</ele><time>2025-10-28T03:18:31Z</time></trkpt>
    <trkpt lat="28.631235" lon="84.637340"><ele>3698.6</ele><time>2025-10-28T03:18:43Z</time></trkpt>
    <trkpt lat="28.631010" lon="84.637388"><ele>3700.0</ele><time>2025-10-28T03:19:08Z</time></trkpt>
    <trkpt lat="28.630754" lon="84.637578"><ele>3700.2</ele><time>2025-10-28T03:19:38Z</time></trkpt>
    <trkpt lat="28.630624" lon="84.637733"><ele>3700.4</ele><time>2025-10-28T03:19:54Z</time></trkpt>
    <trkpt lat="28.630408" lon="84.637775"><ele>3700.8</ele><time>2025-10-28T03:20:16Z</time></trkpt>
    <trkpt lat="28.630301" lon="84.637892"><ele>3702.2</ele><time>2025-10-28T03:20:40Z</time></trkpt>
    <trkpt lat="28.629891" lon="84.638006"><ele>3702.2</ele><time>2025-10-28T03:21:24Z</time></trkpt>
    <trkpt lat="28.629774" lon="84.638038"><ele>3701.0</ele><time>2025-10-28T03:21:38Z</time></trkpt>
    <trkpt lat="28.629266" lon="84.638311"><ele>3696.4</ele><time>2025-10-28T03:22:30Z</time></trkpt>
    <trkpt lat="28.629006" lon="84.638294"><ele>3693.8</ele><time>2025-10-28T03:22:54Z</time></trkpt>
    <trkpt lat="28.628859" lon="84.638307"><ele>3693.6</ele><time>2025-10-28T03:23:28Z</time></trkpt>
    <trkpt lat="28.628824" lon="84.638278"><ele>3693.2</ele><time>2025-10-28T03:23:33Z</time></trkpt>
    <trkpt lat="28.628514" lon="84.638333"><ele>3692.8</ele><time>2025-10-28T03:24:05Z</time></trkpt>
    <trkpt lat="28.628396" lon="84.638285"><ele>3692.4</ele><time>2025-10-28T03:24:20Z</time></trkpt>
    <trkpt lat="28.628106" lon="84.638363"><ele>3692.0</ele><time>2025-10-28T03:24:55Z</time></trkpt>
    <trkpt lat="28.627814" lon="84.638337"><ele>3691.8</ele><time>2025-10-28T03:25:25Z</time></trkpt>
    <trkpt lat="28.627248" lon="84.638455"><ele>3689.8</ele><time>2025-10-28T03:26:17Z</time></trkpt>
    <trkpt lat="28.627124" lon="84.638437"><ele>3689.6</ele><time>2025-10-28T03:26:31Z</time></trkpt>
    <trkpt lat="28.626785" lon="84.638603"><ele>3688.8</ele><time>2025-10-28T03:27:02Z</time></trkpt>
    <trkpt lat="28.626716" lon="84.638613"><ele>3688.8</ele><time>2025-10-28T03:27:09Z</time></trkpt>
    <trkpt lat="28.626621" lon="84.638607"><ele>3688.8</ele><time>2025-10-28T03:27:18Z</time></trkpt>
    <trkpt lat="28.626411" lon="84.638355"><ele>3689.2</ele><time>2025-10-28T03:27:53Z</time></trkpt>
    <trkpt lat="28.626344" lon="84.638525"><ele>3691.0</ele><time>2025-10-28T03:28:34Z</time></trkpt>
    <trkpt lat="28.626243" lon="84.638582"><ele>3691.0</ele><time>2025-10-28T03:28:45Z</time></trkpt>
    <trkpt lat="28.626152" lon="84.638624"><ele>3690.6</ele><time>2025-10-28T03:28:53Z</time></trkpt>
    <trkpt lat="28.626053" lon="84.638628"><ele>3690.0</ele><time>2025-10-28T03:29:01Z</time></trkpt>
    <trkpt lat="28.625878" lon="84.638557"><ele>3687.4</ele><time>2025-10-28T03:29:17Z</time></trkpt>
    <trkpt lat="28.625737" lon="84.638574"><ele>3685.4</ele><time>2025-10-28T03:29:29Z</time></trkpt>
    <trkpt lat="28.625626" lon="84.638571"><ele>3685.2</ele><time>2025-10-28T03:29:38Z</time></trkpt>
    <trkpt lat="28.625472" lon="84.638476"><ele>3684.8</ele><time>2025-10-28T03:29:53Z</time></trkpt>
    <trkpt lat="28.625237" lon="84.638423"><ele>3684.0</ele><time>2025-10-28T03:30:13Z</time></trkpt>
    <trkpt lat="28.624966" lon="84.638663"><ele>3683.6</ele><time>2025-10-28T03:30:46Z</time></trkpt>
    <trkpt lat="28.624254" lon="84.638856"><ele>3680.6</ele><time>2025-10-28T03:31:46Z</time></trkpt>
    <trkpt lat="28.624082" lon="84.638988"><ele>3680.2</ele><time>2025-10-28T03:32:04Z</time></trkpt>
    <trkpt lat="28.623847" lon="84.639058"><ele>3679.2</ele><time>2025-10-28T03:32:29Z</time></trkpt>
    <trkpt lat="28.623666" lon="84.639212"><ele>3679.0</ele><time>2025-10-28T03:32:48Z</time></trkpt>
    <trkpt lat="28.623625" lon="84.639232"><ele>3678.8</ele><time>2025-10-28T03:32:52Z</time></trkpt>
    <trkpt lat="28.623370" lon="84.639335"><ele>3675.8</ele><time>2025-10-28T03:33:16Z</time></trkpt>
    <trkpt lat="28.623000" lon="84.639324"><ele>3669.0</ele><time>2025-10-28T03:33:50Z</time></trkpt>
    <trkpt lat="28.622711" lon="84.639243"><ele>3664.4</ele><time>2025-10-28T03:34:16Z</time></trkpt>
    <trkpt lat="28.622204" lon="84.639309"><ele>3655.8</ele><time>2025-10-28T03:35:05Z</time></trkpt>
    <trkpt lat="28.622055" lon="84.639339"><ele>3654.8</ele><time>2025-10-28T03:35:19Z</time></trkpt>
    <trkpt lat="28.620783" lon="84.639196"><ele>3652.6</ele><time>2025-10-28T03:37:18Z</time></trkpt>
    <trkpt lat="28.620647" lon="84.639208"><ele>3651.6</ele><time>2025-10-28T03:37:30Z</time></trkpt>
    <trkpt lat="28.620337" lon="84.639557"><ele>3644.8</ele><time>2025-10-28T03:38:12Z</time></trkpt>
    <trkpt lat="28.620130" lon="84.639596"><ele>3641.6</ele><time>2025-10-28T03:38:32Z</time></trkpt>
    <trkpt lat="28.620041" lon="84.639661"><ele>3639.4</ele><time>2025-10-28T03:38:46Z</time></trkpt>
    <trkpt lat="28.619905" lon="84.639656"><ele>3636.0</ele><time>2025-10-28T03:39:13Z</time></trkpt>
    <trkpt lat="28.619645" lon="84.639768"><ele>3633.4</ele><time>2025-10-28T03:39:36Z</time></trkpt>
    <trkpt lat="28.619355" lon="84.639775"><ele>3633.4</ele><time>2025-10-28T03:40:01Z</time></trkpt>
    <trkpt lat="28.619079" lon="84.639843"><ele>3633.4</ele><time>2025-10-28T03:40:32Z</time></trkpt>
    <trkpt lat="28.619005" lon="84.639793"><ele>3634.0</ele><time>2025-10-28T03:40:47Z</time></trkpt>
    <trkpt lat="28.618702" lon="84.639763"><ele>3634.0</ele><time>2025-10-28T03:41:38Z</time></trkpt>
    <trkpt lat="28.618684" lon="84.639735"><ele>3634.4</ele><time>2025-10-28T03:42:36Z</time></trkpt>
    <trkpt lat="28.618591" lon="84.639666"><ele>3633.0</ele><time>2025-10-28T03:42:45Z</time></trkpt>
    <trkpt lat="28.618536" lon="84.639673"><ele>3633.0</ele><time>2025-10-28T03:42:51Z</time></trkpt>
    <trkpt lat="28.618464" lon="84.639581"><ele>3631.6</ele><time>2025-10-28T03:43:00Z</time></trkpt>
    <trkpt lat="28.618234" lon="84.639447"><ele>3628.0</ele><time>2025-10-28T03:43:21Z</time></trkpt>
    <trkpt lat="28.618145" lon="84.639385"><ele>3627.8</ele><time>2025-10-28T03:43:30Z</time></trkpt>
    <trkpt lat="28.617398" lon="84.638816"><ele>3626.6</ele><time>2025-10-28T03:44:48Z</time></trkpt>
    <trkpt lat="28.616891" lon="84.638643"><ele>3624.8</ele><time>2025-10-28T03:45:42Z</time></trkpt>
    <trkpt lat="28.616410" lon="84.638644"><ele>3624.0</ele><time>2025-10-28T03:46:24Z</time></trkpt>
    <trkpt lat="28.615970" lon="84.638729"><ele>3623.2</ele><time>2025-10-28T03:47:04Z</time></trkpt>
    <trkpt lat="28.615724" lon="84.638819"><ele>3623.2</ele><time>2025-10-28T03:47:26Z</time></trkpt>
    <trkpt lat="28.615472" lon="84.638904"><ele>3622.6</ele><time>2025-10-28T03:47:49Z</time></trkpt>
    <trkpt lat="28.615132" lon="84.638889"><ele>3619.8</ele><time>2025-10-28T03:48:17Z</time></trkpt>
    <trkpt lat="28.614917" lon="84.638943"><ele>3619.4</ele><time>2025-10-28T03:48:35Z</time></trkpt>
    <trkpt lat="28.614567" lon="84.638908"><ele>3617.6</ele><time>2025-10-28T03:49:06Z</time></trkpt>
    <trkpt lat="28.614556" lon="84.638907"><ele>3617.6</ele><time>2025-10-28T03:49:07Z</time></trkpt>
    <trkpt lat="28.614313" lon="84.638931"><ele>3617.2</ele><time>2025-10-28T03:49:30Z</time></trkpt>
    <trkpt lat="28.614008" lon="84.638850"><ele>3616.4</ele><time>2025-10-28T03:50:03Z</time></trkpt>
    <trkpt lat="28.613672" lon="84.638820"><ele>3615.2</ele><time>2025-10-28T03:50:38Z</time></trkpt>
    <trkpt lat="28.613451" lon="84.638744"><ele>3614.8</ele><time>2025-10-28T03:51:00Z</time></trkpt>
    <trkpt lat="28.613292" lon="84.638744"><ele>3614.4</ele><time>2025-10-28T03:51:41Z</time></trkpt>
    <trkpt lat="28.613084" lon="84.638621"><ele>3613.8</ele><time>2025-10-28T03:52:11Z</time></trkpt>
    <trkpt lat="28.612910" lon="84.638624"><ele>3613.6</ele><time>2025-10-28T03:52:25Z</time></trkpt>
    <trkpt lat="28.612701" lon="84.638536"><ele>3613.4</ele><time>2025-10-28T03:52:44Z</time></trkpt>
    <trkpt lat="28.612213" lon="84.638538"><ele>3612.2</ele><time>2025-10-28T03:53:23Z</time></trkpt>
    <trkpt lat="28.611727" lon="84.638448"><ele>3611.2</ele><time>2025-10-28T03:54:05Z</time></trkpt>
    <trkpt lat="28.610593" lon="84.638571"><ele>3608.8</ele><time>2025-10-28T03:55:45Z</time></trkpt>
    <trkpt lat="28.610304" lon="84.638653"><ele>3607.6</ele><time>2025-10-28T03:56:16Z</time></trkpt>
    <trkpt lat="28.609785" lon="84.638712"><ele>3606.6</ele><time>2025-10-28T03:57:03Z</time></trkpt>
    <trkpt lat="28.609700" lon="84.638716"><ele>3606.4</ele><time>2025-10-28T03:57:11Z</time></trkpt>
    <trkpt lat="28.609097" lon="84.638715"><ele>3606.2</ele><time>2025-10-28T03:58:06Z</time></trkpt>
    <trkpt lat="28.608898" lon="84.638671"><ele>3606.6</ele><time>2025-10-28T03:58:25Z</time></trkpt>
    <trkpt lat="28.608721" lon="84.638700"><ele>3608.0</ele><time>2025-10-28T03:58:47Z</time></trkpt>
    <trkpt lat="28.608708" lon="84.638621"><ele>3608.0</ele><time>2025-10-28T04:00:17Z</time></trkpt>
    <trkpt lat="28.608729" lon="84.638640"><ele>3607.8</ele><time>2025-10-28T04:02:57Z</time></trkpt>
    <trkpt lat="28.608682" lon="84.638690"><ele>3607.8</ele><time>2025-10-28T04:03:25Z</time></trkpt>
    <trkpt lat="28.608615" lon="84.638712"><ele>3607.8</ele><time>2025-10-28T04:03:31Z</time></trkpt>
    <trkpt lat="28.608123" lon="84.638748"><ele>3607.8</ele><time>2025-10-28T04:06:28Z</time></trkpt>
    <trkpt lat="28.607798" lon="84.638807"><ele>3607.2</ele><time>2025-10-28T04:06:56Z</time></trkpt>
    <trkpt lat="28.607637" lon="84.638902"><ele>3607.0</ele><time>2025-10-28T04:07:11Z</time></trkpt>
    <trkpt lat="28.607257" lon="84.639020"><ele>3606.6</ele><time>2025-10-28T04:07:45Z</time></trkpt>
    <trkpt lat="28.606690" lon="84.639155"><ele>3606.0</ele><time>2025-10-28T04:08:34Z</time></trkpt>
    <trkpt lat="28.606014" lon="84.639250"><ele>3604.8</ele><time>2025-10-28T04:09:31Z</time></trkpt>
    <trkpt lat="28.605786" lon="84.639344"><ele>3604.8</ele><time>2025-10-28T04:09:50Z</time></trkpt>
    <trkpt lat="28.605199" lon="84.639488"><ele>3604.2</ele><time>2025-10-28T04:10:39Z</time></trkpt>
    <trkpt lat="28.604971" lon="84.639653"><ele>3603.6</ele><time>2025-10-28T04:11:01Z</time></trkpt>
    <trkpt lat="28.604658" lon="84.639792"><ele>3603.2</ele><time>2025-10-28T04:11:29Z</time></trkpt>
    <trkpt lat="28.604501" lon="84.639954"><ele>3602.2</ele><time>2025-10-28T04:11:48Z</time></trkpt>
    <trkpt lat="28.604399" lon="84.640179"><ele>3600.6</ele><time>2025-10-28T04:12:06Z</time></trkpt>
    <trkpt lat="28.604258" lon="84.640336"><ele>3597.2</ele><time>2025-10-28T04:12:22Z</time></trkpt>
    <trkpt lat="28.603148" lon="84.640580"><ele>3596.2</ele><time>2025-10-28T04:13:52Z</time></trkpt>
    <trkpt lat="28.603017" lon="84.640572"><ele>3595.0</ele><time>2025-10-28T04:14:03Z</time></trkpt>
    <trkpt lat="28.602754" lon="84.640672"><ele>3593.8</ele><time>2025-10-28T04:14:25Z</time></trkpt>
    <trkpt lat="28.602577" lon="84.640672"><ele>3592.8</ele><time>2025-10-28T04:14:38Z</time></trkpt>
    <trkpt lat="28.602265" lon="84.640849"><ele>3592.8</ele><time>2025-10-28T04:15:06Z</time></trkpt>
    <trkpt lat="28.602136" lon="84.640844"><ele>3592.8</ele><time>2025-10-28T04:15:19Z</time></trkpt>
    <trkpt lat="28.601951" lon="84.640767"><ele>3592.6</ele><time>2025-10-28T04:15:41Z</time></trkpt>
    <trkpt lat="28.601791" lon="84.640635"><ele>3592.4</ele><time>2025-10-28T04:16:05Z</time></trkpt>
    <trkpt lat="28.601316" lon="84.640715"><ele>3590.8</ele><time>2025-10-28T04:16:48Z</time></trkpt>
    <trkpt lat="28.601102" lon="84.640646"><ele>3590.4</ele><time>2025-10-28T04:17:09Z</time></trkpt>
    <trkpt lat="28.600818" lon="84.640672"><ele>3589.4</ele><time>2025-10-28T04:17:32Z</time></trkpt>
    <trkpt lat="28.600743" lon="84.640661"><ele>3589.0</ele><time>2025-10-28T04:17:41Z</time></trkpt>
    <trkpt lat="28.600534" lon="84.640615"><ele>3589.0</ele><time>2025-10-28T04:18:27Z</time></trkpt>
    <trkpt lat="28.600257" lon="84.640732"><ele>3590.4</ele><time>2025-10-28T04:18:58Z</time></trkpt>
    <trkpt lat="28.599934" lon="84.640622"><ele>3592.6</ele><time>2025-10-28T04:19:35Z</time></trkpt>
    <trkpt lat="28.599798" lon="84.640709"><ele>3592.8</ele><time>2025-10-28T04:19:52Z</time></trkpt>
    <trkpt lat="28.599471" lon="84.640540"><ele>3592.8</ele><time>2025-10-28T04:20:26Z</time></trkpt>
    <trkpt lat="28.598859" lon="84.640308"><ele>3593.8</ele><time>2025-10-28T04:21:23Z</time></trkpt>
    <trkpt lat="28.598757" lon="84.640246"><ele>3596.0</ele><time>2025-10-28T04:21:42Z</time></trkpt>
    <trkpt lat="28.598702" lon="84.640227"><ele>3596.2</ele><time>2025-10-28T04:22:09Z</time></trkpt>
    <trkpt lat="28.598716" lon="84.640195"><ele>3596.2</ele><time>2025-10-28T04:22:38Z</time></trkpt>
    <trkpt lat="28.598680" lon="84.640220"><ele>3595.6</ele><time>2025-10-28T04:23:50Z</time></trkpt>
    <trkpt lat="28.598102" lon="84.640532"><ele>3590.0</ele><time>2025-10-28T04:24:56Z</time></trkpt>
    <trkpt lat="28.597820" lon="84.640564"><ele>3589.0</ele><time>2025-10-28T04:25:30Z</time></trkpt>
    <trkpt lat="28.597728" lon="84.640590"><ele>3587.4</ele><time>2025-10-28T04:25:43Z</time></trkpt>
    <trkpt lat="28.597592" lon="84.640576"><ele>3585.0</ele><time>2025-10-28T04:25:59Z</time></trkpt>
    <trkpt lat="28.597507" lon="84.640633"><ele>3583.4</ele><time>2025-10-28T04:26:10Z</time></trkpt>
    <trkpt lat="28.597393" lon="84.640637"><ele>3580.4</ele><time>2025-10-28T04:26:32Z</time></trkpt>
    <trkpt lat="28.597286" lon="84.640401"><ele>3579.0</ele><time>2025-10-28T04:27:11Z</time></trkpt>
    <trkpt lat="28.597192" lon="84.640381"><ele>3577.6</ele><time>2025-10-28T04:27:28Z</time></trkpt>
    <trkpt lat="28.597160" lon="84.640368"><ele>3577.6</ele><time>2025-10-28T04:27:35Z</time></trkpt>
    <trkpt lat="28.597030" lon="84.640261"><ele>3579.2</ele><time>2025-10-28T04:27:57Z</time></trkpt>
    <trkpt lat="28.596863" lon="84.640260"><ele>3579.2</ele><time>2025-10-28T04:28:16Z</time></trkpt>
    <trkpt lat="28.596758" lon="84.640315"><ele>3578.6</ele><time>2025-10-28T04:28:33Z</time></trkpt>
    <trkpt lat="28.596730" lon="84.640331"><ele>3577.6</ele><time>2025-10-28T04:28:39Z</time></trkpt>
    <trkpt lat="28.596411" lon="84.640622"><ele>3571.8</ele><time>2025-10-28T04:29:32Z</time></trkpt>
    <trkpt lat="28.596222" lon="84.640635"><ele>3570.0</ele><time>2025-10-28T04:29:54Z</time></trkpt>
    <trkpt lat="28.596156" lon="84.640636"><ele>3570.0</ele><time>2025-10-28T04:30:02Z</time></trkpt>
    <trkpt lat="28.595736" lon="84.640798"><ele>3567.8</ele><time>2025-10-28T04:31:02Z</time></trkpt>
    <trkpt lat="28.595437" lon="84.640799"><ele>3566.2</ele><time>2025-10-28T04:31:33Z</time></trkpt>
    <trkpt lat="28.595279" lon="84.640860"><ele>3565.2</ele><time>2025-10-28T04:31:48Z</time></trkpt>
    <trkpt lat="28.594935" lon="84.640908"><ele>3563.8</ele><time>2025-10-28T04:32:20Z</time></trkpt>
    <trkpt lat="28.594720" lon="84.641016"><ele>3563.4</ele><time>2025-10-28T04:32:38Z</time></trkpt>
    <trkpt lat="28.594572" lon="84.641200"><ele>3562.2</ele><time>2025-10-28T04:32:56Z</time></trkpt>
    <trkpt lat="28.594408" lon="84.641264"><ele>3561.6</ele><time>2025-10-28T04:33:10Z</time></trkpt>
    <trkpt lat="28.594041" lon="84.641268"><ele>3561.0</ele><time>2025-10-28T04:33:47Z</time></trkpt>
    <trkpt lat="28.593840" lon="84.641223"><ele>3559.6</ele><time>2025-10-28T04:34:11Z</time></trkpt>
    <trkpt lat="28.593552" lon="84.641481"><ele>3557.2</ele><time>2025-10-28T04:34:50Z</time></trkpt>
    <trkpt lat="28.593213" lon="84.641472"><ele>3554.8</ele><time>2025-10-28T04:35:25Z</time></trkpt>
    <trkpt lat="28.593008" lon="84.641567"><ele>3553.2</ele><time>2025-10-28T04:35:45Z</time></trkpt>
    <trkpt lat="28.592751" lon="84.641643"><ele>3553.0</ele><time>2025-10-28T04:36:12Z</time></trkpt>
    <trkpt lat="28.592626" lon="84.641627"><ele>3552.6</ele><time>2025-10-28T04:36:27Z</time></trkpt>
    <trkpt lat="28.592504" lon="84.641668"><ele>3552.8</ele><time>2025-10-28T04:36:43Z</time></trkpt>
    <trkpt lat="28.592330" lon="84.641576"><ele>3552.6</ele><time>2025-10-28T04:37:03Z</time></trkpt>
    <trkpt lat="28.592108" lon="84.641583"><ele>3553.4</ele><time>2025-10-28T04:37:25Z</time></trkpt>
    <trkpt lat="28.591822" lon="84.641514"><ele>3553.4</ele><time>2025-10-28T04:37:58Z</time></trkpt>
    <trkpt lat="28.591694" lon="84.641432"><ele>3553.4</ele><time>2025-10-28T04:38:14Z</time></trkpt>
    <trkpt lat="28.591532" lon="84.641337"><ele>3551.6</ele><time>2025-10-28T04:38:37Z</time></trkpt>
    <trkpt lat="28.591331" lon="84.641421"><ele>3549.6</ele><time>2025-10-28T04:39:04Z</time></trkpt>
    <trkpt lat="28.591298" lon="84.641381"><ele>3549.6</ele><time>2025-10-28T04:39:09Z</time></trkpt>
    <trkpt lat="28.591088" lon="84.641334"><ele>3549.2</ele><time>2025-10-28T04:39:42Z</time></trkpt>
    <trkpt lat="28.590888" lon="84.641426"><ele>3548.8</ele><time>2025-10-28T04:40:08Z</time></trkpt>
    <trkpt lat="28.590735" lon="84.641434"><ele>3548.2</ele><time>2025-10-28T04:40:31Z</time></trkpt>
    <trkpt lat="28.590475" lon="84.641238"><ele>3545.4</ele><time>2025-10-28T04:41:23Z</time></trkpt>
    <trkpt lat="28.590180" lon="84.641119"><ele>3544.8</ele><time>2025-10-28T04:42:03Z</time></trkpt>
    <trkpt lat="28.590005" lon="84.641148"><ele>3543.8</ele><time>2025-10-28T04:42:23Z</time></trkpt>
    <trkpt lat="28.589768" lon="84.641266"><ele>3543.2</ele><time>2025-10-28T04:42:52Z</time></trkpt>
    <trkpt lat="28.589464" lon="84.641313"><ele>3542.0</ele><time>2025-10-28T04:43:27Z</time></trkpt>
    <trkpt lat="28.588932" lon="84.641237"><ele>3540.2</ele><time>2025-10-28T04:44:16Z</time></trkpt>
    <trkpt lat="28.588281" lon="84.641079"><ele>3539.2</ele><time>2025-10-28T04:45:24Z</time></trkpt>
    <trkpt lat="28.588131" lon="84.641092"><ele>3538.8</ele><time>2025-10-28T04:45:42Z</time></trkpt>
    <trkpt lat="28.587814" lon="84.641291"><ele>3536.8</ele><time>2025-10-28T04:46:16Z</time></trkpt>
    <trkpt lat="28.587617" lon="84.641348"><ele>3536.0</ele><time>2025-10-28T04:46:34Z</time></trkpt>
    <trkpt lat="28.587506" lon="84.641371"><ele>3536.0</ele><time>2025-10-28T04:46:49Z</time></trkpt>
    <trkpt lat="28.587518" lon="84.641513"><ele>3536.0</ele><time>2025-10-28T04:47:15Z</time></trkpt>
    <trkpt lat="28.587489" lon="84.641486"><ele>3536.0</ele><time>2025-10-28T04:47:30Z</time></trkpt>
    <trkpt lat="28.587486" lon="84.641573"><ele>3538.8</ele><time>2025-10-28T04:47:51Z</time></trkpt>
    <trkpt lat="28.587448" lon="84.641571"><ele>3542.4</ele><time>2025-10-28T04:48:12Z</time></trkpt>
    <trkpt lat="28.587459" lon="84.641544"><ele>3543.4</ele><time>2025-10-28T04:48:17Z</time></trkpt>
    <trkpt lat="28.587514" lon="84.641503"><ele>3543.6</ele><time>2025-10-28T04:48:25Z</time></trkpt>
    <trkpt lat="28.587562" lon="84.641539"><ele>3543.8</ele><time>2025-10-28T04:48:50Z</time></trkpt>
    <trkpt lat="28.587522" lon="84.641525"><ele>3543.6</ele><time>2025-10-28T04:49:32Z</time></trkpt>
    <trkpt lat="28.587546" lon="84.641470"><ele>3543.4</ele><time>2025-10-28T04:50:09Z</time></trkpt>
    <trkpt lat="28.587566" lon="84.641511"><ele>3543.4</ele><time>2025-10-28T04:50:24Z</time></trkpt>
    <trkpt lat="28.587608" lon="84.641680"><ele>3536.6</ele><time>2025-10-28T05:30:29Z</time></trkpt>
    <trkpt lat="28.587612" lon="84.641713"><ele>3536.6</ele><time>2025-10-28T05:30:55Z</time></trkpt>
    <trkpt lat="28.587566" lon="84.641692"><ele>3536.4</ele><time>2025-10-28T05:31:18Z</time></trkpt>
    <trkpt lat="28.587585" lon="84.641586"><ele>3536.4</ele><time>2025-10-28T05:31:30Z</time></trkpt>
    <trkpt lat="28.587483" lon="84.641443"><ele>3536.0</ele><time>2025-10-28T05:31:36Z</time></trkpt>
    <trkpt lat="28.587314" lon="84.641440"><ele>3535.6</ele><time>2025-10-28T05:31:50Z</time></trkpt>
    <trkpt lat="28.587067" lon="84.641611"><ele>3534.6</ele><time>2025-10-28T05:32:15Z</time></trkpt>
    <trkpt lat="28.586547" lon="84.641817"><ele>3532.8</ele><time>2025-10-28T05:34:14Z</time></trkpt>
    <trkpt lat="28.586204" lon="84.642175"><ele>3532.2</ele><time>2025-10-28T05:34:49Z</time></trkpt>
    <trkpt lat="28.585838" lon="84.642459"><ele>3531.0</ele><time>2025-10-28T05:35:26Z</time></trkpt>
    <trkpt lat="28.585587" lon="84.642951"><ele>3530.2</ele><time>2025-10-28T05:36:31Z</time></trkpt>
    <trkpt lat="28.585444" lon="84.643147"><ele>3530.0</ele><time>2025-10-28T05:36:49Z</time></trkpt>
    <trkpt lat="28.585103" lon="84.643605"><ele>3526.0</ele><time>2025-10-28T05:37:28Z</time></trkpt>
    <trkpt lat="28.584930" lon="84.644076"><ele>3524.4</ele><time>2025-10-28T05:38:00Z</time></trkpt>
    <trkpt lat="28.584696" lon="84.644304"><ele>3524.0</ele><time>2025-10-28T05:38:22Z</time></trkpt>
    <trkpt lat="28.584568" lon="84.644529"><ele>3516.0</ele><time>2025-10-28T05:38:42Z</time></trkpt>
    <trkpt lat="28.584394" lon="84.644892"><ele>3515.2</ele><time>2025-10-28T05:39:07Z</time></trkpt>
    <trkpt lat="28.584316" lon="84.644949"><ele>3514.6</ele><time>2025-10-28T05:39:14Z</time></trkpt>
    <trkpt lat="28.584076" lon="84.645187"><ele>3514.0</ele><time>2025-10-28T05:39:36Z</time></trkpt>
    <trkpt lat="28.583981" lon="84.645411"><ele>3514.0</ele><time>2025-10-28T05:39:52Z</time></trkpt>
    <trkpt lat="28.583929" lon="84.645905"><ele>3514.2</ele><time>2025-10-28T05:40:23Z</time></trkpt>
    <trkpt lat="28.583520" lon="84.646389"><ele>3516.8</ele><time>2025-10-28T05:41:12Z</time></trkpt>
    <trkpt lat="28.582977" lon="84.646892"><ele>3515.6</ele><time>2025-10-28T05:42:25Z</time></trkpt>
    <trkpt lat="28.582477" lon="84.647554"><ele>3516.0</ele><time>2025-10-28T05:43:27Z</time></trkpt>
    <trkpt lat="28.582468" lon="84.647565"><ele>3516.2</ele><time>2025-10-28T05:43:28Z</time></trkpt>
    <trkpt lat="28.582317" lon="84.647662"><ele>3517.4</ele><time>2025-10-28T05:43:44Z</time></trkpt>
    <trkpt lat="28.582229" lon="84.647816"><ele>3518.4</ele><time>2025-10-28T05:43:58Z</time></trkpt>
    <trkpt lat="28.581951" lon="84.648132"><ele>3522.8</ele><time>2025-10-28T05:44:40Z</time></trkpt>
    <trkpt lat="28.581846" lon="84.648682"><ele>3526.0</ele><time>2025-10-28T05:45:32Z</time></trkpt>
    <trkpt lat="28.581780" lon="84.648780"><ele>3526.6</ele><time>2025-10-28T05:45:43Z</time></trkpt>
    <trkpt lat="28.581745" lon="84.648821"><ele>3527.0</ele><time>2025-10-28T05:45:52Z</time></trkpt>
    <trkpt lat="28.581531" lon="84.648780"><ele>3530.6</ele><time>2025-10-28T05:46:21Z</time></trkpt>
    <trkpt lat="28.581428" lon="84.648800"><ele>3531.6</ele><time>2025-10-28T05:46:34Z</time></trkpt>
    <trkpt lat="28.581310" lon="84.648838"><ele>3531.6</ele><time>2025-10-28T05:46:48Z</time></trkpt>
    <trkpt lat="28.580854" lon="84.649562"><ele>3530.8</ele><time>2025-10-28T05:48:13Z</time></trkpt>
    <trkpt lat="28.580801" lon="84.649670"><ele>3530.8</ele><time>2025-10-28T05:48:22Z</time></trkpt>
    <trkpt lat="28.580783" lon="84.649834"><ele>3530.8</ele><time>2025-10-28T05:48:35Z</time></trkpt>
    <trkpt lat="28.580710" lon="84.649897"><ele>3530.8</ele><time>2025-10-28T05:48:43Z</time></trkpt>
    <trkpt lat="28.580532" lon="84.650024"><ele>3531.4</ele><time>2025-10-28T05:49:05Z</time></trkpt>
    <trkpt lat="28.580213" lon="84.650055"><ele>3533.0</ele><time>2025-10-28T05:49:40Z</time></trkpt>
    <trkpt lat="28.580021" lon="84.650163"><ele>3533.8</ele><time>2025-10-28T05:50:04Z</time></trkpt>
    <trkpt lat="28.579986" lon="84.650190"><ele>3534.4</ele><time>2025-10-28T05:50:08Z</time></trkpt>
    <trkpt lat="28.579881" lon="84.650328"><ele>3534.4</ele><time>2025-10-28T05:50:27Z</time></trkpt>
    <trkpt lat="28.579476" lon="84.650606"><ele>3533.0</ele><time>2025-10-28T05:51:18Z</time></trkpt>
    <trkpt lat="28.579377" lon="84.650761"><ele>3532.8</ele><time>2025-10-28T05:51:33Z</time></trkpt>
    <trkpt lat="28.579090" lon="84.651089"><ele>3529.2</ele><time>2025-10-28T05:52:09Z</time></trkpt>
    <trkpt lat="28.578877" lon="84.651506"><ele>3530.0</ele><time>2025-10-28T05:52:47Z</time></trkpt>
    <trkpt lat="28.578546" lon="84.652441"><ele>3532.4</ele><time>2025-10-28T05:54:16Z</time></trkpt>
    <trkpt lat="28.578521" lon="84.652674"><ele>3533.2</ele><time>2025-10-28T05:54:38Z</time></trkpt>
    <trkpt lat="28.578532" lon="84.652734"><ele>3533.2</ele><time>2025-10-28T05:54:45Z</time></trkpt>
    <trkpt lat="28.578561" lon="84.652926"><ele>3532.6</ele><time>2025-10-28T05:55:16Z</time></trkpt>
    <trkpt lat="28.578475" lon="84.653034"><ele>3532.2</ele><time>2025-10-28T05:55:28Z</time></trkpt>
    <trkpt lat="28.578463" lon="84.653195"><ele>3531.4</ele><time>2025-10-28T05:55:44Z</time></trkpt>
    <trkpt lat="28.578057" lon="84.653706"><ele>3532.2</ele><time>2025-10-28T05:56:42Z</time></trkpt>
    <trkpt lat="28.577968" lon="84.653883"><ele>3532.4</ele><time>2025-10-28T05:56:59Z</time></trkpt>
    <trkpt lat="28.577878" lon="84.653955"><ele>3532.4</ele><time>2025-10-28T05:57:10Z</time></trkpt>
    <trkpt lat="28.577517" lon="84.654569"><ele>3531.0</ele><time>2025-10-28T05:58:15Z</time></trkpt>
    <trkpt lat="28.577080" lon="84.655067"><ele>3528.4</ele><time>2025-10-28T05:59:52Z</time></trkpt>
    <trkpt lat="28.576872" lon="84.655454"><ele>3527.2</ele><time>2025-10-28T06:01:25Z</time></trkpt>
    <trkpt lat="28.576536" lon="84.656140"><ele>3528.2</ele><time>2025-10-28T06:02:32Z</time></trkpt>
    <trkpt lat="28.576346" lon="84.656371"><ele>3530.0</ele><time>2025-10-28T06:02:59Z</time></trkpt>
    <trkpt lat="28.576082" lon="84.656814"><ele>3530.6</ele><time>2025-10-28T06:03:45Z</time></trkpt>
    <trkpt lat="28.576026" lon="84.656874"><ele>3530.6</ele><time>2025-10-28T06:03:54Z</time></trkpt>
    <trkpt lat="28.575852" lon="84.657060"><ele>3534.6</ele><time>2025-10-28T06:04:24Z</time></trkpt>
    <trkpt lat="28.575725" lon="84.657106"><ele>3535.2</ele><time>2025-10-28T06:04:40Z</time></trkpt>
    <trkpt lat="28.575600" lon="84.657212"><ele>3536.4</ele><time>2025-10-28T06:04:59Z</time></trkpt>
    <trkpt lat="28.575517" lon="84.657390"><ele>3537.0</ele><time>2025-10-28T06:05:24Z</time></trkpt>
    <trkpt lat="28.575501" lon="84.657419"><ele>3537.0</ele><time>2025-10-28T06:05:30Z</time></trkpt>
    <trkpt lat="28.575362" lon="84.657557"><ele>3536.4</ele><time>2025-10-28T06:05:52Z</time></trkpt>
    <trkpt lat="28.575146" lon="84.657690"><ele>3535.2</ele><time>2025-10-28T06:06:17Z</time></trkpt>
    <trkpt lat="28.574743" lon="84.658226"><ele>3534.4</ele><time>2025-10-28T06:07:21Z</time></trkpt>
    <trkpt lat="28.574722" lon="84.658266"><ele>3534.4</ele><time>2025-10-28T06:07:29Z</time></trkpt>
    <trkpt lat="28.574713" lon="84.658313"><ele>3535.2</ele><time>2025-10-28T06:07:35Z</time></trkpt>
    <trkpt lat="28.574723" lon="84.658488"><ele>3537.6</ele><time>2025-10-28T06:07:58Z</time></trkpt>
    <trkpt lat="28.574645" lon="84.658589"><ele>3538.4</ele><time>2025-10-28T06:08:17Z</time></trkpt>
    <trkpt lat="28.574589" lon="84.658598"><ele>3538.6</ele><time>2025-10-28T06:08:32Z</time></trkpt>
    <trkpt lat="28.574511" lon="84.658600"><ele>3545.2</ele><time>2025-10-28T06:08:50Z</time></trkpt>
    <trkpt lat="28.574335" lon="84.658633"><ele>3549.4</ele><time>2025-10-28T06:09:34Z</time></trkpt>
    <trkpt lat="28.574191" lon="84.658613"><ele>3551.0</ele><time>2025-10-28T06:10:15Z</time></trkpt>
    <trkpt lat="28.574177" lon="84.658616"><ele>3553.0</ele><time>2025-10-28T06:10:21Z</time></trkpt>
    <trkpt lat="28.574038" lon="84.658852"><ele>3557.4</ele><time>2025-10-28T06:11:06Z</time></trkpt>
    <trkpt lat="28.573982" lon="84.658862"><ele>3559.0</ele><time>2025-10-28T06:11:19Z</time></trkpt>
    <trkpt lat="28.573952" lon="84.658934"><ele>3560.6</ele><time>2025-10-28T06:11:37Z</time></trkpt>
    <trkpt lat="28.573876" lon="84.658946"><ele>3561.8</ele><time>2025-10-28T06:11:50Z</time></trkpt>
    <trkpt lat="28.573831" lon="84.659002"><ele>3564.8</ele><time>2025-10-28T06:12:03Z</time></trkpt>
    <trkpt lat="28.573725" lon="84.659103"><ele>3565.0</ele><time>2025-10-28T06:12:24Z</time></trkpt>
    <trkpt lat="28.573675" lon="84.659257"><ele>3567.0</ele><time>2025-10-28T06:12:44Z</time></trkpt>
    <trkpt lat="28.573729" lon="84.659525"><ele>3569.0</ele><time>2025-10-28T06:13:18Z</time></trkpt>
    <trkpt lat="28.573638" lon="84.659951"><ele>3569.8</ele><time>2025-10-28T06:13:56Z</time></trkpt>
    <trkpt lat="28.573736" lon="84.660237"><ele>3571.2</ele><time>2025-10-28T06:14:32Z</time></trkpt>
    <trkpt lat="28.573751" lon="84.660288"><ele>3573.4</ele><time>2025-10-28T06:14:39Z</time></trkpt>
    <trkpt lat="28.573753" lon="84.660373"><ele>3575.2</ele><time>2025-10-28T06:14:52Z</time></trkpt>
    <trkpt lat="28.573755" lon="84.660472"><ele>3575.2</ele><time>2025-10-28T06:15:58Z</time></trkpt>
    <trkpt lat="28.573719" lon="84.660615"><ele>3575.4</ele><time>2025-10-28T06:16:33Z</time></trkpt>
    <trkpt lat="28.573563" lon="84.660861"><ele>3575.4</ele><time>2025-10-28T06:17:01Z</time></trkpt>
    <trkpt lat="28.573566" lon="84.660928"><ele>3575.4</ele><time>2025-10-28T06:17:07Z</time></trkpt>
    <trkpt lat="28.573570" lon="84.661160"><ele>3573.4</ele><time>2025-10-28T06:17:27Z</time></trkpt>
    <trkpt lat="28.573496" lon="84.661351"><ele>3570.6</ele><time>2025-10-28T06:18:16Z</time></trkpt>
    <trkpt lat="28.573453" lon="84.661483"><ele>3571.2</ele><time>2025-10-28T06:18:36Z</time></trkpt>
    <trkpt lat="28.573378" lon="84.661593"><ele>3572.8</ele><time>2025-10-28T06:18:51Z</time></trkpt>
    <trkpt lat="28.573117" lon="84.661818"><ele>3574.6</ele><time>2025-10-28T06:19:21Z</time></trkpt>
    <trkpt lat="28.573014" lon="84.661918"><ele>3574.8</ele><time>2025-10-28T06:19:38Z</time></trkpt>
    <trkpt lat="28.573064" lon="84.662004"><ele>3575.2</ele><time>2025-10-28T06:20:21Z</time></trkpt>
    <trkpt lat="28.573043" lon="84.662039"><ele>3575.4</ele><time>2025-10-28T06:20:28Z</time></trkpt>
    <trkpt lat="28.572609" lon="84.662399"><ele>3573.6</ele><time>2025-10-28T06:21:42Z</time></trkpt>
    <trkpt lat="28.572217" lon="84.662725"><ele>3579.6</ele><time>2025-10-28T06:23:06Z</time></trkpt>
    <trkpt lat="28.572181" lon="84.662750"><ele>3579.6</ele><time>2025-10-28T06:23:15Z</time></trkpt>
    <trkpt lat="28.572249" lon="84.662870"><ele>3579.0</ele><time>2025-10-28T06:23:48Z</time></trkpt>
    <trkpt lat="28.572343" lon="84.662928"><ele>3574.4</ele><time>2025-10-28T06:24:06Z</time></trkpt>
    <trkpt lat="28.572385" lon="84.662977"><ele>3572.6</ele><time>2025-10-28T06:24:19Z</time></trkpt>
    <trkpt lat="28.572407" lon="84.662887"><ele>3570.4</ele><time>2025-10-28T06:24:34Z</time></trkpt>
    <trkpt lat="28.572464" lon="84.662930"><ele>3570.0</ele><time>2025-10-28T06:24:52Z</time></trkpt>
    <trkpt lat="28.572482" lon="84.663091"><ele>3564.6</ele><time>2025-10-28T06:25:28Z</time></trkpt>
    <trkpt lat="28.572543" lon="84.663048"><ele>3562.2</ele><time>2025-10-28T06:25:47Z</time></trkpt>
    <trkpt lat="28.572609" lon="84.663063"><ele>3560.2</ele><time>2025-10-28T06:26:07Z</time></trkpt>
    <trkpt lat="28.572579" lon="84.663122"><ele>3559.6</ele><time>2025-10-28T06:26:18Z</time></trkpt>
    <trkpt lat="28.572636" lon="84.663136"><ele>3558.8</ele><time>2025-10-28T06:26:29Z</time></trkpt>
    <trkpt lat="28.572597" lon="84.663253"><ele>3554.4</ele><time>2025-10-28T06:26:51Z</time></trkpt>
    <trkpt lat="28.572657" lon="84.663259"><ele>3553.2</ele><time>2025-10-28T06:27:06Z</time></trkpt>
    <trkpt lat="28.572720" lon="84.663176"><ele>3550.6</ele><time>2025-10-28T06:27:30Z</time></trkpt>
    <trkpt lat="28.572793" lon="84.663574"><ele>3543.2</ele><time>2025-10-28T06:28:32Z</time></trkpt>
    <trkpt lat="28.572952" lon="84.663841"><ele>3538.0</ele><time>2025-10-28T06:29:14Z</time></trkpt>
    <trkpt lat="28.573207" lon="84.664139"><ele>3533.2</ele><time>2025-10-28T06:29:51Z</time></trkpt>
    <trkpt lat="28.573199" lon="84.664266"><ele>3533.2</ele><time>2025-10-28T06:30:04Z</time></trkpt>
    <trkpt lat="28.573248" lon="84.664327"><ele>3531.6</ele><time>2025-10-28T06:30:12Z</time></trkpt>
    <trkpt lat="28.573300" lon="84.664437"><ele>3528.4</ele><time>2025-10-28T06:30:21Z</time></trkpt>
    <trkpt lat="28.573518" lon="84.664666"><ele>3518.0</ele><time>2025-10-28T06:30:58Z</time></trkpt>
    <trkpt lat="28.573822" lon="84.665011"><ele>3519.4</ele><time>2025-10-28T06:31:44Z</time></trkpt>
    <trkpt lat="28.573977" lon="84.665443"><ele>3519.6</ele><time>2025-10-28T06:32:23Z</time></trkpt>
    <trkpt lat="28.574072" lon="84.665587"><ele>3519.6</ele><time>2025-10-28T06:32:39Z</time></trkpt>
    <trkpt lat="28.574101" lon="84.665621"><ele>3520.4</ele><time>2025-10-28T06:32:45Z</time></trkpt>
    <trkpt lat="28.574161" lon="84.665859"><ele>3525.2</ele><time>2025-10-28T06:33:29Z</time></trkpt>
    <trkpt lat="28.574313" lon="84.665923"><ele>3531.6</ele><time>2025-10-28T06:34:13Z</time></trkpt>
    <trkpt lat="28.574328" lon="84.665950"><ele>3533.8</ele><time>2025-10-28T06:34:19Z</time></trkpt>
    <trkpt lat="28.574437" lon="84.666117"><ele>3535.2</ele><time>2025-10-28T06:35:00Z</time></trkpt>
    <trkpt lat="28.574472" lon="84.666154"><ele>3535.4</ele><time>2025-10-28T06:35:12Z</time></trkpt>
    <trkpt lat="28.574453" lon="84.666286"><ele>3535.4</ele><time>2025-10-28T06:35:28Z</time></trkpt>
    <trkpt lat="28.574422" lon="84.666326"><ele>3535.4</ele><time>2025-10-28T06:35:34Z</time></trkpt>
    <trkpt lat="28.574338" lon="84.666416"><ele>3534.0</ele><time>2025-10-28T06:35:46Z</time></trkpt>
    <trkpt lat="28.574241" lon="84.666624"><ele>3530.8</ele><time>2025-10-28T06:36:09Z</time></trkpt>
    <trkpt lat="28.574085" lon="84.666695"><ele>3530.2</ele><time>2025-10-28T06:36:25Z</time></trkpt>
    <trkpt lat="28.573927" lon="84.666979"><ele>3525.2</ele><time>2025-10-28T06:37:14Z</time></trkpt>
    <trkpt lat="28.573670" lon="84.667412"><ele>3525.2</ele><time>2025-10-28T06:38:04Z</time></trkpt>
    <trkpt lat="28.573493" lon="84.667609"><ele>3526.0</ele><time>2025-10-28T06:38:43Z</time></trkpt>
    <trkpt lat="28.573472" lon="84.667718"><ele>3526.0</ele><time>2025-10-28T06:38:55Z</time></trkpt>
    <trkpt lat="28.573636" lon="84.667898"><ele>3524.8</ele><time>2025-10-28T06:39:31Z</time></trkpt>
    <trkpt lat="28.573830" lon="84.668007"><ele>3524.8</ele><time>2025-10-28T06:39:58Z</time></trkpt>
    <trkpt lat="28.573904" lon="84.668100"><ele>3526.4</ele><time>2025-10-28T06:40:16Z</time></trkpt>
    <trkpt lat="28.573917" lon="84.668176"><ele>3528.4</ele><time>2025-10-28T06:40:31Z</time></trkpt>
    <trkpt lat="28.574206" lon="84.668416"><ele>3531.0</ele><time>2025-10-28T06:41:13Z</time></trkpt>
    <trkpt lat="28.574250" lon="84.668507"><ele>3532.2</ele><time>2025-10-28T06:41:24Z</time></trkpt>
    <trkpt lat="28.574368" lon="84.668530"><ele>3534.4</ele><time>2025-10-28T06:41:41Z</time></trkpt>
    <trkpt lat="28.574496" lon="84.668645"><ele>3535.0</ele><time>2025-10-28T06:42:04Z</time></trkpt>
    <trkpt lat="28.574525" lon="84.668753"><ele>3536.2</ele><time>2025-10-28T06:42:18Z</time></trkpt>
    <trkpt lat="28.574690" lon="84.669110"><ele>3535.0</ele><time>2025-10-28T06:42:55Z</time></trkpt>
    <trkpt lat="28.574722" lon="84.669158"><ele>3532.6</ele><time>2025-10-28T06:43:01Z</time></trkpt>
    <trkpt lat="28.574755" lon="84.669326"><ele>3530.0</ele><time>2025-10-28T06:43:15Z</time></trkpt>
    <trkpt lat="28.574741" lon="84.669565"><ele>3527.2</ele><time>2025-10-28T06:43:35Z</time></trkpt>
    <trkpt lat="28.574732" lon="84.669642"><ele>3526.0</ele><time>2025-10-28T06:43:42Z</time></trkpt>
    <trkpt lat="28.574677" lon="84.669759"><ele>3525.2</ele><time>2025-10-28T06:43:53Z</time></trkpt>
    <trkpt lat="28.574504" lon="84.669817"><ele>3524.6</ele><time>2025-10-28T06:44:09Z</time></trkpt>
    <trkpt lat="28.574379" lon="84.669907"><ele>3522.6</ele><time>2025-10-28T06:44:24Z</time></trkpt>
    <trkpt lat="28.574311" lon="84.669966"><ele>3522.4</ele><time>2025-10-28T06:44:31Z</time></trkpt>
    <trkpt lat="28.574098" lon="84.670470"><ele>3523.4</ele><time>2025-10-28T06:45:29Z</time></trkpt>
    <trkpt lat="28.574101" lon="84.670865"><ele>3523.2</ele><time>2025-10-28T06:46:03Z</time></trkpt>
    <trkpt lat="28.574099" lon="84.670872"><ele>3523.2</ele><time>2025-10-28T06:46:04Z</time></trkpt>
    <trkpt lat="28.574055" lon="84.671129"><ele>3521.4</ele><time>2025-10-28T06:46:32Z</time></trkpt>
    <trkpt lat="28.574069" lon="84.671377"><ele>3518.8</ele><time>2025-10-28T06:47:03Z</time></trkpt>
    <trkpt lat="28.574129" lon="84.672185"><ele>3518.0</ele><time>2025-10-28T06:48:15Z</time></trkpt>
    <trkpt lat="28.574153" lon="84.672241"><ele>3518.0</ele><time>2025-10-28T06:48:20Z</time></trkpt>
    <trkpt lat="28.574306" lon="84.672779"><ele>3513.2</ele><time>2025-10-28T06:49:09Z</time></trkpt>
    <trkpt lat="28.574397" lon="84.672740"><ele>3513.2</ele><time>2025-10-28T06:49:22Z</time></trkpt>
    <trkpt lat="28.574426" lon="84.672674"><ele>3513.8</ele><time>2025-10-28T06:49:34Z</time></trkpt>
    <trkpt lat="28.574446" lon="84.672698"><ele>3517.6</ele><time>2025-10-28T06:50:10Z</time></trkpt>
    <trkpt lat="28.574447" lon="84.672696"><ele>3517.6</ele><time>2025-10-28T06:50:12Z</time></trkpt>
    <trkpt lat="28.574447" lon="84.672689"><ele>3522.4</ele><time>2025-10-28T08:36:34Z</time></trkpt>
    <trkpt lat="28.574414" lon="84.672703"><ele>3522.4</ele><time>2025-10-28T08:37:30Z</time></trkpt>
    <trkpt lat="28.574419" lon="84.672638"><ele>3522.2</ele><time>2025-10-28T08:37:58Z</time></trkpt>
    <trkpt lat="28.574452" lon="84.672651"><ele>3520.0</ele><time>2025-10-28T08:38:47Z</time></trkpt>
    <trkpt lat="28.574381" lon="84.672752"><ele>3519.8</ele><time>2025-10-28T08:39:17Z</time></trkpt>
    <trkpt lat="28.574318" lon="84.672766"><ele>3519.8</ele><time>2025-10-28T08:39:26Z</time></trkpt>
    <trkpt lat="28.574274" lon="84.672948"><ele>3519.8</ele><time>2025-10-28T08:39:41Z</time></trkpt>
    <trkpt lat="28.574059" lon="84.673343"><ele>3511.4</ele><time>2025-10-28T08:40:28Z</time></trkpt>
    <trkpt lat="28.573983" lon="84.673335"><ele>3508.4</ele><time>2025-10-28T08:40:39Z</time></trkpt>
    <trkpt lat="28.573949" lon="84.673454"><ele>3506.2</ele><time>2025-10-28T08:40:55Z</time></trkpt>
    <trkpt lat="28.573930" lon="84.673451"><ele>3505.8</ele><time>2025-10-28T08:40:57Z</time></trkpt>
    <trkpt lat="28.573817" lon="84.673509"><ele>3500.2</ele><time>2025-10-28T08:41:13Z</time></trkpt>
    <trkpt lat="28.573891" lon="84.673626"><ele>3496.0</ele><time>2025-10-28T08:41:35Z</time></trkpt>
    <trkpt lat="28.573880" lon="84.673791"><ele>3491.4</ele><time>2025-10-28T08:41:55Z</time></trkpt>
    <trkpt lat="28.573905" lon="84.673845"><ele>3488.0</ele><time>2025-10-28T08:42:03Z</time></trkpt>
    <trkpt lat="28.573946" lon="84.673940"><ele>3487.4</ele><time>2025-10-28T08:42:17Z</time></trkpt>
    <trkpt lat="28.574024" lon="84.673983"><ele>3485.0</ele><time>2025-10-28T08:42:31Z</time></trkpt>
    <trkpt lat="28.574064" lon="84.674044"><ele>3482.0</ele><time>2025-10-28T08:42:46Z</time></trkpt>
    <trkpt lat="28.574056" lon="84.674215"><ele>3479.0</ele><time>2025-10-28T08:43:04Z</time></trkpt>
    <trkpt lat="28.574223" lon="84.674387"><ele>3473.6</ele><time>2025-10-28T08:43:29Z</time></trkpt>
    <trkpt lat="28.574382" lon="84.674655"><ele>3460.4</ele><time>2025-10-28T08:44:03Z</time></trkpt>
    <trkpt lat="28.574387" lon="84.674664"><ele>3460.2</ele><time>2025-10-28T08:44:04Z</time></trkpt>
    <trkpt lat="28.574427" lon="84.674846"><ele>3456.8</ele><time>2025-10-28T08:44:25Z</time></trkpt>
    <trkpt lat="28.574537" lon="84.675040"><ele>3455.6</ele><time>2025-10-28T08:44:43Z</time></trkpt>
    <trkpt lat="28.574686" lon="84.675348"><ele>3445.6</ele><time>2025-10-28T08:45:23Z</time></trkpt>
    <trkpt lat="28.574755" lon="84.675547"><ele>3443.4</ele><time>2025-10-28T08:45:50Z</time></trkpt>
    <trkpt lat="28.575115" lon="84.675844"><ele>3436.4</ele><time>2025-10-28T08:46:40Z</time></trkpt>
    <trkpt lat="28.575372" lon="84.676146"><ele>3431.8</ele><time>2025-10-28T08:47:20Z</time></trkpt>
    <trkpt lat="28.575417" lon="84.676215"><ele>3431.4</ele><time>2025-10-28T08:47:29Z</time></trkpt>
    <trkpt lat="28.575602" lon="84.676518"><ele>3419.8</ele><time>2025-10-28T08:48:05Z</time></trkpt>
    <trkpt lat="28.575703" lon="84.676698"><ele>3418.4</ele><time>2025-10-28T08:48:19Z</time></trkpt>
    <trkpt lat="28.576026" lon="84.676942"><ele>3415.0</ele><time>2025-10-28T08:48:57Z</time></trkpt>
    <trkpt lat="28.576118" lon="84.677069"><ele>3413.6</ele><time>2025-10-28T08:49:13Z</time></trkpt>
    <trkpt lat="28.576279" lon="84.677338"><ele>3407.8</ele><time>2025-10-28T08:49:32Z</time></trkpt>
    <trkpt lat="28.576451" lon="84.677505"><ele>3400.0</ele><time>2025-10-28T08:49:54Z</time></trkpt>
    <trkpt lat="28.576543" lon="84.677593"><ele>3398.6</ele><time>2025-10-28T08:50:06Z</time></trkpt>
    <trkpt lat="28.576584" lon="84.677714"><ele>3397.6</ele><time>2025-10-28T08:50:18Z</time></trkpt>
    <trkpt lat="28.576720" lon="84.677983"><ele>3389.4</ele><time>2025-10-28T08:50:38Z</time></trkpt>
    <trkpt lat="28.576914" lon="84.678236"><ele>3383.6</ele><time>2025-10-28T08:51:02Z</time></trkpt>
    <trkpt lat="28.576980" lon="84.678506"><ele>3377.4</ele><time>2025-10-28T08:51:27Z</time></trkpt>
    <trkpt lat="28.576987" lon="84.678605"><ele>3374.8</ele><time>2025-10-28T08:51:39Z</time></trkpt>
    <trkpt lat="28.576944" lon="84.678730"><ele>3372.8</ele><time>2025-10-28T08:51:51Z</time></trkpt>
    <trkpt lat="28.576978" lon="84.678833"><ele>3371.6</ele><time>2025-10-28T08:51:58Z</time></trkpt>
    <trkpt lat="28.577026" lon="84.678857"><ele>3370.4</ele><time>2025-10-28T08:52:03Z</time></trkpt>
    <trkpt lat="28.577128" lon="84.679293"><ele>3366.8</ele><time>2025-10-28T08:52:40Z</time></trkpt>
    <trkpt lat="28.577096" lon="84.679510"><ele>3365.4</ele><time>2025-10-28T08:52:57Z</time></trkpt>
    <trkpt lat="28.577095" lon="84.679572"><ele>3364.2</ele><time>2025-10-28T08:53:02Z</time></trkpt>
    <trkpt lat="28.577024" lon="84.679759"><ele>3359.8</ele><time>2025-10-28T08:53:17Z</time></trkpt>
    <trkpt lat="28.577002" lon="84.679806"><ele>3359.8</ele><time>2025-10-28T08:53:20Z</time></trkpt>
    <trkpt lat="28.576920" lon="84.679914"><ele>3359.4</ele><time>2025-10-28T08:53:32Z</time></trkpt>
    <trkpt lat="28.576939" lon="84.680161"><ele>3359.4</ele><time>2025-10-28T08:53:49Z</time></trkpt>
    <trkpt lat="28.576832" lon="84.680526"><ele>3357.4</ele><time>2025-10-28T08:54:17Z</time></trkpt>
    <trkpt lat="28.576820" lon="84.680551"><ele>3357.0</ele><time>2025-10-28T08:54:19Z</time></trkpt>
    <trkpt lat="28.576630" lon="84.680712"><ele>3347.6</ele><time>2025-10-28T08:54:37Z</time></trkpt>
    <trkpt lat="28.576455" lon="84.681007"><ele>3344.8</ele><time>2025-10-28T08:55:04Z</time></trkpt>
    <trkpt lat="28.576383" lon="84.681148"><ele>3344.0</ele><time>2025-10-28T08:55:15Z</time></trkpt>
    <trkpt lat="28.576347" lon="84.681287"><ele>3343.4</ele><time>2025-10-28T08:55:24Z</time></trkpt>
    <trkpt lat="28.576290" lon="84.681497"><ele>3337.8</ele><time>2025-10-28T08:55:39Z</time></trkpt>
    <trkpt lat="28.576172" lon="84.681686"><ele>3333.8</ele><time>2025-10-28T08:55:57Z</time></trkpt>
    <trkpt lat="28.576169" lon="84.681698"><ele>3333.6</ele><time>2025-10-28T08:56:00Z</time></trkpt>
    <trkpt lat="28.576005" lon="84.681576"><ele>3330.6</ele><time>2025-10-28T08:56:19Z</time></trkpt>
    <trkpt lat="28.575829" lon="84.681658"><ele>3330.4</ele><time>2025-10-28T08:56:44Z</time></trkpt>
    <trkpt lat="28.575704" lon="84.681918"><ele>3328.4</ele><time>2025-10-28T08:57:08Z</time></trkpt>
    <trkpt lat="28.575421" lon="84.682193"><ele>3320.4</ele><time>2025-10-28T08:57:47Z</time></trkpt>
    <trkpt lat="28.575410" lon="84.682357"><ele>3319.4</ele><time>2025-10-28T08:58:08Z</time></trkpt>
    <trkpt lat="28.575423" lon="84.682501"><ele>3315.4</ele><time>2025-10-28T08:58:21Z</time></trkpt>
    <trkpt lat="28.575385" lon="84.682601"><ele>3314.8</ele><time>2025-10-28T08:58:28Z</time></trkpt>
    <trkpt lat="28.575295" lon="84.682663"><ele>3313.8</ele><time>2025-10-28T08:58:39Z</time></trkpt>
    <trkpt lat="28.575209" lon="84.682755"><ele>3311.0</ele><time>2025-10-28T08:58:48Z</time></trkpt>
    <trkpt lat="28.575161" lon="84.682893"><ele>3306.4</ele><time>2025-10-28T08:59:02Z</time></trkpt>
    <trkpt lat="28.575106" lon="84.683115"><ele>3303.2</ele><time>2025-10-28T08:59:21Z</time></trkpt>
    <trkpt lat="28.575084" lon="84.683185"><ele>3301.8</ele><time>2025-10-28T08:59:27Z</time></trkpt>
    <trkpt lat="28.574948" lon="84.683316"><ele>3295.0</ele><time>2025-10-28T08:59:40Z</time></trkpt>
    <trkpt lat="28.574869" lon="84.683318"><ele>3293.0</ele><time>2025-10-28T08:59:46Z</time></trkpt>
    <trkpt lat="28.574812" lon="84.683330"><ele>3293.0</ele><time>2025-10-28T08:59:51Z</time></trkpt>
    <trkpt lat="28.574766" lon="84.683393"><ele>3291.6</ele><time>2025-10-28T08:59:59Z</time></trkpt>
    <trkpt lat="28.574614" lon="84.683601"><ele>3290.4</ele><time>2025-10-28T09:00:22Z</time></trkpt>
    <trkpt lat="28.574594" lon="84.683713"><ele>3290.4</ele><time>2025-10-28T09:00:34Z</time></trkpt>
    <trkpt lat="28.574465" lon="84.683770"><ele>3290.4</ele><time>2025-10-28T09:00:44Z</time></trkpt>
    <trkpt lat="28.574167" lon="84.683691"><ele>3289.8</ele><time>2025-10-28T09:01:17Z</time></trkpt>
    <trkpt lat="28.574113" lon="84.683769"><ele>3288.2</ele><time>2025-10-28T09:01:31Z</time></trkpt>
    <trkpt lat="28.574163" lon="84.683806"><ele>3288.2</ele><time>2025-10-28T09:01:45Z</time></trkpt>
    <trkpt lat="28.574162" lon="84.683855"><ele>3288.2</ele><time>2025-10-28T09:02:22Z</time></trkpt>
    <trkpt lat="28.574130" lon="84.683987"><ele>3286.8</ele><time>2025-10-28T09:02:36Z</time></trkpt>
    <trkpt lat="28.574240" lon="84.684375"><ele>3283.0</ele><time>2025-10-28T09:03:07Z</time></trkpt>
    <trkpt lat="28.574238" lon="84.684422"><ele>3283.0</ele><time>2025-10-28T09:03:12Z</time></trkpt>
    <trkpt lat="28.574116" lon="84.684741"><ele>3283.2</ele><time>2025-10-28T09:03:49Z</time></trkpt>
    <trkpt lat="28.574024" lon="84.684976"><ele>3289.0</ele><time>2025-10-28T09:04:27Z</time></trkpt>
    <trkpt lat="28.573880" lon="84.685172"><ele>3291.8</ele><time>2025-10-28T09:05:01Z</time></trkpt>
    <trkpt lat="28.573744" lon="84.685473"><ele>3298.6</ele><time>2025-10-28T09:05:46Z</time></trkpt>
    <trkpt lat="28.573727" lon="84.685636"><ele>3301.4</ele><time>2025-10-28T09:06:15Z</time></trkpt>
    <trkpt lat="28.573740" lon="84.685704"><ele>3304.2</ele><time>2025-10-28T09:06:25Z</time></trkpt>
    <trkpt lat="28.573866" lon="84.685853"><ele>3305.4</ele><time>2025-10-28T09:06:48Z</time></trkpt>
    <trkpt lat="28.573765" lon="84.686213"><ele>3311.6</ele><time>2025-10-28T09:07:38Z</time></trkpt>
    <trkpt lat="28.573710" lon="84.686354"><ele>3317.0</ele><time>2025-10-28T09:07:54Z</time></trkpt>
    <trkpt lat="28.573680" lon="84.686521"><ele>3317.8</ele><time>2025-10-28T09:08:11Z</time></trkpt>
    <trkpt lat="28.573576" lon="84.686717"><ele>3318.2</ele><time>2025-10-28T09:08:41Z</time></trkpt>
    <trkpt lat="28.573525" lon="84.686840"><ele>3322.8</ele><time>2025-10-28T09:08:56Z</time></trkpt>
    <trkpt lat="28.573500" lon="84.686929"><ele>3323.8</ele><time>2025-10-28T09:09:06Z</time></trkpt>
    <trkpt lat="28.573473" lon="84.687240"><ele>3325.0</ele><time>2025-10-28T09:09:40Z</time></trkpt>
    <trkpt lat="28.573225" lon="84.687776"><ele>3331.4</ele><time>2025-10-28T09:11:05Z</time></trkpt>
    <trkpt lat="28.573179" lon="84.687930"><ele>3331.2</ele><time>2025-10-28T09:12:05Z</time></trkpt>
    <trkpt lat="28.573135" lon="84.688007"><ele>3337.4</ele><time>2025-10-28T09:12:18Z</time></trkpt>
    <trkpt lat="28.573126" lon="84.688030"><ele>3337.4</ele><time>2025-10-28T09:12:20Z</time></trkpt>
    <trkpt lat="28.573079" lon="84.688344"><ele>3338.2</ele><time>2025-10-28T09:12:48Z</time></trkpt>
    <trkpt lat="28.573079" lon="84.688382"><ele>3339.6</ele><time>2025-10-28T09:12:53Z</time></trkpt>
    <trkpt lat="28.573140" lon="84.688482"><ele>3343.0</ele><time>2025-10-28T09:13:08Z</time></trkpt>
    <trkpt lat="28.573062" lon="84.688623"><ele>3345.0</ele><time>2025-10-28T09:13:27Z</time></trkpt>
    <trkpt lat="28.572996" lon="84.688680"><ele>3351.0</ele><time>2025-10-28T09:13:42Z</time></trkpt>
    <trkpt lat="28.572920" lon="84.688750"><ele>3353.2</ele><time>2025-10-28T09:13:57Z</time></trkpt>
    <trkpt lat="28.572849" lon="84.688909"><ele>3357.8</ele><time>2025-10-28T09:14:27Z</time></trkpt>
    <trkpt lat="28.572657" lon="84.688993"><ele>3359.8</ele><time>2025-10-28T09:14:55Z</time></trkpt>
    <trkpt lat="28.572550" lon="84.689103"><ele>3364.4</ele><time>2025-10-28T09:15:23Z</time></trkpt>
    <trkpt lat="28.572574" lon="84.689243"><ele>3366.4</ele><time>2025-10-28T09:15:45Z</time></trkpt>
    <trkpt lat="28.572773" lon="84.689468"><ele>3371.8</ele><time>2025-10-28T09:16:29Z</time></trkpt>
    <trkpt lat="28.572757" lon="84.689488"><ele>3372.6</ele><time>2025-10-28T09:16:33Z</time></trkpt>
    <trkpt lat="28.572723" lon="84.689697"><ele>3372.6</ele><time>2025-10-28T09:16:48Z</time></trkpt>
    <trkpt lat="28.572736" lon="84.689779"><ele>3372.6</ele><time>2025-10-28T09:16:55Z</time></trkpt>
    <trkpt lat="28.572732" lon="84.689744"><ele>3371.2</ele><time>2025-10-28T09:17:35Z</time></trkpt>
    <trkpt lat="28.572692" lon="84.689752"><ele>3371.0</ele><time>2025-10-28T09:17:44Z</time></trkpt>
    <trkpt lat="28.572704" lon="84.689803"><ele>3371.0</ele><time>2025-10-28T09:17:59Z</time></trkpt>
    <trkpt lat="28.572541" lon="84.689826"><ele>3370.8</ele><time>2025-10-28T09:18:41Z</time></trkpt>
    <trkpt lat="28.572476" lon="84.689709"><ele>3370.8</ele><time>2025-10-28T09:18:51Z</time></trkpt>
    <trkpt lat="28.572313" lon="84.689613"><ele>3374.2</ele><time>2025-10-28T09:19:17Z</time></trkpt>
    <trkpt lat="28.572253" lon="84.689622"><ele>3375.2</ele><time>2025-10-28T09:19:23Z</time></trkpt>
    <trkpt lat="28.572115" lon="84.689770"><ele>3377.0</ele><time>2025-10-28T09:19:43Z</time></trkpt>
    <trkpt lat="28.571950" lon="84.689783"><ele>3382.8</ele><time>2025-10-28T09:20:15Z</time></trkpt>
    <trkpt lat="28.571898" lon="84.689772"><ele>3383.4</ele><time>2025-10-28T09:20:30Z</time></trkpt>
    <trkpt lat="28.571928" lon="84.689779"><ele>3383.6</ele><time>2025-10-28T09:20:58Z</time></trkpt>
    <trkpt lat="28.571815" lon="84.690414"><ele>3381.4</ele><time>2025-10-28T09:22:41Z</time></trkpt>
    <trkpt lat="28.571803" lon="84.690481"><ele>3381.8</ele><time>2025-10-28T09:22:47Z</time></trkpt>
    <trkpt lat="28.571808" lon="84.690529"><ele>3383.2</ele><time>2025-10-28T09:22:52Z</time></trkpt>
    <trkpt lat="28.571885" lon="84.690595"><ele>3384.4</ele><time>2025-10-28T09:23:04Z</time></trkpt>
    <trkpt lat="28.571827" lon="84.690707"><ele>3389.2</ele><time>2025-10-28T09:23:24Z</time></trkpt>
    <trkpt lat="28.571824" lon="84.690720"><ele>3389.8</ele><time>2025-10-28T09:23:26Z</time></trkpt>
    <trkpt lat="28.571826" lon="84.690791"><ele>3389.8</ele><time>2025-10-28T09:23:34Z</time></trkpt>
    <trkpt lat="28.571915" lon="84.690923"><ele>3389.8</ele><time>2025-10-28T09:23:50Z</time></trkpt>
    <trkpt lat="28.571922" lon="84.690939"><ele>3388.8</ele><time>2025-10-28T09:23:55Z</time></trkpt>
    <trkpt lat="28.571887" lon="84.691199"><ele>3383.6</ele><time>2025-10-28T09:24:19Z</time></trkpt>
    <trkpt lat="28.571946" lon="84.691482"><ele>3378.0</ele><time>2025-10-28T09:24:39Z</time></trkpt>
    <trkpt lat="28.571917" lon="84.691835"><ele>3370.8</ele><time>2025-10-28T09:25:11Z</time></trkpt>
    <trkpt lat="28.571968" lon="84.691853"><ele>3368.6</ele><time>2025-10-28T09:25:20Z</time></trkpt>
    <trkpt lat="28.571950" lon="84.691917"><ele>3367.4</ele><time>2025-10-28T09:25:26Z</time></trkpt>
    <trkpt lat="28.571988" lon="84.692030"><ele>3363.8</ele><time>2025-10-28T09:25:35Z</time></trkpt>
    <trkpt lat="28.572148" lon="84.692180"><ele>3358.2</ele><time>2025-10-28T09:25:50Z</time></trkpt>
    <trkpt lat="28.572155" lon="84.692193"><ele>3357.8</ele><time>2025-10-28T09:25:51Z</time></trkpt>
    <trkpt lat="28.572302" lon="84.692556"><ele>3353.0</ele><time>2025-10-28T09:26:27Z</time></trkpt>
    <trkpt lat="28.572158" lon="84.692931"><ele>3348.6</ele><time>2025-10-28T09:27:09Z</time></trkpt>
    <trkpt lat="28.572159" lon="84.692941"><ele>3348.4</ele><time>2025-10-28T09:27:10Z</time></trkpt>
    <trkpt lat="28.572251" lon="84.693255"><ele>3341.4</ele><time>2025-10-28T09:27:37Z</time></trkpt>
    <trkpt lat="28.572165" lon="84.693409"><ele>3336.6</ele><time>2025-10-28T09:27:52Z</time></trkpt>
    <trkpt lat="28.572182" lon="84.693508"><ele>3333.4</ele><time>2025-10-28T09:28:01Z</time></trkpt>
    <trkpt lat="28.572142" lon="84.693625"><ele>3331.0</ele><time>2025-10-28T09:28:09Z</time></trkpt>
    <trkpt lat="28.572069" lon="84.693837"><ele>3328.6</ele><time>2025-10-28T09:29:06Z</time></trkpt>
    <trkpt lat="28.572061" lon="84.693909"><ele>3328.4</ele><time>2025-10-28T09:29:15Z</time></trkpt>
    <trkpt lat="28.572050" lon="84.694165"><ele>3324.0</ele><time>2025-10-28T09:29:36Z</time></trkpt>
    <trkpt lat="28.572423" lon="84.694564"><ele>3311.8</ele><time>2025-10-28T09:30:21Z</time></trkpt>
    <trkpt lat="28.572488" lon="84.694623"><ele>3310.4</ele><time>2025-10-28T09:30:29Z</time></trkpt>
    <trkpt lat="28.572517" lon="84.694775"><ele>3308.6</ele><time>2025-10-28T09:30:39Z</time></trkpt>
    <trkpt lat="28.572652" lon="84.695071"><ele>3305.0</ele><time>2025-10-28T09:31:04Z</time></trkpt>
    <trkpt lat="28.572901" lon="84.695429"><ele>3300.4</ele><time>2025-10-28T09:31:41Z</time></trkpt>
    <trkpt lat="28.573025" lon="84.695916"><ele>3292.2</ele><time>2025-10-28T09:32:28Z</time></trkpt>
    <trkpt lat="28.573047" lon="84.695952"><ele>3291.6</ele><time>2025-10-28T09:32:31Z</time></trkpt>
    <trkpt lat="28.573182" lon="84.696230"><ele>3285.4</ele><time>2025-10-28T09:32:54Z</time></trkpt>
    <trkpt lat="28.573440" lon="84.696483"><ele>3277.8</ele><time>2025-10-28T09:33:25Z</time></trkpt>
    <trkpt lat="28.573496" lon="84.696497"><ele>3275.8</ele><time>2025-10-28T09:33:33Z</time></trkpt>
    <trkpt lat="28.573408" lon="84.696549"><ele>3273.4</ele><time>2025-10-28T09:33:43Z</time></trkpt>
    <trkpt lat="28.573387" lon="84.696702"><ele>3272.0</ele><time>2025-10-28T09:33:54Z</time></trkpt>
    <trkpt lat="28.573458" lon="84.696761"><ele>3271.0</ele><time>2025-10-28T09:34:01Z</time></trkpt>
    <trkpt lat="28.573545" lon="84.697007"><ele>3265.6</ele><time>2025-10-28T09:34:24Z</time></trkpt>
    <trkpt lat="28.573895" lon="84.697407"><ele>3257.0</ele><time>2025-10-28T09:35:12Z</time></trkpt>
    <trkpt lat="28.573918" lon="84.697476"><ele>3256.0</ele><time>2025-10-28T09:35:18Z</time></trkpt>
    <trkpt lat="28.573834" lon="84.697628"><ele>3254.0</ele><time>2025-10-28T09:35:32Z</time></trkpt>
    <trkpt lat="28.573877" lon="84.697794"><ele>3251.6</ele><time>2025-10-28T09:35:47Z</time></trkpt>
    <trkpt lat="28.574114" lon="84.698417"><ele>3241.0</ele><time>2025-10-28T09:36:44Z</time></trkpt>
    <trkpt lat="28.574120" lon="84.698490"><ele>3239.8</ele><time>2025-10-28T09:36:50Z</time></trkpt>
    <trkpt lat="28.574287" lon="84.698754"><ele>3231.8</ele><time>2025-10-28T09:37:20Z</time></trkpt>
    <trkpt lat="28.574419" lon="84.699085"><ele>3225.0</ele><time>2025-10-28T09:37:52Z</time></trkpt>
    <trkpt lat="28.574414" lon="84.699583"><ele>3217.4</ele><time>2025-10-28T09:38:32Z</time></trkpt>
    <trkpt lat="28.574434" lon="84.699627"><ele>3216.6</ele><time>2025-10-28T09:38:35Z</time></trkpt>
    <trkpt lat="28.574604" lon="84.699957"><ele>3211.6</ele><time>2025-10-28T09:39:12Z</time></trkpt>
    <trkpt lat="28.574720" lon="84.700031"><ele>3209.2</ele><time>2025-10-28T09:39:25Z</time></trkpt>
    <trkpt lat="28.574833" lon="84.700306"><ele>3205.0</ele><time>2025-10-28T09:39:57Z</time></trkpt>
    <trkpt lat="28.574824" lon="84.700373"><ele>3204.2</ele><time>2025-10-28T09:40:07Z</time></trkpt>
    <trkpt lat="28.574094" lon="84.700850"><ele>3198.4</ele><time>2025-10-28T09:41:16Z</time></trkpt>
    <trkpt lat="28.574012" lon="84.701181"><ele>3193.2</ele><time>2025-10-28T09:41:50Z</time></trkpt>
    <trkpt lat="28.574030" lon="84.701225"><ele>3193.0</ele><time>2025-10-28T09:41:59Z</time></trkpt>
    <trkpt lat="28.574054" lon="84.701417"><ele>3190.2</ele><time>2025-10-28T09:42:12Z</time></trkpt>
    <trkpt lat="28.574137" lon="84.701626"><ele>3186.2</ele><time>2025-10-28T09:42:30Z</time></trkpt>
    <trkpt lat="28.574107" lon="84.701816"><ele>3183.6</ele><time>2025-10-28T09:42:46Z</time></trkpt>
    <trkpt lat="28.574279" lon="84.702007"><ele>3183.0</ele><time>2025-10-28T09:43:04Z</time></trkpt>
    <trkpt lat="28.574293" lon="84.702082"><ele>3182.8</ele><time>2025-10-28T09:43:10Z</time></trkpt>
    <trkpt lat="28.574251" lon="84.702235"><ele>3182.4</ele><time>2025-10-28T09:43:22Z</time></trkpt>
    <trkpt lat="28.574152" lon="84.702330"><ele>3182.2</ele><time>2025-10-28T09:43:32Z</time></trkpt>
    <trkpt lat="28.574088" lon="84.702330"><ele>3181.4</ele><time>2025-10-28T09:44:11Z</time></trkpt>
    </trkseg>
  </trk>
</gpx>
