<?xml version="1.0" encoding="UTF-8"?>
<gpx version="1.1" creator="tripplanner (simplified from Strava export)" xmlns="http://www.topografix.com/GPX/1/1">
  <metadata>
    <name>Manaslu — Bihi → Chisopani</name>
    <time>2025-10-30T01:54:52Z</time>
  </metadata>
  <trk>
    <name>Manaslu — Bihi → Chisopani</name>
    <trkseg>
    <trkpt lat="28.508305" lon="84.862909"><ele>2166.6</ele><time>2025-10-30T01:54:52Z</time></trkpt>
    <trkpt lat="28.508315" lon="84.863054"><ele>2166.8</ele><time>2025-10-30T01:56:12Z</time></trkpt>
    <trkpt lat="28.508282" lon="84.863104"><ele>2167.0</ele><time>2025-10-30T01:56:16Z</time></trkpt>
    <trkpt lat="28.508182" lon="84.863218"><ele>2170.0</ele><time>2025-10-30T01:56:32Z</time></trkpt>
    <trkpt lat="28.507820" lon="84.863514"><ele>2168.8</ele><time>2025-10-30T01:57:11Z</time></trkpt>
    <trkpt lat="28.507748" lon="84.863897"><ele>2168.6</ele><time>2025-10-30T01:57:37Z</time></trkpt>
    <trkpt lat="28.507648" lon="84.863803"><ele>2169.0</ele><time>2025-10-30T01:57:48Z</time></trkpt>
    <trkpt lat="28.507620" lon="84.863790"><ele>2169.4</ele><time>2025-10-30T01:57:51Z</time></trkpt>
    <trkpt lat="28.507555" lon="84.863847"><ele>2171.6</ele><time>2025-10-30T01:58:02Z</time></trkpt>
    <trkpt lat="28.507566" lon="84.863984"><ele>2173.8</ele><time>2025-10-30T01:58:15Z</time></trkpt>
    <trkpt lat="28.507384" lon="84.864569"><ele>2179.2</ele><time>2025-10-30T01:59:04Z</time></trkpt>
    <trkpt lat="28.507378" lon="84.864626"><ele>2180.2</ele><time>2025-10-30T01:59:09Z</time></trkpt>
    <trkpt lat="28.507338" lon="84.864899"><ele>2180.2</ele><time>2025-10-30T01:59:31Z</time></trkpt>
    <trkpt lat="28.506931" lon="84.865382"><ele>2177.2</ele><time>2025-10-30T02:00:17Z</time></trkpt>
    <trkpt lat="28.506786" lon="84.865639"><ele>2176.6</ele><time>2025-10-30T02:00:40Z</time></trkpt>
    <trkpt lat="28.506650" lon="84.865798"><ele>2176.6</ele><time>2025-10-30T02:00:54Z</time></trkpt>
    <trkpt lat="28.506378" lon="84.865967"><ele>2176.6</ele><time>2025-10-30T02:01:18Z</time></trkpt>
    <trkpt lat="28.506303" lon="84.866017"><ele>2177.6</ele><time>2025-10-30T02:01:26Z</time></trkpt>
    <trkpt lat="28.506000" lon="84.866327"><ele>2182.0</ele><time>2025-10-30T02:02:03Z</time></trkpt>
    <trkpt lat="28.505623" lon="84.866587"><ele>2191.8</ele><time>2025-10-30T02:02:57Z</time></trkpt>
    <trkpt lat="28.505544" lon="84.866698"><ele>2194.8</ele><time>2025-10-30T02:03:15Z</time></trkpt>
    <trkpt lat="28.505402" lon="84.866861"><ele>2194.0</ele><time>2025-10-30T02:04:13Z</time></trkpt>
    <trkpt lat="28.505231" lon="84.867073"><ele>2190.2</ele><time>2025-10-30T02:04:34Z</time></trkpt>
    <trkpt lat="28.505000" lon="84.867203"><ele>2186.6</ele><time>2025-10-30T02:04:57Z</time></trkpt>
    <trkpt lat="28.504769" lon="84.867639"><ele>2180.2</ele><time>2025-10-30T02:05:41Z</time></trkpt>
    <trkpt lat="28.504716" lon="84.867687"><ele>2180.0</ele><time>2025-10-30T02:05:47Z</time></trkpt>
    <trkpt lat="28.504674" lon="84.867889"><ele>2180.0</ele><time>2025-10-30T02:06:02Z</time></trkpt>
    <trkpt lat="28.504593" lon="84.868030"><ele>2180.2</ele><time>2025-10-30T02:06:19Z</time></trkpt>
    <trkpt lat="28.504465" lon="84.867974"><ele>2180.8</ele><time>2025-10-30T02:06:58Z</time></trkpt>
    <trkpt lat="28.504287" lon="84.867979"><ele>2180.8</ele><time>2025-10-30T02:07:11Z</time></trkpt>
    <trkpt lat="28.504011" lon="84.867976"><ele>2174.8</ele><time>2025-10-30T02:07:33Z</time></trkpt>
    <trkpt lat="28.503911" lon="84.867999"><ele>2173.6</ele><time>2025-10-30T02:07:41Z</time></trkpt>
    <trkpt lat="28.503765" lon="84.868060"><ele>2170.4</ele><time>2025-10-30T02:08:17Z</time></trkpt>
    <trkpt lat="28.503552" lon="84.868243"><ele>2168.8</ele><time>2025-10-30T02:08:38Z</time></trkpt>
    <trkpt lat="28.503376" lon="84.868284"><ele>2167.0</ele><time>2025-10-30T02:08:52Z</time></trkpt>
    <trkpt lat="28.503271" lon="84.868327"><ele>2166.2</ele><time>2025-10-30T02:09:00Z</time></trkpt>
    <trkpt lat="28.503147" lon="84.868262"><ele>2163.4</ele><time>2025-10-30T02:09:12Z</time></trkpt>
    <trkpt lat="28.502948" lon="84.868230"><ele>2159.0</ele><time>2025-10-30T02:09:29Z</time></trkpt>
    <trkpt lat="28.502673" lon="84.868243"><ele>2152.2</ele><time>2025-10-30T02:09:56Z</time></trkpt>
    <trkpt lat="28.502519" lon="84.868374"><ele>2151.0</ele><time>2025-10-30T02:10:13Z</time></trkpt>
    <trkpt lat="28.502419" lon="84.868405"><ele>2149.8</ele><time>2025-10-30T02:10:21Z</time></trkpt>
    <trkpt lat="28.502257" lon="84.868355"><ele>2147.4</ele><time>2025-10-30T02:10:35Z</time></trkpt>
    <trkpt lat="28.502017" lon="84.868275"><ele>2147.4</ele><time>2025-10-30T02:10:54Z</time></trkpt>
    <trkpt lat="28.501718" lon="84.868314"><ele>2149.0</ele><time>2025-10-30T02:11:22Z</time></trkpt>
    <trkpt lat="28.501616" lon="84.868393"><ele>2149.0</ele><time>2025-10-30T02:11:37Z</time></trkpt>
    <trkpt lat="28.501348" lon="84.868798"><ele>2140.2</ele><time>2025-10-30T02:12:23Z</time></trkpt>
    <trkpt lat="28.500928" lon="84.869363"><ele>2142.6</ele><time>2025-10-30T02:13:14Z</time></trkpt>
    <trkpt lat="28.500763" lon="84.869321"><ele>2142.6</ele><time>2025-10-30T02:13:38Z</time></trkpt>
    <trkpt lat="28.500356" lon="84.869250"><ele>2130.6</ele><time>2025-10-30T02:14:20Z</time></trkpt>
    <trkpt lat="28.500220" lon="84.869164"><ele>2126.2</ele><time>2025-10-30T02:14:34Z</time></trkpt>
    <trkpt lat="28.500154" lon="84.869195"><ele>2123.6</ele><time>2025-10-30T02:14:41Z</time></trkpt>
    <trkpt lat="28.500086" lon="84.869234"><ele>2122.6</ele><time>2025-10-30T02:14:46Z</time></trkpt>
    <trkpt lat="28.499995" lon="84.869196"><ele>2122.6</ele><time>2025-10-30T02:14:54Z</time></trkpt>
    <trkpt lat="28.499865" lon="84.869046"><ele>2122.4</ele><time>2025-10-30T02:15:11Z</time></trkpt>
    <trkpt lat="28.499724" lon="84.869101"><ele>2119.8</ele><time>2025-10-30T02:15:22Z</time></trkpt>
    <trkpt lat="28.499504" lon="84.868950"><ele>2119.4</ele><time>2025-10-30T02:15:40Z</time></trkpt>
    <trkpt lat="28.499045" lon="84.868872"><ele>2116.0</ele><time>2025-10-30T02:16:15Z</time></trkpt>
    <trkpt lat="28.498782" lon="84.868747"><ele>2109.0</ele><time>2025-10-30T02:16:38Z</time></trkpt>
    <trkpt lat="28.498484" lon="84.868701"><ele>2101.6</ele><time>2025-10-30T02:17:02Z</time></trkpt>
    <trkpt lat="28.498284" lon="84.868819"><ele>2092.4</ele><time>2025-10-30T02:17:29Z</time></trkpt>
    <trkpt lat="28.498179" lon="84.869124"><ele>2083.0</ele><time>2025-10-30T02:17:58Z</time></trkpt>
    <trkpt lat="28.498121" lon="84.869196"><ele>2080.8</ele><time>2025-10-30T02:18:04Z</time></trkpt>
    <trkpt lat="28.497950" lon="84.869308"><ele>2080.6</ele><time>2025-10-30T02:18:17Z</time></trkpt>
    <trkpt lat="28.497763" lon="84.869290"><ele>2079.6</ele><time>2025-10-30T02:18:36Z</time></trkpt>
    <trkpt lat="28.497850" lon="84.869530"><ele>2074.0</ele><time>2025-10-30T02:18:56Z</time></trkpt>
    <trkpt lat="28.497787" lon="84.869640"><ele>2072.4</ele><time>2025-10-30T02:19:05Z</time></trkpt>
    <trkpt lat="28.497812" lon="84.869771"><ele>2070.8</ele><time>2025-10-30T02:19:14Z</time></trkpt>
    <trkpt lat="28.497755" lon="84.869858"><ele>2069.6</ele><time>2025-10-30T02:19:22Z</time></trkpt>
    <trkpt lat="28.497683" lon="84.869935"><ele>2067.2</ele><time>2025-10-30T02:19:31Z</time></trkpt>
    <trkpt lat="28.497588" lon="84.869926"><ele>2063.8</ele><time>2025-10-30T02:19:41Z</time></trkpt>
    <trkpt lat="28.497511" lon="84.869967"><ele>2060.2</ele><time>2025-10-30T02:19:55Z</time></trkpt>
    <trkpt lat="28.497470" lon="84.869963"><ele>2058.6</ele><time>2025-10-30T02:20:00Z</time></trkpt>
    <trkpt lat="28.497498" lon="84.869891"><ele>2055.0</ele><time>2025-10-30T02:20:11Z</time></trkpt>
    <trkpt lat="28.497380" lon="84.869952"><ele>2050.8</ele><time>2025-10-30T02:20:25Z</time></trkpt>
    <trkpt lat="28.497295" lon="84.869964"><ele>2049.6</ele><time>2025-10-30T02:20:32Z</time></trkpt>
    <trkpt lat="28.497106" lon="84.869785"><ele>2048.4</ele><time>2025-10-30T02:20:56Z</time></trkpt>
    <trkpt lat="28.496891" lon="84.869722"><ele>2045.2</ele><time>2025-10-30T02:21:16Z</time></trkpt>
    <trkpt lat="28.496825" lon="84.869607"><ele>2043.0</ele><time>2025-10-30T02:21:31Z</time></trkpt>
    <trkpt lat="28.496832" lon="84.869486"><ele>2041.8</ele><time>2025-10-30T02:22:10Z</time></trkpt>
    <trkpt lat="28.496829" lon="84.869454"><ele>2040.8</ele><time>2025-10-30T02:22:14Z</time></trkpt>
    <trkpt lat="28.496793" lon="84.869420"><ele>2038.6</ele><time>2025-10-30T02:22:20Z</time></trkpt>
    <trkpt lat="28.496914" lon="84.869411"><ele>2032.4</ele><time>2025-10-30T02:22:45Z</time></trkpt>
    <trkpt lat="28.496767" lon="84.869258"><ele>2026.4</ele><time>2025-10-30T02:23:17Z</time></trkpt>
    <trkpt lat="28.496690" lon="84.869164"><ele>2026.2</ele><time>2025-10-30T02:23:26Z</time></trkpt>
    <trkpt lat="28.496608" lon="84.868908"><ele>2025.4</ele><time>2025-10-30T02:23:50Z</time></trkpt>
    <trkpt lat="28.496463" lon="84.868796"><ele>2021.8</ele><time>2025-10-30T02:24:08Z</time></trkpt>
    <trkpt lat="28.496327" lon="84.868614"><ele>2018.0</ele><time>2025-10-30T02:24:29Z</time></trkpt>
    <trkpt lat="28.496262" lon="84.868598"><ele>2016.8</ele><time>2025-10-30T02:24:58Z</time></trkpt>
    <trkpt lat="28.496213" lon="84.868576"><ele>2015.0</ele><time>2025-10-30T02:25:04Z</time></trkpt>
    <trkpt lat="28.496035" lon="84.868599"><ele>2011.4</ele><time>2025-10-30T02:25:20Z</time></trkpt>
    <trkpt lat="28.495835" lon="84.868472"><ele>2008.8</ele><time>2025-10-30T02:25:35Z</time></trkpt>
    <trkpt lat="28.495663" lon="84.868272"><ele>2004.6</ele><time>2025-10-30T02:25:55Z</time></trkpt>
    <trkpt lat="28.495447" lon="84.868231"><ele>2002.6</ele><time>2025-10-30T02:26:13Z</time></trkpt>
    <trkpt lat="28.495325" lon="84.868149"><ele>1999.0</ele><time>2025-10-30T02:26:30Z</time></trkpt>
    <trkpt lat="28.495113" lon="84.868130"><ele>1992.6</ele><time>2025-10-30T02:26:55Z</time></trkpt>
    <trkpt lat="28.494931" lon="84.868211"><ele>1989.0</ele><time>2025-10-30T02:27:14Z</time></trkpt>
    <trkpt lat="28.494663" lon="84.868180"><ele>1985.2</ele><time>2025-10-30T02:27:40Z</time></trkpt>
    <trkpt lat="28.494557" lon="84.868307"><ele>1983.2</ele><time>2025-10-30T02:27:55Z</time></trkpt>
    <trkpt lat="28.494530" lon="84.868297"><ele>1981.6</ele><time>2025-10-30T02:28:00Z</time></trkpt>
    <trkpt lat="28.494548" lon="84.868252"><ele>1980.2</ele><time>2025-10-30T02:28:05Z</time></trkpt>
    <trkpt lat="28.494383" lon="84.868278"><ele>1974.6</ele><time>2025-10-30T02:28:23Z</time></trkpt>
    <trkpt lat="28.493955" lon="84.868017"><ele>1965.2</ele><time>2025-10-30T02:29:15Z</time></trkpt>
    <trkpt lat="28.493798" lon="84.868022"><ele>1961.0</ele><time>2025-10-30T02:29:34Z</time></trkpt>
    <trkpt lat="28.493408" lon="84.867973"><ele>1960.4</ele><time>2025-10-30T02:30:21Z</time></trkpt>
    <trkpt lat="28.493323" lon="84.867866"><ele>1961.8</ele><time>2025-10-30T02:30:34Z</time></trkpt>
    <trkpt lat="28.493295" lon="84.867836"><ele>1963.2</ele><time>2025-10-30T02:30:40Z</time></trkpt>
    <trkpt lat="28.493260" lon="84.867962"><ele>1968.6</ele><time>2025-10-30T02:31:12Z</time></trkpt>
    <trkpt lat="28.493226" lon="84.867820"><ele>1972.8</ele><time>2025-10-30T02:31:44Z</time></trkpt>
    <trkpt lat="28.493126" lon="84.867795"><ele>1975.2</ele><time>2025-10-30T02:32:00Z</time></trkpt>
    <trkpt lat="28.493113" lon="84.867802"><ele>1974.4</ele><time>2025-10-30T02:33:51Z</time></trkpt>
    <trkpt lat="28.493138" lon="84.867775"><ele>1973.8</ele><time>2025-10-30T02:35:41Z</time></trkpt>
    <trkpt lat="28.493096" lon="84.867756"><ele>1973.8</ele><time>2025-10-30T02:35:59Z</time></trkpt>
    <trkpt lat="28.492946" lon="84.867783"><ele>1978.6</ele><time>2025-10-30T02:36:27Z</time></trkpt>
    <trkpt lat="28.492918" lon="84.867822"><ele>1980.4</ele><time>2025-10-30T02:36:38Z</time></trkpt>
    <trkpt lat="28.492716" lon="84.867745"><ele>1980.6</ele><time>2025-10-30T02:36:58Z</time></trkpt>
    <trkpt lat="28.492560" lon="84.867771"><ele>1980.6</ele><time>2025-10-30T02:37:11Z</time></trkpt>
    <trkpt lat="28.492488" lon="84.867742"><ele>1980.6</ele><time>2025-10-30T02:37:17Z</time></trkpt>
    <trkpt lat="28.492073" lon="84.867593"><ele>1975.0</ele><time>2025-10-30T02:37:53Z</time></trkpt>
    <trkpt lat="28.491946" lon="84.867470"><ele>1974.0</ele><time>2025-10-30T02:38:07Z</time></trkpt>
    <trkpt lat="28.491517" lon="84.867460"><ele>1973.2</ele><time>2025-10-30T02:38:44Z</time></trkpt>
    <trkpt lat="28.491215" lon="84.867294"><ele>1972.0</ele><time>2025-10-30T02:39:15Z</time></trkpt>
    <trkpt lat="28.491053" lon="84.867300"><ele>1971.6</ele><time>2025-10-30T02:39:29Z</time></trkpt>
    <trkpt lat="28.491013" lon="84.867221"><ele>1968.6</ele><time>2025-10-30T02:39:47Z</time></trkpt>
    <trkpt lat="28.490860" lon="84.867226"><ele>1964.4</ele><time>2025-10-30T02:40:11Z</time></trkpt>
    <trkpt lat="28.490838" lon="84.867235"><ele>1964.2</ele><time>2025-10-30T02:40:23Z</time></trkpt>
    <trkpt lat="28.490838" lon="84.867146"><ele>1962.0</ele><time>2025-10-30T02:40:36Z</time></trkpt>
    <trkpt lat="28.490758" lon="84.867154"><ele>1960.0</ele><time>2025-10-30T02:40:49Z</time></trkpt>
    <trkpt lat="28.490706" lon="84.867115"><ele>1958.8</ele><time>2025-10-30T02:40:57Z</time></trkpt>
    <trkpt lat="28.490660" lon="84.867144"><ele>1957.4</ele><time>2025-10-30T02:41:04Z</time></trkpt>
    <trkpt lat="28.490595" lon="84.867060"><ele>1953.8</ele><time>2025-10-30T02:41:26Z</time></trkpt>
    <trkpt lat="28.490494" lon="84.867060"><ele>1951.6</ele><time>2025-10-30T02:41:38Z</time></trkpt>
    <trkpt lat="28.490514" lon="84.866923"><ele>1948.8</ele><time>2025-10-30T02:41:56Z</time></trkpt>
    <trkpt lat="28.490434" lon="84.866940"><ele>1946.8</ele><time>2025-10-30T02:42:16Z</time></trkpt>
    <trkpt lat="28.490317" lon="84.866886"><ele>1942.4</ele><time>2025-10-30T02:42:46Z</time></trkpt>
    <trkpt lat="28.490113" lon="84.866855"><ele>1937.8</ele><time>2025-10-30T02:43:10Z</time></trkpt>
    <trkpt lat="28.489592" lon="84.866863"><ele>1924.0</ele><time>2025-10-30T02:44:19Z</time></trkpt>
    <trkpt lat="28.489424" lon="84.866847"><ele>1923.6</ele><time>2025-10-30T02:44:34Z</time></trkpt>
    <trkpt lat="28.489189" lon="84.866889"><ele>1922.0</ele><time>2025-10-30T02:45:02Z</time></trkpt>
    <trkpt lat="28.489048" lon="84.866942"><ele>1917.2</ele><time>2025-10-30T02:45:18Z</time></trkpt>
    <trkpt lat="28.488976" lon="84.866898"><ele>1916.0</ele><time>2025-10-30T02:45:25Z</time></trkpt>
    <trkpt lat="28.489110" lon="84.866613"><ele>1910.4</ele><time>2025-10-30T02:45:47Z</time></trkpt>
    <trkpt lat="28.489062" lon="84.866579"><ele>1909.0</ele><time>2025-10-30T02:45:52Z</time></trkpt>
    <trkpt lat="28.488933" lon="84.866667"><ele>1905.2</ele><time>2025-10-30T02:46:06Z</time></trkpt>
    <trkpt lat="28.488746" lon="84.866580"><ele>1900.0</ele><time>2025-10-30T02:46:25Z</time></trkpt>
    <trkpt lat="28.488720" lon="84.866622"><ele>1899.4</ele><time>2025-10-30T02:46:29Z</time></trkpt>
    <trkpt lat="28.488774" lon="84.866767"><ele>1895.6</ele><time>2025-10-30T02:46:43Z</time></trkpt>
    <trkpt lat="28.488757" lon="84.866900"><ele>1888.8</ele><time>2025-10-30T02:47:12Z</time></trkpt>
    <trkpt lat="28.488720" lon="84.866878"><ele>1884.2</ele><time>2025-10-30T02:47:37Z</time></trkpt>
    <trkpt lat="28.488698" lon="84.866910"><ele>1882.6</ele><time>2025-10-30T02:47:47Z</time></trkpt>
    <trkpt lat="28.488601" lon="84.866839"><ele>1877.6</ele><time>2025-10-30T02:48:02Z</time></trkpt>
    <trkpt lat="28.488599" lon="84.866897"><ele>1872.6</ele><time>2025-10-30T02:48:21Z</time></trkpt>
    <trkpt lat="28.488522" lon="84.866776"><ele>1866.2</ele><time>2025-10-30T02:48:42Z</time></trkpt>
    <trkpt lat="28.488480" lon="84.866866"><ele>1863.0</ele><time>2025-10-30T02:48:56Z</time></trkpt>
    <trkpt lat="28.488435" lon="84.866668"><ele>1856.6</ele><time>2025-10-30T02:49:21Z</time></trkpt>
    <trkpt lat="28.488191" lon="84.866919"><ele>1842.2</ele><time>2025-10-30T02:50:12Z</time></trkpt>
    <trkpt lat="28.488165" lon="84.866944"><ele>1842.2</ele><time>2025-10-30T02:50:18Z</time></trkpt>
    <trkpt lat="28.487961" lon="84.866905"><ele>1843.6</ele><time>2025-10-30T02:50:54Z</time></trkpt>
    <trkpt lat="28.487932" lon="84.866931"><ele>1843.6</ele><time>2025-10-30T02:51:02Z</time></trkpt>
    <trkpt lat="28.487844" lon="84.866842"><ele>1843.0</ele><time>2025-10-30T02:51:19Z</time></trkpt>
    <trkpt lat="28.487764" lon="84.866635"><ele>1842.8</ele><time>2025-10-30T02:51:51Z</time></trkpt>
    <trkpt lat="28.487614" lon="84.866400"><ele>1843.2</ele><time>2025-10-30T02:52:13Z</time></trkpt>
    <trkpt lat="28.487577" lon="84.866410"><ele>1843.2</ele><time>2025-10-30T02:52:35Z</time></trkpt>
    <trkpt lat="28.487506" lon="84.866424"><ele>1841.6</ele><time>2025-10-30T02:52:42Z</time></trkpt>
    <trkpt lat="28.487163" lon="84.866356"><ele>1838.8</ele><time>2025-10-30T02:53:23Z</time></trkpt>
    <trkpt lat="28.487073" lon="84.866206"><ele>1834.8</ele><time>2025-10-30T02:53:39Z</time></trkpt>
    <trkpt lat="28.486631" lon="84.865838"><ele>1831.4</ele><time>2025-10-30T02:54:17Z</time></trkpt>
    <trkpt lat="28.486543" lon="84.865735"><ele>1830.0</ele><time>2025-10-30T02:54:26Z</time></trkpt>
    <trkpt lat="28.486448" lon="84.865626"><ele>1830.0</ele><time>2025-10-30T02:54:36Z</time></trkpt>
    <trkpt lat="28.485921" lon="84.865349"><ele>1831.0</ele><time>2025-10-30T02:55:22Z</time></trkpt>
    <trkpt lat="28.485615" lon="84.865385"><ele>1834.8</ele><time>2025-10-30T02:55:54Z</time></trkpt>
    <trkpt lat="28.485504" lon="84.865446"><ele>1835.4</ele><time>2025-10-30T02:56:04Z</time></trkpt>
    <trkpt lat="28.485421" lon="84.865589"><ele>1839.4</ele><time>2025-10-30T02:56:23Z</time></trkpt>
    <trkpt lat="28.485395" lon="84.865490"><ele>1842.0</ele><time>2025-10-30T02:56:38Z</time></trkpt>
    <trkpt lat="28.485360" lon="84.865625"><ele>1846.8</ele><time>2025-10-30T02:57:06Z</time></trkpt>
    <trkpt lat="28.485289" lon="84.865665"><ele>1848.8</ele><time>2025-10-30T02:57:17Z</time></trkpt>
    <trkpt lat="28.485213" lon="84.865655"><ele>1851.6</ele><time>2025-10-30T02:57:34Z</time></trkpt>
    <trkpt lat="28.485207" lon="84.865667"><ele>1851.8</ele><time>2025-10-30T02:58:00Z</time></trkpt>
    <trkpt lat="28.485220" lon="84.865632"><ele>1852.6</ele><time>2025-10-30T02:58:08Z</time></trkpt>
    <trkpt lat="28.485249" lon="84.865482"><ele>1858.2</ele><time>2025-10-30T02:58:36Z</time></trkpt>
    <trkpt lat="28.485238" lon="84.865526"><ele>1860.2</ele><time>2025-10-30T02:58:48Z</time></trkpt>
    <trkpt lat="28.485041" lon="84.865578"><ele>1868.4</ele><time>2025-10-30T02:59:34Z</time></trkpt>
    <trkpt lat="28.485001" lon="84.865578"><ele>1869.4</ele><time>2025-10-30T02:59:40Z</time></trkpt>
    <trkpt lat="28.484991" lon="84.865536"><ele>1871.8</ele><time>2025-10-30T02:59:53Z</time></trkpt>
    <trkpt lat="28.484873" lon="84.865587"><ele>1875.2</ele><time>2025-10-30T03:00:21Z</time></trkpt>
    <trkpt lat="28.484786" lon="84.865579"><ele>1876.6</ele><time>2025-10-30T03:00:34Z</time></trkpt>
    <trkpt lat="28.484779" lon="84.865562"><ele>1876.6</ele><time>2025-10-30T03:00:56Z</time></trkpt>
    <trkpt lat="28.484784" lon="84.865597"><ele>1876.4</ele><time>2025-10-30T03:01:29Z</time></trkpt>
    <trkpt lat="28.484794" lon="84.865564"><ele>1876.2</ele><time>2025-10-30T03:01:45Z</time></trkpt>
    <trkpt lat="28.484575" lon="84.865660"><ele>1875.8</ele><time>2025-10-30T03:02:16Z</time></trkpt>
    <trkpt lat="28.484347" lon="84.865852"><ele>1870.0</ele><time>2025-10-30T03:02:45Z</time></trkpt>
    <trkpt lat="28.484204" lon="84.865880"><ele>1867.6</ele><time>2025-10-30T03:02:56Z</time></trkpt>
    <trkpt lat="28.484113" lon="84.865911"><ele>1867.6</ele><time>2025-10-30T03:03:04Z</time></trkpt>
    <trkpt lat="28.484007" lon="84.865979"><ele>1867.6</ele><time>2025-10-30T03:03:18Z</time></trkpt>
    <trkpt lat="28.483893" lon="84.865905"><ele>1867.6</ele><time>2025-10-30T03:03:37Z</time></trkpt>
    <trkpt lat="28.483818" lon="84.865944"><ele>1868.0</ele><time>2025-10-30T03:03:45Z</time></trkpt>
    <trkpt lat="28.483724" lon="84.865989"><ele>1871.0</ele><time>2025-10-30T03:04:01Z</time></trkpt>
    <trkpt lat="28.483578" lon="84.865937"><ele>1876.6</ele><time>2025-10-30T03:04:32Z</time></trkpt>
    <trkpt lat="28.483462" lon="84.865902"><ele>1876.6</ele><time>2025-10-30T03:04:53Z</time></trkpt>
    <trkpt lat="28.483387" lon="84.865941"><ele>1875.4</ele><time>2025-10-30T03:05:38Z</time></trkpt>
    <trkpt lat="28.483302" lon="84.865977"><ele>1872.2</ele><time>2025-10-30T03:05:59Z</time></trkpt>
    <trkpt lat="28.483206" lon="84.865977"><ele>1870.0</ele><time>2025-10-30T03:06:11Z</time></trkpt>
    <trkpt lat="28.483130" lon="84.865814"><ele>1863.2</ele><time>2025-10-30T03:06:41Z</time></trkpt>
    <trkpt lat="28.483093" lon="84.865842"><ele>1861.4</ele><time>2025-10-30T03:06:49Z</time></trkpt>
    <trkpt lat="28.483052" lon="84.865798"><ele>1860.2</ele><time>2025-10-30T03:06:54Z</time></trkpt>
    <trkpt lat="28.482990" lon="84.865901"><ele>1857.0</ele><time>2025-10-30T03:07:09Z</time></trkpt>
    <trkpt lat="28.482793" lon="84.865956"><ele>1852.0</ele><time>2025-10-30T03:07:31Z</time></trkpt>
    <trkpt lat="28.482646" lon="84.866000"><ele>1852.0</ele><time>2025-10-30T03:07:44Z</time></trkpt>
    <trkpt lat="28.482579" lon="84.866057"><ele>1852.2</ele><time>2025-10-30T03:07:54Z</time></trkpt>
    <trkpt lat="28.482425" lon="84.866174"><ele>1856.6</ele><time>2025-10-30T03:08:17Z</time></trkpt>
    <trkpt lat="28.482308" lon="84.866207"><ele>1861.4</ele><time>2025-10-30T03:08:44Z</time></trkpt>
    <trkpt lat="28.482191" lon="84.866246"><ele>1864.2</ele><time>2025-10-30T03:09:20Z</time></trkpt>
    <trkpt lat="28.482071" lon="84.866210"><ele>1865.0</ele><time>2025-10-30T03:09:33Z</time></trkpt>
    <trkpt lat="28.481800" lon="84.866159"><ele>1865.0</ele><time>2025-10-30T03:10:00Z</time></trkpt>
    <trkpt lat="28.481727" lon="84.866204"><ele>1863.0</ele><time>2025-10-30T03:10:07Z</time></trkpt>
    <trkpt lat="28.481575" lon="84.866418"><ele>1861.8</ele><time>2025-10-30T03:10:27Z</time></trkpt>
    <trkpt lat="28.481385" lon="84.866427"><ele>1860.6</ele><time>2025-10-30T03:10:42Z</time></trkpt>
    <trkpt lat="28.481318" lon="84.866537"><ele>1860.6</ele><time>2025-10-30T03:10:56Z</time></trkpt>
    <trkpt lat="28.481290" lon="84.866547"><ele>1861.8</ele><time>2025-10-30T03:11:01Z</time></trkpt>
    <trkpt lat="28.481165" lon="84.866510"><ele>1864.2</ele><time>2025-10-30T03:11:17Z</time></trkpt>
    <trkpt lat="28.481079" lon="84.866550"><ele>1864.8</ele><time>2025-10-30T03:11:25Z</time></trkpt>
    <trkpt lat="28.481036" lon="84.866619"><ele>1866.2</ele><time>2025-10-30T03:11:34Z</time></trkpt>
    <trkpt lat="28.480970" lon="84.866564"><ele>1868.4</ele><time>2025-10-30T03:11:45Z</time></trkpt>
    <trkpt lat="28.480867" lon="84.866496"><ele>1868.4</ele><time>2025-10-30T03:12:00Z</time></trkpt>
    <trkpt lat="28.480735" lon="84.866478"><ele>1868.4</ele><time>2025-10-30T03:12:12Z</time></trkpt>
    <trkpt lat="28.480547" lon="84.866562"><ele>1868.8</ele><time>2025-10-30T03:12:28Z</time></trkpt>
    <trkpt lat="28.480400" lon="84.866580"><ele>1868.8</ele><time>2025-10-30T03:12:41Z</time></trkpt>
    <trkpt lat="28.480218" lon="84.866682"><ele>1869.6</ele><time>2025-10-30T03:13:02Z</time></trkpt>
    <trkpt lat="28.480165" lon="84.866752"><ele>1869.6</ele><time>2025-10-30T03:13:18Z</time></trkpt>
    <trkpt lat="28.480095" lon="84.866760"><ele>1869.6</ele><time>2025-10-30T03:13:28Z</time></trkpt>
    <trkpt lat="28.480107" lon="84.866790"><ele>1868.6</ele><time>2025-10-30T03:45:04Z</time></trkpt>
    <trkpt lat="28.479824" lon="84.866904"><ele>1867.6</ele><time>2025-10-30T03:45:33Z</time></trkpt>
    <trkpt lat="28.479543" lon="84.866939"><ele>1867.6</ele><time>2025-10-30T03:45:56Z</time></trkpt>
    <trkpt lat="28.479423" lon="84.866992"><ele>1867.6</ele><time>2025-10-30T03:46:08Z</time></trkpt>
    <trkpt lat="28.479112" lon="84.866908"><ele>1869.0</ele><time>2025-10-30T03:46:33Z</time></trkpt>
    <trkpt lat="28.478883" lon="84.866733"><ele>1870.2</ele><time>2025-10-30T03:46:54Z</time></trkpt>
    <trkpt lat="28.478837" lon="84.866635"><ele>1872.2</ele><time>2025-10-30T03:47:05Z</time></trkpt>
    <trkpt lat="28.478853" lon="84.866578"><ele>1872.6</ele><time>2025-10-30T03:47:13Z</time></trkpt>
    <trkpt lat="28.478903" lon="84.866430"><ele>1872.6</ele><time>2025-10-30T03:47:31Z</time></trkpt>
    <trkpt lat="28.478900" lon="84.866413"><ele>1872.2</ele><time>2025-10-30T03:47:32Z</time></trkpt>
    <trkpt lat="28.478876" lon="84.866340"><ele>1871.2</ele><time>2025-10-30T03:47:37Z</time></trkpt>
    <trkpt lat="28.478819" lon="84.866316"><ele>1869.0</ele><time>2025-10-30T03:47:45Z</time></trkpt>
    <trkpt lat="28.478801" lon="84.866411"><ele>1864.4</ele><time>2025-10-30T03:48:08Z</time></trkpt>
    <trkpt lat="28.478738" lon="84.866329"><ele>1861.2</ele><time>2025-10-30T03:48:21Z</time></trkpt>
    <trkpt lat="28.478713" lon="84.866458"><ele>1857.4</ele><time>2025-10-30T03:48:34Z</time></trkpt>
    <trkpt lat="28.478655" lon="84.866475"><ele>1856.4</ele><time>2025-10-30T03:48:38Z</time></trkpt>
    <trkpt lat="28.478613" lon="84.866487"><ele>1856.4</ele><time>2025-10-30T03:48:41Z</time></trkpt>
    <trkpt lat="28.478316" lon="84.866408"><ele>1856.4</ele><time>2025-10-30T03:49:07Z</time></trkpt>
    <trkpt lat="28.478299" lon="84.866492"><ele>1856.4</ele><time>2025-10-30T03:49:15Z</time></trkpt>
    <trkpt lat="28.478213" lon="84.866686"><ele>1859.8</ele><time>2025-10-30T03:49:40Z</time></trkpt>
    <trkpt lat="28.478082" lon="84.866875"><ele>1862.6</ele><time>2025-10-30T03:50:12Z</time></trkpt>
    <trkpt lat="28.478073" lon="84.867061"><ele>1866.4</ele><time>2025-10-30T03:50:39Z</time></trkpt>
    <trkpt lat="28.477901" lon="84.867323"><ele>1867.4</ele><time>2025-10-30T03:51:08Z</time></trkpt>
    <trkpt lat="28.477887" lon="84.867455"><ele>1869.4</ele><time>2025-10-30T03:51:22Z</time></trkpt>
    <trkpt lat="28.477864" lon="84.867482"><ele>1870.0</ele><time>2025-10-30T03:51:26Z</time></trkpt>
    <trkpt lat="28.477819" lon="84.867602"><ele>1870.2</ele><time>2025-10-30T03:51:38Z</time></trkpt>
    <trkpt lat="28.477723" lon="84.867718"><ele>1870.2</ele><time>2025-10-30T03:51:56Z</time></trkpt>
    <trkpt lat="28.477668" lon="84.867793"><ele>1868.8</ele><time>2025-10-30T03:52:03Z</time></trkpt>
    <trkpt lat="28.477144" lon="84.868211"><ele>1864.4</ele><time>2025-10-30T03:53:04Z</time></trkpt>
    <trkpt lat="28.477123" lon="84.868242"><ele>1863.2</ele><time>2025-10-30T03:53:11Z</time></trkpt>
    <trkpt lat="28.477205" lon="84.868252"><ele>1861.0</ele><time>2025-10-30T03:53:20Z</time></trkpt>
    <trkpt lat="28.477045" lon="84.868352"><ele>1857.8</ele><time>2025-10-30T03:53:38Z</time></trkpt>
    <trkpt lat="28.476920" lon="84.868447"><ele>1857.6</ele><time>2025-10-30T03:53:50Z</time></trkpt>
    <trkpt lat="28.476872" lon="84.868521"><ele>1857.4</ele><time>2025-10-30T03:53:58Z</time></trkpt>
    <trkpt lat="28.476768" lon="84.868980"><ele>1856.2</ele><time>2025-10-30T03:54:48Z</time></trkpt>
    <trkpt lat="28.476695" lon="84.869163"><ele>1856.2</ele><time>2025-10-30T03:55:14Z</time></trkpt>
    <trkpt lat="28.476577" lon="84.869472"><ele>1847.4</ele><time>2025-10-30T03:56:01Z</time></trkpt>
    <trkpt lat="28.476474" lon="84.869502"><ele>1846.0</ele><time>2025-10-30T03:56:14Z</time></trkpt>
    <trkpt lat="28.475927" lon="84.869760"><ele>1848.2</ele><time>2025-10-30T03:57:09Z</time></trkpt>
    <trkpt lat="28.475596" lon="84.869992"><ele>1854.8</ele><time>2025-10-30T03:57:57Z</time></trkpt>
    <trkpt lat="28.475471" lon="84.870041"><ele>1861.6</ele><time>2025-10-30T03:58:39Z</time></trkpt>
    <trkpt lat="28.475375" lon="84.870081"><ele>1862.2</ele><time>2025-10-30T03:58:55Z</time></trkpt>
    <trkpt lat="28.475235" lon="84.870253"><ele>1862.6</ele><time>2025-10-30T03:59:16Z</time></trkpt>
    <trkpt lat="28.475029" lon="84.870550"><ele>1856.2</ele><time>2025-10-30T04:00:09Z</time></trkpt>
    <trkpt lat="28.474984" lon="84.870574"><ele>1855.0</ele><time>2025-10-30T04:00:13Z</time></trkpt>
    <trkpt lat="28.474586" lon="84.870849"><ele>1854.8</ele><time>2025-10-30T04:00:54Z</time></trkpt>
    <trkpt lat="28.474402" lon="84.871159"><ele>1855.0</ele><time>2025-10-30T04:01:24Z</time></trkpt>
    <trkpt lat="28.474239" lon="84.871170"><ele>1854.8</ele><time>2025-10-30T04:01:39Z</time></trkpt>
    <trkpt lat="28.474009" lon="84.871463"><ele>1845.4</ele><time>2025-10-30T04:02:17Z</time></trkpt>
    <trkpt lat="28.473924" lon="84.871631"><ele>1839.8</ele><time>2025-10-30T04:02:41Z</time></trkpt>
    <trkpt lat="28.473822" lon="84.871598"><ele>1837.8</ele><time>2025-10-30T04:02:51Z</time></trkpt>
    <trkpt lat="28.473761" lon="84.871582"><ele>1837.2</ele><time>2025-10-30T04:02:59Z</time></trkpt>
    <trkpt lat="28.473635" lon="84.871646"><ele>1833.8</ele><time>2025-10-30T04:03:21Z</time></trkpt>
    <trkpt lat="28.473477" lon="84.871957"><ele>1829.8</ele><time>2025-10-30T04:03:53Z</time></trkpt>
    <trkpt lat="28.473286" lon="84.872147"><ele>1826.8</ele><time>2025-10-30T04:04:35Z</time></trkpt>
    <trkpt lat="28.473164" lon="84.872351"><ele>1819.4</ele><time>2025-10-30T04:05:26Z</time></trkpt>
    <trkpt lat="28.473124" lon="84.872352"><ele>1818.8</ele><time>2025-10-30T04:06:28Z</time></trkpt>
    <trkpt lat="28.473093" lon="84.872452"><ele>1813.8</ele><time>2025-10-30T04:06:50Z</time></trkpt>
    <trkpt lat="28.472580" lon="84.872860"><ele>1808.4</ele><time>2025-10-30T04:07:43Z</time></trkpt>
    <trkpt lat="28.472503" lon="84.872998"><ele>1805.6</ele><time>2025-10-30T04:07:58Z</time></trkpt>
    <trkpt lat="28.472499" lon="84.873019"><ele>1805.2</ele><time>2025-10-30T04:08:00Z</time></trkpt>
    <trkpt lat="28.472497" lon="84.873276"><ele>1804.6</ele><time>2025-10-30T04:08:17Z</time></trkpt>
    <trkpt lat="28.472358" lon="84.873452"><ele>1803.2</ele><time>2025-10-30T04:08:35Z</time></trkpt>
    <trkpt lat="28.472358" lon="84.873681"><ele>1802.6</ele><time>2025-10-30T04:08:58Z</time></trkpt>
    <trkpt lat="28.472262" lon="84.873737"><ele>1802.2</ele><time>2025-10-30T04:09:07Z</time></trkpt>
    <trkpt lat="28.472000" lon="84.874331"><ele>1798.4</ele><time>2025-10-30T04:09:59Z</time></trkpt>
    <trkpt lat="28.471882" lon="84.874448"><ele>1797.4</ele><time>2025-10-30T04:10:20Z</time></trkpt>
    <trkpt lat="28.471865" lon="84.874466"><ele>1796.6</ele><time>2025-10-30T04:10:23Z</time></trkpt>
    <trkpt lat="28.471878" lon="84.874658"><ele>1792.0</ele><time>2025-10-30T04:10:45Z</time></trkpt>
    <trkpt lat="28.471804" lon="84.874772"><ele>1789.8</ele><time>2025-10-30T04:10:56Z</time></trkpt>
    <trkpt lat="28.471450" lon="84.874984"><ele>1785.8</ele><time>2025-10-30T04:11:34Z</time></trkpt>
    <trkpt lat="28.471022" lon="84.875307"><ele>1778.8</ele><time>2025-10-30T04:12:21Z</time></trkpt>
    <trkpt lat="28.470918" lon="84.875413"><ele>1776.6</ele><time>2025-10-30T04:12:34Z</time></trkpt>
    <trkpt lat="28.470726" lon="84.875619"><ele>1775.0</ele><time>2025-10-30T04:12:55Z</time></trkpt>
    <trkpt lat="28.470576" lon="84.875662"><ele>1774.4</ele><time>2025-10-30T04:13:20Z</time></trkpt>
    <trkpt lat="28.470492" lon="84.875709"><ele>1771.0</ele><time>2025-10-30T04:13:33Z</time></trkpt>
    <trkpt lat="28.470477" lon="84.875882"><ele>1766.4</ele><time>2025-10-30T04:13:59Z</time></trkpt>
    <trkpt lat="28.470438" lon="84.875936"><ele>1764.2</ele><time>2025-10-30T04:14:10Z</time></trkpt>
    <trkpt lat="28.470377" lon="84.875967"><ele>1762.6</ele><time>2025-10-30T04:14:21Z</time></trkpt>
    <trkpt lat="28.470426" lon="84.875973"><ele>1760.4</ele><time>2025-10-30T04:14:34Z</time></trkpt>
    <trkpt lat="28.470347" lon="84.876079"><ele>1756.6</ele><time>2025-10-30T04:14:54Z</time></trkpt>
    <trkpt lat="28.470148" lon="84.876229"><ele>1752.2</ele><time>2025-10-30T04:15:16Z</time></trkpt>
    <trkpt lat="28.470040" lon="84.876391"><ele>1751.2</ele><time>2025-10-30T04:15:28Z</time></trkpt>
    <trkpt lat="28.469836" lon="84.876525"><ele>1749.0</ele><time>2025-10-30T04:15:53Z</time></trkpt>
    <trkpt lat="28.469676" lon="84.876631"><ele>1749.0</ele><time>2025-10-30T04:16:08Z</time></trkpt>
    <trkpt lat="28.469565" lon="84.876651"><ele>1749.0</ele><time>2025-10-30T04:16:19Z</time></trkpt>
    <trkpt lat="28.469543" lon="84.876645"><ele>1749.0</ele><time>2025-10-30T04:16:24Z</time></trkpt>
    <trkpt lat="28.469346" lon="84.876575"><ele>1751.6</ele><time>2025-10-30T04:16:42Z</time></trkpt>
    <trkpt lat="28.469215" lon="84.876598"><ele>1754.6</ele><time>2025-10-30T04:17:01Z</time></trkpt>
    <trkpt lat="28.469166" lon="84.876641"><ele>1755.4</ele><time>2025-10-30T04:17:08Z</time></trkpt>
    <trkpt lat="28.468850" lon="84.876857"><ele>1752.6</ele><time>2025-10-30T04:17:43Z</time></trkpt>
    <trkpt lat="28.468666" lon="84.876884"><ele>1752.6</ele><time>2025-10-30T04:17:57Z</time></trkpt>
    <trkpt lat="28.468222" lon="84.877114"><ele>1751.4</ele><time>2025-10-30T04:18:39Z</time></trkpt>
    <trkpt lat="28.467951" lon="84.877299"><ele>1749.4</ele><time>2025-10-30T04:19:07Z</time></trkpt>
    <trkpt lat="28.467896" lon="84.877338"><ele>1749.4</ele><time>2025-10-30T04:19:12Z</time></trkpt>
    <trkpt lat="28.467809" lon="84.877457"><ele>1749.4</ele><time>2025-10-30T04:19:26Z</time></trkpt>
    <trkpt lat="28.467561" lon="84.877494"><ele>1749.2</ele><time>2025-10-30T04:19:47Z</time></trkpt>
    <trkpt lat="28.467482" lon="84.877418"><ele>1749.4</ele><time>2025-10-30T04:19:56Z</time></trkpt>
    <trkpt lat="28.467455" lon="84.877445"><ele>1749.6</ele><time>2025-10-30T04:20:02Z</time></trkpt>
    <trkpt lat="28.467476" lon="84.877542"><ele>1750.2</ele><time>2025-10-30T04:20:09Z</time></trkpt>
    <trkpt lat="28.467388" lon="84.877668"><ele>1750.6</ele><time>2025-10-30T04:20:21Z</time></trkpt>
    <trkpt lat="28.467099" lon="84.877762"><ele>1750.6</ele><time>2025-10-30T04:20:46Z</time></trkpt>
    <trkpt lat="28.466610" lon="84.878025"><ele>1743.6</ele><time>2025-10-30T04:21:33Z</time></trkpt>
    <trkpt lat="28.466261" lon="84.878277"><ele>1739.8</ele><time>2025-10-30T04:22:12Z</time></trkpt>
    <trkpt lat="28.466152" lon="84.878474"><ele>1739.0</ele><time>2025-10-30T04:22:31Z</time></trkpt>
    <trkpt lat="28.465878" lon="84.878602"><ele>1739.0</ele><time>2025-10-30T04:23:15Z</time></trkpt>
    <trkpt lat="28.465670" lon="84.878790"><ele>1739.8</ele><time>2025-10-30T04:23:47Z</time></trkpt>
    <trkpt lat="28.465564" lon="84.878825"><ele>1739.8</ele><time>2025-10-30T04:23:59Z</time></trkpt>
    <trkpt lat="28.465449" lon="84.878964"><ele>1736.8</ele><time>2025-10-30T04:24:16Z</time></trkpt>
    <trkpt lat="28.465112" lon="84.879025"><ele>1736.0</ele><time>2025-10-30T04:24:42Z</time></trkpt>
    <trkpt lat="28.465135" lon="84.879011"><ele>1735.8</ele><time>2025-10-30T04:24:51Z</time></trkpt>
    <trkpt lat="28.465136" lon="84.879045"><ele>1735.8</ele><time>2025-10-30T04:25:02Z</time></trkpt>
    <trkpt lat="28.465080" lon="84.879020"><ele>1735.6</ele><time>2025-10-30T04:25:10Z</time></trkpt>
    <trkpt lat="28.465018" lon="84.879024"><ele>1735.2</ele><time>2025-10-30T04:25:35Z</time></trkpt>
    <trkpt lat="28.464741" lon="84.879066"><ele>1731.0</ele><time>2025-10-30T04:26:04Z</time></trkpt>
    <trkpt lat="28.464559" lon="84.879136"><ele>1729.0</ele><time>2025-10-30T04:26:24Z</time></trkpt>
    <trkpt lat="28.464379" lon="84.879275"><ele>1724.8</ele><time>2025-10-30T04:26:48Z</time></trkpt>
    <trkpt lat="28.464347" lon="84.879322"><ele>1724.0</ele><time>2025-10-30T04:26:53Z</time></trkpt>
    <trkpt lat="28.463984" lon="84.879930"><ele>1720.6</ele><time>2025-10-30T04:27:59Z</time></trkpt>
    <trkpt lat="28.463861" lon="84.880282"><ele>1720.4</ele><time>2025-10-30T04:28:40Z</time></trkpt>
    <trkpt lat="28.463732" lon="84.880387"><ele>1720.2</ele><time>2025-10-30T04:28:58Z</time></trkpt>
    <trkpt lat="28.463696" lon="84.880378"><ele>1720.2</ele><time>2025-10-30T04:29:10Z</time></trkpt>
    <trkpt lat="28.463480" lon="84.880880"><ele>1720.2</ele><time>2025-10-30T04:29:55Z</time></trkpt>
    <trkpt lat="28.463422" lon="84.881003"><ele>1721.0</ele><time>2025-10-30T04:30:11Z</time></trkpt>
    <trkpt lat="28.463177" lon="84.881368"><ele>1723.6</ele><time>2025-10-30T04:30:50Z</time></trkpt>
    <trkpt lat="28.463072" lon="84.881755"><ele>1724.2</ele><time>2025-10-30T04:31:23Z</time></trkpt>
    <trkpt lat="28.462919" lon="84.881936"><ele>1725.4</ele><time>2025-10-30T04:31:45Z</time></trkpt>
    <trkpt lat="28.462847" lon="84.882195"><ele>1727.6</ele><time>2025-10-30T04:32:10Z</time></trkpt>
    <trkpt lat="28.462759" lon="84.882331"><ele>1728.8</ele><time>2025-10-30T04:32:27Z</time></trkpt>
    <trkpt lat="28.462699" lon="84.882723"><ele>1728.8</ele><time>2025-10-30T04:33:01Z</time></trkpt>
    <trkpt lat="28.462688" lon="84.882822"><ele>1728.6</ele><time>2025-10-30T04:33:09Z</time></trkpt>
    <trkpt lat="28.462630" lon="84.882933"><ele>1728.0</ele><time>2025-10-30T04:33:19Z</time></trkpt>
    <trkpt lat="28.462623" lon="84.883226"><ele>1728.0</ele><time>2025-10-30T04:33:43Z</time></trkpt>
    <trkpt lat="28.462567" lon="84.883342"><ele>1728.0</ele><time>2025-10-30T04:34:55Z</time></trkpt>
    <trkpt lat="28.462606" lon="84.883230"><ele>1728.0</ele><time>2025-10-30T04:37:30Z</time></trkpt>
    <trkpt lat="28.462546" lon="84.883298"><ele>1727.8</ele><time>2025-10-30T04:40:23Z</time></trkpt>
    <trkpt lat="28.462577" lon="84.883360"><ele>1727.8</ele><time>2025-10-30T04:41:18Z</time></trkpt>
    <trkpt lat="28.462411" lon="84.883445"><ele>1727.4</ele><time>2025-10-30T04:41:36Z</time></trkpt>
    <trkpt lat="28.462404" lon="84.883455"><ele>1727.4</ele><time>2025-10-30T04:41:38Z</time></trkpt>
    <trkpt lat="28.462290" lon="84.883647"><ele>1724.2</ele><time>2025-10-30T04:41:58Z</time></trkpt>
    <trkpt lat="28.462238" lon="84.883788"><ele>1724.2</ele><time>2025-10-30T04:42:10Z</time></trkpt>
    <trkpt lat="28.461971" lon="84.884146"><ele>1725.4</ele><time>2025-10-30T04:42:46Z</time></trkpt>
    <trkpt lat="28.461787" lon="84.884482"><ele>1725.8</ele><time>2025-10-30T04:43:16Z</time></trkpt>
    <trkpt lat="28.461706" lon="84.884725"><ele>1725.6</ele><time>2025-10-30T04:43:36Z</time></trkpt>
    <trkpt lat="28.461586" lon="84.885057"><ele>1724.6</ele><time>2025-10-30T04:44:03Z</time></trkpt>
    <trkpt lat="28.461526" lon="84.885388"><ele>1722.4</ele><time>2025-10-30T04:44:28Z</time></trkpt>
    <trkpt lat="28.461363" lon="84.885702"><ele>1720.4</ele><time>2025-10-30T04:44:54Z</time></trkpt>
    <trkpt lat="28.461308" lon="84.885925"><ele>1720.4</ele><time>2025-10-30T04:45:18Z</time></trkpt>
    <trkpt lat="28.461284" lon="84.885994"><ele>1721.8</ele><time>2025-10-30T04:45:27Z</time></trkpt>
    <trkpt lat="28.461131" lon="84.886229"><ele>1726.8</ele><time>2025-10-30T04:46:00Z</time></trkpt>
    <trkpt lat="28.460865" lon="84.886379"><ele>1729.4</ele><time>2025-10-30T04:46:30Z</time></trkpt>
    <trkpt lat="28.460907" lon="84.886463"><ele>1732.0</ele><time>2025-10-30T04:46:44Z</time></trkpt>
    <trkpt lat="28.460925" lon="84.886499"><ele>1732.2</ele><time>2025-10-30T04:46:49Z</time></trkpt>
    <trkpt lat="28.460920" lon="84.886565"><ele>1732.2</ele><time>2025-10-30T04:47:04Z</time></trkpt>
    <trkpt lat="28.460892" lon="84.886646"><ele>1731.8</ele><time>2025-10-30T04:47:18Z</time></trkpt>
    <trkpt lat="28.460792" lon="84.886894"><ele>1729.4</ele><time>2025-10-30T04:47:38Z</time></trkpt>
    <trkpt lat="28.460317" lon="84.887207"><ele>1728.0</ele><time>2025-10-30T04:48:23Z</time></trkpt>
    <trkpt lat="28.460041" lon="84.887328"><ele>1724.6</ele><time>2025-10-30T04:48:50Z</time></trkpt>
    <trkpt lat="28.459882" lon="84.887584"><ele>1724.0</ele><time>2025-10-30T04:49:12Z</time></trkpt>
    <trkpt lat="28.459832" lon="84.887770"><ele>1723.4</ele><time>2025-10-30T04:49:28Z</time></trkpt>
    <trkpt lat="28.459669" lon="84.887910"><ele>1723.2</ele><time>2025-10-30T04:49:40Z</time></trkpt>
    <trkpt lat="28.459139" lon="84.888485"><ele>1715.6</ele><time>2025-10-30T04:50:39Z</time></trkpt>
    <trkpt lat="28.458963" lon="84.888528"><ele>1714.0</ele><time>2025-10-30T04:50:54Z</time></trkpt>
    <trkpt lat="28.458826" lon="84.888691"><ele>1713.0</ele><time>2025-10-30T04:51:11Z</time></trkpt>
    <trkpt lat="28.458642" lon="84.888917"><ele>1713.0</ele><time>2025-10-30T04:51:33Z</time></trkpt>
    <trkpt lat="28.458213" lon="84.889105"><ele>1713.4</ele><time>2025-10-30T04:52:13Z</time></trkpt>
    <trkpt lat="28.457859" lon="84.889348"><ele>1718.0</ele><time>2025-10-30T04:52:57Z</time></trkpt>
    <trkpt lat="28.457783" lon="84.889417"><ele>1718.8</ele><time>2025-10-30T04:53:06Z</time></trkpt>
    <trkpt lat="28.457721" lon="84.889605"><ele>1718.8</ele><time>2025-10-30T04:53:25Z</time></trkpt>
    <trkpt lat="28.457617" lon="84.889764"><ele>1718.8</ele><time>2025-10-30T04:53:38Z</time></trkpt>
    <trkpt lat="28.457608" lon="84.889772"><ele>1718.8</ele><time>2025-10-30T04:53:39Z</time></trkpt>
    <trkpt lat="28.457224" lon="84.890069"><ele>1708.6</ele><time>2025-10-30T04:54:20Z</time></trkpt>
    <trkpt lat="28.457041" lon="84.890280"><ele>1706.6</ele><time>2025-10-30T04:54:39Z</time></trkpt>
    <trkpt lat="28.456881" lon="84.890359"><ele>1703.4</ele><time>2025-10-30T04:54:57Z</time></trkpt>
    <trkpt lat="28.456854" lon="84.890330"><ele>1703.0</ele><time>2025-10-30T04:55:10Z</time></trkpt>
    <trkpt lat="28.456860" lon="84.890362"><ele>1702.8</ele><time>2025-10-30T04:56:15Z</time></trkpt>
    <trkpt lat="28.456824" lon="84.890384"><ele>1702.8</ele><time>2025-10-30T04:56:24Z</time></trkpt>
    <trkpt lat="28.456297" lon="84.890756"><ele>1694.6</ele><time>2025-10-30T04:57:21Z</time></trkpt>
    <trkpt lat="28.456313" lon="84.890877"><ele>1692.0</ele><time>2025-10-30T04:57:30Z</time></trkpt>
    <trkpt lat="28.456400" lon="84.891403"><ele>1694.0</ele><time>2025-10-30T04:58:12Z</time></trkpt>
    <trkpt lat="28.456164" lon="84.891547"><ele>1695.4</ele><time>2025-10-30T04:58:39Z</time></trkpt>
    <trkpt lat="28.455999" lon="84.891740"><ele>1696.4</ele><time>2025-10-30T04:58:55Z</time></trkpt>
    <trkpt lat="28.455953" lon="84.891896"><ele>1698.0</ele><time>2025-10-30T04:59:05Z</time></trkpt>
    <trkpt lat="28.455917" lon="84.892000"><ele>1698.0</ele><time>2025-10-30T04:59:27Z</time></trkpt>
    <trkpt lat="28.455922" lon="84.892072"><ele>1698.0</ele><time>2025-10-30T04:59:36Z</time></trkpt>
    <trkpt lat="28.455940" lon="84.892051"><ele>1698.0</ele><time>2025-10-30T04:59:43Z</time></trkpt>
    <trkpt lat="28.455947" lon="84.892006"><ele>1698.0</ele><time>2025-10-30T05:00:00Z</time></trkpt>
    <trkpt lat="28.455947" lon="84.892006"><ele>1698.0</ele><time>2025-10-30T05:00:04Z</time></trkpt>
    <trkpt lat="28.455904" lon="84.892058"><ele>1697.8</ele><time>2025-10-30T05:00:15Z</time></trkpt>
    <trkpt lat="28.455848" lon="84.892294"><ele>1694.2</ele><time>2025-10-30T05:00:41Z</time></trkpt>
    <trkpt lat="28.455777" lon="84.892798"><ele>1687.6</ele><time>2025-10-30T05:01:30Z</time></trkpt>
    <trkpt lat="28.455758" lon="84.892842"><ele>1686.0</ele><time>2025-10-30T05:01:37Z</time></trkpt>
    <trkpt lat="28.455701" lon="84.892942"><ele>1685.8</ele><time>2025-10-30T05:02:06Z</time></trkpt>
    <trkpt lat="28.455741" lon="84.893010"><ele>1685.8</ele><time>2025-10-30T05:02:24Z</time></trkpt>
    <trkpt lat="28.455704" lon="84.892954"><ele>1686.0</ele><time>2025-10-30T05:03:17Z</time></trkpt>
    <trkpt lat="28.455638" lon="84.893146"><ele>1688.4</ele><time>2025-10-30T05:03:44Z</time></trkpt>
    <trkpt lat="28.455448" lon="84.893342"><ele>1688.4</ele><time>2025-10-30T05:04:12Z</time></trkpt>
    <trkpt lat="28.455335" lon="84.893432"><ele>1684.8</ele><time>2025-10-30T05:04:28Z</time></trkpt>
    <trkpt lat="28.455304" lon="84.893454"><ele>1684.8</ele><time>2025-10-30T05:04:31Z</time></trkpt>
    <trkpt lat="28.455237" lon="84.893573"><ele>1684.8</ele><time>2025-10-30T05:04:41Z</time></trkpt>
    <trkpt lat="28.455123" lon="84.893592"><ele>1684.8</ele><time>2025-10-30T05:05:02Z</time></trkpt>
    <trkpt lat="28.455165" lon="84.893565"><ele>1684.8</ele><time>2025-10-30T05:05:24Z</time></trkpt>
    <trkpt lat="28.455125" lon="84.893537"><ele>1684.8</ele><time>2025-10-30T05:05:44Z</time></trkpt>
    <trkpt lat="28.455159" lon="84.893736"><ele>1684.2</ele><time>2025-10-30T05:06:03Z</time></trkpt>
    <trkpt lat="28.455114" lon="84.893756"><ele>1684.0</ele><time>2025-10-30T05:06:11Z</time></trkpt>
    <trkpt lat="28.455054" lon="84.893787"><ele>1682.8</ele><time>2025-10-30T05:06:19Z</time></trkpt>
    <trkpt lat="28.454982" lon="84.893910"><ele>1680.6</ele><time>2025-10-30T05:06:31Z</time></trkpt>
    <trkpt lat="28.454922" lon="84.893962"><ele>1679.8</ele><time>2025-10-30T05:06:38Z</time></trkpt>
    <trkpt lat="28.454935" lon="84.893935"><ele>1679.8</ele><time>2025-10-30T05:06:42Z</time></trkpt>
    <trkpt lat="28.454860" lon="84.893854"><ele>1679.6</ele><time>2025-10-30T05:06:59Z</time></trkpt>
    <trkpt lat="28.454764" lon="84.893792"><ele>1679.6</ele><time>2025-10-30T05:07:13Z</time></trkpt>
    <trkpt lat="28.454761" lon="84.893880"><ele>1677.4</ele><time>2025-10-30T05:07:23Z</time></trkpt>
    <trkpt lat="28.454685" lon="84.894011"><ele>1675.0</ele><time>2025-10-30T05:07:38Z</time></trkpt>
    <trkpt lat="28.454666" lon="84.894051"><ele>1675.0</ele><time>2025-10-30T05:07:43Z</time></trkpt>
    <trkpt lat="28.454384" lon="84.894125"><ele>1675.0</ele><time>2025-10-30T05:08:15Z</time></trkpt>
    <trkpt lat="28.454258" lon="84.894261"><ele>1677.4</ele><time>2025-10-30T05:08:34Z</time></trkpt>
    <trkpt lat="28.453935" lon="84.894340"><ele>1681.0</ele><time>2025-10-30T05:09:13Z</time></trkpt>
    <trkpt lat="28.453779" lon="84.894315"><ele>1681.2</ele><time>2025-10-30T05:09:26Z</time></trkpt>
    <trkpt lat="28.453460" lon="84.894354"><ele>1684.2</ele><time>2025-10-30T05:09:59Z</time></trkpt>
    <trkpt lat="28.453342" lon="84.894404"><ele>1685.6</ele><time>2025-10-30T05:10:10Z</time></trkpt>
    <trkpt lat="28.453240" lon="84.894468"><ele>1686.4</ele><time>2025-10-30T05:10:20Z</time></trkpt>
    <trkpt lat="28.453214" lon="84.894514"><ele>1686.6</ele><time>2025-10-30T05:10:25Z</time></trkpt>
    <trkpt lat="28.453158" lon="84.894675"><ele>1686.6</ele><time>2025-10-30T05:10:39Z</time></trkpt>
    <trkpt lat="28.453254" lon="84.894628"><ele>1686.6</ele><time>2025-10-30T05:10:55Z</time></trkpt>
    <trkpt lat="28.453223" lon="84.894679"><ele>1686.6</ele><time>2025-10-30T05:11:04Z</time></trkpt>
    <trkpt lat="28.453169" lon="84.894671"><ele>1686.6</ele><time>2025-10-30T05:11:13Z</time></trkpt>
    <trkpt lat="28.453183" lon="84.894620"><ele>1686.6</ele><time>2025-10-30T05:11:21Z</time></trkpt>
    <trkpt lat="28.453249" lon="84.894667"><ele>1686.6</ele><time>2025-10-30T05:11:31Z</time></trkpt>
    <trkpt lat="28.453285" lon="84.894755"><ele>1686.6</ele><time>2025-10-30T05:11:52Z</time></trkpt>
    <trkpt lat="28.453268" lon="84.894824"><ele>1686.6</ele><time>2025-10-30T05:12:04Z</time></trkpt>
    <trkpt lat="28.453245" lon="84.894799"><ele>1686.6</ele><time>2025-10-30T05:12:13Z</time></trkpt>
    <trkpt lat="28.453178" lon="84.894719"><ele>1687.0</ele><time>2025-10-30T05:12:21Z</time></trkpt>
    <trkpt lat="28.453158" lon="84.894535"><ele>1688.2</ele><time>2025-10-30T05:12:58Z</time></trkpt>
    <trkpt lat="28.452993" lon="84.894562"><ele>1689.4</ele><time>2025-10-30T05:13:09Z</time></trkpt>
    <trkpt lat="28.452901" lon="84.894640"><ele>1690.2</ele><time>2025-10-30T05:13:27Z</time></trkpt>
    <trkpt lat="28.452878" lon="84.894641"><ele>1690.2</ele><time>2025-10-30T05:13:32Z</time></trkpt>
    <trkpt lat="28.452625" lon="84.894318"><ele>1690.2</ele><time>2025-10-30T05:14:25Z</time></trkpt>
    <trkpt lat="28.452505" lon="84.894039"><ele>1690.2</ele><time>2025-10-30T05:14:45Z</time></trkpt>
    <trkpt lat="28.452373" lon="84.893863"><ele>1690.0</ele><time>2025-10-30T05:15:33Z</time></trkpt>
    <trkpt lat="28.452370" lon="84.893743"><ele>1690.0</ele><time>2025-10-30T05:15:52Z</time></trkpt>
    <trkpt lat="28.452411" lon="84.893780"><ele>1690.0</ele><time>2025-10-30T05:16:02Z</time></trkpt>
    <trkpt lat="28.452383" lon="84.893886"><ele>1689.0</ele><time>2025-10-30T05:16:13Z</time></trkpt>
    <trkpt lat="28.452167" lon="84.893742"><ele>1687.2</ele><time>2025-10-30T05:16:40Z</time></trkpt>
    <trkpt lat="28.452025" lon="84.893764"><ele>1687.0</ele><time>2025-10-30T05:16:53Z</time></trkpt>
    <trkpt lat="28.452001" lon="84.893907"><ele>1686.6</ele><time>2025-10-30T05:17:07Z</time></trkpt>
    <trkpt lat="28.451868" lon="84.894140"><ele>1686.8</ele><time>2025-10-30T05:17:24Z</time></trkpt>
    <trkpt lat="28.451851" lon="84.893953"><ele>1686.6</ele><time>2025-10-30T05:17:44Z</time></trkpt>
    <trkpt lat="28.451714" lon="84.893801"><ele>1686.8</ele><time>2025-10-30T05:18:08Z</time></trkpt>
    <trkpt lat="28.450365" lon="84.893854"><ele>1695.6</ele><time>2025-10-30T05:21:42Z</time></trkpt>
    <trkpt lat="28.450184" lon="84.893950"><ele>1695.6</ele><time>2025-10-30T05:22:06Z</time></trkpt>
    <trkpt lat="28.449925" lon="84.894113"><ele>1692.4</ele><time>2025-10-30T05:22:31Z</time></trkpt>
    <trkpt lat="28.449875" lon="84.894181"><ele>1691.2</ele><time>2025-10-30T05:22:37Z</time></trkpt>
    <trkpt lat="28.449892" lon="84.894224"><ele>1689.0</ele><time>2025-10-30T05:22:56Z</time></trkpt>
    <trkpt lat="28.449820" lon="84.894242"><ele>1687.4</ele><time>2025-10-30T05:23:07Z</time></trkpt>
    <trkpt lat="28.449739" lon="84.894329"><ele>1685.8</ele><time>2025-10-30T05:23:18Z</time></trkpt>
    <trkpt lat="28.449707" lon="84.894280"><ele>1684.4</ele><time>2025-10-30T05:23:28Z</time></trkpt>
    <trkpt lat="28.449644" lon="84.894353"><ele>1679.6</ele><time>2025-10-30T05:23:59Z</time></trkpt>
    <trkpt lat="28.449617" lon="84.894366"><ele>1679.0</ele><time>2025-10-30T05:24:04Z</time></trkpt>
    <trkpt lat="28.449405" lon="84.894412"><ele>1678.6</ele><time>2025-10-30T05:24:23Z</time></trkpt>
    <trkpt lat="28.449388" lon="84.894522"><ele>1677.6</ele><time>2025-10-30T05:24:35Z</time></trkpt>
    <trkpt lat="28.449231" lon="84.894474"><ele>1674.8</ele><time>2025-10-30T05:24:53Z</time></trkpt>
    <trkpt lat="28.449081" lon="84.894593"><ele>1674.0</ele><time>2025-10-30T05:25:08Z</time></trkpt>
    <trkpt lat="28.448827" lon="84.894659"><ele>1673.4</ele><time>2025-10-30T05:25:26Z</time></trkpt>
    <trkpt lat="28.448827" lon="84.894719"><ele>1672.8</ele><time>2025-10-30T05:25:37Z</time></trkpt>
    <trkpt lat="28.448800" lon="84.894890"><ele>1669.6</ele><time>2025-10-30T05:25:56Z</time></trkpt>
    <trkpt lat="28.448876" lon="84.894902"><ele>1667.4</ele><time>2025-10-30T05:26:06Z</time></trkpt>
    <trkpt lat="28.448933" lon="84.894981"><ele>1665.8</ele><time>2025-10-30T05:26:14Z</time></trkpt>
    <trkpt lat="28.448938" lon="84.895330"><ele>1660.6</ele><time>2025-10-30T05:26:38Z</time></trkpt>
    <trkpt lat="28.448956" lon="84.895396"><ele>1660.6</ele><time>2025-10-30T05:26:43Z</time></trkpt>
    <trkpt lat="28.448865" lon="84.895600"><ele>1660.6</ele><time>2025-10-30T05:27:01Z</time></trkpt>
    <trkpt lat="28.448890" lon="84.895691"><ele>1661.6</ele><time>2025-10-30T05:27:20Z</time></trkpt>
    <trkpt lat="28.448863" lon="84.895747"><ele>1661.6</ele><time>2025-10-30T05:27:25Z</time></trkpt>
    <trkpt lat="28.448730" lon="84.896077"><ele>1657.2</ele><time>2025-10-30T05:27:53Z</time></trkpt>
    <trkpt lat="28.448697" lon="84.896179"><ele>1657.2</ele><time>2025-10-30T05:28:01Z</time></trkpt>
    <trkpt lat="28.448675" lon="84.896466"><ele>1657.2</ele><time>2025-10-30T05:28:17Z</time></trkpt>
    <trkpt lat="28.448698" lon="84.896693"><ele>1659.0</ele><time>2025-10-30T05:28:32Z</time></trkpt>
    <trkpt lat="28.448418" lon="84.896555"><ele>1661.8</ele><time>2025-10-30T05:28:51Z</time></trkpt>
    <trkpt lat="28.448285" lon="84.896549"><ele>1661.8</ele><time>2025-10-30T05:29:00Z</time></trkpt>
    <trkpt lat="28.448400" lon="84.896564"><ele>1660.8</ele><time>2025-10-30T05:29:17Z</time></trkpt>
    <trkpt lat="28.448478" lon="84.896864"><ele>1660.8</ele><time>2025-10-30T05:29:36Z</time></trkpt>
    <trkpt lat="28.448606" lon="84.897119"><ele>1662.6</ele><time>2025-10-30T05:33:13Z</time></trkpt>
    <trkpt lat="28.448482" lon="84.897241"><ele>1663.0</ele><time>2025-10-30T05:33:41Z</time></trkpt>
    <trkpt lat="28.448313" lon="84.897416"><ele>1668.0</ele><time>2025-10-30T05:34:14Z</time></trkpt>
    <trkpt lat="28.448224" lon="84.897411"><ele>1669.2</ele><time>2025-10-30T05:34:25Z</time></trkpt>
    <trkpt lat="28.448150" lon="84.897348"><ele>1673.0</ele><time>2025-10-30T05:34:48Z</time></trkpt>
    <trkpt lat="28.448132" lon="84.897381"><ele>1673.8</ele><time>2025-10-30T05:34:54Z</time></trkpt>
    <trkpt lat="28.447719" lon="84.897646"><ele>1675.4</ele><time>2025-10-30T05:35:56Z</time></trkpt>
    <trkpt lat="28.447628" lon="84.897612"><ele>1677.2</ele><time>2025-10-30T05:36:15Z</time></trkpt>
    <trkpt lat="28.447466" lon="84.897661"><ele>1677.8</ele><time>2025-10-30T05:36:40Z</time></trkpt>
    <trkpt lat="28.447278" lon="84.897809"><ele>1678.2</ele><time>2025-10-30T05:37:04Z</time></trkpt>
    <trkpt lat="28.447172" lon="84.897836"><ele>1678.6</ele><time>2025-10-30T05:37:15Z</time></trkpt>
    <trkpt lat="28.447118" lon="84.897849"><ele>1679.2</ele><time>2025-10-30T05:37:22Z</time></trkpt>
    <trkpt lat="28.446957" lon="84.898010"><ele>1682.6</ele><time>2025-10-30T05:37:47Z</time></trkpt>
    <trkpt lat="28.446784" lon="84.897970"><ele>1683.2</ele><time>2025-10-30T05:38:05Z</time></trkpt>
    <trkpt lat="28.446721" lon="84.897997"><ele>1683.4</ele><time>2025-10-30T05:38:17Z</time></trkpt>
    <trkpt lat="28.446709" lon="84.898126"><ele>1686.0</ele><time>2025-10-30T05:38:41Z</time></trkpt>
    <trkpt lat="28.446664" lon="84.898179"><ele>1686.6</ele><time>2025-10-30T05:38:46Z</time></trkpt>
    <trkpt lat="28.446649" lon="84.898194"><ele>1686.6</ele><time>2025-10-30T05:38:47Z</time></trkpt>
    <trkpt lat="28.446521" lon="84.898197"><ele>1686.6</ele><time>2025-10-30T05:39:01Z</time></trkpt>
    <trkpt lat="28.446250" lon="84.898466"><ele>1685.6</ele><time>2025-10-30T05:39:34Z</time></trkpt>
    <trkpt lat="28.446075" lon="84.898527"><ele>1685.0</ele><time>2025-10-30T05:39:57Z</time></trkpt>
    <trkpt lat="28.446060" lon="84.898659"><ele>1685.0</ele><time>2025-10-30T05:40:11Z</time></trkpt>
    <trkpt lat="28.446012" lon="84.898595"><ele>1685.0</ele><time>2025-10-30T05:40:20Z</time></trkpt>
    <trkpt lat="28.446057" lon="84.898515"><ele>1686.0</ele><time>2025-10-30T05:40:30Z</time></trkpt>
    <trkpt lat="28.446063" lon="84.898677"><ele>1686.8</ele><time>2025-10-30T05:40:52Z</time></trkpt>
    <trkpt lat="28.445752" lon="84.898895"><ele>1691.0</ele><time>2025-10-30T05:41:30Z</time></trkpt>
    <trkpt lat="28.445534" lon="84.898929"><ele>1691.6</ele><time>2025-10-30T05:41:54Z</time></trkpt>
    <trkpt lat="28.445383" lon="84.899014"><ele>1693.0</ele><time>2025-10-30T05:42:16Z</time></trkpt>
    <trkpt lat="28.445147" lon="84.898945"><ele>1693.8</ele><time>2025-10-30T05:42:42Z</time></trkpt>
    <trkpt lat="28.445109" lon="84.898990"><ele>1694.6</ele><time>2025-10-30T05:42:53Z</time></trkpt>
    <trkpt lat="28.444991" lon="84.899047"><ele>1694.6</ele><time>2025-10-30T05:43:10Z</time></trkpt>
    <trkpt lat="28.444895" lon="84.899049"><ele>1693.8</ele><time>2025-10-30T05:43:27Z</time></trkpt>
    <trkpt lat="28.444842" lon="84.899179"><ele>1694.2</ele><time>2025-10-30T05:43:55Z</time></trkpt>
    <trkpt lat="28.444609" lon="84.899265"><ele>1698.0</ele><time>2025-10-30T05:44:34Z</time></trkpt>
    <trkpt lat="28.444337" lon="84.899225"><ele>1698.2</ele><time>2025-10-30T05:45:02Z</time></trkpt>
    <trkpt lat="28.444311" lon="84.899362"><ele>1698.0</ele><time>2025-10-30T05:45:17Z</time></trkpt>
    <trkpt lat="28.444235" lon="84.899419"><ele>1698.0</ele><time>2025-10-30T05:45:25Z</time></trkpt>
    <trkpt lat="28.444013" lon="84.899377"><ele>1697.4</ele><time>2025-10-30T05:45:58Z</time></trkpt>
    <trkpt lat="28.443963" lon="84.899373"><ele>1698.4</ele><time>2025-10-30T05:46:06Z</time></trkpt>
    <trkpt lat="28.443822" lon="84.899427"><ele>1700.4</ele><time>2025-10-30T05:46:27Z</time></trkpt>
    <trkpt lat="28.443644" lon="84.899566"><ele>1705.6</ele><time>2025-10-30T05:47:00Z</time></trkpt>
    <trkpt lat="28.443372" lon="84.899661"><ele>1710.0</ele><time>2025-10-30T05:47:36Z</time></trkpt>
    <trkpt lat="28.443194" lon="84.899767"><ele>1710.0</ele><time>2025-10-30T05:47:58Z</time></trkpt>
    <trkpt lat="28.443061" lon="84.899782"><ele>1710.0</ele><time>2025-10-30T05:48:14Z</time></trkpt>
    <trkpt lat="28.442868" lon="84.899856"><ele>1708.6</ele><time>2025-10-30T05:48:36Z</time></trkpt>
    <trkpt lat="28.442573" lon="84.899975"><ele>1704.0</ele><time>2025-10-30T05:48:52Z</time></trkpt>
    <trkpt lat="28.442045" lon="84.900023"><ele>1691.2</ele><time>2025-10-30T05:49:37Z</time></trkpt>
    <trkpt lat="28.441904" lon="84.900040"><ele>1689.0</ele><time>2025-10-30T05:49:50Z</time></trkpt>
    <trkpt lat="28.441663" lon="84.900107"><ele>1686.4</ele><time>2025-10-30T05:50:15Z</time></trkpt>
    <trkpt lat="28.441531" lon="84.900151"><ele>1686.4</ele><time>2025-10-30T05:50:31Z</time></trkpt>
    <trkpt lat="28.441157" lon="84.900012"><ele>1687.4</ele><time>2025-10-30T05:51:10Z</time></trkpt>
    <trkpt lat="28.440864" lon="84.899766"><ele>1690.2</ele><time>2025-10-30T05:51:47Z</time></trkpt>
    <trkpt lat="28.440768" lon="84.899726"><ele>1690.2</ele><time>2025-10-30T05:51:54Z</time></trkpt>
    <trkpt lat="28.440712" lon="84.899758"><ele>1690.4</ele><time>2025-10-30T05:52:01Z</time></trkpt>
    <trkpt lat="28.440558" lon="84.899747"><ele>1691.0</ele><time>2025-10-30T05:52:17Z</time></trkpt>
    <trkpt lat="28.440370" lon="84.899627"><ele>1691.2</ele><time>2025-10-30T05:52:37Z</time></trkpt>
    <trkpt lat="28.440024" lon="84.899598"><ele>1693.0</ele><time>2025-10-30T05:53:12Z</time></trkpt>
    <trkpt lat="28.439973" lon="84.899637"><ele>1694.6</ele><time>2025-10-30T05:53:21Z</time></trkpt>
    <trkpt lat="28.439646" lon="84.899660"><ele>1695.2</ele><time>2025-10-30T05:53:50Z</time></trkpt>
    <trkpt lat="28.439442" lon="84.899616"><ele>1696.0</ele><time>2025-10-30T05:54:07Z</time></trkpt>
    <trkpt lat="28.439155" lon="84.899561"><ele>1696.0</ele><time>2025-10-30T05:54:33Z</time></trkpt>
    <trkpt lat="28.438036" lon="84.899467"><ele>1689.6</ele><time>2025-10-30T05:56:06Z</time></trkpt>
    <trkpt lat="28.437830" lon="84.899403"><ele>1688.8</ele><time>2025-10-30T05:56:23Z</time></trkpt>
    <trkpt lat="28.437731" lon="84.899349"><ele>1688.6</ele><time>2025-10-30T05:56:31Z</time></trkpt>
    <trkpt lat="28.437533" lon="84.899234"><ele>1685.6</ele><time>2025-10-30T05:56:50Z</time></trkpt>
    <trkpt lat="28.437341" lon="84.899686"><ele>1677.2</ele><time>2025-10-30T05:57:30Z</time></trkpt>
    <trkpt lat="28.437100" lon="84.900168"><ele>1677.2</ele><time>2025-10-30T05:58:08Z</time></trkpt>
    <trkpt lat="28.437041" lon="84.900299"><ele>1679.8</ele><time>2025-10-30T05:58:21Z</time></trkpt>
    <trkpt lat="28.436921" lon="84.900366"><ele>1685.6</ele><time>2025-10-30T05:58:45Z</time></trkpt>
    <trkpt lat="28.436888" lon="84.900357"><ele>1686.6</ele><time>2025-10-30T05:58:49Z</time></trkpt>
    <trkpt lat="28.436689" lon="84.900323"><ele>1686.6</ele><time>2025-10-30T05:59:08Z</time></trkpt>
    <trkpt lat="28.436600" lon="84.900274"><ele>1686.4</ele><time>2025-10-30T05:59:16Z</time></trkpt>
    <trkpt lat="28.436236" lon="84.900085"><ele>1677.8</ele><time>2025-10-30T06:00:01Z</time></trkpt>
    <trkpt lat="28.435986" lon="84.900000"><ele>1667.6</ele><time>2025-10-30T06:00:37Z</time></trkpt>
    <trkpt lat="28.435937" lon="84.899993"><ele>1667.6</ele><time>2025-10-30T06:00:42Z</time></trkpt>
    <trkpt lat="28.435830" lon="84.899902"><ele>1667.4</ele><time>2025-10-30T06:00:53Z</time></trkpt>
    <trkpt lat="28.435685" lon="84.899852"><ele>1666.0</ele><time>2025-10-30T06:01:08Z</time></trkpt>
    <trkpt lat="28.435534" lon="84.899694"><ele>1665.4</ele><time>2025-10-30T06:01:28Z</time></trkpt>
    <trkpt lat="28.435331" lon="84.899672"><ele>1662.8</ele><time>2025-10-30T06:01:45Z</time></trkpt>
    <trkpt lat="28.435328" lon="84.899623"><ele>1662.4</ele><time>2025-10-30T06:01:49Z</time></trkpt>
    <trkpt lat="28.435417" lon="84.899520"><ele>1661.8</ele><time>2025-10-30T06:02:00Z</time></trkpt>
    <trkpt lat="28.435430" lon="84.899512"><ele>1661.4</ele><time>2025-10-30T06:02:01Z</time></trkpt>
    <trkpt lat="28.435435" lon="84.899460"><ele>1660.4</ele><time>2025-10-30T06:02:06Z</time></trkpt>
    <trkpt lat="28.435305" lon="84.899238"><ele>1657.4</ele><time>2025-10-30T06:02:26Z</time></trkpt>
    <trkpt lat="28.435162" lon="84.899128"><ele>1653.2</ele><time>2025-10-30T06:02:42Z</time></trkpt>
    <trkpt lat="28.435096" lon="84.899063"><ele>1653.2</ele><time>2025-10-30T06:02:49Z</time></trkpt>
    <trkpt lat="28.434899" lon="84.898956"><ele>1653.2</ele><time>2025-10-30T06:03:11Z</time></trkpt>
    <trkpt lat="28.434795" lon="84.898944"><ele>1653.0</ele><time>2025-10-30T06:03:20Z</time></trkpt>
    <trkpt lat="28.434632" lon="84.898679"><ele>1652.8</ele><time>2025-10-30T06:03:45Z</time></trkpt>
    <trkpt lat="28.434620" lon="84.898479"><ele>1652.2</ele><time>2025-10-30T06:04:01Z</time></trkpt>
    <trkpt lat="28.434359" lon="84.898265"><ele>1652.2</ele><time>2025-10-30T06:04:28Z</time></trkpt>
    <trkpt lat="28.434044" lon="84.898108"><ele>1651.8</ele><time>2025-10-30T06:04:59Z</time></trkpt>
    <trkpt lat="28.433826" lon="84.898067"><ele>1651.8</ele><time>2025-10-30T06:05:19Z</time></trkpt>
    <trkpt lat="28.433808" lon="84.898052"><ele>1651.8</ele><time>2025-10-30T06:05:22Z</time></trkpt>
    <trkpt lat="28.433708" lon="84.897955"><ele>1649.4</ele><time>2025-10-30T06:05:32Z</time></trkpt>
    <trkpt lat="28.433413" lon="84.897837"><ele>1644.8</ele><time>2025-10-30T06:06:07Z</time></trkpt>
    <trkpt lat="28.433192" lon="84.897835"><ele>1640.4</ele><time>2025-10-30T06:06:28Z</time></trkpt>
    <trkpt lat="28.433023" lon="84.897949"><ele>1639.4</ele><time>2025-10-30T06:06:42Z</time></trkpt>
    <trkpt lat="28.432916" lon="84.897883"><ele>1637.2</ele><time>2025-10-30T06:06:54Z</time></trkpt>
    <trkpt lat="28.432542" lon="84.897830"><ele>1632.6</ele><time>2025-10-30T06:07:32Z</time></trkpt>
    <trkpt lat="28.432327" lon="84.897499"><ele>1628.4</ele><time>2025-10-30T06:08:03Z</time></trkpt>
    <trkpt lat="28.432276" lon="84.897574"><ele>1627.0</ele><time>2025-10-30T06:08:10Z</time></trkpt>
    <trkpt lat="28.432113" lon="84.897543"><ele>1622.4</ele><time>2025-10-30T06:08:29Z</time></trkpt>
    <trkpt lat="28.431934" lon="84.897679"><ele>1622.4</ele><time>2025-10-30T06:08:50Z</time></trkpt>
    <trkpt lat="28.431855" lon="84.897617"><ele>1624.4</ele><time>2025-10-30T06:09:07Z</time></trkpt>
    <trkpt lat="28.431785" lon="84.897620"><ele>1625.2</ele><time>2025-10-30T06:09:12Z</time></trkpt>
    <trkpt lat="28.431748" lon="84.897667"><ele>1625.2</ele><time>2025-10-30T06:09:17Z</time></trkpt>
    <trkpt lat="28.431503" lon="84.897548"><ele>1627.8</ele><time>2025-10-30T06:09:48Z</time></trkpt>
    <trkpt lat="28.431282" lon="84.897661"><ele>1628.2</ele><time>2025-10-30T06:10:09Z</time></trkpt>
    <trkpt lat="28.431034" lon="84.897638"><ele>1630.4</ele><time>2025-10-30T06:10:36Z</time></trkpt>
    <trkpt lat="28.430957" lon="84.897586"><ele>1631.6</ele><time>2025-10-30T06:10:49Z</time></trkpt>
    <trkpt lat="28.430709" lon="84.897417"><ele>1631.2</ele><time>2025-10-30T06:11:21Z</time></trkpt>
    <trkpt lat="28.430622" lon="84.897299"><ele>1629.8</ele><time>2025-10-30T06:11:34Z</time></trkpt>
    <trkpt lat="28.430295" lon="84.897150"><ele>1632.2</ele><time>2025-10-30T06:12:10Z</time></trkpt>
    <trkpt lat="28.430073" lon="84.896954"><ele>1631.0</ele><time>2025-10-30T06:12:40Z</time></trkpt>
    <trkpt lat="28.429593" lon="84.896882"><ele>1630.6</ele><time>2025-10-30T06:13:22Z</time></trkpt>
    <trkpt lat="28.429480" lon="84.896901"><ele>1630.4</ele><time>2025-10-30T06:13:33Z</time></trkpt>
    <trkpt lat="28.429469" lon="84.896893"><ele>1630.4</ele><time>2025-10-30T06:13:35Z</time></trkpt>
    <trkpt lat="28.429074" lon="84.896646"><ele>1628.0</ele><time>2025-10-30T06:14:16Z</time></trkpt>
    <trkpt lat="28.428790" lon="84.896558"><ele>1627.6</ele><time>2025-10-30T06:14:48Z</time></trkpt>
    <trkpt lat="28.428464" lon="84.896463"><ele>1619.8</ele><time>2025-10-30T06:15:25Z</time></trkpt>
    <trkpt lat="28.428331" lon="84.896450"><ele>1616.6</ele><time>2025-10-30T06:15:42Z</time></trkpt>
    <trkpt lat="28.427925" lon="84.896445"><ele>1612.6</ele><time>2025-10-30T06:16:40Z</time></trkpt>
    <trkpt lat="28.427741" lon="84.896314"><ele>1607.8</ele><time>2025-10-30T06:17:03Z</time></trkpt>
    <trkpt lat="28.427643" lon="84.896170"><ele>1605.8</ele><time>2025-10-30T06:17:18Z</time></trkpt>
    <trkpt lat="28.427541" lon="84.896048"><ele>1602.6</ele><time>2025-10-30T06:17:34Z</time></trkpt>
    <trkpt lat="28.427299" lon="84.895947"><ele>1598.2</ele><time>2025-10-30T06:17:58Z</time></trkpt>
    <trkpt lat="28.427194" lon="84.895862"><ele>1595.6</ele><time>2025-10-30T06:18:06Z</time></trkpt>
    <trkpt lat="28.427142" lon="84.895806"><ele>1595.4</ele><time>2025-10-30T06:18:12Z</time></trkpt>
    <trkpt lat="28.426940" lon="84.895716"><ele>1595.2</ele><time>2025-10-30T06:18:30Z</time></trkpt>
    <trkpt lat="28.426689" lon="84.895431"><ele>1595.6</ele><time>2025-10-30T06:19:04Z</time></trkpt>
    <trkpt lat="28.426558" lon="84.895397"><ele>1595.8</ele><time>2025-10-30T06:19:14Z</time></trkpt>
    <trkpt lat="28.426386" lon="84.895461"><ele>1596.6</ele><time>2025-10-30T06:19:30Z</time></trkpt>
    <trkpt lat="28.426171" lon="84.895355"><ele>1596.6</ele><time>2025-10-30T06:19:57Z</time></trkpt>
    <trkpt lat="28.425881" lon="84.895246"><ele>1587.6</ele><time>2025-10-30T06:20:37Z</time></trkpt>
    <trkpt lat="28.425708" lon="84.895239"><ele>1583.6</ele><time>2025-10-30T06:20:54Z</time></trkpt>
    <trkpt lat="28.425573" lon="84.895310"><ele>1580.6</ele><time>2025-10-30T06:21:05Z</time></trkpt>
    <trkpt lat="28.425542" lon="84.895314"><ele>1580.6</ele><time>2025-10-30T06:21:13Z</time></trkpt>
    <trkpt lat="28.425444" lon="84.895283"><ele>1580.6</ele><time>2025-10-30T06:21:23Z</time></trkpt>
    <trkpt lat="28.425379" lon="84.895206"><ele>1580.6</ele><time>2025-10-30T06:21:31Z</time></trkpt>
    <trkpt lat="28.425148" lon="84.895159"><ele>1581.8</ele><time>2025-10-30T06:21:51Z</time></trkpt>
    <trkpt lat="28.424704" lon="84.895110"><ele>1586.2</ele><time>2025-10-30T06:22:31Z</time></trkpt>
    <trkpt lat="28.424442" lon="84.895152"><ele>1587.0</ele><time>2025-10-30T06:23:00Z</time></trkpt>
    <trkpt lat="28.424324" lon="84.895067"><ele>1588.0</ele><time>2025-10-30T06:23:18Z</time></trkpt>
    <trkpt lat="28.424291" lon="84.895095"><ele>1588.0</ele><time>2025-10-30T06:23:41Z</time></trkpt>
    <trkpt lat="28.424122" lon="84.895139"><ele>1585.0</ele><time>2025-10-30T06:24:06Z</time></trkpt>
    <trkpt lat="28.424008" lon="84.895262"><ele>1582.4</ele><time>2025-10-30T06:24:33Z</time></trkpt>
    <trkpt lat="28.423901" lon="84.895312"><ele>1581.6</ele><time>2025-10-30T06:24:45Z</time></trkpt>
    <trkpt lat="28.423376" lon="84.895480"><ele>1578.4</ele><time>2025-10-30T06:25:31Z</time></trkpt>
    <trkpt lat="28.423234" lon="84.895605"><ele>1576.0</ele><time>2025-10-30T06:25:45Z</time></trkpt>
    <trkpt lat="28.422981" lon="84.895745"><ele>1572.8</ele><time>2025-10-30T06:26:09Z</time></trkpt>
    <trkpt lat="28.422283" lon="84.895808"><ele>1575.8</ele><time>2025-10-30T06:27:21Z</time></trkpt>
    <trkpt lat="28.422194" lon="84.895861"><ele>1576.4</ele><time>2025-10-30T06:27:33Z</time></trkpt>
    <trkpt lat="28.422162" lon="84.895875"><ele>1577.0</ele><time>2025-10-30T06:27:37Z</time></trkpt>
    <trkpt lat="28.422132" lon="84.895953"><ele>1579.6</ele><time>2025-10-30T06:27:49Z</time></trkpt>
    <trkpt lat="28.421880" lon="84.895980"><ele>1589.4</ele><time>2025-10-30T06:28:45Z</time></trkpt>
    <trkpt lat="28.421867" lon="84.895996"><ele>1590.0</ele><time>2025-10-30T06:28:50Z</time></trkpt>
    <trkpt lat="28.421547" lon="84.896257"><ele>1591.6</ele><time>2025-10-30T06:29:33Z</time></trkpt>
    <trkpt lat="28.421519" lon="84.896211"><ele>1591.6</ele><time>2025-10-30T06:29:37Z</time></trkpt>
    <trkpt lat="28.421389" lon="84.896285"><ele>1591.8</ele><time>2025-10-30T06:29:51Z</time></trkpt>
    <trkpt lat="28.421237" lon="84.896276"><ele>1593.8</ele><time>2025-10-30T06:30:08Z</time></trkpt>
    <trkpt lat="28.421258" lon="84.896312"><ele>1593.8</ele><time>2025-10-30T06:30:14Z</time></trkpt>
    <trkpt lat="28.421243" lon="84.896246"><ele>1593.8</ele><time>2025-10-30T06:31:19Z</time></trkpt>
    <trkpt lat="28.421233" lon="84.896293"><ele>1593.8</ele><time>2025-10-30T06:31:41Z</time></trkpt>
    <trkpt lat="28.421221" lon="84.896267"><ele>1593.8</ele><time>2025-10-30T06:31:46Z</time></trkpt>
    <trkpt lat="28.421254" lon="84.896218"><ele>1593.8</ele><time>2025-10-30T06:31:53Z</time></trkpt>
    <trkpt lat="28.421254" lon="84.896255"><ele>1593.8</ele><time>2025-10-30T06:32:08Z</time></trkpt>
    <trkpt lat="28.421217" lon="84.896257"><ele>1593.8</ele><time>2025-10-30T06:32:26Z</time></trkpt>
    <trkpt lat="28.421251" lon="84.896280"><ele>1593.8</ele><time>2025-10-30T06:32:55Z</time></trkpt>
    <trkpt lat="28.421214" lon="84.896261"><ele>1593.6</ele><time>2025-10-30T06:33:31Z</time></trkpt>
    <trkpt lat="28.421219" lon="84.896306"><ele>1593.6</ele><time>2025-10-30T06:33:42Z</time></trkpt>
    <trkpt lat="28.421210" lon="84.896267"><ele>1593.6</ele><time>2025-10-30T06:33:53Z</time></trkpt>
    <trkpt lat="28.421190" lon="84.896293"><ele>1593.4</ele><time>2025-10-30T06:34:05Z</time></trkpt>
    <trkpt lat="28.421150" lon="84.896433"><ele>1587.6</ele><time>2025-10-30T06:34:23Z</time></trkpt>
    <trkpt lat="28.421126" lon="84.896424"><ele>1587.4</ele><time>2025-10-30T06:34:25Z</time></trkpt>
    <trkpt lat="28.420897" lon="84.896480"><ele>1587.4</ele><time>2025-10-30T06:34:44Z</time></trkpt>
    <trkpt lat="28.420782" lon="84.896426"><ele>1587.4</ele><time>2025-10-30T06:34:56Z</time></trkpt>
    <trkpt lat="28.420674" lon="84.896430"><ele>1587.8</ele><time>2025-10-30T06:35:05Z</time></trkpt>
    <trkpt lat="28.420591" lon="84.896458"><ele>1589.0</ele><time>2025-10-30T06:35:16Z</time></trkpt>
    <trkpt lat="28.420561" lon="84.896527"><ele>1590.4</ele><time>2025-10-30T06:35:25Z</time></trkpt>
    <trkpt lat="28.420367" lon="84.896676"><ele>1591.8</ele><time>2025-10-30T06:35:46Z</time></trkpt>
    <trkpt lat="28.419986" lon="84.896725"><ele>1591.8</ele><time>2025-10-30T06:36:28Z</time></trkpt>
    <trkpt lat="28.419918" lon="84.896759"><ele>1590.4</ele><time>2025-10-30T06:36:36Z</time></trkpt>
    <trkpt lat="28.419527" lon="84.896605"><ele>1588.8</ele><time>2025-10-30T06:37:15Z</time></trkpt>
    <trkpt lat="28.419446" lon="84.896605"><ele>1588.4</ele><time>2025-10-30T06:37:22Z</time></trkpt>
    <trkpt lat="28.419406" lon="84.896665"><ele>1588.2</ele><time>2025-10-30T06:37:29Z</time></trkpt>
    <trkpt lat="28.419333" lon="84.896678"><ele>1588.2</ele><time>2025-10-30T06:37:36Z</time></trkpt>
    <trkpt lat="28.419085" lon="84.896597"><ele>1587.2</ele><time>2025-10-30T06:38:01Z</time></trkpt>
    <trkpt lat="28.418869" lon="84.896758"><ele>1584.8</ele><time>2025-10-30T06:38:24Z</time></trkpt>
    <trkpt lat="28.418678" lon="84.896743"><ele>1584.8</ele><time>2025-10-30T06:38:40Z</time></trkpt>
    <trkpt lat="28.418600" lon="84.896817"><ele>1584.8</ele><time>2025-10-30T06:38:49Z</time></trkpt>
    <trkpt lat="28.418483" lon="84.896763"><ele>1584.8</ele><time>2025-10-30T06:39:00Z</time></trkpt>
    <trkpt lat="28.418334" lon="84.896622"><ele>1589.2</ele><time>2025-10-30T06:39:25Z</time></trkpt>
    <trkpt lat="28.418115" lon="84.896235"><ele>1599.8</ele><time>2025-10-30T06:40:27Z</time></trkpt>
    <trkpt lat="28.418073" lon="84.896186"><ele>1600.4</ele><time>2025-10-30T06:40:34Z</time></trkpt>
    <trkpt lat="28.417930" lon="84.896090"><ele>1600.4</ele><time>2025-10-30T06:40:55Z</time></trkpt>
    <trkpt lat="28.417605" lon="84.896145"><ele>1597.2</ele><time>2025-10-30T06:41:34Z</time></trkpt>
    <trkpt lat="28.417403" lon="84.896312"><ele>1597.2</ele><time>2025-10-30T06:41:59Z</time></trkpt>
    <trkpt lat="28.417187" lon="84.896461"><ele>1600.8</ele><time>2025-10-30T06:42:26Z</time></trkpt>
    <trkpt lat="28.417003" lon="84.896363"><ele>1600.8</ele><time>2025-10-30T06:42:46Z</time></trkpt>
    <trkpt lat="28.416953" lon="84.896284"><ele>1600.8</ele><time>2025-10-30T06:42:54Z</time></trkpt>
    <trkpt lat="28.416943" lon="84.896155"><ele>1600.6</ele><time>2025-10-30T06:43:09Z</time></trkpt>
    <trkpt lat="28.416822" lon="84.896087"><ele>1600.6</ele><time>2025-10-30T06:43:24Z</time></trkpt>
    <trkpt lat="28.415799" lon="84.895524"><ele>1615.4</ele><time>2025-10-30T06:45:42Z</time></trkpt>
    <trkpt lat="28.415708" lon="84.895336"><ele>1620.4</ele><time>2025-10-30T06:46:08Z</time></trkpt>
    <trkpt lat="28.415461" lon="84.894833"><ele>1621.2</ele><time>2025-10-30T06:46:57Z</time></trkpt>
    <trkpt lat="28.415223" lon="84.894540"><ele>1621.8</ele><time>2025-10-30T06:47:29Z</time></trkpt>
    <trkpt lat="28.415109" lon="84.894495"><ele>1622.0</ele><time>2025-10-30T06:47:41Z</time></trkpt>
    <trkpt lat="28.414418" lon="84.894474"><ele>1623.2</ele><time>2025-10-30T06:48:47Z</time></trkpt>
    <trkpt lat="28.414094" lon="84.894375"><ele>1623.8</ele><time>2025-10-30T06:49:18Z</time></trkpt>
    <trkpt lat="28.413784" lon="84.894188"><ele>1624.6</ele><time>2025-10-30T06:49:55Z</time></trkpt>
    <trkpt lat="28.413620" lon="84.894221"><ele>1624.6</ele><time>2025-10-30T06:50:12Z</time></trkpt>
    <trkpt lat="28.413565" lon="84.894294"><ele>1625.2</ele><time>2025-10-30T06:50:19Z</time></trkpt>
    <trkpt lat="28.413489" lon="84.894316"><ele>1625.6</ele><time>2025-10-30T06:50:31Z</time></trkpt>
    <trkpt lat="28.413274" lon="84.894023"><ele>1627.2</ele><time>2025-10-30T06:51:10Z</time></trkpt>
    <trkpt lat="28.412839" lon="84.893723"><ele>1627.0</ele><time>2025-10-30T06:52:01Z</time></trkpt>
    <trkpt lat="28.412810" lon="84.893776"><ele>1627.4</ele><time>2025-10-30T06:52:57Z</time></trkpt>
    <trkpt lat="28.412793" lon="84.893948"><ele>1633.4</ele><time>2025-10-30T06:53:26Z</time></trkpt>
    <trkpt lat="28.412893" lon="84.894075"><ele>1638.8</ele><time>2025-10-30T06:54:03Z</time></trkpt>
    <trkpt lat="28.412895" lon="84.894119"><ele>1639.8</ele><time>2025-10-30T06:54:08Z</time></trkpt>
    <trkpt lat="28.412839" lon="84.894128"><ele>1640.6</ele><time>2025-10-30T06:54:16Z</time></trkpt>
    <trkpt lat="28.412877" lon="84.894198"><ele>1643.2</ele><time>2025-10-30T06:54:35Z</time></trkpt>
    <trkpt lat="28.412859" lon="84.894231"><ele>1644.2</ele><time>2025-10-30T06:54:41Z</time></trkpt>
    <trkpt lat="28.412866" lon="84.894233"><ele>1644.4</ele><time>2025-10-30T06:54:42Z</time></trkpt>
    <trkpt lat="28.412903" lon="84.894212"><ele>1644.4</ele><time>2025-10-30T06:56:07Z</time></trkpt>
    <trkpt lat="28.412724" lon="84.893207"><ele>1631.6</ele><time>2025-10-30T06:57:38Z</time></trkpt>
    <trkpt lat="28.412584" lon="84.892264"><ele>1631.0</ele><time>2025-10-30T06:59:29Z</time></trkpt>
    <trkpt lat="28.412391" lon="84.891192"><ele>1645.0</ele><time>2025-10-30T07:01:29Z</time></trkpt>
    <trkpt lat="28.412434" lon="84.891086"><ele>1646.4</ele><time>2025-10-30T07:02:11Z</time></trkpt>
    <trkpt lat="28.412424" lon="84.891075"><ele>1647.0</ele><time>2025-10-30T07:02:15Z</time></trkpt>
    <trkpt lat="28.412358" lon="84.890994"><ele>1652.8</ele><time>2025-10-30T07:02:52Z</time></trkpt>
    <trkpt lat="28.412374" lon="84.890916"><ele>1655.2</ele><time>2025-10-30T07:03:05Z</time></trkpt>
    <trkpt lat="28.412349" lon="84.890917"><ele>1656.8</ele><time>2025-10-30T07:03:16Z</time></trkpt>
    <trkpt lat="28.412248" lon="84.890971"><ele>1659.0</ele><time>2025-10-30T07:03:54Z</time></trkpt>
    <trkpt lat="28.412202" lon="84.891037"><ele>1660.0</ele><time>2025-10-30T07:04:05Z</time></trkpt>
    <trkpt lat="28.411892" lon="84.891383"><ele>1670.2</ele><time>2025-10-30T07:05:25Z</time></trkpt>
    <trkpt lat="28.411855" lon="84.891318"><ele>1672.0</ele><time>2025-10-30T07:05:53Z</time></trkpt>
    <trkpt lat="28.411803" lon="84.891114"><ele>1679.4</ele><time>2025-10-30T07:06:45Z</time></trkpt>
    <trkpt lat="28.411916" lon="84.890831"><ele>1685.0</ele><time>2025-10-30T07:07:37Z</time></trkpt>
    <trkpt lat="28.411897" lon="84.890829"><ele>1686.0</ele><time>2025-10-30T07:07:43Z</time></trkpt>
    <trkpt lat="28.411710" lon="84.891004"><ele>1689.0</ele><time>2025-10-30T07:08:27Z</time></trkpt>
    <trkpt lat="28.411692" lon="84.891079"><ele>1690.2</ele><time>2025-10-30T07:09:04Z</time></trkpt>
    <trkpt lat="28.411518" lon="84.891174"><ele>1691.2</ele><time>2025-10-30T07:09:28Z</time></trkpt>
    <trkpt lat="28.411430" lon="84.891176"><ele>1691.8</ele><time>2025-10-30T07:09:47Z</time></trkpt>
    </trkseg>
  </trk>
</gpx>
