<?xml version="1.0" encoding="UTF-8"?>
<gpx version="1.1" creator="tripplanner (simplified from Strava export)" xmlns="http://www.topografix.com/GPX/1/1">
  <metadata>
    <name>Manaslu — Deng → Namrung</name>
    <time>2025-10-23T01:34:34Z</time>
  </metadata>
  <trk>
    <name>Manaslu — Deng → Namrung</name>
    <trkseg>
    <trkpt lat="28.480227" lon="84.866691"><ele>1880.4</ele><time>2025-10-23T01:34:34Z</time></trkpt>
    <trkpt lat="28.480266" lon="84.866719"><ele>1880.2</ele><time>2025-10-23T01:35:47Z</time></trkpt>
    <trkpt lat="28.480840" lon="84.866526"><ele>1877.4</ele><time>2025-10-23T01:38:04Z</time></trkpt>
    <trkpt lat="28.481061" lon="84.866624"><ele>1875.6</ele><time>2025-10-23T01:38:30Z</time></trkpt>
    <trkpt lat="28.481171" lon="84.866553"><ele>1872.6</ele><time>2025-10-23T01:38:47Z</time></trkpt>
    <trkpt lat="28.481322" lon="84.866563"><ele>1870.2</ele><time>2025-10-23T01:39:06Z</time></trkpt>
    <trkpt lat="28.481363" lon="84.866523"><ele>1868.0</ele><time>2025-10-23T01:39:16Z</time></trkpt>
    <trkpt lat="28.481384" lon="84.866498"><ele>1868.0</ele><time>2025-10-23T01:39:21Z</time></trkpt>
    <trkpt lat="28.481540" lon="84.866472"><ele>1868.0</ele><time>2025-10-23T01:39:40Z</time></trkpt>
    <trkpt lat="28.481751" lon="84.866242"><ele>1870.6</ele><time>2025-10-23T01:40:11Z</time></trkpt>
    <trkpt lat="28.482043" lon="84.866225"><ele>1872.0</ele><time>2025-10-23T01:40:47Z</time></trkpt>
    <trkpt lat="28.482125" lon="84.866254"><ele>1872.0</ele><time>2025-10-23T01:40:55Z</time></trkpt>
    <trkpt lat="28.482214" lon="84.866280"><ele>1871.2</ele><time>2025-10-23T01:41:02Z</time></trkpt>
    <trkpt lat="28.482386" lon="84.866173"><ele>1865.2</ele><time>2025-10-23T01:41:32Z</time></trkpt>
    <trkpt lat="28.482503" lon="84.866163"><ele>1862.2</ele><time>2025-10-23T01:41:45Z</time></trkpt>
    <trkpt lat="28.482605" lon="84.866081"><ele>1859.0</ele><time>2025-10-23T01:41:59Z</time></trkpt>
    <trkpt lat="28.482660" lon="84.866083"><ele>1857.2</ele><time>2025-10-23T01:42:07Z</time></trkpt>
    <trkpt lat="28.482739" lon="84.866072"><ele>1857.2</ele><time>2025-10-23T01:42:14Z</time></trkpt>
    <trkpt lat="28.482853" lon="84.865974"><ele>1858.2</ele><time>2025-10-23T01:42:50Z</time></trkpt>
    <trkpt lat="28.483083" lon="84.865858"><ele>1865.8</ele><time>2025-10-23T01:43:30Z</time></trkpt>
    <trkpt lat="28.483086" lon="84.865825"><ele>1866.8</ele><time>2025-10-23T01:43:34Z</time></trkpt>
    <trkpt lat="28.483151" lon="84.865917"><ele>1870.8</ele><time>2025-10-23T01:44:01Z</time></trkpt>
    <trkpt lat="28.483258" lon="84.865977"><ele>1875.0</ele><time>2025-10-23T01:44:24Z</time></trkpt>
    <trkpt lat="28.483440" lon="84.865907"><ele>1881.0</ele><time>2025-10-23T01:45:06Z</time></trkpt>
    <trkpt lat="28.483462" lon="84.865909"><ele>1881.6</ele><time>2025-10-23T01:45:09Z</time></trkpt>
    <trkpt lat="28.483610" lon="84.865965"><ele>1881.2</ele><time>2025-10-23T01:45:35Z</time></trkpt>
    <trkpt lat="28.483699" lon="84.866009"><ele>1877.4</ele><time>2025-10-23T01:45:52Z</time></trkpt>
    <trkpt lat="28.483868" lon="84.865929"><ele>1871.8</ele><time>2025-10-23T01:46:20Z</time></trkpt>
    <trkpt lat="28.483940" lon="84.865986"><ele>1871.2</ele><time>2025-10-23T01:46:28Z</time></trkpt>
    <trkpt lat="28.484003" lon="84.866002"><ele>1871.2</ele><time>2025-10-23T01:46:35Z</time></trkpt>
    <trkpt lat="28.484122" lon="84.865916"><ele>1871.6</ele><time>2025-10-23T01:46:55Z</time></trkpt>
    <trkpt lat="28.484382" lon="84.865838"><ele>1873.8</ele><time>2025-10-23T01:47:24Z</time></trkpt>
    <trkpt lat="28.484560" lon="84.865680"><ele>1878.0</ele><time>2025-10-23T01:47:57Z</time></trkpt>
    <trkpt lat="28.484754" lon="84.865641"><ele>1878.0</ele><time>2025-10-23T01:48:16Z</time></trkpt>
    <trkpt lat="28.484884" lon="84.865559"><ele>1878.0</ele><time>2025-10-23T01:48:29Z</time></trkpt>
    <trkpt lat="28.484894" lon="84.865557"><ele>1878.0</ele><time>2025-10-23T01:48:30Z</time></trkpt>
    <trkpt lat="28.485009" lon="84.865549"><ele>1874.4</ele><time>2025-10-23T01:48:54Z</time></trkpt>
    <trkpt lat="28.485007" lon="84.865592"><ele>1872.4</ele><time>2025-10-23T01:49:01Z</time></trkpt>
    <trkpt lat="28.485110" lon="84.865560"><ele>1867.6</ele><time>2025-10-23T01:49:24Z</time></trkpt>
    <trkpt lat="28.485255" lon="84.865498"><ele>1860.8</ele><time>2025-10-23T01:49:50Z</time></trkpt>
    <trkpt lat="28.485226" lon="84.865670"><ele>1854.2</ele><time>2025-10-23T01:50:18Z</time></trkpt>
    <trkpt lat="28.485261" lon="84.865680"><ele>1853.0</ele><time>2025-10-23T01:50:23Z</time></trkpt>
    <trkpt lat="28.485338" lon="84.865632"><ele>1848.8</ele><time>2025-10-23T01:50:39Z</time></trkpt>
    <trkpt lat="28.485393" lon="84.865517"><ele>1844.0</ele><time>2025-10-23T01:50:58Z</time></trkpt>
    <trkpt lat="28.485395" lon="84.865579"><ele>1842.0</ele><time>2025-10-23T01:51:07Z</time></trkpt>
    <trkpt lat="28.485432" lon="84.865578"><ele>1840.6</ele><time>2025-10-23T01:51:14Z</time></trkpt>
    <trkpt lat="28.485434" lon="84.865511"><ele>1839.0</ele><time>2025-10-23T01:51:21Z</time></trkpt>
    <trkpt lat="28.485496" lon="84.865437"><ele>1837.2</ele><time>2025-10-23T01:51:28Z</time></trkpt>
    <trkpt lat="28.485880" lon="84.865321"><ele>1833.8</ele><time>2025-10-23T01:52:06Z</time></trkpt>
    <trkpt lat="28.486108" lon="84.865391"><ele>1831.0</ele><time>2025-10-23T01:52:24Z</time></trkpt>
    <trkpt lat="28.486163" lon="84.865444"><ele>1830.8</ele><time>2025-10-23T01:52:31Z</time></trkpt>
    <trkpt lat="28.486463" lon="84.865608"><ele>1830.8</ele><time>2025-10-23T01:52:57Z</time></trkpt>
    <trkpt lat="28.486738" lon="84.865886"><ele>1832.4</ele><time>2025-10-23T01:53:29Z</time></trkpt>
    <trkpt lat="28.486882" lon="84.865956"><ele>1832.6</ele><time>2025-10-23T01:53:42Z</time></trkpt>
    <trkpt lat="28.487092" lon="84.866097"><ele>1834.8</ele><time>2025-10-23T01:54:06Z</time></trkpt>
    <trkpt lat="28.487204" lon="84.866246"><ele>1838.2</ele><time>2025-10-23T01:54:25Z</time></trkpt>
    <trkpt lat="28.487457" lon="84.866392"><ele>1841.4</ele><time>2025-10-23T01:54:55Z</time></trkpt>
    <trkpt lat="28.487521" lon="84.866426"><ele>1842.0</ele><time>2025-10-23T01:55:02Z</time></trkpt>
    <trkpt lat="28.487633" lon="84.866356"><ele>1843.6</ele><time>2025-10-23T01:55:26Z</time></trkpt>
    <trkpt lat="28.487929" lon="84.866812"><ele>1844.8</ele><time>2025-10-23T01:56:09Z</time></trkpt>
    <trkpt lat="28.487925" lon="84.866834"><ele>1845.4</ele><time>2025-10-23T01:56:16Z</time></trkpt>
    <trkpt lat="28.487930" lon="84.866863"><ele>1845.4</ele><time>2025-10-23T01:56:22Z</time></trkpt>
    <trkpt lat="28.487854" lon="84.866806"><ele>1845.4</ele><time>2025-10-23T01:56:42Z</time></trkpt>
    <trkpt lat="28.487861" lon="84.866760"><ele>1845.4</ele><time>2025-10-23T01:56:51Z</time></trkpt>
    <trkpt lat="28.487887" lon="84.866868"><ele>1845.4</ele><time>2025-10-23T01:58:24Z</time></trkpt>
    <trkpt lat="28.487896" lon="84.866837"><ele>1845.4</ele><time>2025-10-23T01:58:34Z</time></trkpt>
    <trkpt lat="28.488160" lon="84.866855"><ele>1843.0</ele><time>2025-10-23T01:58:57Z</time></trkpt>
    <trkpt lat="28.488216" lon="84.866802"><ele>1843.0</ele><time>2025-10-23T01:59:07Z</time></trkpt>
    <trkpt lat="28.488431" lon="84.866568"><ele>1855.2</ele><time>2025-10-23T01:59:54Z</time></trkpt>
    <trkpt lat="28.488463" lon="84.866611"><ele>1857.2</ele><time>2025-10-23T02:00:05Z</time></trkpt>
    <trkpt lat="28.488457" lon="84.866763"><ele>1861.4</ele><time>2025-10-23T02:00:29Z</time></trkpt>
    <trkpt lat="28.488499" lon="84.866703"><ele>1864.4</ele><time>2025-10-23T02:00:49Z</time></trkpt>
    <trkpt lat="28.488553" lon="84.866837"><ele>1869.6</ele><time>2025-10-23T02:01:20Z</time></trkpt>
    <trkpt lat="28.488642" lon="84.866702"><ele>1876.8</ele><time>2025-10-23T02:02:01Z</time></trkpt>
    <trkpt lat="28.488663" lon="84.866776"><ele>1881.6</ele><time>2025-10-23T02:02:31Z</time></trkpt>
    <trkpt lat="28.488715" lon="84.866837"><ele>1887.0</ele><time>2025-10-23T02:02:59Z</time></trkpt>
    <trkpt lat="28.488749" lon="84.866714"><ele>1894.0</ele><time>2025-10-23T02:03:31Z</time></trkpt>
    <trkpt lat="28.488709" lon="84.866645"><ele>1897.0</ele><time>2025-10-23T02:03:48Z</time></trkpt>
    <trkpt lat="28.488733" lon="84.866579"><ele>1898.2</ele><time>2025-10-23T02:03:56Z</time></trkpt>
    <trkpt lat="28.488737" lon="84.866571"><ele>1898.4</ele><time>2025-10-23T02:03:57Z</time></trkpt>
    <trkpt lat="28.488804" lon="84.866567"><ele>1898.8</ele><time>2025-10-23T02:04:30Z</time></trkpt>
    <trkpt lat="28.488889" lon="84.866616"><ele>1900.6</ele><time>2025-10-23T02:04:44Z</time></trkpt>
    <trkpt lat="28.488959" lon="84.866660"><ele>1902.6</ele><time>2025-10-23T02:04:54Z</time></trkpt>
    <trkpt lat="28.489003" lon="84.866581"><ele>1905.8</ele><time>2025-10-23T02:05:07Z</time></trkpt>
    <trkpt lat="28.489065" lon="84.866576"><ele>1907.0</ele><time>2025-10-23T02:05:13Z</time></trkpt>
    <trkpt lat="28.488991" lon="84.866883"><ele>1914.0</ele><time>2025-10-23T02:05:54Z</time></trkpt>
    <trkpt lat="28.489199" lon="84.866852"><ele>1920.0</ele><time>2025-10-23T02:06:31Z</time></trkpt>
    <trkpt lat="28.489651" lon="84.866842"><ele>1922.2</ele><time>2025-10-23T02:07:28Z</time></trkpt>
    <trkpt lat="28.489709" lon="84.866832"><ele>1925.0</ele><time>2025-10-23T02:07:40Z</time></trkpt>
    <trkpt lat="28.490376" lon="84.866908"><ele>1940.8</ele><time>2025-10-23T02:09:33Z</time></trkpt>
    <trkpt lat="28.490465" lon="84.866888"><ele>1944.2</ele><time>2025-10-23T02:09:56Z</time></trkpt>
    <trkpt lat="28.490526" lon="84.866945"><ele>1946.0</ele><time>2025-10-23T02:10:24Z</time></trkpt>
    <trkpt lat="28.490499" lon="84.867023"><ele>1947.4</ele><time>2025-10-23T02:10:37Z</time></trkpt>
    <trkpt lat="28.490622" lon="84.867117"><ele>1952.0</ele><time>2025-10-23T02:11:06Z</time></trkpt>
    <trkpt lat="28.490842" lon="84.867136"><ele>1958.6</ele><time>2025-10-23T02:11:58Z</time></trkpt>
    <trkpt lat="28.490804" lon="84.867218"><ele>1960.2</ele><time>2025-10-23T02:12:13Z</time></trkpt>
    <trkpt lat="28.490991" lon="84.867209"><ele>1964.6</ele><time>2025-10-23T02:12:51Z</time></trkpt>
    <trkpt lat="28.491171" lon="84.867262"><ele>1968.6</ele><time>2025-10-23T02:13:21Z</time></trkpt>
    <trkpt lat="28.491177" lon="84.867263"><ele>1968.8</ele><time>2025-10-23T02:13:22Z</time></trkpt>
    <trkpt lat="28.491541" lon="84.867455"><ele>1971.0</ele><time>2025-10-23T02:15:12Z</time></trkpt>
    <trkpt lat="28.491999" lon="84.867470"><ele>1972.0</ele><time>2025-10-23T02:15:57Z</time></trkpt>
    <trkpt lat="28.492061" lon="84.867539"><ele>1972.2</ele><time>2025-10-23T02:16:06Z</time></trkpt>
    <trkpt lat="28.492151" lon="84.867608"><ele>1973.2</ele><time>2025-10-23T02:16:18Z</time></trkpt>
    <trkpt lat="28.492479" lon="84.867713"><ele>1978.2</ele><time>2025-10-23T02:16:59Z</time></trkpt>
    <trkpt lat="28.492564" lon="84.867739"><ele>1978.2</ele><time>2025-10-23T02:17:08Z</time></trkpt>
    <trkpt lat="28.492741" lon="84.867735"><ele>1978.2</ele><time>2025-10-23T02:17:24Z</time></trkpt>
    <trkpt lat="28.492902" lon="84.867782"><ele>1978.2</ele><time>2025-10-23T02:17:45Z</time></trkpt>
    <trkpt lat="28.492906" lon="84.867781"><ele>1978.2</ele><time>2025-10-23T02:17:47Z</time></trkpt>
    <trkpt lat="28.493111" lon="84.867729"><ele>1971.4</ele><time>2025-10-23T02:18:33Z</time></trkpt>
    <trkpt lat="28.493241" lon="84.867783"><ele>1968.0</ele><time>2025-10-23T02:18:48Z</time></trkpt>
    <trkpt lat="28.493279" lon="84.867914"><ele>1961.6</ele><time>2025-10-23T02:19:24Z</time></trkpt>
    <trkpt lat="28.493310" lon="84.867809"><ele>1957.2</ele><time>2025-10-23T02:19:48Z</time></trkpt>
    <trkpt lat="28.493443" lon="84.867851"><ele>1952.8</ele><time>2025-10-23T02:20:09Z</time></trkpt>
    <trkpt lat="28.493627" lon="84.867955"><ele>1952.2</ele><time>2025-10-23T02:20:31Z</time></trkpt>
    <trkpt lat="28.493770" lon="84.867964"><ele>1952.2</ele><time>2025-10-23T02:20:47Z</time></trkpt>
    <trkpt lat="28.493941" lon="84.867987"><ele>1956.0</ele><time>2025-10-23T02:21:21Z</time></trkpt>
    <trkpt lat="28.494438" lon="84.868242"><ele>1967.2</ele><time>2025-10-23T02:23:05Z</time></trkpt>
    <trkpt lat="28.494552" lon="84.868200"><ele>1971.6</ele><time>2025-10-23T02:23:40Z</time></trkpt>
    <trkpt lat="28.494555" lon="84.868292"><ele>1974.0</ele><time>2025-10-23T02:23:56Z</time></trkpt>
    <trkpt lat="28.494616" lon="84.868179"><ele>1976.6</ele><time>2025-10-23T02:24:16Z</time></trkpt>
    <trkpt lat="28.494676" lon="84.868149"><ele>1977.2</ele><time>2025-10-23T02:24:23Z</time></trkpt>
    <trkpt lat="28.494839" lon="84.868194"><ele>1979.4</ele><time>2025-10-23T02:24:46Z</time></trkpt>
    <trkpt lat="28.495183" lon="84.868082"><ele>1985.8</ele><time>2025-10-23T02:25:55Z</time></trkpt>
    <trkpt lat="28.495601" lon="84.868246"><ele>1995.8</ele><time>2025-10-23T02:27:22Z</time></trkpt>
    <trkpt lat="28.495675" lon="84.868232"><ele>1996.6</ele><time>2025-10-23T02:27:31Z</time></trkpt>
    <trkpt lat="28.495693" lon="84.868255"><ele>1996.6</ele><time>2025-10-23T02:27:37Z</time></trkpt>
    <trkpt lat="28.495851" lon="84.868417"><ele>2000.8</ele><time>2025-10-23T02:28:04Z</time></trkpt>
    <trkpt lat="28.495999" lon="84.868506"><ele>2001.2</ele><time>2025-10-23T02:28:19Z</time></trkpt>
    <trkpt lat="28.496361" lon="84.868596"><ele>2010.0</ele><time>2025-10-23T02:29:16Z</time></trkpt>
    <trkpt lat="28.496468" lon="84.868743"><ele>2012.0</ele><time>2025-10-23T02:29:35Z</time></trkpt>
    <trkpt lat="28.496623" lon="84.868868"><ele>2016.8</ele><time>2025-10-23T02:30:08Z</time></trkpt>
    <trkpt lat="28.496793" lon="84.869229"><ele>2018.4</ele><time>2025-10-23T02:30:50Z</time></trkpt>
    <trkpt lat="28.496839" lon="84.869272"><ele>2018.6</ele><time>2025-10-23T02:30:57Z</time></trkpt>
    <trkpt lat="28.496954" lon="84.869362"><ele>2022.2</ele><time>2025-10-23T02:31:12Z</time></trkpt>
    <trkpt lat="28.496952" lon="84.869415"><ele>2023.6</ele><time>2025-10-23T02:31:18Z</time></trkpt>
    <trkpt lat="28.496822" lon="84.869381"><ele>2027.8</ele><time>2025-10-23T02:31:40Z</time></trkpt>
    <trkpt lat="28.496880" lon="84.869455"><ele>2031.4</ele><time>2025-10-23T02:31:55Z</time></trkpt>
    <trkpt lat="28.496858" lon="84.869541"><ele>2033.6</ele><time>2025-10-23T02:32:09Z</time></trkpt>
    <trkpt lat="28.496858" lon="84.869558"><ele>2033.8</ele><time>2025-10-23T02:32:11Z</time></trkpt>
    <trkpt lat="28.496886" lon="84.869633"><ele>2034.2</ele><time>2025-10-23T02:32:23Z</time></trkpt>
    <trkpt lat="28.496948" lon="84.869703"><ele>2036.4</ele><time>2025-10-23T02:32:46Z</time></trkpt>
    <trkpt lat="28.497099" lon="84.869747"><ele>2039.0</ele><time>2025-10-23T02:33:21Z</time></trkpt>
    <trkpt lat="28.497103" lon="84.869769"><ele>2039.6</ele><time>2025-10-23T02:33:29Z</time></trkpt>
    <trkpt lat="28.497078" lon="84.869777"><ele>2039.6</ele><time>2025-10-23T02:34:02Z</time></trkpt>
    <trkpt lat="28.496902" lon="84.869668"><ele>2036.4</ele><time>2025-10-23T02:34:42Z</time></trkpt>
    <trkpt lat="28.497176" lon="84.869723"><ele>2034.6</ele><time>2025-10-23T02:35:24Z</time></trkpt>
    <trkpt lat="28.497223" lon="84.869573"><ele>2032.8</ele><time>2025-10-23T02:35:42Z</time></trkpt>
    <trkpt lat="28.497365" lon="84.869211"><ele>2033.4</ele><time>2025-10-23T02:37:06Z</time></trkpt>
    <trkpt lat="28.497366" lon="84.869224"><ele>2033.6</ele><time>2025-10-23T02:39:04Z</time></trkpt>
    <trkpt lat="28.497397" lon="84.869217"><ele>2033.4</ele><time>2025-10-23T02:39:15Z</time></trkpt>
    <trkpt lat="28.497364" lon="84.868988"><ele>2031.4</ele><time>2025-10-23T02:39:36Z</time></trkpt>
    <trkpt lat="28.497459" lon="84.868940"><ele>2029.4</ele><time>2025-10-23T02:39:46Z</time></trkpt>
    <trkpt lat="28.497493" lon="84.868888"><ele>2028.6</ele><time>2025-10-23T02:39:51Z</time></trkpt>
    <trkpt lat="28.497570" lon="84.868776"><ele>2028.6</ele><time>2025-10-23T02:40:01Z</time></trkpt>
    <trkpt lat="28.497660" lon="84.868703"><ele>2028.6</ele><time>2025-10-23T02:40:12Z</time></trkpt>
    <trkpt lat="28.497714" lon="84.868693"><ele>2029.8</ele><time>2025-10-23T02:40:18Z</time></trkpt>
    <trkpt lat="28.497784" lon="84.868537"><ele>2031.4</ele><time>2025-10-23T02:40:35Z</time></trkpt>
    <trkpt lat="28.497871" lon="84.868449"><ele>2035.0</ele><time>2025-10-23T02:40:51Z</time></trkpt>
    <trkpt lat="28.498026" lon="84.868456"><ele>2036.6</ele><time>2025-10-23T02:41:08Z</time></trkpt>
    <trkpt lat="28.498184" lon="84.868371"><ele>2040.2</ele><time>2025-10-23T02:41:31Z</time></trkpt>
    <trkpt lat="28.498357" lon="84.868250"><ele>2040.8</ele><time>2025-10-23T02:41:52Z</time></trkpt>
    <trkpt lat="28.498584" lon="84.868169"><ele>2041.2</ele><time>2025-10-23T02:42:13Z</time></trkpt>
    <trkpt lat="28.498714" lon="84.868177"><ele>2041.8</ele><time>2025-10-23T02:42:37Z</time></trkpt>
    <trkpt lat="28.498853" lon="84.868111"><ele>2041.8</ele><time>2025-10-23T02:42:51Z</time></trkpt>
    <trkpt lat="28.499185" lon="84.868082"><ele>2041.8</ele><time>2025-10-23T02:43:22Z</time></trkpt>
    <trkpt lat="28.499214" lon="84.868072"><ele>2041.2</ele><time>2025-10-23T02:43:26Z</time></trkpt>
    <trkpt lat="28.499318" lon="84.868069"><ele>2038.0</ele><time>2025-10-23T02:43:39Z</time></trkpt>
    <trkpt lat="28.499475" lon="84.868184"><ele>2028.6</ele><time>2025-10-23T02:44:26Z</time></trkpt>
    <trkpt lat="28.499599" lon="84.868192"><ele>2023.2</ele><time>2025-10-23T02:44:54Z</time></trkpt>
    <trkpt lat="28.499648" lon="84.868251"><ele>2021.2</ele><time>2025-10-23T02:45:05Z</time></trkpt>
    <trkpt lat="28.499621" lon="84.868191"><ele>2018.8</ele><time>2025-10-23T02:45:23Z</time></trkpt>
    <trkpt lat="28.499643" lon="84.868174"><ele>2018.0</ele><time>2025-10-23T02:45:27Z</time></trkpt>
    <trkpt lat="28.499851" lon="84.868307"><ele>2008.8</ele><time>2025-10-23T02:46:19Z</time></trkpt>
    <trkpt lat="28.500172" lon="84.868332"><ele>2001.2</ele><time>2025-10-23T02:47:12Z</time></trkpt>
    <trkpt lat="28.500464" lon="84.868278"><ele>1994.2</ele><time>2025-10-23T02:47:59Z</time></trkpt>
    <trkpt lat="28.500458" lon="84.868336"><ele>1993.8</ele><time>2025-10-23T02:48:21Z</time></trkpt>
    <trkpt lat="28.500377" lon="84.868294"><ele>1991.6</ele><time>2025-10-23T02:49:01Z</time></trkpt>
    <trkpt lat="28.500301" lon="84.868313"><ele>1990.4</ele><time>2025-10-23T02:49:23Z</time></trkpt>
    <trkpt lat="28.500038" lon="84.868191"><ele>1983.6</ele><time>2025-10-23T02:50:26Z</time></trkpt>
    <trkpt lat="28.499978" lon="84.868168"><ele>1983.6</ele><time>2025-10-23T02:50:33Z</time></trkpt>
    <trkpt lat="28.499886" lon="84.868186"><ele>1983.6</ele><time>2025-10-23T02:50:47Z</time></trkpt>
    <trkpt lat="28.499793" lon="84.868096"><ele>1983.8</ele><time>2025-10-23T02:51:04Z</time></trkpt>
    <trkpt lat="28.499702" lon="84.867942"><ele>1985.8</ele><time>2025-10-23T02:51:19Z</time></trkpt>
    <trkpt lat="28.499712" lon="84.867497"><ele>1992.6</ele><time>2025-10-23T02:52:14Z</time></trkpt>
    <trkpt lat="28.499683" lon="84.867368"><ele>1993.6</ele><time>2025-10-23T02:52:29Z</time></trkpt>
    <trkpt lat="28.499645" lon="84.867331"><ele>1994.8</ele><time>2025-10-23T02:52:36Z</time></trkpt>
    <trkpt lat="28.499594" lon="84.867240"><ele>1995.0</ele><time>2025-10-23T02:52:50Z</time></trkpt>
    <trkpt lat="28.499644" lon="84.867098"><ele>1995.0</ele><time>2025-10-23T02:53:04Z</time></trkpt>
    <trkpt lat="28.499700" lon="84.867083"><ele>1995.0</ele><time>2025-10-23T02:53:32Z</time></trkpt>
    <trkpt lat="28.499820" lon="84.866852"><ele>1997.4</ele><time>2025-10-23T02:54:07Z</time></trkpt>
    <trkpt lat="28.499986" lon="84.866704"><ele>1997.4</ele><time>2025-10-23T02:54:30Z</time></trkpt>
    <trkpt lat="28.500133" lon="84.866563"><ele>1994.0</ele><time>2025-10-23T02:54:47Z</time></trkpt>
    <trkpt lat="28.500189" lon="84.866545"><ele>1993.2</ele><time>2025-10-23T02:54:52Z</time></trkpt>
    <trkpt lat="28.500305" lon="84.866497"><ele>1992.2</ele><time>2025-10-23T02:55:57Z</time></trkpt>
    <trkpt lat="28.500467" lon="84.866539"><ele>1990.4</ele><time>2025-10-23T02:56:12Z</time></trkpt>
    <trkpt lat="28.500729" lon="84.866499"><ele>1988.4</ele><time>2025-10-23T02:56:36Z</time></trkpt>
    <trkpt lat="28.500969" lon="84.866334"><ele>1987.6</ele><time>2025-10-23T02:56:59Z</time></trkpt>
    <trkpt lat="28.501132" lon="84.866322"><ele>1987.2</ele><time>2025-10-23T02:57:15Z</time></trkpt>
    <trkpt lat="28.501283" lon="84.866216"><ele>1986.4</ele><time>2025-10-23T02:57:31Z</time></trkpt>
    <trkpt lat="28.501416" lon="84.866127"><ele>1984.4</ele><time>2025-10-23T02:57:46Z</time></trkpt>
    <trkpt lat="28.501537" lon="84.866116"><ele>1978.8</ele><time>2025-10-23T02:58:10Z</time></trkpt>
    <trkpt lat="28.501600" lon="84.866068"><ele>1975.6</ele><time>2025-10-23T02:58:21Z</time></trkpt>
    <trkpt lat="28.501817" lon="84.865932"><ele>1975.4</ele><time>2025-10-23T02:58:45Z</time></trkpt>
    <trkpt lat="28.501883" lon="84.865878"><ele>1977.6</ele><time>2025-10-23T02:58:57Z</time></trkpt>
    <trkpt lat="28.502101" lon="84.865795"><ele>1981.0</ele><time>2025-10-23T02:59:25Z</time></trkpt>
    <trkpt lat="28.502260" lon="84.865620"><ele>1983.0</ele><time>2025-10-23T02:59:50Z</time></trkpt>
    <trkpt lat="28.502295" lon="84.865612"><ele>1983.8</ele><time>2025-10-23T02:59:54Z</time></trkpt>
    <trkpt lat="28.502642" lon="84.865874"><ele>1984.6</ele><time>2025-10-23T03:00:41Z</time></trkpt>
    <trkpt lat="28.502649" lon="84.865801"><ele>1985.0</ele><time>2025-10-23T03:01:01Z</time></trkpt>
    <trkpt lat="28.502593" lon="84.865674"><ele>1986.0</ele><time>2025-10-23T03:01:15Z</time></trkpt>
    <trkpt lat="28.502588" lon="84.865577"><ele>1986.2</ele><time>2025-10-23T03:01:22Z</time></trkpt>
    <trkpt lat="28.502601" lon="84.865431"><ele>1988.2</ele><time>2025-10-23T03:01:33Z</time></trkpt>
    <trkpt lat="28.502878" lon="84.865217"><ele>1995.8</ele><time>2025-10-23T03:02:15Z</time></trkpt>
    <trkpt lat="28.503086" lon="84.865045"><ele>1998.8</ele><time>2025-10-23T03:02:58Z</time></trkpt>
    <trkpt lat="28.503153" lon="84.865039"><ele>1999.2</ele><time>2025-10-23T03:03:09Z</time></trkpt>
    <trkpt lat="28.503147" lon="84.865042"><ele>1999.4</ele><time>2025-10-23T03:03:12Z</time></trkpt>
    <trkpt lat="28.503156" lon="84.865070"><ele>1999.4</ele><time>2025-10-23T03:03:24Z</time></trkpt>
    <trkpt lat="28.503188" lon="84.865054"><ele>1999.4</ele><time>2025-10-23T03:03:59Z</time></trkpt>
    <trkpt lat="28.503165" lon="84.865029"><ele>1999.4</ele><time>2025-10-23T03:04:47Z</time></trkpt>
    <trkpt lat="28.503195" lon="84.865061"><ele>1999.4</ele><time>2025-10-23T03:06:33Z</time></trkpt>
    <trkpt lat="28.503048" lon="84.865068"><ele>1999.2</ele><time>2025-10-23T03:06:56Z</time></trkpt>
    <trkpt lat="28.503008" lon="84.865090"><ele>1999.0</ele><time>2025-10-23T03:07:29Z</time></trkpt>
    <trkpt lat="28.503011" lon="84.865134"><ele>1999.0</ele><time>2025-10-23T03:07:45Z</time></trkpt>
    <trkpt lat="28.503104" lon="84.865054"><ele>1999.8</ele><time>2025-10-23T03:08:21Z</time></trkpt>
    <trkpt lat="28.503177" lon="84.865061"><ele>2000.6</ele><time>2025-10-23T03:09:44Z</time></trkpt>
    <trkpt lat="28.503137" lon="84.865036"><ele>2000.6</ele><time>2025-10-23T03:09:52Z</time></trkpt>
    <trkpt lat="28.503197" lon="84.865065"><ele>2000.6</ele><time>2025-10-23T03:10:21Z</time></trkpt>
    <trkpt lat="28.503161" lon="84.865013"><ele>2001.0</ele><time>2025-10-23T03:11:52Z</time></trkpt>
    <trkpt lat="28.503178" lon="84.865062"><ele>2001.0</ele><time>2025-10-23T03:12:11Z</time></trkpt>
    <trkpt lat="28.503183" lon="84.865025"><ele>2000.6</ele><time>2025-10-23T03:13:59Z</time></trkpt>
    <trkpt lat="28.503184" lon="84.865059"><ele>2000.6</ele><time>2025-10-23T03:14:49Z</time></trkpt>
    <trkpt lat="28.503206" lon="84.865027"><ele>2000.6</ele><time>2025-10-23T03:15:06Z</time></trkpt>
    <trkpt lat="28.503316" lon="84.865006"><ele>2002.4</ele><time>2025-10-23T03:15:21Z</time></trkpt>
    <trkpt lat="28.503457" lon="84.865006"><ele>2004.2</ele><time>2025-10-23T03:15:40Z</time></trkpt>
    <trkpt lat="28.503540" lon="84.864992"><ele>2004.2</ele><time>2025-10-23T03:17:20Z</time></trkpt>
    <trkpt lat="28.503629" lon="84.864793"><ele>2007.2</ele><time>2025-10-23T03:17:42Z</time></trkpt>
    <trkpt lat="28.503707" lon="84.864783"><ele>2009.6</ele><time>2025-10-23T03:17:54Z</time></trkpt>
    <trkpt lat="28.503855" lon="84.864717"><ele>2008.6</ele><time>2025-10-23T03:18:38Z</time></trkpt>
    <trkpt lat="28.504095" lon="84.864988"><ele>2005.2</ele><time>2025-10-23T03:19:28Z</time></trkpt>
    <trkpt lat="28.504168" lon="84.864973"><ele>2005.2</ele><time>2025-10-23T03:19:35Z</time></trkpt>
    <trkpt lat="28.504160" lon="84.864885"><ele>2005.2</ele><time>2025-10-23T03:19:46Z</time></trkpt>
    <trkpt lat="28.504173" lon="84.864846"><ele>2005.8</ele><time>2025-10-23T03:19:49Z</time></trkpt>
    <trkpt lat="28.504264" lon="84.864732"><ele>2008.0</ele><time>2025-10-23T03:20:02Z</time></trkpt>
    <trkpt lat="28.504250" lon="84.864480"><ele>2013.0</ele><time>2025-10-23T03:20:34Z</time></trkpt>
    <trkpt lat="28.504421" lon="84.864152"><ele>2021.8</ele><time>2025-10-23T03:21:37Z</time></trkpt>
    <trkpt lat="28.504534" lon="84.864112"><ele>2024.8</ele><time>2025-10-23T03:22:02Z</time></trkpt>
    <trkpt lat="28.504873" lon="84.863836"><ele>2029.8</ele><time>2025-10-23T03:22:51Z</time></trkpt>
    <trkpt lat="28.504885" lon="84.863820"><ele>2030.0</ele><time>2025-10-23T03:22:53Z</time></trkpt>
    <trkpt lat="28.505198" lon="84.863320"><ele>2040.2</ele><time>2025-10-23T03:24:05Z</time></trkpt>
    <trkpt lat="28.505414" lon="84.863177"><ele>2045.6</ele><time>2025-10-23T03:24:39Z</time></trkpt>
    <trkpt lat="28.505637" lon="84.862890"><ele>2049.8</ele><time>2025-10-23T03:25:20Z</time></trkpt>
    <trkpt lat="28.505723" lon="84.862748"><ele>2050.8</ele><time>2025-10-23T03:25:36Z</time></trkpt>
    <trkpt lat="28.505870" lon="84.862734"><ele>2053.0</ele><time>2025-10-23T03:25:54Z</time></trkpt>
    <trkpt lat="28.506201" lon="84.862577"><ele>2056.0</ele><time>2025-10-23T03:26:32Z</time></trkpt>
    <trkpt lat="28.506374" lon="84.862365"><ele>2058.0</ele><time>2025-10-23T03:26:57Z</time></trkpt>
    <trkpt lat="28.506542" lon="84.862284"><ele>2060.4</ele><time>2025-10-23T03:27:17Z</time></trkpt>
    <trkpt lat="28.506599" lon="84.862244"><ele>2061.8</ele><time>2025-10-23T03:27:25Z</time></trkpt>
    <trkpt lat="28.506773" lon="84.862098"><ele>2062.2</ele><time>2025-10-23T03:27:50Z</time></trkpt>
    <trkpt lat="28.506944" lon="84.862053"><ele>2062.0</ele><time>2025-10-23T03:28:07Z</time></trkpt>
    <trkpt lat="28.506998" lon="84.861917"><ele>2060.6</ele><time>2025-10-23T03:28:27Z</time></trkpt>
    <trkpt lat="28.507168" lon="84.861707"><ele>2058.0</ele><time>2025-10-23T03:29:14Z</time></trkpt>
    <trkpt lat="28.507207" lon="84.861761"><ele>2058.0</ele><time>2025-10-23T03:29:43Z</time></trkpt>
    <trkpt lat="28.507183" lon="84.861777"><ele>2058.0</ele><time>2025-10-23T03:29:59Z</time></trkpt>
    <trkpt lat="28.507189" lon="84.861714"><ele>2058.4</ele><time>2025-10-23T03:30:23Z</time></trkpt>
    <trkpt lat="28.507217" lon="84.861660"><ele>2059.6</ele><time>2025-10-23T03:30:29Z</time></trkpt>
    <trkpt lat="28.507359" lon="84.861548"><ele>2064.2</ele><time>2025-10-23T03:30:55Z</time></trkpt>
    <trkpt lat="28.507565" lon="84.861242"><ele>2064.4</ele><time>2025-10-23T03:31:24Z</time></trkpt>
    <trkpt lat="28.507633" lon="84.861097"><ele>2063.8</ele><time>2025-10-23T03:31:35Z</time></trkpt>
    <trkpt lat="28.507719" lon="84.861036"><ele>2063.2</ele><time>2025-10-23T03:31:46Z</time></trkpt>
    <trkpt lat="28.507906" lon="84.860593"><ele>2059.6</ele><time>2025-10-23T03:32:22Z</time></trkpt>
    <trkpt lat="28.508015" lon="84.860511"><ele>2059.4</ele><time>2025-10-23T03:32:33Z</time></trkpt>
    <trkpt lat="28.508090" lon="84.860457"><ele>2057.6</ele><time>2025-10-23T03:32:41Z</time></trkpt>
    <trkpt lat="28.508135" lon="84.860361"><ele>2055.2</ele><time>2025-10-23T03:32:54Z</time></trkpt>
    <trkpt lat="28.508258" lon="84.860286"><ele>2051.8</ele><time>2025-10-23T03:33:08Z</time></trkpt>
    <trkpt lat="28.508277" lon="84.860168"><ele>2050.0</ele><time>2025-10-23T03:33:18Z</time></trkpt>
    <trkpt lat="28.508283" lon="84.860145"><ele>2049.8</ele><time>2025-10-23T03:33:20Z</time></trkpt>
    <trkpt lat="28.508501" lon="84.859927"><ele>2047.6</ele><time>2025-10-23T03:33:45Z</time></trkpt>
    <trkpt lat="28.508779" lon="84.859275"><ele>2040.4</ele><time>2025-10-23T03:34:41Z</time></trkpt>
    <trkpt lat="28.508777" lon="84.859185"><ele>2037.4</ele><time>2025-10-23T03:34:52Z</time></trkpt>
    <trkpt lat="28.508759" lon="84.859049"><ele>2032.4</ele><time>2025-10-23T03:35:12Z</time></trkpt>
    <trkpt lat="28.508784" lon="84.858900"><ele>2028.2</ele><time>2025-10-23T03:35:29Z</time></trkpt>
    <trkpt lat="28.508969" lon="84.858535"><ele>2021.6</ele><time>2025-10-23T03:36:05Z</time></trkpt>
    <trkpt lat="28.509302" lon="84.858091"><ele>2012.0</ele><time>2025-10-23T03:36:50Z</time></trkpt>
    <trkpt lat="28.509435" lon="84.857946"><ele>2005.4</ele><time>2025-10-23T03:37:35Z</time></trkpt>
    <trkpt lat="28.509592" lon="84.857743"><ele>1998.8</ele><time>2025-10-23T03:38:00Z</time></trkpt>
    <trkpt lat="28.509661" lon="84.857524"><ele>1995.0</ele><time>2025-10-23T03:38:17Z</time></trkpt>
    <trkpt lat="28.509684" lon="84.857490"><ele>1994.2</ele><time>2025-10-23T03:38:20Z</time></trkpt>
    <trkpt lat="28.509804" lon="84.857258"><ele>1994.2</ele><time>2025-10-23T03:38:42Z</time></trkpt>
    <trkpt lat="28.509866" lon="84.857194"><ele>1994.2</ele><time>2025-10-23T03:38:50Z</time></trkpt>
    <trkpt lat="28.509992" lon="84.857164"><ele>1994.8</ele><time>2025-10-23T03:40:10Z</time></trkpt>
    <trkpt lat="28.510309" lon="84.857231"><ele>1995.8</ele><time>2025-10-23T03:40:40Z</time></trkpt>
    <trkpt lat="28.510319" lon="84.857234"><ele>1995.6</ele><time>2025-10-23T03:40:42Z</time></trkpt>
    <trkpt lat="28.510385" lon="84.857139"><ele>1992.4</ele><time>2025-10-23T03:40:56Z</time></trkpt>
    <trkpt lat="28.510559" lon="84.857173"><ele>1986.6</ele><time>2025-10-23T03:41:20Z</time></trkpt>
    <trkpt lat="28.510619" lon="84.857151"><ele>1984.8</ele><time>2025-10-23T03:41:27Z</time></trkpt>
    <trkpt lat="28.511001" lon="84.857034"><ele>1984.8</ele><time>2025-10-23T03:42:03Z</time></trkpt>
    <trkpt lat="28.511053" lon="84.856813"><ele>1990.2</ele><time>2025-10-23T03:42:37Z</time></trkpt>
    <trkpt lat="28.511166" lon="84.856718"><ele>1994.2</ele><time>2025-10-23T03:42:59Z</time></trkpt>
    <trkpt lat="28.511405" lon="84.856688"><ele>2000.8</ele><time>2025-10-23T03:43:39Z</time></trkpt>
    <trkpt lat="28.511573" lon="84.856568"><ele>2006.4</ele><time>2025-10-23T03:44:16Z</time></trkpt>
    <trkpt lat="28.511704" lon="84.856464"><ele>2011.4</ele><time>2025-10-23T03:44:45Z</time></trkpt>
    <trkpt lat="28.511729" lon="84.856571"><ele>2015.6</ele><time>2025-10-23T03:45:08Z</time></trkpt>
    <trkpt lat="28.512022" lon="84.856130"><ele>2034.6</ele><time>2025-10-23T03:47:11Z</time></trkpt>
    <trkpt lat="28.512266" lon="84.855743"><ele>2039.8</ele><time>2025-10-23T03:48:03Z</time></trkpt>
    <trkpt lat="28.512420" lon="84.855609"><ele>2042.8</ele><time>2025-10-23T03:48:27Z</time></trkpt>
    <trkpt lat="28.512521" lon="84.855534"><ele>2045.4</ele><time>2025-10-23T03:48:52Z</time></trkpt>
    <trkpt lat="28.512975" lon="84.855267"><ele>2053.2</ele><time>2025-10-23T03:49:56Z</time></trkpt>
    <trkpt lat="28.513246" lon="84.855054"><ele>2056.0</ele><time>2025-10-23T03:50:27Z</time></trkpt>
    <trkpt lat="28.513485" lon="84.854797"><ele>2058.2</ele><time>2025-10-23T03:50:54Z</time></trkpt>
    <trkpt lat="28.513493" lon="84.854794"><ele>2058.2</ele><time>2025-10-23T03:50:55Z</time></trkpt>
    <trkpt lat="28.513697" lon="84.854763"><ele>2063.4</ele><time>2025-10-23T03:51:23Z</time></trkpt>
    <trkpt lat="28.513687" lon="84.854850"><ele>2065.8</ele><time>2025-10-23T03:51:33Z</time></trkpt>
    <trkpt lat="28.513774" lon="84.854793"><ele>2070.0</ele><time>2025-10-23T03:51:59Z</time></trkpt>
    <trkpt lat="28.513846" lon="84.854761"><ele>2072.2</ele><time>2025-10-23T03:52:30Z</time></trkpt>
    <trkpt lat="28.513899" lon="84.854460"><ele>2075.4</ele><time>2025-10-23T03:53:00Z</time></trkpt>
    <trkpt lat="28.513959" lon="84.854312"><ele>2076.0</ele><time>2025-10-23T03:53:13Z</time></trkpt>
    <trkpt lat="28.514059" lon="84.854192"><ele>2077.4</ele><time>2025-10-23T03:53:30Z</time></trkpt>
    <trkpt lat="28.514075" lon="84.854065"><ele>2078.6</ele><time>2025-10-23T03:53:41Z</time></trkpt>
    <trkpt lat="28.514241" lon="84.853746"><ele>2084.8</ele><time>2025-10-23T03:54:28Z</time></trkpt>
    <trkpt lat="28.514414" lon="84.853519"><ele>2086.6</ele><time>2025-10-23T03:54:51Z</time></trkpt>
    <trkpt lat="28.514639" lon="84.853019"><ele>2090.8</ele><time>2025-10-23T03:55:41Z</time></trkpt>
    <trkpt lat="28.514649" lon="84.852998"><ele>2090.8</ele><time>2025-10-23T03:55:43Z</time></trkpt>
    <trkpt lat="28.514881" lon="84.852606"><ele>2090.2</ele><time>2025-10-23T03:56:17Z</time></trkpt>
    <trkpt lat="28.514977" lon="84.852063"><ele>2073.6</ele><time>2025-10-23T03:57:24Z</time></trkpt>
    <trkpt lat="28.514970" lon="84.852018"><ele>2072.4</ele><time>2025-10-23T03:57:30Z</time></trkpt>
    <trkpt lat="28.514830" lon="84.851764"><ele>2069.4</ele><time>2025-10-23T03:58:00Z</time></trkpt>
    <trkpt lat="28.514846" lon="84.851598"><ele>2066.6</ele><time>2025-10-23T03:58:16Z</time></trkpt>
    <trkpt lat="28.514796" lon="84.851428"><ele>2064.2</ele><time>2025-10-23T03:58:30Z</time></trkpt>
    <trkpt lat="28.514815" lon="84.851224"><ele>2061.6</ele><time>2025-10-23T03:58:45Z</time></trkpt>
    <trkpt lat="28.515228" lon="84.850213"><ele>2054.0</ele><time>2025-10-23T04:00:05Z</time></trkpt>
    <trkpt lat="28.515458" lon="84.849958"><ele>2051.4</ele><time>2025-10-23T04:00:28Z</time></trkpt>
    <trkpt lat="28.515562" lon="84.849954"><ele>2050.0</ele><time>2025-10-23T04:00:37Z</time></trkpt>
    <trkpt lat="28.515624" lon="84.850015"><ele>2047.8</ele><time>2025-10-23T04:00:49Z</time></trkpt>
    <trkpt lat="28.515705" lon="84.850098"><ele>2043.2</ele><time>2025-10-23T04:01:09Z</time></trkpt>
    <trkpt lat="28.515924" lon="84.849994"><ele>2036.8</ele><time>2025-10-23T04:01:37Z</time></trkpt>
    <trkpt lat="28.516182" lon="84.850024"><ele>2031.4</ele><time>2025-10-23T04:02:01Z</time></trkpt>
    <trkpt lat="28.516334" lon="84.849984"><ele>2030.4</ele><time>2025-10-23T04:02:13Z</time></trkpt>
    <trkpt lat="28.516751" lon="84.849646"><ele>2030.4</ele><time>2025-10-23T04:02:54Z</time></trkpt>
    <trkpt lat="28.516771" lon="84.849547"><ele>2032.2</ele><time>2025-10-23T04:03:07Z</time></trkpt>
    <trkpt lat="28.516980" lon="84.849277"><ele>2038.8</ele><time>2025-10-23T04:03:49Z</time></trkpt>
    <trkpt lat="28.517099" lon="84.849206"><ele>2040.8</ele><time>2025-10-23T04:04:09Z</time></trkpt>
    <trkpt lat="28.517097" lon="84.849197"><ele>2040.8</ele><time>2025-10-23T04:05:00Z</time></trkpt>
    <trkpt lat="28.517190" lon="84.849172"><ele>2042.0</ele><time>2025-10-23T04:05:10Z</time></trkpt>
    <trkpt lat="28.517278" lon="84.849085"><ele>2043.6</ele><time>2025-10-23T04:05:24Z</time></trkpt>
    <trkpt lat="28.517725" lon="84.848976"><ele>2045.0</ele><time>2025-10-23T04:06:08Z</time></trkpt>
    <trkpt lat="28.517769" lon="84.848857"><ele>2046.8</ele><time>2025-10-23T04:06:29Z</time></trkpt>
    <trkpt lat="28.517770" lon="84.848744"><ele>2048.0</ele><time>2025-10-23T04:06:45Z</time></trkpt>
    <trkpt lat="28.517751" lon="84.848664"><ele>2049.6</ele><time>2025-10-23T04:06:55Z</time></trkpt>
    <trkpt lat="28.518107" lon="84.848377"><ele>2054.6</ele><time>2025-10-23T04:07:44Z</time></trkpt>
    <trkpt lat="28.518328" lon="84.848064"><ele>2058.2</ele><time>2025-10-23T04:08:27Z</time></trkpt>
    <trkpt lat="28.518451" lon="84.847679"><ele>2061.2</ele><time>2025-10-23T04:09:13Z</time></trkpt>
    <trkpt lat="28.518477" lon="84.847359"><ele>2063.8</ele><time>2025-10-23T04:09:48Z</time></trkpt>
    <trkpt lat="28.518589" lon="84.846903"><ele>2065.2</ele><time>2025-10-23T04:10:29Z</time></trkpt>
    <trkpt lat="28.518772" lon="84.846523"><ele>2073.0</ele><time>2025-10-23T04:11:33Z</time></trkpt>
    <trkpt lat="28.518824" lon="84.846513"><ele>2074.6</ele><time>2025-10-23T04:11:57Z</time></trkpt>
    <trkpt lat="28.518822" lon="84.846383"><ele>2077.8</ele><time>2025-10-23T04:12:18Z</time></trkpt>
    <trkpt lat="28.518852" lon="84.846351"><ele>2078.6</ele><time>2025-10-23T04:12:45Z</time></trkpt>
    <trkpt lat="28.518798" lon="84.846272"><ele>2079.8</ele><time>2025-10-23T04:13:09Z</time></trkpt>
    <trkpt lat="28.518832" lon="84.846160"><ele>2082.6</ele><time>2025-10-23T04:13:28Z</time></trkpt>
    <trkpt lat="28.518739" lon="84.845758"><ele>2088.4</ele><time>2025-10-23T04:14:40Z</time></trkpt>
    <trkpt lat="28.518835" lon="84.845547"><ele>2092.6</ele><time>2025-10-23T04:15:14Z</time></trkpt>
    <trkpt lat="28.518925" lon="84.845580"><ele>2096.0</ele><time>2025-10-23T04:15:37Z</time></trkpt>
    <trkpt lat="28.519041" lon="84.845476"><ele>2099.4</ele><time>2025-10-23T04:16:36Z</time></trkpt>
    <trkpt lat="28.519040" lon="84.845311"><ele>2100.8</ele><time>2025-10-23T04:16:54Z</time></trkpt>
    <trkpt lat="28.519098" lon="84.845203"><ele>2102.0</ele><time>2025-10-23T04:17:09Z</time></trkpt>
    <trkpt lat="28.519232" lon="84.844814"><ele>2100.2</ele><time>2025-10-23T04:18:09Z</time></trkpt>
    <trkpt lat="28.519418" lon="84.844759"><ele>2097.2</ele><time>2025-10-23T04:18:37Z</time></trkpt>
    <trkpt lat="28.519499" lon="84.844810"><ele>2096.4</ele><time>2025-10-23T04:18:50Z</time></trkpt>
    <trkpt lat="28.519460" lon="84.844774"><ele>2096.0</ele><time>2025-10-23T05:00:21Z</time></trkpt>
    <trkpt lat="28.519586" lon="84.844724"><ele>2095.0</ele><time>2025-10-23T05:00:41Z</time></trkpt>
    <trkpt lat="28.519611" lon="84.844595"><ele>2094.6</ele><time>2025-10-23T05:01:02Z</time></trkpt>
    <trkpt lat="28.519626" lon="84.844563"><ele>2093.2</ele><time>2025-10-23T05:01:10Z</time></trkpt>
    <trkpt lat="28.519700" lon="84.844497"><ele>2091.8</ele><time>2025-10-23T05:01:23Z</time></trkpt>
    <trkpt lat="28.519889" lon="84.844452"><ele>2087.0</ele><time>2025-10-23T05:01:45Z</time></trkpt>
    <trkpt lat="28.520191" lon="84.844392"><ele>2087.4</ele><time>2025-10-23T05:02:43Z</time></trkpt>
    <trkpt lat="28.520433" lon="84.844385"><ele>2090.6</ele><time>2025-10-23T05:03:41Z</time></trkpt>
    <trkpt lat="28.520454" lon="84.844367"><ele>2090.6</ele><time>2025-10-23T05:03:47Z</time></trkpt>
    <trkpt lat="28.520535" lon="84.844313"><ele>2089.6</ele><time>2025-10-23T05:03:56Z</time></trkpt>
    <trkpt lat="28.520645" lon="84.844107"><ele>2084.2</ele><time>2025-10-23T05:04:31Z</time></trkpt>
    <trkpt lat="28.520784" lon="84.844067"><ele>2082.8</ele><time>2025-10-23T05:04:46Z</time></trkpt>
    <trkpt lat="28.520805" lon="84.844108"><ele>2082.6</ele><time>2025-10-23T05:04:52Z</time></trkpt>
    <trkpt lat="28.520834" lon="84.844131"><ele>2082.4</ele><time>2025-10-23T05:05:27Z</time></trkpt>
    <trkpt lat="28.520860" lon="84.844047"><ele>2082.2</ele><time>2025-10-23T05:05:46Z</time></trkpt>
    <trkpt lat="28.521168" lon="84.843938"><ele>2082.2</ele><time>2025-10-23T05:06:29Z</time></trkpt>
    <trkpt lat="28.521249" lon="84.843901"><ele>2083.4</ele><time>2025-10-23T05:06:40Z</time></trkpt>
    <trkpt lat="28.521423" lon="84.843889"><ele>2086.4</ele><time>2025-10-23T05:06:59Z</time></trkpt>
    <trkpt lat="28.521475" lon="84.843928"><ele>2086.4</ele><time>2025-10-23T05:07:07Z</time></trkpt>
    <trkpt lat="28.521582" lon="84.843903"><ele>2086.4</ele><time>2025-10-23T05:07:53Z</time></trkpt>
    <trkpt lat="28.521791" lon="84.843977"><ele>2084.4</ele><time>2025-10-23T05:08:11Z</time></trkpt>
    <trkpt lat="28.521941" lon="84.843931"><ele>2084.0</ele><time>2025-10-23T05:08:27Z</time></trkpt>
    <trkpt lat="28.522181" lon="84.843952"><ele>2083.4</ele><time>2025-10-23T05:08:50Z</time></trkpt>
    <trkpt lat="28.522319" lon="84.843805"><ele>2083.0</ele><time>2025-10-23T05:09:07Z</time></trkpt>
    <trkpt lat="28.522363" lon="84.843666"><ele>2082.2</ele><time>2025-10-23T05:09:18Z</time></trkpt>
    <trkpt lat="28.522445" lon="84.843565"><ele>2080.0</ele><time>2025-10-23T05:09:28Z</time></trkpt>
    <trkpt lat="28.522752" lon="84.843116"><ele>2078.8</ele><time>2025-10-23T05:10:11Z</time></trkpt>
    <trkpt lat="28.523085" lon="84.842801"><ele>2078.8</ele><time>2025-10-23T05:10:52Z</time></trkpt>
    <trkpt lat="28.523158" lon="84.842708"><ele>2078.8</ele><time>2025-10-23T05:11:04Z</time></trkpt>
    <trkpt lat="28.523280" lon="84.842532"><ele>2081.2</ele><time>2025-10-23T05:11:24Z</time></trkpt>
    <trkpt lat="28.523779" lon="84.842106"><ele>2082.4</ele><time>2025-10-23T05:12:27Z</time></trkpt>
    <trkpt lat="28.523809" lon="84.841943"><ele>2082.4</ele><time>2025-10-23T05:12:41Z</time></trkpt>
    <trkpt lat="28.523979" lon="84.841820"><ele>2084.2</ele><time>2025-10-23T05:13:03Z</time></trkpt>
    <trkpt lat="28.524016" lon="84.841616"><ele>2084.2</ele><time>2025-10-23T05:13:26Z</time></trkpt>
    <trkpt lat="28.524195" lon="84.841353"><ele>2084.0</ele><time>2025-10-23T05:13:51Z</time></trkpt>
    <trkpt lat="28.524357" lon="84.841274"><ele>2084.0</ele><time>2025-10-23T05:14:06Z</time></trkpt>
    <trkpt lat="28.524421" lon="84.841135"><ele>2085.6</ele><time>2025-10-23T05:14:22Z</time></trkpt>
    <trkpt lat="28.524590" lon="84.840969"><ele>2091.2</ele><time>2025-10-23T05:14:57Z</time></trkpt>
    <trkpt lat="28.524785" lon="84.840988"><ele>2095.0</ele><time>2025-10-23T05:15:25Z</time></trkpt>
    <trkpt lat="28.524868" lon="84.840954"><ele>2095.2</ele><time>2025-10-23T05:15:33Z</time></trkpt>
    <trkpt lat="28.524908" lon="84.840799"><ele>2097.2</ele><time>2025-10-23T05:15:50Z</time></trkpt>
    <trkpt lat="28.525044" lon="84.840708"><ele>2099.4</ele><time>2025-10-23T05:16:13Z</time></trkpt>
    <trkpt lat="28.525202" lon="84.840599"><ele>2103.2</ele><time>2025-10-23T05:16:42Z</time></trkpt>
    <trkpt lat="28.525318" lon="84.840626"><ele>2106.0</ele><time>2025-10-23T05:17:01Z</time></trkpt>
    <trkpt lat="28.525407" lon="84.840601"><ele>2108.4</ele><time>2025-10-23T05:17:32Z</time></trkpt>
    <trkpt lat="28.525710" lon="84.840700"><ele>2121.8</ele><time>2025-10-23T05:18:55Z</time></trkpt>
    <trkpt lat="28.525791" lon="84.840658"><ele>2124.4</ele><time>2025-10-23T05:19:17Z</time></trkpt>
    <trkpt lat="28.525884" lon="84.840499"><ele>2126.4</ele><time>2025-10-23T05:19:40Z</time></trkpt>
    <trkpt lat="28.525883" lon="84.840492"><ele>2126.6</ele><time>2025-10-23T05:19:42Z</time></trkpt>
    <trkpt lat="28.525895" lon="84.840514"><ele>2126.6</ele><time>2025-10-23T05:20:00Z</time></trkpt>
    <trkpt lat="28.525965" lon="84.840426"><ele>2126.6</ele><time>2025-10-23T05:20:14Z</time></trkpt>
    <trkpt lat="28.526211" lon="84.840354"><ele>2126.8</ele><time>2025-10-23T05:20:39Z</time></trkpt>
    <trkpt lat="28.526287" lon="84.840328"><ele>2128.8</ele><time>2025-10-23T05:20:52Z</time></trkpt>
    <trkpt lat="28.526509" lon="84.840317"><ele>2134.0</ele><time>2025-10-23T05:21:30Z</time></trkpt>
    <trkpt lat="28.526562" lon="84.840308"><ele>2134.2</ele><time>2025-10-23T05:21:38Z</time></trkpt>
    <trkpt lat="28.526672" lon="84.840342"><ele>2135.4</ele><time>2025-10-23T05:21:57Z</time></trkpt>
    <trkpt lat="28.526664" lon="84.840396"><ele>2136.2</ele><time>2025-10-23T05:22:23Z</time></trkpt>
    <trkpt lat="28.526844" lon="84.840425"><ele>2136.4</ele><time>2025-10-23T05:22:44Z</time></trkpt>
    <trkpt lat="28.527201" lon="84.840372"><ele>2139.4</ele><time>2025-10-23T05:23:26Z</time></trkpt>
    <trkpt lat="28.527283" lon="84.840265"><ele>2139.8</ele><time>2025-10-23T05:23:45Z</time></trkpt>
    <trkpt lat="28.527278" lon="84.840199"><ele>2139.6</ele><time>2025-10-23T05:24:41Z</time></trkpt>
    <trkpt lat="28.527420" lon="84.840042"><ele>2140.0</ele><time>2025-10-23T05:25:09Z</time></trkpt>
    <trkpt lat="28.527516" lon="84.840057"><ele>2140.2</ele><time>2025-10-23T05:25:22Z</time></trkpt>
    <trkpt lat="28.527564" lon="84.840003"><ele>2141.4</ele><time>2025-10-23T05:26:05Z</time></trkpt>
    <trkpt lat="28.527842" lon="84.839857"><ele>2146.6</ele><time>2025-10-23T05:26:40Z</time></trkpt>
    <trkpt lat="28.527914" lon="84.839801"><ele>2146.6</ele><time>2025-10-23T05:26:48Z</time></trkpt>
    <trkpt lat="28.528113" lon="84.839934"><ele>2147.2</ele><time>2025-10-23T05:27:12Z</time></trkpt>
    <trkpt lat="28.528127" lon="84.839903"><ele>2147.6</ele><time>2025-10-23T05:27:25Z</time></trkpt>
    <trkpt lat="28.528252" lon="84.839776"><ele>2153.8</ele><time>2025-10-23T05:28:00Z</time></trkpt>
    <trkpt lat="28.528271" lon="84.839660"><ele>2155.6</ele><time>2025-10-23T05:28:15Z</time></trkpt>
    <trkpt lat="28.528289" lon="84.839631"><ele>2156.0</ele><time>2025-10-23T05:28:19Z</time></trkpt>
    <trkpt lat="28.528436" lon="84.839467"><ele>2156.0</ele><time>2025-10-23T05:28:48Z</time></trkpt>
    <trkpt lat="28.528454" lon="84.839430"><ele>2155.6</ele><time>2025-10-23T05:29:12Z</time></trkpt>
    <trkpt lat="28.528562" lon="84.839247"><ele>2153.8</ele><time>2025-10-23T05:29:32Z</time></trkpt>
    <trkpt lat="28.528558" lon="84.839102"><ele>2149.6</ele><time>2025-10-23T05:29:55Z</time></trkpt>
    <trkpt lat="28.528582" lon="84.839056"><ele>2148.8</ele><time>2025-10-23T05:29:59Z</time></trkpt>
    <trkpt lat="28.528642" lon="84.838955"><ele>2148.8</ele><time>2025-10-23T05:30:07Z</time></trkpt>
    <trkpt lat="28.528577" lon="84.838842"><ele>2148.6</ele><time>2025-10-23T05:30:19Z</time></trkpt>
    <trkpt lat="28.528675" lon="84.838633"><ele>2147.6</ele><time>2025-10-23T05:30:37Z</time></trkpt>
    <trkpt lat="28.528724" lon="84.838349"><ele>2146.2</ele><time>2025-10-23T05:31:18Z</time></trkpt>
    <trkpt lat="28.528749" lon="84.838207"><ele>2142.2</ele><time>2025-10-23T05:31:36Z</time></trkpt>
    <trkpt lat="28.528739" lon="84.838060"><ele>2138.0</ele><time>2025-10-23T05:31:54Z</time></trkpt>
    <trkpt lat="28.528775" lon="84.837997"><ele>2136.4</ele><time>2025-10-23T05:32:01Z</time></trkpt>
    <trkpt lat="28.528800" lon="84.837914"><ele>2136.4</ele><time>2025-10-23T05:32:07Z</time></trkpt>
    <trkpt lat="28.528736" lon="84.837709"><ele>2135.6</ele><time>2025-10-23T05:32:24Z</time></trkpt>
    <trkpt lat="28.528822" lon="84.837611"><ele>2135.6</ele><time>2025-10-23T05:32:34Z</time></trkpt>
    <trkpt lat="28.529094" lon="84.837537"><ele>2135.6</ele><time>2025-10-23T05:32:57Z</time></trkpt>
    <trkpt lat="28.529160" lon="84.837494"><ele>2135.4</ele><time>2025-10-23T05:33:04Z</time></trkpt>
    <trkpt lat="28.529375" lon="84.837404"><ele>2131.6</ele><time>2025-10-23T05:33:32Z</time></trkpt>
    <trkpt lat="28.529397" lon="84.837371"><ele>2130.4</ele><time>2025-10-23T05:33:40Z</time></trkpt>
    <trkpt lat="28.529406" lon="84.837318"><ele>2130.4</ele><time>2025-10-23T05:34:01Z</time></trkpt>
    <trkpt lat="28.529286" lon="84.837294"><ele>2130.4</ele><time>2025-10-23T05:34:14Z</time></trkpt>
    <trkpt lat="28.529078" lon="84.837094"><ele>2131.4</ele><time>2025-10-23T05:34:37Z</time></trkpt>
    <trkpt lat="28.528944" lon="84.837090"><ele>2131.6</ele><time>2025-10-23T05:34:50Z</time></trkpt>
    <trkpt lat="28.528796" lon="84.836789"><ele>2131.4</ele><time>2025-10-23T05:35:17Z</time></trkpt>
    <trkpt lat="28.528768" lon="84.836611"><ele>2131.4</ele><time>2025-10-23T05:35:30Z</time></trkpt>
    <trkpt lat="28.528737" lon="84.836442"><ele>2129.0</ele><time>2025-10-23T05:35:46Z</time></trkpt>
    <trkpt lat="28.528574" lon="84.836403"><ele>2127.8</ele><time>2025-10-23T05:36:03Z</time></trkpt>
    <trkpt lat="28.528475" lon="84.836244"><ele>2127.4</ele><time>2025-10-23T05:36:24Z</time></trkpt>
    <trkpt lat="28.528462" lon="84.836231"><ele>2126.2</ele><time>2025-10-23T05:36:28Z</time></trkpt>
    <trkpt lat="28.528476" lon="84.835873"><ele>2118.8</ele><time>2025-10-23T05:37:06Z</time></trkpt>
    <trkpt lat="28.528443" lon="84.835721"><ele>2115.0</ele><time>2025-10-23T05:37:22Z</time></trkpt>
    <trkpt lat="28.528415" lon="84.835589"><ele>2115.0</ele><time>2025-10-23T05:37:34Z</time></trkpt>
    <trkpt lat="28.528315" lon="84.835385"><ele>2115.0</ele><time>2025-10-23T05:37:55Z</time></trkpt>
    <trkpt lat="28.528332" lon="84.834711"><ele>2117.0</ele><time>2025-10-23T05:38:57Z</time></trkpt>
    <trkpt lat="28.528376" lon="84.834533"><ele>2117.4</ele><time>2025-10-23T05:39:10Z</time></trkpt>
    <trkpt lat="28.528539" lon="84.834257"><ele>2118.2</ele><time>2025-10-23T05:39:36Z</time></trkpt>
    <trkpt lat="28.528572" lon="84.834014"><ele>2118.2</ele><time>2025-10-23T05:39:55Z</time></trkpt>
    <trkpt lat="28.528587" lon="84.833930"><ele>2118.0</ele><time>2025-10-23T05:40:02Z</time></trkpt>
    <trkpt lat="28.528683" lon="84.833778"><ele>2113.4</ele><time>2025-10-23T05:40:25Z</time></trkpt>
    <trkpt lat="28.528780" lon="84.833447"><ele>2106.8</ele><time>2025-10-23T05:40:50Z</time></trkpt>
    <trkpt lat="28.528784" lon="84.833335"><ele>2105.6</ele><time>2025-10-23T05:40:57Z</time></trkpt>
    <trkpt lat="28.528872" lon="84.832638"><ele>2105.4</ele><time>2025-10-23T05:41:49Z</time></trkpt>
    <trkpt lat="28.528980" lon="84.832354"><ele>2106.6</ele><time>2025-10-23T05:42:13Z</time></trkpt>
    <trkpt lat="28.529105" lon="84.832112"><ele>2106.8</ele><time>2025-10-23T05:42:41Z</time></trkpt>
    <trkpt lat="28.529345" lon="84.831779"><ele>2106.6</ele><time>2025-10-23T05:43:16Z</time></trkpt>
    <trkpt lat="28.529522" lon="84.831725"><ele>2105.2</ele><time>2025-10-23T05:43:36Z</time></trkpt>
    <trkpt lat="28.529704" lon="84.831589"><ele>2100.8</ele><time>2025-10-23T05:43:55Z</time></trkpt>
    <trkpt lat="28.529746" lon="84.831588"><ele>2100.0</ele><time>2025-10-23T05:43:59Z</time></trkpt>
    <trkpt lat="28.529866" lon="84.831626"><ele>2099.8</ele><time>2025-10-23T05:44:09Z</time></trkpt>
    <trkpt lat="28.529883" lon="84.831590"><ele>2099.6</ele><time>2025-10-23T05:44:15Z</time></trkpt>
    <trkpt lat="28.529853" lon="84.831515"><ele>2099.6</ele><time>2025-10-23T05:44:38Z</time></trkpt>
    <trkpt lat="28.529801" lon="84.831448"><ele>2099.8</ele><time>2025-10-23T05:44:55Z</time></trkpt>
    <trkpt lat="28.529368" lon="84.831289"><ele>2101.2</ele><time>2025-10-23T05:45:55Z</time></trkpt>
    <trkpt lat="28.529392" lon="84.831240"><ele>2102.6</ele><time>2025-10-23T05:46:03Z</time></trkpt>
    <trkpt lat="28.529368" lon="84.831089"><ele>2103.6</ele><time>2025-10-23T05:46:19Z</time></trkpt>
    <trkpt lat="28.529383" lon="84.831084"><ele>2103.6</ele><time>2025-10-23T05:46:24Z</time></trkpt>
    <trkpt lat="28.529379" lon="84.831094"><ele>2104.0</ele><time>2025-10-23T05:46:30Z</time></trkpt>
    <trkpt lat="28.529435" lon="84.831067"><ele>2110.4</ele><time>2025-10-23T07:14:00Z</time></trkpt>
    <trkpt lat="28.529427" lon="84.830902"><ele>2110.6</ele><time>2025-10-23T07:14:17Z</time></trkpt>
    <trkpt lat="28.529473" lon="84.830786"><ele>2111.4</ele><time>2025-10-23T07:14:29Z</time></trkpt>
    <trkpt lat="28.529636" lon="84.830627"><ele>2111.8</ele><time>2025-10-23T07:14:50Z</time></trkpt>
    <trkpt lat="28.529784" lon="84.830374"><ele>2113.0</ele><time>2025-10-23T07:15:15Z</time></trkpt>
    <trkpt lat="28.529724" lon="84.830142"><ele>2113.0</ele><time>2025-10-23T07:15:37Z</time></trkpt>
    <trkpt lat="28.529715" lon="84.829913"><ele>2112.4</ele><time>2025-10-23T07:15:57Z</time></trkpt>
    <trkpt lat="28.529865" lon="84.829175"><ele>2110.0</ele><time>2025-10-23T07:17:04Z</time></trkpt>
    <trkpt lat="28.530153" lon="84.828615"><ele>2110.2</ele><time>2025-10-23T07:17:58Z</time></trkpt>
    <trkpt lat="28.530310" lon="84.828209"><ele>2110.6</ele><time>2025-10-23T07:18:35Z</time></trkpt>
    <trkpt lat="28.530435" lon="84.828045"><ele>2110.2</ele><time>2025-10-23T07:18:58Z</time></trkpt>
    <trkpt lat="28.530614" lon="84.827862"><ele>2107.2</ele><time>2025-10-23T07:19:22Z</time></trkpt>
    <trkpt lat="28.530661" lon="84.827737"><ele>2104.6</ele><time>2025-10-23T07:19:37Z</time></trkpt>
    <trkpt lat="28.530639" lon="84.827740"><ele>2103.2</ele><time>2025-10-23T07:19:43Z</time></trkpt>
    <trkpt lat="28.530507" lon="84.827760"><ele>2103.2</ele><time>2025-10-23T07:19:55Z</time></trkpt>
    <trkpt lat="28.530470" lon="84.827725"><ele>2103.2</ele><time>2025-10-23T07:20:00Z</time></trkpt>
    <trkpt lat="28.530396" lon="84.827448"><ele>2104.4</ele><time>2025-10-23T07:20:44Z</time></trkpt>
    <trkpt lat="28.530480" lon="84.827302"><ele>2105.0</ele><time>2025-10-23T07:21:47Z</time></trkpt>
    <trkpt lat="28.530502" lon="84.827110"><ele>2107.4</ele><time>2025-10-23T07:22:05Z</time></trkpt>
    <trkpt lat="28.530417" lon="84.827268"><ele>2113.0</ele><time>2025-10-23T07:22:35Z</time></trkpt>
    <trkpt lat="28.530357" lon="84.827241"><ele>2114.0</ele><time>2025-10-23T07:22:46Z</time></trkpt>
    <trkpt lat="28.530368" lon="84.827148"><ele>2116.0</ele><time>2025-10-23T07:22:58Z</time></trkpt>
    <trkpt lat="28.530555" lon="84.826788"><ele>2123.8</ele><time>2025-10-23T07:24:02Z</time></trkpt>
    <trkpt lat="28.530536" lon="84.826716"><ele>2125.0</ele><time>2025-10-23T07:24:25Z</time></trkpt>
    <trkpt lat="28.530644" lon="84.826535"><ele>2127.0</ele><time>2025-10-23T07:24:48Z</time></trkpt>
    <trkpt lat="28.530693" lon="84.826506"><ele>2127.2</ele><time>2025-10-23T07:24:55Z</time></trkpt>
    <trkpt lat="28.530713" lon="84.826532"><ele>2127.4</ele><time>2025-10-23T07:25:12Z</time></trkpt>
    <trkpt lat="28.530674" lon="84.826483"><ele>2128.6</ele><time>2025-10-23T07:32:45Z</time></trkpt>
    <trkpt lat="28.530660" lon="84.826504"><ele>2128.6</ele><time>2025-10-23T07:32:52Z</time></trkpt>
    <trkpt lat="28.530663" lon="84.826439"><ele>2129.6</ele><time>2025-10-23T07:33:16Z</time></trkpt>
    <trkpt lat="28.530602" lon="84.826450"><ele>2131.6</ele><time>2025-10-23T07:33:35Z</time></trkpt>
    <trkpt lat="28.530677" lon="84.826216"><ele>2134.2</ele><time>2025-10-23T07:34:02Z</time></trkpt>
    <trkpt lat="28.530798" lon="84.825967"><ele>2134.2</ele><time>2025-10-23T07:34:33Z</time></trkpt>
    <trkpt lat="28.531257" lon="84.825353"><ele>2133.6</ele><time>2025-10-23T07:35:47Z</time></trkpt>
    <trkpt lat="28.531323" lon="84.825052"><ele>2133.8</ele><time>2025-10-23T07:36:17Z</time></trkpt>
    <trkpt lat="28.531344" lon="84.824699"><ele>2134.8</ele><time>2025-10-23T07:36:58Z</time></trkpt>
    <trkpt lat="28.531418" lon="84.824414"><ele>2134.8</ele><time>2025-10-23T07:37:23Z</time></trkpt>
    <trkpt lat="28.531524" lon="84.824286"><ele>2134.4</ele><time>2025-10-23T07:37:37Z</time></trkpt>
    <trkpt lat="28.531525" lon="84.824187"><ele>2134.4</ele><time>2025-10-23T07:37:45Z</time></trkpt>
    <trkpt lat="28.531421" lon="84.823914"><ele>2134.4</ele><time>2025-10-23T07:38:09Z</time></trkpt>
    <trkpt lat="28.531333" lon="84.823818"><ele>2134.8</ele><time>2025-10-23T07:38:23Z</time></trkpt>
    <trkpt lat="28.531208" lon="84.823697"><ele>2137.6</ele><time>2025-10-23T07:38:43Z</time></trkpt>
    <trkpt lat="28.531041" lon="84.823340"><ele>2143.2</ele><time>2025-10-23T07:39:30Z</time></trkpt>
    <trkpt lat="28.531047" lon="84.823112"><ele>2145.2</ele><time>2025-10-23T07:39:53Z</time></trkpt>
    <trkpt lat="28.531032" lon="84.822690"><ele>2146.0</ele><time>2025-10-23T07:40:27Z</time></trkpt>
    <trkpt lat="28.531151" lon="84.822391"><ele>2146.0</ele><time>2025-10-23T07:40:53Z</time></trkpt>
    <trkpt lat="28.531385" lon="84.821454"><ele>2148.2</ele><time>2025-10-23T07:42:16Z</time></trkpt>
    <trkpt lat="28.531332" lon="84.821228"><ele>2148.6</ele><time>2025-10-23T07:42:37Z</time></trkpt>
    <trkpt lat="28.531313" lon="84.821084"><ele>2150.2</ele><time>2025-10-23T07:42:50Z</time></trkpt>
    <trkpt lat="28.531311" lon="84.820326"><ele>2158.2</ele><time>2025-10-23T07:44:08Z</time></trkpt>
    <trkpt lat="28.531247" lon="84.820228"><ele>2161.8</ele><time>2025-10-23T07:44:30Z</time></trkpt>
    <trkpt lat="28.531245" lon="84.820143"><ele>2163.4</ele><time>2025-10-23T07:44:46Z</time></trkpt>
    <trkpt lat="28.531314" lon="84.820079"><ele>2164.0</ele><time>2025-10-23T07:45:28Z</time></trkpt>
    <trkpt lat="28.531337" lon="84.819795"><ele>2164.8</ele><time>2025-10-23T07:45:58Z</time></trkpt>
    <trkpt lat="28.531351" lon="84.819733"><ele>2166.0</ele><time>2025-10-23T07:46:06Z</time></trkpt>
    <trkpt lat="28.531302" lon="84.819579"><ele>2169.0</ele><time>2025-10-23T07:46:26Z</time></trkpt>
    <trkpt lat="28.531208" lon="84.819300"><ele>2169.0</ele><time>2025-10-23T07:46:55Z</time></trkpt>
    <trkpt lat="28.531209" lon="84.819122"><ele>2169.4</ele><time>2025-10-23T07:47:10Z</time></trkpt>
    <trkpt lat="28.531397" lon="84.818828"><ele>2170.0</ele><time>2025-10-23T07:47:44Z</time></trkpt>
    <trkpt lat="28.531651" lon="84.818686"><ele>2170.0</ele><time>2025-10-23T07:48:10Z</time></trkpt>
    <trkpt lat="28.531665" lon="84.818420"><ele>2169.6</ele><time>2025-10-23T07:48:35Z</time></trkpt>
    <trkpt lat="28.531756" lon="84.818354"><ele>2170.0</ele><time>2025-10-23T07:48:47Z</time></trkpt>
    <trkpt lat="28.531768" lon="84.818331"><ele>2170.0</ele><time>2025-10-23T07:48:52Z</time></trkpt>
    <trkpt lat="28.531893" lon="84.818145"><ele>2173.4</ele><time>2025-10-23T07:49:17Z</time></trkpt>
    <trkpt lat="28.531906" lon="84.818002"><ele>2174.2</ele><time>2025-10-23T07:49:30Z</time></trkpt>
    <trkpt lat="28.531842" lon="84.817868"><ele>2174.8</ele><time>2025-10-23T07:49:47Z</time></trkpt>
    <trkpt lat="28.531837" lon="84.817836"><ele>2174.8</ele><time>2025-10-23T07:50:19Z</time></trkpt>
    <trkpt lat="28.532048" lon="84.817376"><ele>2173.8</ele><time>2025-10-23T07:51:05Z</time></trkpt>
    <trkpt lat="28.532125" lon="84.817007"><ele>2172.2</ele><time>2025-10-23T07:51:35Z</time></trkpt>
    <trkpt lat="28.532140" lon="84.816840"><ele>2172.2</ele><time>2025-10-23T07:51:49Z</time></trkpt>
    <trkpt lat="28.532091" lon="84.816675"><ele>2172.2</ele><time>2025-10-23T07:52:06Z</time></trkpt>
    <trkpt lat="28.532171" lon="84.816318"><ele>2172.6</ele><time>2025-10-23T07:52:38Z</time></trkpt>
    <trkpt lat="28.532264" lon="84.816161"><ele>2172.2</ele><time>2025-10-23T07:52:56Z</time></trkpt>
    <trkpt lat="28.532308" lon="84.815280"><ele>2170.4</ele><time>2025-10-23T07:54:06Z</time></trkpt>
    <trkpt lat="28.532330" lon="84.815148"><ele>2170.4</ele><time>2025-10-23T07:54:18Z</time></trkpt>
    <trkpt lat="28.532430" lon="84.814727"><ele>2173.2</ele><time>2025-10-23T07:54:55Z</time></trkpt>
    <trkpt lat="28.532437" lon="84.814410"><ele>2176.2</ele><time>2025-10-23T07:55:26Z</time></trkpt>
    <trkpt lat="28.532489" lon="84.814259"><ele>2176.6</ele><time>2025-10-23T07:55:41Z</time></trkpt>
    <trkpt lat="28.532562" lon="84.813691"><ele>2179.8</ele><time>2025-10-23T07:56:40Z</time></trkpt>
    <trkpt lat="28.532658" lon="84.813578"><ele>2180.8</ele><time>2025-10-23T07:56:53Z</time></trkpt>
    <trkpt lat="28.532692" lon="84.813465"><ele>2181.4</ele><time>2025-10-23T07:57:09Z</time></trkpt>
    <trkpt lat="28.532674" lon="84.813405"><ele>2181.4</ele><time>2025-10-23T07:57:21Z</time></trkpt>
    <trkpt lat="28.532672" lon="84.813259"><ele>2177.8</ele><time>2025-10-23T07:57:38Z</time></trkpt>
    <trkpt lat="28.532753" lon="84.813096"><ele>2175.0</ele><time>2025-10-23T07:57:51Z</time></trkpt>
    <trkpt lat="28.532924" lon="84.812914"><ele>2170.4</ele><time>2025-10-23T07:58:25Z</time></trkpt>
    <trkpt lat="28.532987" lon="84.812690"><ele>2163.4</ele><time>2025-10-23T07:59:07Z</time></trkpt>
    <trkpt lat="28.533154" lon="84.812219"><ele>2158.2</ele><time>2025-10-23T08:00:26Z</time></trkpt>
    <trkpt lat="28.533181" lon="84.811942"><ele>2158.2</ele><time>2025-10-23T08:00:49Z</time></trkpt>
    <trkpt lat="28.533279" lon="84.811783"><ele>2158.2</ele><time>2025-10-23T08:01:06Z</time></trkpt>
    <trkpt lat="28.533491" lon="84.811432"><ele>2161.0</ele><time>2025-10-23T08:01:46Z</time></trkpt>
    <trkpt lat="28.533540" lon="84.811141"><ele>2163.2</ele><time>2025-10-23T08:02:20Z</time></trkpt>
    <trkpt lat="28.533547" lon="84.811051"><ele>2163.8</ele><time>2025-10-23T08:02:29Z</time></trkpt>
    <trkpt lat="28.533556" lon="84.810633"><ele>2169.0</ele><time>2025-10-23T08:03:10Z</time></trkpt>
    <trkpt lat="28.533505" lon="84.810530"><ele>2171.4</ele><time>2025-10-23T08:03:25Z</time></trkpt>
    <trkpt lat="28.533493" lon="84.810464"><ele>2171.4</ele><time>2025-10-23T08:03:32Z</time></trkpt>
    <trkpt lat="28.533607" lon="84.809856"><ele>2171.4</ele><time>2025-10-23T08:04:34Z</time></trkpt>
    <trkpt lat="28.533692" lon="84.809707"><ele>2171.4</ele><time>2025-10-23T08:04:53Z</time></trkpt>
    <trkpt lat="28.533692" lon="84.809515"><ele>2171.6</ele><time>2025-10-23T08:05:07Z</time></trkpt>
    <trkpt lat="28.533626" lon="84.809357"><ele>2176.4</ele><time>2025-10-23T08:05:26Z</time></trkpt>
    <trkpt lat="28.533614" lon="84.809045"><ele>2179.2</ele><time>2025-10-23T08:05:58Z</time></trkpt>
    <trkpt lat="28.533738" lon="84.808729"><ele>2181.4</ele><time>2025-10-23T08:06:26Z</time></trkpt>
    <trkpt lat="28.533685" lon="84.808429"><ele>2186.0</ele><time>2025-10-23T08:06:58Z</time></trkpt>
    <trkpt lat="28.533619" lon="84.808122"><ele>2186.2</ele><time>2025-10-23T08:07:24Z</time></trkpt>
    <trkpt lat="28.533643" lon="84.808004"><ele>2186.6</ele><time>2025-10-23T08:07:33Z</time></trkpt>
    <trkpt lat="28.533622" lon="84.807927"><ele>2187.4</ele><time>2025-10-23T08:07:41Z</time></trkpt>
    <trkpt lat="28.533601" lon="84.807835"><ele>2188.8</ele><time>2025-10-23T08:07:50Z</time></trkpt>
    <trkpt lat="28.533604" lon="84.807579"><ele>2194.2</ele><time>2025-10-23T08:08:17Z</time></trkpt>
    <trkpt lat="28.533714" lon="84.807215"><ele>2202.8</ele><time>2025-10-23T08:09:00Z</time></trkpt>
    <trkpt lat="28.533658" lon="84.806850"><ele>2210.0</ele><time>2025-10-23T08:09:46Z</time></trkpt>
    <trkpt lat="28.533658" lon="84.806843"><ele>2210.2</ele><time>2025-10-23T08:09:57Z</time></trkpt>
    <trkpt lat="28.533717" lon="84.806835"><ele>2210.4</ele><time>2025-10-23T08:11:29Z</time></trkpt>
    <trkpt lat="28.533697" lon="84.806773"><ele>2210.4</ele><time>2025-10-23T08:11:52Z</time></trkpt>
    <trkpt lat="28.533705" lon="84.806529"><ele>2210.8</ele><time>2025-10-23T08:12:11Z</time></trkpt>
    <trkpt lat="28.533867" lon="84.805895"><ele>2212.4</ele><time>2025-10-23T08:13:03Z</time></trkpt>
    <trkpt lat="28.533887" lon="84.805685"><ele>2212.6</ele><time>2025-10-23T08:13:21Z</time></trkpt>
    <trkpt lat="28.533981" lon="84.805487"><ele>2214.8</ele><time>2025-10-23T08:13:41Z</time></trkpt>
    <trkpt lat="28.533969" lon="84.805297"><ele>2217.2</ele><time>2025-10-23T08:14:01Z</time></trkpt>
    <trkpt lat="28.533975" lon="84.805042"><ele>2217.2</ele><time>2025-10-23T08:14:23Z</time></trkpt>
    <trkpt lat="28.533890" lon="84.804820"><ele>2215.2</ele><time>2025-10-23T08:14:47Z</time></trkpt>
    <trkpt lat="28.533995" lon="84.804627"><ele>2215.2</ele><time>2025-10-23T08:15:15Z</time></trkpt>
    <trkpt lat="28.534096" lon="84.804437"><ele>2218.6</ele><time>2025-10-23T08:15:40Z</time></trkpt>
    <trkpt lat="28.534100" lon="84.804295"><ele>2218.6</ele><time>2025-10-23T08:15:54Z</time></trkpt>
    <trkpt lat="28.534142" lon="84.804219"><ele>2219.2</ele><time>2025-10-23T08:16:03Z</time></trkpt>
    <trkpt lat="28.534163" lon="84.803893"><ele>2218.6</ele><time>2025-10-23T08:16:32Z</time></trkpt>
    <trkpt lat="28.534135" lon="84.803649"><ele>2215.8</ele><time>2025-10-23T08:17:00Z</time></trkpt>
    <trkpt lat="28.534167" lon="84.803558"><ele>2215.8</ele><time>2025-10-23T08:17:07Z</time></trkpt>
    <trkpt lat="28.534154" lon="84.803324"><ele>2215.8</ele><time>2025-10-23T08:17:28Z</time></trkpt>
    <trkpt lat="28.534088" lon="84.803109"><ele>2215.8</ele><time>2025-10-23T08:17:44Z</time></trkpt>
    <trkpt lat="28.534057" lon="84.802936"><ele>2218.6</ele><time>2025-10-23T08:18:05Z</time></trkpt>
    <trkpt lat="28.533987" lon="84.802797"><ele>2220.0</ele><time>2025-10-23T08:18:21Z</time></trkpt>
    <trkpt lat="28.533925" lon="84.802444"><ele>2223.0</ele><time>2025-10-23T08:18:55Z</time></trkpt>
    <trkpt lat="28.533845" lon="84.801985"><ele>2222.8</ele><time>2025-10-23T08:19:43Z</time></trkpt>
    <trkpt lat="28.533695" lon="84.801725"><ele>2222.0</ele><time>2025-10-23T08:20:11Z</time></trkpt>
    <trkpt lat="28.533633" lon="84.801477"><ele>2221.8</ele><time>2025-10-23T08:20:32Z</time></trkpt>
    <trkpt lat="28.533671" lon="84.801283"><ele>2221.6</ele><time>2025-10-23T08:20:44Z</time></trkpt>
    <trkpt lat="28.533626" lon="84.801105"><ele>2221.4</ele><time>2025-10-23T08:21:00Z</time></trkpt>
    <trkpt lat="28.533649" lon="84.800723"><ele>2221.4</ele><time>2025-10-23T08:21:29Z</time></trkpt>
    <trkpt lat="28.533598" lon="84.800589"><ele>2222.2</ele><time>2025-10-23T08:21:43Z</time></trkpt>
    <trkpt lat="28.533667" lon="84.800282"><ele>2222.6</ele><time>2025-10-23T08:22:11Z</time></trkpt>
    <trkpt lat="28.533615" lon="84.800070"><ele>2223.2</ele><time>2025-10-23T08:22:34Z</time></trkpt>
    <trkpt lat="28.533617" lon="84.800052"><ele>2223.2</ele><time>2025-10-23T08:22:35Z</time></trkpt>
    <trkpt lat="28.533662" lon="84.799560"><ele>2228.8</ele><time>2025-10-23T08:23:24Z</time></trkpt>
    <trkpt lat="28.533534" lon="84.798933"><ele>2237.8</ele><time>2025-10-23T08:24:36Z</time></trkpt>
    <trkpt lat="28.533544" lon="84.798758"><ele>2240.6</ele><time>2025-10-23T08:24:56Z</time></trkpt>
    <trkpt lat="28.533551" lon="84.798486"><ele>2241.6</ele><time>2025-10-23T08:25:22Z</time></trkpt>
    <trkpt lat="28.533661" lon="84.798254"><ele>2241.6</ele><time>2025-10-23T08:25:47Z</time></trkpt>
    <trkpt lat="28.533567" lon="84.797889"><ele>2242.2</ele><time>2025-10-23T08:26:20Z</time></trkpt>
    <trkpt lat="28.533528" lon="84.797883"><ele>2242.2</ele><time>2025-10-23T08:26:27Z</time></trkpt>
    <trkpt lat="28.533510" lon="84.797857"><ele>2242.2</ele><time>2025-10-23T08:26:31Z</time></trkpt>
    <trkpt lat="28.533423" lon="84.797689"><ele>2247.0</ele><time>2025-10-23T08:27:02Z</time></trkpt>
    <trkpt lat="28.533452" lon="84.797561"><ele>2248.8</ele><time>2025-10-23T08:27:31Z</time></trkpt>
    <trkpt lat="28.533396" lon="84.797496"><ele>2249.4</ele><time>2025-10-23T08:27:41Z</time></trkpt>
    <trkpt lat="28.533507" lon="84.797417"><ele>2251.6</ele><time>2025-10-23T08:28:02Z</time></trkpt>
    <trkpt lat="28.533491" lon="84.797344"><ele>2253.0</ele><time>2025-10-23T08:28:12Z</time></trkpt>
    <trkpt lat="28.533496" lon="84.797297"><ele>2253.0</ele><time>2025-10-23T08:28:17Z</time></trkpt>
    <trkpt lat="28.533522" lon="84.797303"><ele>2253.0</ele><time>2025-10-23T08:28:29Z</time></trkpt>
    <trkpt lat="28.533485" lon="84.797300"><ele>2253.0</ele><time>2025-10-23T08:28:47Z</time></trkpt>
    <trkpt lat="28.533509" lon="84.797004"><ele>2252.0</ele><time>2025-10-23T08:29:28Z</time></trkpt>
    <trkpt lat="28.533483" lon="84.797008"><ele>2252.0</ele><time>2025-10-23T08:30:12Z</time></trkpt>
    <trkpt lat="28.533522" lon="84.796928"><ele>2252.0</ele><time>2025-10-23T08:34:46Z</time></trkpt>
    <trkpt lat="28.533495" lon="84.796746"><ele>2249.4</ele><time>2025-10-23T08:35:22Z</time></trkpt>
    <trkpt lat="28.533424" lon="84.796651"><ele>2249.4</ele><time>2025-10-23T08:35:33Z</time></trkpt>
    <trkpt lat="28.533306" lon="84.796580"><ele>2249.4</ele><time>2025-10-23T08:35:50Z</time></trkpt>
    <trkpt lat="28.533260" lon="84.796463"><ele>2250.2</ele><time>2025-10-23T08:36:01Z</time></trkpt>
    <trkpt lat="28.533284" lon="84.796349"><ele>2250.4</ele><time>2025-10-23T08:36:10Z</time></trkpt>
    <trkpt lat="28.533461" lon="84.796114"><ele>2252.4</ele><time>2025-10-23T08:36:38Z</time></trkpt>
    <trkpt lat="28.533555" lon="84.796103"><ele>2254.0</ele><time>2025-10-23T08:36:50Z</time></trkpt>
    <trkpt lat="28.533545" lon="84.796076"><ele>2255.4</ele><time>2025-10-23T08:37:06Z</time></trkpt>
    <trkpt lat="28.533544" lon="84.796066"><ele>2255.4</ele><time>2025-10-23T08:37:10Z</time></trkpt>
    <trkpt lat="28.533556" lon="84.796125"><ele>2255.6</ele><time>2025-10-23T08:37:30Z</time></trkpt>
    <trkpt lat="28.533547" lon="84.796093"><ele>2255.6</ele><time>2025-10-23T08:37:42Z</time></trkpt>
    <trkpt lat="28.533583" lon="84.796078"><ele>2255.6</ele><time>2025-10-23T08:38:06Z</time></trkpt>
    <trkpt lat="28.533575" lon="84.796052"><ele>2255.6</ele><time>2025-10-23T08:38:20Z</time></trkpt>
    <trkpt lat="28.533650" lon="84.795645"><ele>2260.8</ele><time>2025-10-23T08:39:05Z</time></trkpt>
    <trkpt lat="28.533647" lon="84.795344"><ele>2263.0</ele><time>2025-10-23T08:39:32Z</time></trkpt>
    <trkpt lat="28.533586" lon="84.794986"><ele>2264.0</ele><time>2025-10-23T08:40:04Z</time></trkpt>
    <trkpt lat="28.533584" lon="84.794318"><ele>2268.0</ele><time>2025-10-23T08:41:02Z</time></trkpt>
    <trkpt lat="28.533428" lon="84.794042"><ele>2268.4</ele><time>2025-10-23T08:41:34Z</time></trkpt>
    <trkpt lat="28.533331" lon="84.793730"><ele>2270.4</ele><time>2025-10-23T08:41:59Z</time></trkpt>
    <trkpt lat="28.533321" lon="84.793642"><ele>2271.2</ele><time>2025-10-23T08:42:07Z</time></trkpt>
    <trkpt lat="28.533321" lon="84.793383"><ele>2274.8</ele><time>2025-10-23T08:42:31Z</time></trkpt>
    <trkpt lat="28.533449" lon="84.793013"><ele>2277.6</ele><time>2025-10-23T08:43:08Z</time></trkpt>
    <trkpt lat="28.533400" lon="84.792732"><ele>2285.6</ele><time>2025-10-23T08:43:53Z</time></trkpt>
    <trkpt lat="28.533509" lon="84.792387"><ele>2292.0</ele><time>2025-10-23T08:44:42Z</time></trkpt>
    <trkpt lat="28.533596" lon="84.792227"><ele>2296.4</ele><time>2025-10-23T08:45:14Z</time></trkpt>
    <trkpt lat="28.533675" lon="84.791848"><ele>2303.0</ele><time>2025-10-23T08:46:03Z</time></trkpt>
    <trkpt lat="28.533747" lon="84.791547"><ele>2305.8</ele><time>2025-10-23T08:46:40Z</time></trkpt>
    <trkpt lat="28.533760" lon="84.791529"><ele>2306.2</ele><time>2025-10-23T08:46:42Z</time></trkpt>
    <trkpt lat="28.533804" lon="84.791455"><ele>2306.4</ele><time>2025-10-23T08:46:51Z</time></trkpt>
    <trkpt lat="28.533806" lon="84.791243"><ele>2306.4</ele><time>2025-10-23T08:47:15Z</time></trkpt>
    <trkpt lat="28.533739" lon="84.790939"><ele>2301.0</ele><time>2025-10-23T08:48:13Z</time></trkpt>
    <trkpt lat="28.533762" lon="84.790667"><ele>2301.0</ele><time>2025-10-23T08:48:36Z</time></trkpt>
    <trkpt lat="28.533739" lon="84.790517"><ele>2301.4</ele><time>2025-10-23T08:48:54Z</time></trkpt>
    <trkpt lat="28.533771" lon="84.790369"><ele>2303.8</ele><time>2025-10-23T08:49:08Z</time></trkpt>
    <trkpt lat="28.533917" lon="84.790156"><ele>2307.0</ele><time>2025-10-23T08:49:30Z</time></trkpt>
    <trkpt lat="28.534118" lon="84.789729"><ele>2313.8</ele><time>2025-10-23T08:50:25Z</time></trkpt>
    <trkpt lat="28.534318" lon="84.788847"><ele>2320.6</ele><time>2025-10-23T08:52:02Z</time></trkpt>
    <trkpt lat="28.534363" lon="84.788769"><ele>2321.2</ele><time>2025-10-23T08:52:10Z</time></trkpt>
    <trkpt lat="28.534543" lon="84.788593"><ele>2321.2</ele><time>2025-10-23T08:52:31Z</time></trkpt>
    <trkpt lat="28.534659" lon="84.788522"><ele>2321.2</ele><time>2025-10-23T08:52:43Z</time></trkpt>
    <trkpt lat="28.534695" lon="84.788444"><ele>2320.4</ele><time>2025-10-23T08:53:35Z</time></trkpt>
    <trkpt lat="28.534709" lon="84.788470"><ele>2320.2</ele><time>2025-10-23T08:54:04Z</time></trkpt>
    <trkpt lat="28.534803" lon="84.788235"><ele>2318.0</ele><time>2025-10-23T08:54:38Z</time></trkpt>
    <trkpt lat="28.534767" lon="84.788075"><ele>2318.0</ele><time>2025-10-23T08:54:50Z</time></trkpt>
    <trkpt lat="28.534771" lon="84.788049"><ele>2318.0</ele><time>2025-10-23T08:54:52Z</time></trkpt>
    <trkpt lat="28.534790" lon="84.787987"><ele>2319.2</ele><time>2025-10-23T08:54:56Z</time></trkpt>
    <trkpt lat="28.534830" lon="84.787933"><ele>2320.2</ele><time>2025-10-23T08:55:01Z</time></trkpt>
    <trkpt lat="28.534915" lon="84.787919"><ele>2323.4</ele><time>2025-10-23T08:55:16Z</time></trkpt>
    <trkpt lat="28.534863" lon="84.787947"><ele>2325.4</ele><time>2025-10-23T08:55:30Z</time></trkpt>
    <trkpt lat="28.534860" lon="84.787943"><ele>2325.4</ele><time>2025-10-23T08:55:31Z</time></trkpt>
    <trkpt lat="28.534870" lon="84.787822"><ele>2325.4</ele><time>2025-10-23T08:55:44Z</time></trkpt>
    <trkpt lat="28.534802" lon="84.787719"><ele>2325.4</ele><time>2025-10-23T08:56:00Z</time></trkpt>
    <trkpt lat="28.534821" lon="84.787668"><ele>2325.4</ele><time>2025-10-23T08:57:17Z</time></trkpt>
    <trkpt lat="28.534808" lon="84.787731"><ele>2325.8</ele><time>2025-10-23T08:57:59Z</time></trkpt>
    <trkpt lat="28.534787" lon="84.787718"><ele>2326.0</ele><time>2025-10-23T08:58:04Z</time></trkpt>
    <trkpt lat="28.534620" lon="84.787516"><ele>2329.8</ele><time>2025-10-23T08:58:33Z</time></trkpt>
    <trkpt lat="28.534672" lon="84.787486"><ele>2330.0</ele><time>2025-10-23T08:59:04Z</time></trkpt>
    <trkpt lat="28.534636" lon="84.787480"><ele>2330.0</ele><time>2025-10-23T08:59:15Z</time></trkpt>
    <trkpt lat="28.534624" lon="84.787517"><ele>2330.8</ele><time>2025-10-23T08:59:24Z</time></trkpt>
    <trkpt lat="28.534614" lon="84.787541"><ele>2331.8</ele><time>2025-10-23T08:59:30Z</time></trkpt>
    <trkpt lat="28.534509" lon="84.787618"><ele>2336.0</ele><time>2025-10-23T08:59:54Z</time></trkpt>
    <trkpt lat="28.534461" lon="84.787604"><ele>2338.4</ele><time>2025-10-23T09:00:09Z</time></trkpt>
    <trkpt lat="28.534444" lon="84.787091"><ele>2354.4</ele><time>2025-10-23T09:02:02Z</time></trkpt>
    <trkpt lat="28.534567" lon="84.786985"><ele>2357.6</ele><time>2025-10-23T09:02:32Z</time></trkpt>
    <trkpt lat="28.534610" lon="84.786727"><ele>2360.8</ele><time>2025-10-23T09:03:04Z</time></trkpt>
    <trkpt lat="28.534708" lon="84.786640"><ele>2362.2</ele><time>2025-10-23T09:03:24Z</time></trkpt>
    <trkpt lat="28.534713" lon="84.786639"><ele>2362.4</ele><time>2025-10-23T09:03:25Z</time></trkpt>
    <trkpt lat="28.534865" lon="84.786623"><ele>2367.4</ele><time>2025-10-23T09:03:55Z</time></trkpt>
    <trkpt lat="28.534907" lon="84.786581"><ele>2368.0</ele><time>2025-10-23T09:04:03Z</time></trkpt>
    <trkpt lat="28.534892" lon="84.786339"><ele>2373.0</ele><time>2025-10-23T09:04:42Z</time></trkpt>
    <trkpt lat="28.535025" lon="84.786054"><ele>2380.6</ele><time>2025-10-23T09:05:39Z</time></trkpt>
    <trkpt lat="28.535021" lon="84.785940"><ele>2382.6</ele><time>2025-10-23T09:05:56Z</time></trkpt>
    <trkpt lat="28.535020" lon="84.785941"><ele>2382.8</ele><time>2025-10-23T09:05:57Z</time></trkpt>
    <trkpt lat="28.535053" lon="84.785942"><ele>2382.8</ele><time>2025-10-23T09:06:24Z</time></trkpt>
    <trkpt lat="28.535028" lon="84.785877"><ele>2382.8</ele><time>2025-10-23T09:06:44Z</time></trkpt>
    <trkpt lat="28.535067" lon="84.785872"><ele>2382.8</ele><time>2025-10-23T09:07:38Z</time></trkpt>
    <trkpt lat="28.535031" lon="84.785871"><ele>2383.0</ele><time>2025-10-23T09:07:51Z</time></trkpt>
    <trkpt lat="28.535043" lon="84.785827"><ele>2383.8</ele><time>2025-10-23T09:07:57Z</time></trkpt>
    <trkpt lat="28.535079" lon="84.785752"><ele>2386.2</ele><time>2025-10-23T09:08:09Z</time></trkpt>
    <trkpt lat="28.535100" lon="84.785389"><ele>2391.8</ele><time>2025-10-23T09:08:50Z</time></trkpt>
    <trkpt lat="28.535131" lon="84.785241"><ele>2394.8</ele><time>2025-10-23T09:09:09Z</time></trkpt>
    <trkpt lat="28.535176" lon="84.785197"><ele>2398.8</ele><time>2025-10-23T09:09:35Z</time></trkpt>
    <trkpt lat="28.535099" lon="84.785248"><ele>2400.8</ele><time>2025-10-23T09:09:49Z</time></trkpt>
    <trkpt lat="28.535085" lon="84.785166"><ele>2402.6</ele><time>2025-10-23T09:10:02Z</time></trkpt>
    <trkpt lat="28.535152" lon="84.784975"><ele>2407.2</ele><time>2025-10-23T09:10:35Z</time></trkpt>
    <trkpt lat="28.535143" lon="84.784902"><ele>2410.6</ele><time>2025-10-23T09:10:55Z</time></trkpt>
    <trkpt lat="28.535209" lon="84.784861"><ele>2412.8</ele><time>2025-10-23T09:11:12Z</time></trkpt>
    <trkpt lat="28.535302" lon="84.784659"><ele>2415.6</ele><time>2025-10-23T09:11:44Z</time></trkpt>
    <trkpt lat="28.535319" lon="84.784494"><ele>2419.2</ele><time>2025-10-23T09:12:10Z</time></trkpt>
    <trkpt lat="28.535289" lon="84.784275"><ele>2423.6</ele><time>2025-10-23T09:12:43Z</time></trkpt>
    <trkpt lat="28.535315" lon="84.784230"><ele>2424.6</ele><time>2025-10-23T09:12:50Z</time></trkpt>
    <trkpt lat="28.535323" lon="84.784194"><ele>2424.8</ele><time>2025-10-23T09:12:56Z</time></trkpt>
    <trkpt lat="28.535256" lon="84.784104"><ele>2425.0</ele><time>2025-10-23T09:13:06Z</time></trkpt>
    <trkpt lat="28.535261" lon="84.784008"><ele>2425.8</ele><time>2025-10-23T09:13:14Z</time></trkpt>
    <trkpt lat="28.535403" lon="84.783580"><ele>2428.2</ele><time>2025-10-23T09:13:59Z</time></trkpt>
    <trkpt lat="28.535426" lon="84.783371"><ele>2428.4</ele><time>2025-10-23T09:14:15Z</time></trkpt>
    <trkpt lat="28.535514" lon="84.783202"><ele>2428.4</ele><time>2025-10-23T09:14:33Z</time></trkpt>
    <trkpt lat="28.535507" lon="84.783137"><ele>2428.4</ele><time>2025-10-23T09:14:41Z</time></trkpt>
    <trkpt lat="28.535552" lon="84.782839"><ele>2434.4</ele><time>2025-10-23T09:15:20Z</time></trkpt>
    <trkpt lat="28.535615" lon="84.782761"><ele>2435.6</ele><time>2025-10-23T09:15:34Z</time></trkpt>
    <trkpt lat="28.535651" lon="84.782571"><ele>2437.8</ele><time>2025-10-23T09:15:55Z</time></trkpt>
    <trkpt lat="28.535744" lon="84.782462"><ele>2440.2</ele><time>2025-10-23T09:16:21Z</time></trkpt>
    <trkpt lat="28.535750" lon="84.782515"><ele>2440.4</ele><time>2025-10-23T09:16:35Z</time></trkpt>
    <trkpt lat="28.535802" lon="84.782530"><ele>2443.0</ele><time>2025-10-23T09:16:54Z</time></trkpt>
    <trkpt lat="28.535796" lon="84.782475"><ele>2446.0</ele><time>2025-10-23T09:17:10Z</time></trkpt>
    <trkpt lat="28.535942" lon="84.782202"><ele>2452.6</ele><time>2025-10-23T09:17:58Z</time></trkpt>
    <trkpt lat="28.535958" lon="84.782182"><ele>2452.8</ele><time>2025-10-23T09:18:02Z</time></trkpt>
    <trkpt lat="28.536114" lon="84.782159"><ele>2453.8</ele><time>2025-10-23T09:18:30Z</time></trkpt>
    <trkpt lat="28.536089" lon="84.782118"><ele>2454.0</ele><time>2025-10-23T09:18:52Z</time></trkpt>
    <trkpt lat="28.536145" lon="84.782089"><ele>2456.6</ele><time>2025-10-23T09:19:13Z</time></trkpt>
    <trkpt lat="28.536178" lon="84.781906"><ele>2459.0</ele><time>2025-10-23T09:19:33Z</time></trkpt>
    <trkpt lat="28.536233" lon="84.781857"><ele>2459.0</ele><time>2025-10-23T09:19:41Z</time></trkpt>
    <trkpt lat="28.536386" lon="84.781738"><ele>2465.2</ele><time>2025-10-23T09:20:26Z</time></trkpt>
    <trkpt lat="28.536390" lon="84.781736"><ele>2465.4</ele><time>2025-10-23T09:20:27Z</time></trkpt>
    <trkpt lat="28.536410" lon="84.781684"><ele>2465.8</ele><time>2025-10-23T09:20:48Z</time></trkpt>
    <trkpt lat="28.536381" lon="84.781679"><ele>2465.8</ele><time>2025-10-23T09:21:09Z</time></trkpt>
    <trkpt lat="28.536438" lon="84.781717"><ele>2465.4</ele><time>2025-10-23T09:22:07Z</time></trkpt>
    <trkpt lat="28.536390" lon="84.781717"><ele>2465.4</ele><time>2025-10-23T09:22:15Z</time></trkpt>
    <trkpt lat="28.536355" lon="84.781778"><ele>2465.4</ele><time>2025-10-23T09:22:34Z</time></trkpt>
    <trkpt lat="28.536410" lon="84.781770"><ele>2466.0</ele><time>2025-10-23T09:22:52Z</time></trkpt>
    <trkpt lat="28.536454" lon="84.781669"><ele>2466.0</ele><time>2025-10-23T09:22:59Z</time></trkpt>
    <trkpt lat="28.536495" lon="84.781562"><ele>2469.0</ele><time>2025-10-23T09:23:21Z</time></trkpt>
    <trkpt lat="28.536557" lon="84.781494"><ele>2469.8</ele><time>2025-10-23T09:23:37Z</time></trkpt>
    <trkpt lat="28.536605" lon="84.781504"><ele>2470.4</ele><time>2025-10-23T09:23:55Z</time></trkpt>
    <trkpt lat="28.536575" lon="84.781448"><ele>2470.6</ele><time>2025-10-23T09:24:03Z</time></trkpt>
    <trkpt lat="28.536596" lon="84.781397"><ele>2471.8</ele><time>2025-10-23T09:24:10Z</time></trkpt>
    <trkpt lat="28.536798" lon="84.781418"><ele>2475.2</ele><time>2025-10-23T09:24:42Z</time></trkpt>
    <trkpt lat="28.536769" lon="84.781413"><ele>2475.2</ele><time>2025-10-23T09:24:50Z</time></trkpt>
    <trkpt lat="28.536820" lon="84.781178"><ele>2476.0</ele><time>2025-10-23T09:25:21Z</time></trkpt>
    <trkpt lat="28.536919" lon="84.781186"><ele>2477.4</ele><time>2025-10-23T09:25:34Z</time></trkpt>
    <trkpt lat="28.537003" lon="84.781165"><ele>2479.6</ele><time>2025-10-23T09:25:46Z</time></trkpt>
    <trkpt lat="28.537164" lon="84.781076"><ele>2483.8</ele><time>2025-10-23T09:26:16Z</time></trkpt>
    <trkpt lat="28.537189" lon="84.781011"><ele>2486.0</ele><time>2025-10-23T09:26:27Z</time></trkpt>
    <trkpt lat="28.537393" lon="84.780906"><ele>2489.2</ele><time>2025-10-23T09:27:03Z</time></trkpt>
    <trkpt lat="28.537430" lon="84.780836"><ele>2491.4</ele><time>2025-10-23T09:27:18Z</time></trkpt>
    <trkpt lat="28.537704" lon="84.780785"><ele>2495.0</ele><time>2025-10-23T09:28:04Z</time></trkpt>
    <trkpt lat="28.537714" lon="84.780666"><ele>2496.6</ele><time>2025-10-23T09:28:20Z</time></trkpt>
    <trkpt lat="28.537800" lon="84.780502"><ele>2500.0</ele><time>2025-10-23T09:28:48Z</time></trkpt>
    <trkpt lat="28.537844" lon="84.780496"><ele>2500.6</ele><time>2025-10-23T09:29:06Z</time></trkpt>
    <trkpt lat="28.537845" lon="84.780393"><ele>2501.2</ele><time>2025-10-23T09:31:11Z</time></trkpt>
    <trkpt lat="28.537862" lon="84.780361"><ele>2502.2</ele><time>2025-10-23T09:31:19Z</time></trkpt>
    <trkpt lat="28.537982" lon="84.780035"><ele>2507.8</ele><time>2025-10-23T09:31:57Z</time></trkpt>
    <trkpt lat="28.537984" lon="84.779924"><ele>2508.2</ele><time>2025-10-23T09:32:06Z</time></trkpt>
    <trkpt lat="28.538040" lon="84.779846"><ele>2509.4</ele><time>2025-10-23T09:32:14Z</time></trkpt>
    <trkpt lat="28.538138" lon="84.779539"><ele>2512.6</ele><time>2025-10-23T09:32:49Z</time></trkpt>
    <trkpt lat="28.538331" lon="84.779383"><ele>2517.6</ele><time>2025-10-23T09:33:27Z</time></trkpt>
    <trkpt lat="28.538557" lon="84.779343"><ele>2521.4</ele><time>2025-10-23T09:34:00Z</time></trkpt>
    <trkpt lat="28.538616" lon="84.779370"><ele>2523.4</ele><time>2025-10-23T09:34:13Z</time></trkpt>
    <trkpt lat="28.538522" lon="84.779124"><ele>2531.0</ele><time>2025-10-23T09:35:21Z</time></trkpt>
    <trkpt lat="28.538574" lon="84.779136"><ele>2532.6</ele><time>2025-10-23T09:35:47Z</time></trkpt>
    <trkpt lat="28.538814" lon="84.779242"><ele>2539.8</ele><time>2025-10-23T09:36:36Z</time></trkpt>
    <trkpt lat="28.538874" lon="84.779271"><ele>2541.2</ele><time>2025-10-23T09:57:09Z</time></trkpt>
    <trkpt lat="28.538985" lon="84.779221"><ele>2541.4</ele><time>2025-10-23T09:57:28Z</time></trkpt>
    <trkpt lat="28.539073" lon="84.779148"><ele>2543.4</ele><time>2025-10-23T09:57:44Z</time></trkpt>
    <trkpt lat="28.539208" lon="84.779131"><ele>2546.0</ele><time>2025-10-23T09:58:01Z</time></trkpt>
    <trkpt lat="28.539315" lon="84.779017"><ele>2547.8</ele><time>2025-10-23T09:58:19Z</time></trkpt>
    <trkpt lat="28.539564" lon="84.779045"><ele>2551.6</ele><time>2025-10-23T09:58:48Z</time></trkpt>
    <trkpt lat="28.539767" lon="84.778737"><ele>2558.6</ele><time>2025-10-23T09:59:46Z</time></trkpt>
    <trkpt lat="28.539867" lon="84.778724"><ele>2563.0</ele><time>2025-10-23T10:00:17Z</time></trkpt>
    <trkpt lat="28.540042" lon="84.778590"><ele>2569.0</ele><time>2025-10-23T10:00:58Z</time></trkpt>
    <trkpt lat="28.540028" lon="84.778527"><ele>2570.8</ele><time>2025-10-23T10:01:12Z</time></trkpt>
    <trkpt lat="28.540026" lon="84.778512"><ele>2571.0</ele><time>2025-10-23T10:01:14Z</time></trkpt>
    <trkpt lat="28.540084" lon="84.778443"><ele>2572.8</ele><time>2025-10-23T10:01:28Z</time></trkpt>
    <trkpt lat="28.540173" lon="84.778421"><ele>2575.0</ele><time>2025-10-23T10:01:48Z</time></trkpt>
    <trkpt lat="28.540157" lon="84.778362"><ele>2576.8</ele><time>2025-10-23T10:02:02Z</time></trkpt>
    <trkpt lat="28.540253" lon="84.778162"><ele>2581.8</ele><time>2025-10-23T10:02:40Z</time></trkpt>
    <trkpt lat="28.540467" lon="84.777937"><ele>2587.8</ele><time>2025-10-23T10:03:28Z</time></trkpt>
    <trkpt lat="28.540520" lon="84.777765"><ele>2589.6</ele><time>2025-10-23T10:03:57Z</time></trkpt>
    <trkpt lat="28.540910" lon="84.777418"><ele>2595.4</ele><time>2025-10-23T10:05:19Z</time></trkpt>
    <trkpt lat="28.541111" lon="84.777064"><ele>2600.4</ele><time>2025-10-23T10:06:01Z</time></trkpt>
    <trkpt lat="28.541232" lon="84.776909"><ele>2601.6</ele><time>2025-10-23T10:06:17Z</time></trkpt>
    <trkpt lat="28.541314" lon="84.776840"><ele>2601.6</ele><time>2025-10-23T10:06:28Z</time></trkpt>
    <trkpt lat="28.541603" lon="84.776213"><ele>2602.8</ele><time>2025-10-23T10:07:35Z</time></trkpt>
    <trkpt lat="28.541661" lon="84.776156"><ele>2602.6</ele><time>2025-10-23T10:07:45Z</time></trkpt>
    <trkpt lat="28.541967" lon="84.775805"><ele>2592.8</ele><time>2025-10-23T10:08:58Z</time></trkpt>
    <trkpt lat="28.542097" lon="84.775685"><ele>2590.6</ele><time>2025-10-23T10:09:20Z</time></trkpt>
    <trkpt lat="28.542323" lon="84.775305"><ele>2587.4</ele><time>2025-10-23T10:10:09Z</time></trkpt>
    <trkpt lat="28.542292" lon="84.775227"><ele>2587.4</ele><time>2025-10-23T10:10:17Z</time></trkpt>
    <trkpt lat="28.542298" lon="84.775094"><ele>2587.4</ele><time>2025-10-23T10:10:30Z</time></trkpt>
    <trkpt lat="28.542325" lon="84.774827"><ele>2591.8</ele><time>2025-10-23T10:10:59Z</time></trkpt>
    <trkpt lat="28.542303" lon="84.774658"><ele>2597.2</ele><time>2025-10-23T10:11:41Z</time></trkpt>
    <trkpt lat="28.542243" lon="84.774597"><ele>2601.6</ele><time>2025-10-23T10:12:11Z</time></trkpt>
    <trkpt lat="28.542265" lon="84.774461"><ele>2603.8</ele><time>2025-10-23T10:12:33Z</time></trkpt>
    <trkpt lat="28.542228" lon="84.774248"><ele>2609.6</ele><time>2025-10-23T10:13:19Z</time></trkpt>
    <trkpt lat="28.542274" lon="84.774077"><ele>2612.2</ele><time>2025-10-23T10:13:44Z</time></trkpt>
    <trkpt lat="28.542390" lon="84.773823"><ele>2612.6</ele><time>2025-10-23T10:14:46Z</time></trkpt>
    <trkpt lat="28.542401" lon="84.773813"><ele>2612.2</ele><time>2025-10-23T10:14:54Z</time></trkpt>
    <trkpt lat="28.542460" lon="84.773777"><ele>2608.6</ele><time>2025-10-23T10:15:11Z</time></trkpt>
    <trkpt lat="28.542470" lon="84.773738"><ele>2608.2</ele><time>2025-10-23T10:15:16Z</time></trkpt>
    <trkpt lat="28.542513" lon="84.773504"><ele>2608.8</ele><time>2025-10-23T10:16:12Z</time></trkpt>
    <trkpt lat="28.542506" lon="84.773497"><ele>2609.0</ele><time>2025-10-23T10:16:32Z</time></trkpt>
    <trkpt lat="28.542421" lon="84.773201"><ele>2619.2</ele><time>2025-10-23T10:17:38Z</time></trkpt>
    <trkpt lat="28.542444" lon="84.773012"><ele>2624.2</ele><time>2025-10-23T10:18:16Z</time></trkpt>
    <trkpt lat="28.542486" lon="84.772887"><ele>2624.2</ele><time>2025-10-23T10:18:37Z</time></trkpt>
    <trkpt lat="28.542475" lon="84.772797"><ele>2627.0</ele><time>2025-10-23T10:19:10Z</time></trkpt>
    <trkpt lat="28.542695" lon="84.772456"><ele>2629.6</ele><time>2025-10-23T10:20:06Z</time></trkpt>
    <trkpt lat="28.542827" lon="84.772342"><ele>2630.0</ele><time>2025-10-23T10:20:23Z</time></trkpt>
    <trkpt lat="28.542889" lon="84.772157"><ele>2630.6</ele><time>2025-10-23T10:20:40Z</time></trkpt>
    <trkpt lat="28.542950" lon="84.772088"><ele>2630.8</ele><time>2025-10-23T10:20:48Z</time></trkpt>
    <trkpt lat="28.543021" lon="84.771880"><ele>2631.0</ele><time>2025-10-23T10:21:04Z</time></trkpt>
    <trkpt lat="28.543028" lon="84.771850"><ele>2631.8</ele><time>2025-10-23T10:21:07Z</time></trkpt>
    <trkpt lat="28.543020" lon="84.771739"><ele>2634.0</ele><time>2025-10-23T10:21:17Z</time></trkpt>
    <trkpt lat="28.543012" lon="84.771698"><ele>2634.2</ele><time>2025-10-23T10:22:06Z</time></trkpt>
    <trkpt lat="28.543035" lon="84.771680"><ele>2634.4</ele><time>2025-10-23T10:22:18Z</time></trkpt>
    <trkpt lat="28.543115" lon="84.771461"><ele>2642.4</ele><time>2025-10-23T10:23:00Z</time></trkpt>
    <trkpt lat="28.543246" lon="84.771331"><ele>2647.0</ele><time>2025-10-23T10:23:33Z</time></trkpt>
    <trkpt lat="28.543273" lon="84.771293"><ele>2647.0</ele><time>2025-10-23T10:23:41Z</time></trkpt>
    <trkpt lat="28.543450" lon="84.771208"><ele>2646.2</ele><time>2025-10-23T10:24:11Z</time></trkpt>
    <trkpt lat="28.543548" lon="84.771113"><ele>2644.2</ele><time>2025-10-23T10:24:26Z</time></trkpt>
    <trkpt lat="28.543946" lon="84.770982"><ele>2641.8</ele><time>2025-10-23T10:25:08Z</time></trkpt>
    <trkpt lat="28.544014" lon="84.770942"><ele>2640.8</ele><time>2025-10-23T10:25:25Z</time></trkpt>
    <trkpt lat="28.544171" lon="84.770845"><ele>2636.4</ele><time>2025-10-23T10:25:45Z</time></trkpt>
    <trkpt lat="28.544193" lon="84.770791"><ele>2635.4</ele><time>2025-10-23T10:25:50Z</time></trkpt>
    <trkpt lat="28.544248" lon="84.770713"><ele>2635.2</ele><time>2025-10-23T10:26:02Z</time></trkpt>
    <trkpt lat="28.544661" lon="84.770309"><ele>2631.0</ele><time>2025-10-23T10:28:37Z</time></trkpt>
    <trkpt lat="28.544673" lon="84.770259"><ele>2630.8</ele><time>2025-10-23T10:28:54Z</time></trkpt>
    <trkpt lat="28.544703" lon="84.770157"><ele>2630.8</ele><time>2025-10-23T10:29:21Z</time></trkpt>
    <trkpt lat="28.544665" lon="84.770158"><ele>2630.8</ele><time>2025-10-23T10:29:45Z</time></trkpt>
    <trkpt lat="28.544714" lon="84.770135"><ele>2630.8</ele><time>2025-10-23T10:30:25Z</time></trkpt>
    <trkpt lat="28.544635" lon="84.770092"><ele>2632.2</ele><time>2025-10-23T10:31:16Z</time></trkpt>
    <trkpt lat="28.544673" lon="84.770017"><ele>2632.2</ele><time>2025-10-23T10:31:36Z</time></trkpt>
    <trkpt lat="28.544721" lon="84.770108"><ele>2631.0</ele><time>2025-10-23T10:31:52Z</time></trkpt>
    <trkpt lat="28.544712" lon="84.770106"><ele>2631.0</ele><time>2025-10-23T10:32:28Z</time></trkpt>
    <trkpt lat="28.544616" lon="84.769964"><ele>2633.6</ele><time>2025-10-23T10:32:55Z</time></trkpt>
    <trkpt lat="28.544452" lon="84.769590"><ele>2641.2</ele><time>2025-10-23T10:34:00Z</time></trkpt>
    <trkpt lat="28.544453" lon="84.769579"><ele>2642.0</ele><time>2025-10-23T10:34:03Z</time></trkpt>
    <trkpt lat="28.544470" lon="84.769440"><ele>2642.0</ele><time>2025-10-23T10:34:44Z</time></trkpt>
    <trkpt lat="28.544495" lon="84.769442"><ele>2642.0</ele><time>2025-10-23T10:35:06Z</time></trkpt>
    </trkseg>
  </trk>
</gpx>
