<?xml version="1.0" encoding="UTF-8"?>
<gpx version="1.1" creator="tripplanner (simplified from Strava export)" xmlns="http://www.topografix.com/GPX/1/1">
  <metadata>
    <name>Manaslu — Samagaon → Manaslu Base Camp → Samagaon</name>
    <time>2025-10-26T01:14:14Z</time>
  </metadata>
  <trk>
    <name>Manaslu — Samagaon → Manaslu Base Camp → Samagaon</name>
    <trkseg>
    <trkpt lat="28.586064" lon="84.642305"><ele>3525.2</ele><time>2025-10-26T01:14:14Z</time></trkpt>
    <trkpt lat="28.586527" lon="84.641834"><ele>3527.2</ele><time>2025-10-26T01:20:52Z</time></trkpt>
    <trkpt lat="28.586899" lon="84.641617"><ele>3527.8</ele><time>2025-10-26T01:21:26Z</time></trkpt>
    <trkpt lat="28.587313" lon="84.641414"><ele>3528.8</ele><time>2025-10-26T01:22:01Z</time></trkpt>
    <trkpt lat="28.587834" lon="84.641279"><ele>3530.4</ele><time>2025-10-26T01:22:46Z</time></trkpt>
    <trkpt lat="28.588197" lon="84.641079"><ele>3532.4</ele><time>2025-10-26T01:23:19Z</time></trkpt>
    <trkpt lat="28.589381" lon="84.641304"><ele>3534.8</ele><time>2025-10-26T01:24:55Z</time></trkpt>
    <trkpt lat="28.589745" lon="84.641271"><ele>3536.0</ele><time>2025-10-26T01:25:32Z</time></trkpt>
    <trkpt lat="28.590204" lon="84.641128"><ele>3538.2</ele><time>2025-10-26T01:26:16Z</time></trkpt>
    <trkpt lat="28.590376" lon="84.641224"><ele>3538.4</ele><time>2025-10-26T01:26:37Z</time></trkpt>
    <trkpt lat="28.590472" lon="84.641229"><ele>3538.4</ele><time>2025-10-26T01:27:17Z</time></trkpt>
    <trkpt lat="28.590563" lon="84.641334"><ele>3538.8</ele><time>2025-10-26T01:27:32Z</time></trkpt>
    <trkpt lat="28.590742" lon="84.641445"><ele>3540.8</ele><time>2025-10-26T01:27:53Z</time></trkpt>
    <trkpt lat="28.590929" lon="84.641420"><ele>3541.6</ele><time>2025-10-26T01:28:11Z</time></trkpt>
    <trkpt lat="28.591062" lon="84.641333"><ele>3541.8</ele><time>2025-10-26T01:28:26Z</time></trkpt>
    <trkpt lat="28.591333" lon="84.641423"><ele>3541.8</ele><time>2025-10-26T01:28:54Z</time></trkpt>
    <trkpt lat="28.591489" lon="84.641344"><ele>3543.0</ele><time>2025-10-26T01:29:13Z</time></trkpt>
    <trkpt lat="28.591652" lon="84.641433"><ele>3545.2</ele><time>2025-10-26T01:29:32Z</time></trkpt>
    <trkpt lat="28.591822" lon="84.641514"><ele>3545.2</ele><time>2025-10-26T01:29:54Z</time></trkpt>
    <trkpt lat="28.592076" lon="84.641580"><ele>3544.8</ele><time>2025-10-26T01:30:18Z</time></trkpt>
    <trkpt lat="28.592286" lon="84.641575"><ele>3544.2</ele><time>2025-10-26T01:30:36Z</time></trkpt>
    <trkpt lat="28.592550" lon="84.641694"><ele>3544.0</ele><time>2025-10-26T01:31:04Z</time></trkpt>
    <trkpt lat="28.592647" lon="84.641620"><ele>3543.8</ele><time>2025-10-26T01:31:15Z</time></trkpt>
    <trkpt lat="28.592794" lon="84.641616"><ele>3543.8</ele><time>2025-10-26T01:31:30Z</time></trkpt>
    <trkpt lat="28.592919" lon="84.641594"><ele>3544.2</ele><time>2025-10-26T01:31:43Z</time></trkpt>
    <trkpt lat="28.593170" lon="84.641475"><ele>3545.4</ele><time>2025-10-26T01:32:08Z</time></trkpt>
    <trkpt lat="28.593534" lon="84.641498"><ele>3547.6</ele><time>2025-10-26T01:32:49Z</time></trkpt>
    <trkpt lat="28.593754" lon="84.641259"><ele>3550.6</ele><time>2025-10-26T01:33:27Z</time></trkpt>
    <trkpt lat="28.593850" lon="84.641219"><ele>3550.8</ele><time>2025-10-26T01:33:36Z</time></trkpt>
    <trkpt lat="28.594082" lon="84.641271"><ele>3552.4</ele><time>2025-10-26T01:34:03Z</time></trkpt>
    <trkpt lat="28.594287" lon="84.641297"><ele>3552.6</ele><time>2025-10-26T01:34:26Z</time></trkpt>
    <trkpt lat="28.594489" lon="84.641233"><ele>3552.8</ele><time>2025-10-26T01:34:50Z</time></trkpt>
    <trkpt lat="28.594705" lon="84.641009"><ele>3555.0</ele><time>2025-10-26T01:35:18Z</time></trkpt>
    <trkpt lat="28.595225" lon="84.640759"><ele>3556.6</ele><time>2025-10-26T01:36:14Z</time></trkpt>
    <trkpt lat="28.595280" lon="84.640683"><ele>3557.2</ele><time>2025-10-26T01:36:27Z</time></trkpt>
    <trkpt lat="28.595248" lon="84.640824"><ele>3557.2</ele><time>2025-10-26T01:36:49Z</time></trkpt>
    <trkpt lat="28.595279" lon="84.640853"><ele>3557.2</ele><time>2025-10-26T01:36:53Z</time></trkpt>
    <trkpt lat="28.595412" lon="84.640811"><ele>3557.2</ele><time>2025-10-26T01:37:08Z</time></trkpt>
    <trkpt lat="28.595732" lon="84.640798"><ele>3558.4</ele><time>2025-10-26T01:37:40Z</time></trkpt>
    <trkpt lat="28.596163" lon="84.640638"><ele>3560.6</ele><time>2025-10-26T01:38:37Z</time></trkpt>
    <trkpt lat="28.596220" lon="84.640638"><ele>3560.8</ele><time>2025-10-26T01:38:43Z</time></trkpt>
    <trkpt lat="28.596391" lon="84.640635"><ele>3562.6</ele><time>2025-10-26T01:39:02Z</time></trkpt>
    <trkpt lat="28.596714" lon="84.640323"><ele>3568.0</ele><time>2025-10-26T01:39:56Z</time></trkpt>
    <trkpt lat="28.596776" lon="84.640287"><ele>3569.6</ele><time>2025-10-26T01:40:08Z</time></trkpt>
    <trkpt lat="28.596839" lon="84.640263"><ele>3569.8</ele><time>2025-10-26T01:40:17Z</time></trkpt>
    <trkpt lat="28.597012" lon="84.640274"><ele>3569.8</ele><time>2025-10-26T01:40:37Z</time></trkpt>
    <trkpt lat="28.597164" lon="84.640388"><ele>3569.8</ele><time>2025-10-26T01:41:04Z</time></trkpt>
    <trkpt lat="28.597310" lon="84.640406"><ele>3570.2</ele><time>2025-10-26T01:41:27Z</time></trkpt>
    <trkpt lat="28.597292" lon="84.640474"><ele>3570.4</ele><time>2025-10-26T01:41:38Z</time></trkpt>
    <trkpt lat="28.597380" lon="84.640643"><ele>3571.0</ele><time>2025-10-26T01:42:05Z</time></trkpt>
    <trkpt lat="28.597408" lon="84.640636"><ele>3571.6</ele><time>2025-10-26T01:42:12Z</time></trkpt>
    <trkpt lat="28.597881" lon="84.640562"><ele>3580.8</ele><time>2025-10-26T01:43:24Z</time></trkpt>
    <trkpt lat="28.598098" lon="84.640535"><ele>3581.2</ele><time>2025-10-26T01:43:51Z</time></trkpt>
    <trkpt lat="28.598232" lon="84.640480"><ele>3581.4</ele><time>2025-10-26T01:44:05Z</time></trkpt>
    <trkpt lat="28.598417" lon="84.640346"><ele>3581.4</ele><time>2025-10-26T01:44:26Z</time></trkpt>
    <trkpt lat="28.598629" lon="84.640227"><ele>3585.4</ele><time>2025-10-26T01:44:57Z</time></trkpt>
    <trkpt lat="28.598657" lon="84.640189"><ele>3586.2</ele><time>2025-10-26T01:45:02Z</time></trkpt>
    <trkpt lat="28.598740" lon="84.640093"><ele>3586.8</ele><time>2025-10-26T01:46:57Z</time></trkpt>
    <trkpt lat="28.598968" lon="84.639893"><ele>3588.4</ele><time>2025-10-26T01:47:25Z</time></trkpt>
    <trkpt lat="28.599014" lon="84.639641"><ele>3589.2</ele><time>2025-10-26T01:47:56Z</time></trkpt>
    <trkpt lat="28.599080" lon="84.639497"><ele>3589.6</ele><time>2025-10-26T01:48:13Z</time></trkpt>
    <trkpt lat="28.599404" lon="84.638900"><ele>3592.8</ele><time>2025-10-26T01:49:39Z</time></trkpt>
    <trkpt lat="28.599583" lon="84.638663"><ele>3593.8</ele><time>2025-10-26T01:50:09Z</time></trkpt>
    <trkpt lat="28.599867" lon="84.638091"><ele>3594.0</ele><time>2025-10-26T01:51:08Z</time></trkpt>
    <trkpt lat="28.599991" lon="84.637977"><ele>3594.2</ele><time>2025-10-26T01:51:24Z</time></trkpt>
    <trkpt lat="28.600192" lon="84.637829"><ele>3597.4</ele><time>2025-10-26T01:52:00Z</time></trkpt>
    <trkpt lat="28.600332" lon="84.637572"><ele>3598.2</ele><time>2025-10-26T01:52:33Z</time></trkpt>
    <trkpt lat="28.600494" lon="84.637572"><ele>3598.6</ele><time>2025-10-26T01:52:50Z</time></trkpt>
    <trkpt lat="28.600590" lon="84.637486"><ele>3601.4</ele><time>2025-10-26T01:53:18Z</time></trkpt>
    <trkpt lat="28.600594" lon="84.637300"><ele>3604.4</ele><time>2025-10-26T01:53:52Z</time></trkpt>
    <trkpt lat="28.600809" lon="84.637005"><ele>3610.0</ele><time>2025-10-26T01:54:57Z</time></trkpt>
    <trkpt lat="28.600858" lon="84.636837"><ele>3614.2</ele><time>2025-10-26T01:55:36Z</time></trkpt>
    <trkpt lat="28.600828" lon="84.636774"><ele>3615.2</ele><time>2025-10-26T01:55:55Z</time></trkpt>
    <trkpt lat="28.600859" lon="84.636646"><ele>3617.2</ele><time>2025-10-26T01:56:39Z</time></trkpt>
    <trkpt lat="28.601046" lon="84.636288"><ele>3624.0</ele><time>2025-10-26T01:57:48Z</time></trkpt>
    <trkpt lat="28.601057" lon="84.636242"><ele>3624.8</ele><time>2025-10-26T01:58:09Z</time></trkpt>
    <trkpt lat="28.601091" lon="84.635741"><ele>3632.2</ele><time>2025-10-26T01:59:18Z</time></trkpt>
    <trkpt lat="28.601211" lon="84.635305"><ele>3642.0</ele><time>2025-10-26T02:00:45Z</time></trkpt>
    <trkpt lat="28.601295" lon="84.635125"><ele>3645.8</ele><time>2025-10-26T02:01:21Z</time></trkpt>
    <trkpt lat="28.601341" lon="84.634985"><ele>3648.4</ele><time>2025-10-26T02:02:17Z</time></trkpt>
    <trkpt lat="28.601547" lon="84.634689"><ele>3657.2</ele><time>2025-10-26T02:03:58Z</time></trkpt>
    <trkpt lat="28.601549" lon="84.634634"><ele>3657.4</ele><time>2025-10-26T02:04:04Z</time></trkpt>
    <trkpt lat="28.601594" lon="84.634400"><ele>3660.2</ele><time>2025-10-26T02:04:32Z</time></trkpt>
    <trkpt lat="28.601703" lon="84.634123"><ele>3666.0</ele><time>2025-10-26T02:05:10Z</time></trkpt>
    <trkpt lat="28.601714" lon="84.634118"><ele>3666.4</ele><time>2025-10-26T02:06:58Z</time></trkpt>
    <trkpt lat="28.601697" lon="84.634108"><ele>3666.4</ele><time>2025-10-26T02:07:22Z</time></trkpt>
    <trkpt lat="28.601694" lon="84.634104"><ele>3666.8</ele><time>2025-10-26T02:07:23Z</time></trkpt>
    <trkpt lat="28.601772" lon="84.633153"><ele>3677.2</ele><time>2025-10-26T02:09:45Z</time></trkpt>
    <trkpt lat="28.601775" lon="84.633089"><ele>3678.2</ele><time>2025-10-26T02:09:55Z</time></trkpt>
    <trkpt lat="28.601749" lon="84.632861"><ele>3682.8</ele><time>2025-10-26T02:10:28Z</time></trkpt>
    <trkpt lat="28.601835" lon="84.632681"><ele>3684.6</ele><time>2025-10-26T02:10:50Z</time></trkpt>
    <trkpt lat="28.601796" lon="84.632526"><ele>3688.6</ele><time>2025-10-26T02:11:19Z</time></trkpt>
    <trkpt lat="28.601890" lon="84.632308"><ele>3694.4</ele><time>2025-10-26T02:12:06Z</time></trkpt>
    <trkpt lat="28.601899" lon="84.632243"><ele>3695.6</ele><time>2025-10-26T02:12:20Z</time></trkpt>
    <trkpt lat="28.601931" lon="84.631884"><ele>3697.0</ele><time>2025-10-26T02:12:56Z</time></trkpt>
    <trkpt lat="28.601881" lon="84.631758"><ele>3697.8</ele><time>2025-10-26T02:13:12Z</time></trkpt>
    <trkpt lat="28.601925" lon="84.631650"><ele>3700.6</ele><time>2025-10-26T02:13:27Z</time></trkpt>
    <trkpt lat="28.601910" lon="84.631501"><ele>3703.6</ele><time>2025-10-26T02:13:56Z</time></trkpt>
    <trkpt lat="28.601857" lon="84.631299"><ele>3706.0</ele><time>2025-10-26T02:14:22Z</time></trkpt>
    <trkpt lat="28.601826" lon="84.631231"><ele>3706.6</ele><time>2025-10-26T02:14:30Z</time></trkpt>
    <trkpt lat="28.602011" lon="84.630943"><ele>3713.4</ele><time>2025-10-26T02:15:21Z</time></trkpt>
    <trkpt lat="28.602075" lon="84.630520"><ele>3716.2</ele><time>2025-10-26T02:16:04Z</time></trkpt>
    <trkpt lat="28.602143" lon="84.630466"><ele>3718.8</ele><time>2025-10-26T02:16:16Z</time></trkpt>
    <trkpt lat="28.602170" lon="84.630418"><ele>3719.0</ele><time>2025-10-26T02:16:24Z</time></trkpt>
    <trkpt lat="28.602105" lon="84.630201"><ele>3720.6</ele><time>2025-10-26T02:16:48Z</time></trkpt>
    <trkpt lat="28.602123" lon="84.629972"><ele>3722.2</ele><time>2025-10-26T02:17:10Z</time></trkpt>
    <trkpt lat="28.602109" lon="84.629824"><ele>3723.2</ele><time>2025-10-26T02:17:24Z</time></trkpt>
    <trkpt lat="28.602092" lon="84.629758"><ele>3723.2</ele><time>2025-10-26T02:17:38Z</time></trkpt>
    <trkpt lat="28.602125" lon="84.629733"><ele>3723.6</ele><time>2025-10-26T02:18:48Z</time></trkpt>
    <trkpt lat="28.602090" lon="84.629345"><ele>3725.6</ele><time>2025-10-26T02:19:34Z</time></trkpt>
    <trkpt lat="28.601944" lon="84.629128"><ele>3726.4</ele><time>2025-10-26T02:20:03Z</time></trkpt>
    <trkpt lat="28.601949" lon="84.628913"><ele>3727.0</ele><time>2025-10-26T02:20:26Z</time></trkpt>
    <trkpt lat="28.601929" lon="84.628767"><ele>3730.0</ele><time>2025-10-26T02:20:46Z</time></trkpt>
    <trkpt lat="28.601846" lon="84.628666"><ele>3731.2</ele><time>2025-10-26T02:21:00Z</time></trkpt>
    <trkpt lat="28.601762" lon="84.628400"><ele>3732.6</ele><time>2025-10-26T02:21:25Z</time></trkpt>
    <trkpt lat="28.601595" lon="84.628149"><ele>3734.4</ele><time>2025-10-26T02:21:53Z</time></trkpt>
    <trkpt lat="28.601369" lon="84.627878"><ele>3734.8</ele><time>2025-10-26T02:22:25Z</time></trkpt>
    <trkpt lat="28.601301" lon="84.627634"><ele>3735.0</ele><time>2025-10-26T02:22:46Z</time></trkpt>
    <trkpt lat="28.601206" lon="84.627457"><ele>3735.4</ele><time>2025-10-26T02:23:03Z</time></trkpt>
    <trkpt lat="28.600789" lon="84.626886"><ele>3737.0</ele><time>2025-10-26T02:24:06Z</time></trkpt>
    <trkpt lat="28.600639" lon="84.626763"><ele>3744.4</ele><time>2025-10-26T02:24:44Z</time></trkpt>
    <trkpt lat="28.600695" lon="84.626732"><ele>3747.0</ele><time>2025-10-26T02:25:02Z</time></trkpt>
    <trkpt lat="28.600661" lon="84.626641"><ele>3749.6</ele><time>2025-10-26T02:25:25Z</time></trkpt>
    <trkpt lat="28.600499" lon="84.626558"><ele>3756.0</ele><time>2025-10-26T02:26:14Z</time></trkpt>
    <trkpt lat="28.600210" lon="84.626197"><ele>3768.8</ele><time>2025-10-26T02:27:57Z</time></trkpt>
    <trkpt lat="28.600151" lon="84.626179"><ele>3771.4</ele><time>2025-10-26T02:28:16Z</time></trkpt>
    <trkpt lat="28.600145" lon="84.626175"><ele>3771.4</ele><time>2025-10-26T02:28:17Z</time></trkpt>
    <trkpt lat="28.599472" lon="84.625162"><ele>3794.4</ele><time>2025-10-26T02:31:42Z</time></trkpt>
    <trkpt lat="28.599204" lon="84.625058"><ele>3795.2</ele><time>2025-10-26T02:32:30Z</time></trkpt>
    <trkpt lat="28.599048" lon="84.624870"><ele>3796.4</ele><time>2025-10-26T02:32:51Z</time></trkpt>
    <trkpt lat="28.599021" lon="84.624780"><ele>3797.2</ele><time>2025-10-26T02:33:00Z</time></trkpt>
    <trkpt lat="28.598980" lon="84.624756"><ele>3798.2</ele><time>2025-10-26T02:33:06Z</time></trkpt>
    <trkpt lat="28.598824" lon="84.624611"><ele>3803.2</ele><time>2025-10-26T02:33:38Z</time></trkpt>
    <trkpt lat="28.598776" lon="84.624479"><ele>3807.2</ele><time>2025-10-26T02:34:02Z</time></trkpt>
    <trkpt lat="28.598734" lon="84.624467"><ele>3808.8</ele><time>2025-10-26T02:34:13Z</time></trkpt>
    <trkpt lat="28.598727" lon="84.624390"><ele>3811.4</ele><time>2025-10-26T02:34:32Z</time></trkpt>
    <trkpt lat="28.598678" lon="84.624389"><ele>3813.4</ele><time>2025-10-26T02:34:48Z</time></trkpt>
    <trkpt lat="28.598658" lon="84.624233"><ele>3818.8</ele><time>2025-10-26T02:35:26Z</time></trkpt>
    <trkpt lat="28.598560" lon="84.624101"><ele>3823.8</ele><time>2025-10-26T02:36:05Z</time></trkpt>
    <trkpt lat="28.598665" lon="84.623981"><ele>3828.8</ele><time>2025-10-26T02:36:38Z</time></trkpt>
    <trkpt lat="28.598526" lon="84.623703"><ele>3838.2</ele><time>2025-10-26T02:37:45Z</time></trkpt>
    <trkpt lat="28.598503" lon="84.623565"><ele>3842.4</ele><time>2025-10-26T02:38:17Z</time></trkpt>
    <trkpt lat="28.598533" lon="84.623560"><ele>3843.6</ele><time>2025-10-26T02:38:22Z</time></trkpt>
    <trkpt lat="28.598537" lon="84.623564"><ele>3843.6</ele><time>2025-10-26T02:38:23Z</time></trkpt>
    <trkpt lat="28.598477" lon="84.623446"><ele>3850.0</ele><time>2025-10-26T02:39:17Z</time></trkpt>
    <trkpt lat="28.598500" lon="84.623384"><ele>3851.6</ele><time>2025-10-26T02:39:27Z</time></trkpt>
    <trkpt lat="28.598397" lon="84.623234"><ele>3859.0</ele><time>2025-10-26T02:40:43Z</time></trkpt>
    <trkpt lat="28.598364" lon="84.623056"><ele>3866.0</ele><time>2025-10-26T02:41:46Z</time></trkpt>
    <trkpt lat="28.598404" lon="84.622785"><ele>3876.8</ele><time>2025-10-26T02:43:16Z</time></trkpt>
    <trkpt lat="28.598364" lon="84.622660"><ele>3882.6</ele><time>2025-10-26T02:44:04Z</time></trkpt>
    <trkpt lat="28.598364" lon="84.622649"><ele>3882.8</ele><time>2025-10-26T02:44:12Z</time></trkpt>
    <trkpt lat="28.598376" lon="84.622606"><ele>3883.6</ele><time>2025-10-26T02:44:16Z</time></trkpt>
    <trkpt lat="28.598420" lon="84.622623"><ele>3885.2</ele><time>2025-10-26T02:44:27Z</time></trkpt>
    <trkpt lat="28.598392" lon="84.622605"><ele>3886.2</ele><time>2025-10-26T02:44:49Z</time></trkpt>
    <trkpt lat="28.598417" lon="84.622528"><ele>3889.6</ele><time>2025-10-26T02:45:26Z</time></trkpt>
    <trkpt lat="28.598376" lon="84.622383"><ele>3894.6</ele><time>2025-10-26T02:46:06Z</time></trkpt>
    <trkpt lat="28.598365" lon="84.622431"><ele>3894.8</ele><time>2025-10-26T02:46:24Z</time></trkpt>
    <trkpt lat="28.598387" lon="84.622378"><ele>3895.4</ele><time>2025-10-26T02:47:26Z</time></trkpt>
    <trkpt lat="28.598433" lon="84.622358"><ele>3896.2</ele><time>2025-10-26T02:47:33Z</time></trkpt>
    <trkpt lat="28.598532" lon="84.622419"><ele>3899.6</ele><time>2025-10-26T02:47:56Z</time></trkpt>
    <trkpt lat="28.598579" lon="84.622384"><ele>3901.8</ele><time>2025-10-26T02:48:11Z</time></trkpt>
    <trkpt lat="28.598584" lon="84.622427"><ele>3903.4</ele><time>2025-10-26T02:48:21Z</time></trkpt>
    <trkpt lat="28.598664" lon="84.622528"><ele>3907.4</ele><time>2025-10-26T02:49:19Z</time></trkpt>
    <trkpt lat="28.598902" lon="84.622595"><ele>3918.4</ele><time>2025-10-26T02:50:24Z</time></trkpt>
    <trkpt lat="28.598871" lon="84.622521"><ele>3921.6</ele><time>2025-10-26T02:50:47Z</time></trkpt>
    <trkpt lat="28.598908" lon="84.622502"><ele>3922.6</ele><time>2025-10-26T02:50:53Z</time></trkpt>
    <trkpt lat="28.598860" lon="84.622439"><ele>3926.6</ele><time>2025-10-26T02:51:29Z</time></trkpt>
    <trkpt lat="28.598855" lon="84.622439"><ele>3926.8</ele><time>2025-10-26T02:51:38Z</time></trkpt>
    <trkpt lat="28.598843" lon="84.622320"><ele>3930.0</ele><time>2025-10-26T02:52:01Z</time></trkpt>
    <trkpt lat="28.598888" lon="84.622276"><ele>3932.8</ele><time>2025-10-26T02:52:21Z</time></trkpt>
    <trkpt lat="28.598919" lon="84.622311"><ele>3933.6</ele><time>2025-10-26T02:52:26Z</time></trkpt>
    <trkpt lat="28.599050" lon="84.622312"><ele>3940.2</ele><time>2025-10-26T02:53:21Z</time></trkpt>
    <trkpt lat="28.598996" lon="84.622200"><ele>3943.8</ele><time>2025-10-26T02:53:51Z</time></trkpt>
    <trkpt lat="28.599017" lon="84.622155"><ele>3944.8</ele><time>2025-10-26T02:53:58Z</time></trkpt>
    <trkpt lat="28.599137" lon="84.622191"><ele>3950.6</ele><time>2025-10-26T02:54:45Z</time></trkpt>
    <trkpt lat="28.599116" lon="84.621997"><ele>3957.4</ele><time>2025-10-26T02:55:39Z</time></trkpt>
    <trkpt lat="28.599065" lon="84.621889"><ele>3961.0</ele><time>2025-10-26T02:56:18Z</time></trkpt>
    <trkpt lat="28.598922" lon="84.621624"><ele>3968.0</ele><time>2025-10-26T02:57:11Z</time></trkpt>
    <trkpt lat="28.598798" lon="84.621504"><ele>3972.2</ele><time>2025-10-26T02:57:46Z</time></trkpt>
    <trkpt lat="28.598748" lon="84.621459"><ele>3974.4</ele><time>2025-10-26T02:58:06Z</time></trkpt>
    <trkpt lat="28.598734" lon="84.621390"><ele>3975.6</ele><time>2025-10-26T02:58:17Z</time></trkpt>
    <trkpt lat="28.598760" lon="84.621349"><ele>3977.2</ele><time>2025-10-26T03:00:12Z</time></trkpt>
    <trkpt lat="28.598768" lon="84.621342"><ele>3977.8</ele><time>2025-10-26T03:00:15Z</time></trkpt>
    <trkpt lat="28.598888" lon="84.621337"><ele>3983.0</ele><time>2025-10-26T03:00:48Z</time></trkpt>
    <trkpt lat="28.598901" lon="84.621223"><ele>3986.4</ele><time>2025-10-26T03:01:14Z</time></trkpt>
    <trkpt lat="28.598954" lon="84.621253"><ele>3989.0</ele><time>2025-10-26T03:01:33Z</time></trkpt>
    <trkpt lat="28.598937" lon="84.621099"><ele>3993.2</ele><time>2025-10-26T03:02:10Z</time></trkpt>
    <trkpt lat="28.598962" lon="84.621003"><ele>3997.0</ele><time>2025-10-26T03:02:34Z</time></trkpt>
    <trkpt lat="28.598983" lon="84.620995"><ele>3998.6</ele><time>2025-10-26T03:02:44Z</time></trkpt>
    <trkpt lat="28.598995" lon="84.620998"><ele>3999.4</ele><time>2025-10-26T03:02:53Z</time></trkpt>
    <trkpt lat="28.599015" lon="84.620797"><ele>4006.0</ele><time>2025-10-26T03:04:05Z</time></trkpt>
    <trkpt lat="28.599022" lon="84.620539"><ele>4015.0</ele><time>2025-10-26T03:05:17Z</time></trkpt>
    <trkpt lat="28.599069" lon="84.620528"><ele>4017.8</ele><time>2025-10-26T03:05:47Z</time></trkpt>
    <trkpt lat="28.599039" lon="84.620348"><ele>4023.6</ele><time>2025-10-26T03:06:29Z</time></trkpt>
    <trkpt lat="28.599051" lon="84.620305"><ele>4024.6</ele><time>2025-10-26T03:06:37Z</time></trkpt>
    <trkpt lat="28.599078" lon="84.620333"><ele>4026.4</ele><time>2025-10-26T03:07:02Z</time></trkpt>
    <trkpt lat="28.599097" lon="84.620136"><ele>4033.2</ele><time>2025-10-26T03:07:53Z</time></trkpt>
    <trkpt lat="28.599190" lon="84.620103"><ele>4038.2</ele><time>2025-10-26T03:08:21Z</time></trkpt>
    <trkpt lat="28.599237" lon="84.620139"><ele>4041.0</ele><time>2025-10-26T03:08:38Z</time></trkpt>
    <trkpt lat="28.599256" lon="84.620106"><ele>4042.8</ele><time>2025-10-26T03:08:50Z</time></trkpt>
    <trkpt lat="28.599256" lon="84.620072"><ele>4043.8</ele><time>2025-10-26T03:09:01Z</time></trkpt>
    <trkpt lat="28.599326" lon="84.620114"><ele>4047.6</ele><time>2025-10-26T03:09:36Z</time></trkpt>
    <trkpt lat="28.599296" lon="84.620133"><ele>4048.2</ele><time>2025-10-26T03:09:51Z</time></trkpt>
    <trkpt lat="28.599297" lon="84.620054"><ele>4049.8</ele><time>2025-10-26T03:12:32Z</time></trkpt>
    <trkpt lat="28.599304" lon="84.619960"><ele>4052.2</ele><time>2025-10-26T03:12:47Z</time></trkpt>
    <trkpt lat="28.599275" lon="84.619902"><ele>4055.6</ele><time>2025-10-26T03:13:07Z</time></trkpt>
    <trkpt lat="28.599337" lon="84.619735"><ele>4061.6</ele><time>2025-10-26T03:13:49Z</time></trkpt>
    <trkpt lat="28.599329" lon="84.619551"><ele>4066.8</ele><time>2025-10-26T03:14:34Z</time></trkpt>
    <trkpt lat="28.599262" lon="84.619401"><ele>4071.4</ele><time>2025-10-26T03:15:06Z</time></trkpt>
    <trkpt lat="28.599259" lon="84.619286"><ele>4076.8</ele><time>2025-10-26T03:15:43Z</time></trkpt>
    <trkpt lat="28.599290" lon="84.619167"><ele>4080.2</ele><time>2025-10-26T03:18:10Z</time></trkpt>
    <trkpt lat="28.599306" lon="84.619073"><ele>4084.2</ele><time>2025-10-26T03:18:33Z</time></trkpt>
    <trkpt lat="28.599272" lon="84.618685"><ele>4093.8</ele><time>2025-10-26T03:19:45Z</time></trkpt>
    <trkpt lat="28.599178" lon="84.618228"><ele>4106.6</ele><time>2025-10-26T03:21:34Z</time></trkpt>
    <trkpt lat="28.599139" lon="84.618173"><ele>4108.4</ele><time>2025-10-26T03:21:46Z</time></trkpt>
    <trkpt lat="28.599165" lon="84.618118"><ele>4109.8</ele><time>2025-10-26T03:21:58Z</time></trkpt>
    <trkpt lat="28.599223" lon="84.618133"><ele>4112.0</ele><time>2025-10-26T03:22:21Z</time></trkpt>
    <trkpt lat="28.599219" lon="84.618137"><ele>4112.6</ele><time>2025-10-26T03:22:31Z</time></trkpt>
    <trkpt lat="28.599207" lon="84.617971"><ele>4117.8</ele><time>2025-10-26T03:23:08Z</time></trkpt>
    <trkpt lat="28.599271" lon="84.617996"><ele>4120.0</ele><time>2025-10-26T03:23:22Z</time></trkpt>
    <trkpt lat="28.599185" lon="84.617705"><ele>4127.0</ele><time>2025-10-26T03:24:25Z</time></trkpt>
    <trkpt lat="28.599200" lon="84.617610"><ele>4130.8</ele><time>2025-10-26T03:24:51Z</time></trkpt>
    <trkpt lat="28.599216" lon="84.617570"><ele>4131.4</ele><time>2025-10-26T03:24:55Z</time></trkpt>
    <trkpt lat="28.599298" lon="84.617630"><ele>4134.0</ele><time>2025-10-26T03:25:16Z</time></trkpt>
    <trkpt lat="28.599322" lon="84.617590"><ele>4135.8</ele><time>2025-10-26T03:25:34Z</time></trkpt>
    <trkpt lat="28.599393" lon="84.617636"><ele>4137.2</ele><time>2025-10-26T03:25:50Z</time></trkpt>
    <trkpt lat="28.599348" lon="84.617495"><ele>4142.8</ele><time>2025-10-26T03:26:32Z</time></trkpt>
    <trkpt lat="28.599354" lon="84.617427"><ele>4145.0</ele><time>2025-10-26T03:26:48Z</time></trkpt>
    <trkpt lat="28.599382" lon="84.617395"><ele>4146.0</ele><time>2025-10-26T03:27:11Z</time></trkpt>
    <trkpt lat="28.599360" lon="84.617435"><ele>4146.8</ele><time>2025-10-26T03:28:13Z</time></trkpt>
    <trkpt lat="28.599366" lon="84.617400"><ele>4146.8</ele><time>2025-10-26T03:28:20Z</time></trkpt>
    <trkpt lat="28.599368" lon="84.617312"><ele>4149.4</ele><time>2025-10-26T03:28:37Z</time></trkpt>
    <trkpt lat="28.599437" lon="84.617309"><ele>4152.0</ele><time>2025-10-26T03:28:51Z</time></trkpt>
    <trkpt lat="28.599468" lon="84.617119"><ele>4159.8</ele><time>2025-10-26T03:29:47Z</time></trkpt>
    <trkpt lat="28.599549" lon="84.617123"><ele>4162.2</ele><time>2025-10-26T03:30:09Z</time></trkpt>
    <trkpt lat="28.599560" lon="84.616831"><ele>4172.6</ele><time>2025-10-26T03:31:50Z</time></trkpt>
    <trkpt lat="28.599517" lon="84.616698"><ele>4174.8</ele><time>2025-10-26T03:32:15Z</time></trkpt>
    <trkpt lat="28.599519" lon="84.616480"><ele>4180.8</ele><time>2025-10-26T03:33:01Z</time></trkpt>
    <trkpt lat="28.599617" lon="84.616506"><ele>4184.2</ele><time>2025-10-26T03:33:35Z</time></trkpt>
    <trkpt lat="28.599649" lon="84.616509"><ele>4184.6</ele><time>2025-10-26T03:45:21Z</time></trkpt>
    <trkpt lat="28.599553" lon="84.616481"><ele>4183.4</ele><time>2025-10-26T03:46:03Z</time></trkpt>
    <trkpt lat="28.599555" lon="84.616453"><ele>4183.4</ele><time>2025-10-26T03:46:49Z</time></trkpt>
    <trkpt lat="28.599529" lon="84.616313"><ele>4184.0</ele><time>2025-10-26T03:47:20Z</time></trkpt>
    <trkpt lat="28.599574" lon="84.615906"><ele>4188.6</ele><time>2025-10-26T03:48:05Z</time></trkpt>
    <trkpt lat="28.599616" lon="84.615871"><ele>4189.0</ele><time>2025-10-26T03:48:12Z</time></trkpt>
    <trkpt lat="28.599589" lon="84.615845"><ele>4189.2</ele><time>2025-10-26T03:48:19Z</time></trkpt>
    <trkpt lat="28.599567" lon="84.615768"><ele>4192.0</ele><time>2025-10-26T03:48:38Z</time></trkpt>
    <trkpt lat="28.599671" lon="84.615739"><ele>4196.2</ele><time>2025-10-26T03:49:18Z</time></trkpt>
    <trkpt lat="28.599608" lon="84.615623"><ele>4200.8</ele><time>2025-10-26T03:49:52Z</time></trkpt>
    <trkpt lat="28.599670" lon="84.615323"><ele>4207.0</ele><time>2025-10-26T03:50:59Z</time></trkpt>
    <trkpt lat="28.599606" lon="84.614950"><ele>4219.6</ele><time>2025-10-26T03:52:48Z</time></trkpt>
    <trkpt lat="28.599539" lon="84.614865"><ele>4220.6</ele><time>2025-10-26T03:53:11Z</time></trkpt>
    <trkpt lat="28.599455" lon="84.614871"><ele>4221.6</ele><time>2025-10-26T03:53:26Z</time></trkpt>
    <trkpt lat="28.599312" lon="84.614758"><ele>4223.0</ele><time>2025-10-26T03:53:46Z</time></trkpt>
    <trkpt lat="28.599273" lon="84.614724"><ele>4224.8</ele><time>2025-10-26T03:53:59Z</time></trkpt>
    <trkpt lat="28.599165" lon="84.614687"><ele>4227.2</ele><time>2025-10-26T03:54:21Z</time></trkpt>
    <trkpt lat="28.599040" lon="84.614541"><ele>4230.2</ele><time>2025-10-26T03:54:51Z</time></trkpt>
    <trkpt lat="28.598989" lon="84.614381"><ele>4233.6</ele><time>2025-10-26T03:55:24Z</time></trkpt>
    <trkpt lat="28.598840" lon="84.614186"><ele>4238.0</ele><time>2025-10-26T03:56:12Z</time></trkpt>
    <trkpt lat="28.598817" lon="84.614173"><ele>4239.0</ele><time>2025-10-26T03:56:24Z</time></trkpt>
    <trkpt lat="28.598754" lon="84.614131"><ele>4239.2</ele><time>2025-10-26T03:56:32Z</time></trkpt>
    <trkpt lat="28.598682" lon="84.613999"><ele>4239.2</ele><time>2025-10-26T03:56:49Z</time></trkpt>
    <trkpt lat="28.598641" lon="84.613685"><ele>4238.0</ele><time>2025-10-26T03:57:23Z</time></trkpt>
    <trkpt lat="28.598487" lon="84.613437"><ele>4239.0</ele><time>2025-10-26T03:57:59Z</time></trkpt>
    <trkpt lat="28.598418" lon="84.613278"><ele>4243.8</ele><time>2025-10-26T03:58:31Z</time></trkpt>
    <trkpt lat="28.598405" lon="84.613144"><ele>4249.0</ele><time>2025-10-26T03:59:12Z</time></trkpt>
    <trkpt lat="28.598335" lon="84.612897"><ele>4252.8</ele><time>2025-10-26T04:00:11Z</time></trkpt>
    <trkpt lat="28.598141" lon="84.612841"><ele>4255.0</ele><time>2025-10-26T04:00:53Z</time></trkpt>
    <trkpt lat="28.598098" lon="84.612857"><ele>4256.0</ele><time>2025-10-26T04:01:09Z</time></trkpt>
    <trkpt lat="28.598027" lon="84.612913"><ele>4258.2</ele><time>2025-10-26T04:01:30Z</time></trkpt>
    <trkpt lat="28.597984" lon="84.612824"><ele>4261.2</ele><time>2025-10-26T04:01:51Z</time></trkpt>
    <trkpt lat="28.597893" lon="84.612784"><ele>4265.6</ele><time>2025-10-26T04:02:32Z</time></trkpt>
    <trkpt lat="28.597663" lon="84.612929"><ele>4272.6</ele><time>2025-10-26T04:03:44Z</time></trkpt>
    <trkpt lat="28.597584" lon="84.613039"><ele>4276.6</ele><time>2025-10-26T04:04:19Z</time></trkpt>
    <trkpt lat="28.597564" lon="84.613078"><ele>4277.2</ele><time>2025-10-26T04:04:37Z</time></trkpt>
    <trkpt lat="28.597410" lon="84.612859"><ele>4280.0</ele><time>2025-10-26T04:05:44Z</time></trkpt>
    <trkpt lat="28.597327" lon="84.612804"><ele>4280.2</ele><time>2025-10-26T04:05:56Z</time></trkpt>
    <trkpt lat="28.597254" lon="84.612784"><ele>4282.4</ele><time>2025-10-26T04:06:10Z</time></trkpt>
    <trkpt lat="28.597084" lon="84.612850"><ele>4286.0</ele><time>2025-10-26T04:06:42Z</time></trkpt>
    <trkpt lat="28.597062" lon="84.612840"><ele>4286.4</ele><time>2025-10-26T04:06:45Z</time></trkpt>
    <trkpt lat="28.596901" lon="84.612831"><ele>4286.4</ele><time>2025-10-26T04:07:02Z</time></trkpt>
    <trkpt lat="28.596761" lon="84.612729"><ele>4285.2</ele><time>2025-10-26T04:07:27Z</time></trkpt>
    <trkpt lat="28.596662" lon="84.612506"><ele>4285.2</ele><time>2025-10-26T04:08:00Z</time></trkpt>
    <trkpt lat="28.596448" lon="84.612434"><ele>4292.6</ele><time>2025-10-26T04:08:59Z</time></trkpt>
    <trkpt lat="28.596339" lon="84.612309"><ele>4298.0</ele><time>2025-10-26T04:09:47Z</time></trkpt>
    <trkpt lat="28.596166" lon="84.612244"><ele>4301.0</ele><time>2025-10-26T04:10:26Z</time></trkpt>
    <trkpt lat="28.595894" lon="84.612041"><ele>4310.0</ele><time>2025-10-26T04:11:56Z</time></trkpt>
    <trkpt lat="28.595856" lon="84.611974"><ele>4312.8</ele><time>2025-10-26T04:12:15Z</time></trkpt>
    <trkpt lat="28.595838" lon="84.611936"><ele>4314.8</ele><time>2025-10-26T04:12:44Z</time></trkpt>
    <trkpt lat="28.595723" lon="84.611961"><ele>4319.4</ele><time>2025-10-26T04:13:37Z</time></trkpt>
    <trkpt lat="28.595671" lon="84.611896"><ele>4322.8</ele><time>2025-10-26T04:14:51Z</time></trkpt>
    <trkpt lat="28.595600" lon="84.611749"><ele>4329.0</ele><time>2025-10-26T04:15:35Z</time></trkpt>
    <trkpt lat="28.595708" lon="84.611716"><ele>4334.2</ele><time>2025-10-26T04:16:30Z</time></trkpt>
    <trkpt lat="28.595684" lon="84.611669"><ele>4336.6</ele><time>2025-10-26T04:16:47Z</time></trkpt>
    <trkpt lat="28.595666" lon="84.611640"><ele>4336.8</ele><time>2025-10-26T04:16:54Z</time></trkpt>
    <trkpt lat="28.595720" lon="84.611621"><ele>4339.4</ele><time>2025-10-26T04:17:16Z</time></trkpt>
    <trkpt lat="28.595825" lon="84.611459"><ele>4347.4</ele><time>2025-10-26T04:18:24Z</time></trkpt>
    <trkpt lat="28.595920" lon="84.611492"><ele>4349.8</ele><time>2025-10-26T04:18:58Z</time></trkpt>
    <trkpt lat="28.596204" lon="84.611594"><ele>4360.2</ele><time>2025-10-26T04:20:50Z</time></trkpt>
    <trkpt lat="28.596192" lon="84.611544"><ele>4363.2</ele><time>2025-10-26T04:21:14Z</time></trkpt>
    <trkpt lat="28.596161" lon="84.611359"><ele>4371.0</ele><time>2025-10-26T04:22:34Z</time></trkpt>
    <trkpt lat="28.596071" lon="84.611134"><ele>4377.4</ele><time>2025-10-26T04:23:42Z</time></trkpt>
    <trkpt lat="28.595917" lon="84.610968"><ele>4386.0</ele><time>2025-10-26T04:25:00Z</time></trkpt>
    <trkpt lat="28.595830" lon="84.610962"><ele>4389.4</ele><time>2025-10-26T04:25:35Z</time></trkpt>
    <trkpt lat="28.595761" lon="84.611037"><ele>4391.4</ele><time>2025-10-26T04:26:03Z</time></trkpt>
    <trkpt lat="28.595589" lon="84.611017"><ele>4397.8</ele><time>2025-10-26T04:26:55Z</time></trkpt>
    <trkpt lat="28.595556" lon="84.611060"><ele>4399.0</ele><time>2025-10-26T04:27:07Z</time></trkpt>
    <trkpt lat="28.595530" lon="84.611054"><ele>4400.0</ele><time>2025-10-26T04:27:13Z</time></trkpt>
    <trkpt lat="28.595489" lon="84.610969"><ele>4401.0</ele><time>2025-10-26T04:27:53Z</time></trkpt>
    <trkpt lat="28.595532" lon="84.610945"><ele>4403.4</ele><time>2025-10-26T04:28:10Z</time></trkpt>
    <trkpt lat="28.595533" lon="84.610828"><ele>4406.8</ele><time>2025-10-26T04:28:40Z</time></trkpt>
    <trkpt lat="28.595637" lon="84.610799"><ele>4411.8</ele><time>2025-10-26T04:29:44Z</time></trkpt>
    <trkpt lat="28.595597" lon="84.610740"><ele>4413.8</ele><time>2025-10-26T04:29:59Z</time></trkpt>
    <trkpt lat="28.595611" lon="84.610636"><ele>4417.4</ele><time>2025-10-26T04:30:37Z</time></trkpt>
    <trkpt lat="28.595678" lon="84.610609"><ele>4422.8</ele><time>2025-10-26T04:31:25Z</time></trkpt>
    <trkpt lat="28.595648" lon="84.610610"><ele>4424.4</ele><time>2025-10-26T04:31:42Z</time></trkpt>
    <trkpt lat="28.595652" lon="84.610550"><ele>4425.2</ele><time>2025-10-26T04:31:54Z</time></trkpt>
    <trkpt lat="28.595693" lon="84.610586"><ele>4426.0</ele><time>2025-10-26T04:32:02Z</time></trkpt>
    <trkpt lat="28.595646" lon="84.610469"><ele>4429.8</ele><time>2025-10-26T04:32:50Z</time></trkpt>
    <trkpt lat="28.595662" lon="84.610461"><ele>4430.0</ele><time>2025-10-26T04:32:53Z</time></trkpt>
    <trkpt lat="28.595816" lon="84.610444"><ele>4438.2</ele><time>2025-10-26T04:34:13Z</time></trkpt>
    <trkpt lat="28.595750" lon="84.610378"><ele>4441.4</ele><time>2025-10-26T04:34:47Z</time></trkpt>
    <trkpt lat="28.595712" lon="84.610178"><ele>4447.4</ele><time>2025-10-26T04:35:49Z</time></trkpt>
    <trkpt lat="28.595879" lon="84.610235"><ele>4453.4</ele><time>2025-10-26T04:36:40Z</time></trkpt>
    <trkpt lat="28.595826" lon="84.610109"><ele>4457.6</ele><time>2025-10-26T04:37:22Z</time></trkpt>
    <trkpt lat="28.595912" lon="84.610165"><ele>4459.8</ele><time>2025-10-26T04:37:50Z</time></trkpt>
    <trkpt lat="28.595894" lon="84.610076"><ele>4462.4</ele><time>2025-10-26T04:38:10Z</time></trkpt>
    <trkpt lat="28.595916" lon="84.610108"><ele>4463.0</ele><time>2025-10-26T04:38:16Z</time></trkpt>
    <trkpt lat="28.595952" lon="84.610142"><ele>4464.6</ele><time>2025-10-26T04:38:42Z</time></trkpt>
    <trkpt lat="28.595947" lon="84.610014"><ele>4470.0</ele><time>2025-10-26T04:39:24Z</time></trkpt>
    <trkpt lat="28.596050" lon="84.610071"><ele>4473.2</ele><time>2025-10-26T04:40:01Z</time></trkpt>
    <trkpt lat="28.596022" lon="84.609916"><ele>4478.8</ele><time>2025-10-26T04:40:48Z</time></trkpt>
    <trkpt lat="28.596072" lon="84.609947"><ele>4480.8</ele><time>2025-10-26T04:41:04Z</time></trkpt>
    <trkpt lat="28.596064" lon="84.609889"><ele>4482.4</ele><time>2025-10-26T04:41:17Z</time></trkpt>
    <trkpt lat="28.596094" lon="84.609909"><ele>4483.0</ele><time>2025-10-26T04:41:26Z</time></trkpt>
    <trkpt lat="28.596092" lon="84.609890"><ele>4483.4</ele><time>2025-10-26T04:41:40Z</time></trkpt>
    <trkpt lat="28.596085" lon="84.609859"><ele>4484.4</ele><time>2025-10-26T04:41:47Z</time></trkpt>
    <trkpt lat="28.596124" lon="84.609872"><ele>4487.4</ele><time>2025-10-26T04:42:07Z</time></trkpt>
    <trkpt lat="28.596136" lon="84.609831"><ele>4488.4</ele><time>2025-10-26T04:42:14Z</time></trkpt>
    <trkpt lat="28.596173" lon="84.609875"><ele>4489.8</ele><time>2025-10-26T04:42:37Z</time></trkpt>
    <trkpt lat="28.596233" lon="84.609871"><ele>4493.0</ele><time>2025-10-26T04:43:01Z</time></trkpt>
    <trkpt lat="28.596233" lon="84.609754"><ele>4496.8</ele><time>2025-10-26T04:43:40Z</time></trkpt>
    <trkpt lat="28.596290" lon="84.609786"><ele>4498.8</ele><time>2025-10-26T04:43:55Z</time></trkpt>
    <trkpt lat="28.596292" lon="84.609707"><ele>4501.6</ele><time>2025-10-26T04:44:16Z</time></trkpt>
    <trkpt lat="28.596363" lon="84.609719"><ele>4502.4</ele><time>2025-10-26T04:44:33Z</time></trkpt>
    <trkpt lat="28.596333" lon="84.609643"><ele>4504.6</ele><time>2025-10-26T04:49:16Z</time></trkpt>
    <trkpt lat="28.596393" lon="84.609482"><ele>4512.6</ele><time>2025-10-26T04:50:09Z</time></trkpt>
    <trkpt lat="28.596377" lon="84.609376"><ele>4516.2</ele><time>2025-10-26T04:50:38Z</time></trkpt>
    <trkpt lat="28.596376" lon="84.609317"><ele>4518.2</ele><time>2025-10-26T04:51:16Z</time></trkpt>
    <trkpt lat="28.596440" lon="84.609328"><ele>4520.6</ele><time>2025-10-26T04:51:33Z</time></trkpt>
    <trkpt lat="28.596507" lon="84.609111"><ele>4528.2</ele><time>2025-10-26T04:53:09Z</time></trkpt>
    <trkpt lat="28.596363" lon="84.608785"><ele>4538.6</ele><time>2025-10-26T04:55:23Z</time></trkpt>
    <trkpt lat="28.596383" lon="84.608679"><ele>4542.0</ele><time>2025-10-26T04:55:57Z</time></trkpt>
    <trkpt lat="28.596291" lon="84.608565"><ele>4545.4</ele><time>2025-10-26T04:56:36Z</time></trkpt>
    <trkpt lat="28.596338" lon="84.608505"><ele>4548.2</ele><time>2025-10-26T04:56:53Z</time></trkpt>
    <trkpt lat="28.596356" lon="84.608539"><ele>4549.8</ele><time>2025-10-26T04:57:18Z</time></trkpt>
    <trkpt lat="28.596294" lon="84.608435"><ele>4553.6</ele><time>2025-10-26T04:57:56Z</time></trkpt>
    <trkpt lat="28.596293" lon="84.608407"><ele>4554.0</ele><time>2025-10-26T04:58:00Z</time></trkpt>
    <trkpt lat="28.596325" lon="84.608312"><ele>4555.0</ele><time>2025-10-26T04:58:58Z</time></trkpt>
    <trkpt lat="28.596195" lon="84.608300"><ele>4555.4</ele><time>2025-10-26T04:59:23Z</time></trkpt>
    <trkpt lat="28.596116" lon="84.608350"><ele>4556.0</ele><time>2025-10-26T04:59:39Z</time></trkpt>
    <trkpt lat="28.596042" lon="84.608285"><ele>4560.4</ele><time>2025-10-26T05:00:08Z</time></trkpt>
    <trkpt lat="28.596043" lon="84.608231"><ele>4562.6</ele><time>2025-10-26T05:00:33Z</time></trkpt>
    <trkpt lat="28.595948" lon="84.608256"><ele>4566.0</ele><time>2025-10-26T05:01:07Z</time></trkpt>
    <trkpt lat="28.595963" lon="84.608169"><ele>4567.4</ele><time>2025-10-26T05:01:25Z</time></trkpt>
    <trkpt lat="28.596120" lon="84.608081"><ele>4572.6</ele><time>2025-10-26T05:02:27Z</time></trkpt>
    <trkpt lat="28.596024" lon="84.608042"><ele>4575.2</ele><time>2025-10-26T05:02:54Z</time></trkpt>
    <trkpt lat="28.596015" lon="84.608043"><ele>4575.2</ele><time>2025-10-26T05:03:02Z</time></trkpt>
    <trkpt lat="28.596011" lon="84.608001"><ele>4576.0</ele><time>2025-10-26T05:03:46Z</time></trkpt>
    <trkpt lat="28.596001" lon="84.608032"><ele>4576.4</ele><time>2025-10-26T05:04:08Z</time></trkpt>
    <trkpt lat="28.595951" lon="84.608071"><ele>4577.6</ele><time>2025-10-26T05:04:20Z</time></trkpt>
    <trkpt lat="28.595900" lon="84.608060"><ele>4580.0</ele><time>2025-10-26T05:04:33Z</time></trkpt>
    <trkpt lat="28.595942" lon="84.607943"><ele>4583.4</ele><time>2025-10-26T05:04:57Z</time></trkpt>
    <trkpt lat="28.596100" lon="84.607851"><ele>4587.0</ele><time>2025-10-26T05:05:45Z</time></trkpt>
    <trkpt lat="28.595999" lon="84.607801"><ele>4591.6</ele><time>2025-10-26T05:06:41Z</time></trkpt>
    <trkpt lat="28.596106" lon="84.607689"><ele>4595.8</ele><time>2025-10-26T05:07:27Z</time></trkpt>
    <trkpt lat="28.596039" lon="84.607700"><ele>4598.4</ele><time>2025-10-26T05:07:52Z</time></trkpt>
    <trkpt lat="28.596013" lon="84.607722"><ele>4599.6</ele><time>2025-10-26T05:09:03Z</time></trkpt>
    <trkpt lat="28.595994" lon="84.607644"><ele>4601.0</ele><time>2025-10-26T05:10:27Z</time></trkpt>
    <trkpt lat="28.596000" lon="84.607671"><ele>4601.0</ele><time>2025-10-26T05:10:30Z</time></trkpt>
    <trkpt lat="28.596079" lon="84.607634"><ele>4603.0</ele><time>2025-10-26T05:10:46Z</time></trkpt>
    <trkpt lat="28.596017" lon="84.607618"><ele>4605.2</ele><time>2025-10-26T05:11:04Z</time></trkpt>
    <trkpt lat="28.596121" lon="84.607449"><ele>4611.6</ele><time>2025-10-26T05:12:10Z</time></trkpt>
    <trkpt lat="28.595799" lon="84.607461"><ele>4623.8</ele><time>2025-10-26T05:14:15Z</time></trkpt>
    <trkpt lat="28.595782" lon="84.607422"><ele>4625.4</ele><time>2025-10-26T05:14:25Z</time></trkpt>
    <trkpt lat="28.595771" lon="84.607396"><ele>4625.8</ele><time>2025-10-26T05:15:33Z</time></trkpt>
    <trkpt lat="28.595761" lon="84.607372"><ele>4627.0</ele><time>2025-10-26T05:15:45Z</time></trkpt>
    <trkpt lat="28.595836" lon="84.607174"><ele>4636.0</ele><time>2025-10-26T05:17:22Z</time></trkpt>
    <trkpt lat="28.595842" lon="84.607161"><ele>4636.2</ele><time>2025-10-26T05:17:25Z</time></trkpt>
    <trkpt lat="28.595753" lon="84.606942"><ele>4640.4</ele><time>2025-10-26T05:18:24Z</time></trkpt>
    <trkpt lat="28.595723" lon="84.606752"><ele>4643.4</ele><time>2025-10-26T05:19:01Z</time></trkpt>
    <trkpt lat="28.595612" lon="84.606681"><ele>4647.4</ele><time>2025-10-26T05:19:45Z</time></trkpt>
    <trkpt lat="28.595507" lon="84.606488"><ele>4653.2</ele><time>2025-10-26T05:20:40Z</time></trkpt>
    <trkpt lat="28.595388" lon="84.606146"><ele>4662.6</ele><time>2025-10-26T05:22:30Z</time></trkpt>
    <trkpt lat="28.595400" lon="84.606000"><ele>4665.4</ele><time>2025-10-26T05:22:59Z</time></trkpt>
    <trkpt lat="28.595390" lon="84.605975"><ele>4666.4</ele><time>2025-10-26T05:23:08Z</time></trkpt>
    <trkpt lat="28.595348" lon="84.605764"><ele>4671.2</ele><time>2025-10-26T05:24:06Z</time></trkpt>
    <trkpt lat="28.595241" lon="84.605612"><ele>4677.4</ele><time>2025-10-26T05:25:14Z</time></trkpt>
    <trkpt lat="28.595199" lon="84.605388"><ele>4682.8</ele><time>2025-10-26T05:26:09Z</time></trkpt>
    <trkpt lat="28.594996" lon="84.605113"><ele>4688.2</ele><time>2025-10-26T05:27:31Z</time></trkpt>
    <trkpt lat="28.594844" lon="84.604561"><ele>4695.8</ele><time>2025-10-26T05:29:16Z</time></trkpt>
    <trkpt lat="28.594845" lon="84.604453"><ele>4698.0</ele><time>2025-10-26T05:29:34Z</time></trkpt>
    <trkpt lat="28.594738" lon="84.604153"><ele>4706.8</ele><time>2025-10-26T05:31:52Z</time></trkpt>
    <trkpt lat="28.594678" lon="84.604128"><ele>4709.8</ele><time>2025-10-26T05:32:21Z</time></trkpt>
    <trkpt lat="28.594460" lon="84.603656"><ele>4721.8</ele><time>2025-10-26T05:34:40Z</time></trkpt>
    <trkpt lat="28.594380" lon="84.603602"><ele>4724.0</ele><time>2025-10-26T05:35:03Z</time></trkpt>
    <trkpt lat="28.594428" lon="84.603525"><ele>4726.4</ele><time>2025-10-26T05:35:44Z</time></trkpt>
    <trkpt lat="28.594439" lon="84.603396"><ele>4732.0</ele><time>2025-10-26T05:37:49Z</time></trkpt>
    <trkpt lat="28.594460" lon="84.603135"><ele>4743.2</ele><time>2025-10-26T05:39:14Z</time></trkpt>
    <trkpt lat="28.594645" lon="84.602959"><ele>4756.2</ele><time>2025-10-26T05:41:19Z</time></trkpt>
    <trkpt lat="28.594676" lon="84.602876"><ele>4761.0</ele><time>2025-10-26T05:41:47Z</time></trkpt>
    <trkpt lat="28.594690" lon="84.602883"><ele>4761.4</ele><time>2025-10-26T05:41:50Z</time></trkpt>
    <trkpt lat="28.594987" lon="84.603000"><ele>4770.4</ele><time>2025-10-26T05:43:58Z</time></trkpt>
    <trkpt lat="28.594993" lon="84.602984"><ele>4771.2</ele><time>2025-10-26T05:44:53Z</time></trkpt>
    <trkpt lat="28.595025" lon="84.603039"><ele>4771.8</ele><time>2025-10-26T05:45:23Z</time></trkpt>
    <trkpt lat="28.594976" lon="84.602958"><ele>4773.0</ele><time>2025-10-26T05:46:45Z</time></trkpt>
    <trkpt lat="28.594839" lon="84.602608"><ele>4785.0</ele><time>2025-10-26T05:48:28Z</time></trkpt>
    <trkpt lat="28.594829" lon="84.602528"><ele>4787.0</ele><time>2025-10-26T05:48:45Z</time></trkpt>
    <trkpt lat="28.594770" lon="84.602316"><ele>4794.4</ele><time>2025-10-26T05:50:14Z</time></trkpt>
    <trkpt lat="28.594735" lon="84.602091"><ele>4800.4</ele><time>2025-10-26T05:51:24Z</time></trkpt>
    <trkpt lat="28.594772" lon="84.601959"><ele>4804.8</ele><time>2025-10-26T05:52:23Z</time></trkpt>
    <trkpt lat="28.594756" lon="84.601855"><ele>4808.2</ele><time>2025-10-26T05:52:56Z</time></trkpt>
    <trkpt lat="28.594820" lon="84.601703"><ele>4811.6</ele><time>2025-10-26T05:53:48Z</time></trkpt>
    <trkpt lat="28.594762" lon="84.601416"><ele>4822.4</ele><time>2025-10-26T05:55:29Z</time></trkpt>
    <trkpt lat="28.594745" lon="84.601387"><ele>4823.4</ele><time>2025-10-26T05:55:37Z</time></trkpt>
    <trkpt lat="28.594602" lon="84.600989"><ele>4833.0</ele><time>2025-10-26T05:57:55Z</time></trkpt>
    <trkpt lat="28.594489" lon="84.600878"><ele>4836.6</ele><time>2025-10-26T05:58:47Z</time></trkpt>
    <trkpt lat="28.594398" lon="84.600672"><ele>4840.4</ele><time>2025-10-26T05:59:33Z</time></trkpt>
    <trkpt lat="28.594266" lon="84.600498"><ele>4842.8</ele><time>2025-10-26T06:00:25Z</time></trkpt>
    <trkpt lat="28.594277" lon="84.600441"><ele>4844.4</ele><time>2025-10-26T06:00:40Z</time></trkpt>
    <trkpt lat="28.594191" lon="84.600378"><ele>4848.4</ele><time>2025-10-26T06:01:21Z</time></trkpt>
    <trkpt lat="28.594159" lon="84.600277"><ele>4849.2</ele><time>2025-10-26T06:01:35Z</time></trkpt>
    <trkpt lat="28.594158" lon="84.600280"><ele>4849.4</ele><time>2025-10-26T06:01:37Z</time></trkpt>
    <trkpt lat="28.594158" lon="84.600280"><ele>4855.2</ele><time>2025-10-26T06:57:47Z</time></trkpt>
    <trkpt lat="28.594000" lon="84.600272"><ele>4855.2</ele><time>2025-10-26T06:57:53Z</time></trkpt>
    <trkpt lat="28.594141" lon="84.600215"><ele>4853.4</ele><time>2025-10-26T07:00:25Z</time></trkpt>
    <trkpt lat="28.594135" lon="84.600249"><ele>4853.4</ele><time>2025-10-26T07:00:40Z</time></trkpt>
    <trkpt lat="28.594194" lon="84.600399"><ele>4851.8</ele><time>2025-10-26T07:01:01Z</time></trkpt>
    <trkpt lat="28.594290" lon="84.600462"><ele>4848.6</ele><time>2025-10-26T07:01:14Z</time></trkpt>
    <trkpt lat="28.594521" lon="84.600872"><ele>4840.6</ele><time>2025-10-26T07:02:00Z</time></trkpt>
    <trkpt lat="28.594645" lon="84.601011"><ele>4837.8</ele><time>2025-10-26T07:02:26Z</time></trkpt>
    <trkpt lat="28.594725" lon="84.601193"><ele>4835.0</ele><time>2025-10-26T07:02:48Z</time></trkpt>
    <trkpt lat="28.594724" lon="84.601204"><ele>4834.8</ele><time>2025-10-26T07:02:49Z</time></trkpt>
    <trkpt lat="28.594859" lon="84.601720"><ele>4818.8</ele><time>2025-10-26T07:03:48Z</time></trkpt>
    <trkpt lat="28.594864" lon="84.601727"><ele>4818.4</ele><time>2025-10-26T07:03:49Z</time></trkpt>
    <trkpt lat="28.594816" lon="84.602046"><ele>4810.4</ele><time>2025-10-26T07:04:35Z</time></trkpt>
    <trkpt lat="28.594794" lon="84.602148"><ele>4808.0</ele><time>2025-10-26T07:04:44Z</time></trkpt>
    <trkpt lat="28.594821" lon="84.602433"><ele>4799.0</ele><time>2025-10-26T07:05:19Z</time></trkpt>
    <trkpt lat="28.594848" lon="84.602516"><ele>4795.8</ele><time>2025-10-26T07:05:31Z</time></trkpt>
    <trkpt lat="28.594888" lon="84.602625"><ele>4793.2</ele><time>2025-10-26T07:05:56Z</time></trkpt>
    <trkpt lat="28.595060" lon="84.603037"><ele>4779.6</ele><time>2025-10-26T07:06:41Z</time></trkpt>
    <trkpt lat="28.594874" lon="84.602949"><ele>4774.8</ele><time>2025-10-26T07:06:59Z</time></trkpt>
    <trkpt lat="28.594700" lon="84.602890"><ele>4770.4</ele><time>2025-10-26T07:07:19Z</time></trkpt>
    <trkpt lat="28.594521" lon="84.602913"><ele>4767.4</ele><time>2025-10-26T07:07:38Z</time></trkpt>
    <trkpt lat="28.594408" lon="84.602823"><ele>4763.6</ele><time>2025-10-26T07:07:51Z</time></trkpt>
    <trkpt lat="28.594290" lon="84.602802"><ele>4760.6</ele><time>2025-10-26T07:08:07Z</time></trkpt>
    <trkpt lat="28.594293" lon="84.602946"><ele>4756.6</ele><time>2025-10-26T07:08:33Z</time></trkpt>
    <trkpt lat="28.594297" lon="84.602942"><ele>4756.4</ele><time>2025-10-26T07:08:35Z</time></trkpt>
    <trkpt lat="28.594255" lon="84.603028"><ele>4754.4</ele><time>2025-10-26T07:09:29Z</time></trkpt>
    <trkpt lat="28.594241" lon="84.603063"><ele>4753.2</ele><time>2025-10-26T07:09:34Z</time></trkpt>
    <trkpt lat="28.594371" lon="84.603364"><ele>4743.4</ele><time>2025-10-26T07:10:18Z</time></trkpt>
    <trkpt lat="28.594432" lon="84.603420"><ele>4740.4</ele><time>2025-10-26T07:10:30Z</time></trkpt>
    <trkpt lat="28.594461" lon="84.603528"><ele>4737.2</ele><time>2025-10-26T07:10:45Z</time></trkpt>
    <trkpt lat="28.594446" lon="84.603602"><ele>4735.0</ele><time>2025-10-26T07:10:57Z</time></trkpt>
    <trkpt lat="28.594595" lon="84.603734"><ele>4729.8</ele><time>2025-10-26T07:11:34Z</time></trkpt>
    <trkpt lat="28.594622" lon="84.603796"><ele>4729.4</ele><time>2025-10-26T07:11:43Z</time></trkpt>
    <trkpt lat="28.594674" lon="84.603971"><ele>4723.6</ele><time>2025-10-26T07:12:03Z</time></trkpt>
    <trkpt lat="28.594788" lon="84.604113"><ele>4720.2</ele><time>2025-10-26T07:12:19Z</time></trkpt>
    <trkpt lat="28.595078" lon="84.605006"><ele>4700.8</ele><time>2025-10-26T07:13:46Z</time></trkpt>
    <trkpt lat="28.595252" lon="84.605214"><ele>4695.4</ele><time>2025-10-26T07:14:11Z</time></trkpt>
    <trkpt lat="28.595453" lon="84.605757"><ele>4679.4</ele><time>2025-10-26T07:15:18Z</time></trkpt>
    <trkpt lat="28.595472" lon="84.606012"><ele>4673.8</ele><time>2025-10-26T07:15:42Z</time></trkpt>
    <trkpt lat="28.595562" lon="84.606294"><ele>4667.0</ele><time>2025-10-26T07:16:06Z</time></trkpt>
    <trkpt lat="28.595558" lon="84.606323"><ele>4666.4</ele><time>2025-10-26T07:17:05Z</time></trkpt>
    <trkpt lat="28.595578" lon="84.606306"><ele>4666.2</ele><time>2025-10-26T07:17:36Z</time></trkpt>
    <trkpt lat="28.595594" lon="84.606352"><ele>4665.0</ele><time>2025-10-26T07:18:13Z</time></trkpt>
    <trkpt lat="28.595661" lon="84.606495"><ele>4661.8</ele><time>2025-10-26T07:18:28Z</time></trkpt>
    <trkpt lat="28.595683" lon="84.606521"><ele>4660.6</ele><time>2025-10-26T07:18:32Z</time></trkpt>
    <trkpt lat="28.595815" lon="84.606641"><ele>4656.8</ele><time>2025-10-26T07:19:07Z</time></trkpt>
    <trkpt lat="28.595864" lon="84.606857"><ele>4653.6</ele><time>2025-10-26T07:19:29Z</time></trkpt>
    <trkpt lat="28.595900" lon="84.606999"><ele>4650.0</ele><time>2025-10-26T07:19:44Z</time></trkpt>
    <trkpt lat="28.595865" lon="84.607011"><ele>4648.6</ele><time>2025-10-26T07:19:49Z</time></trkpt>
    <trkpt lat="28.595808" lon="84.606925"><ele>4646.8</ele><time>2025-10-26T07:19:58Z</time></trkpt>
    <trkpt lat="28.595761" lon="84.606915"><ele>4644.6</ele><time>2025-10-26T07:20:06Z</time></trkpt>
    <trkpt lat="28.595840" lon="84.607219"><ele>4639.6</ele><time>2025-10-26T07:20:30Z</time></trkpt>
    <trkpt lat="28.595870" lon="84.607305"><ele>4637.2</ele><time>2025-10-26T07:20:56Z</time></trkpt>
    <trkpt lat="28.595894" lon="84.607294"><ele>4636.6</ele><time>2025-10-26T07:21:24Z</time></trkpt>
    <trkpt lat="28.596203" lon="84.607272"><ele>4626.0</ele><time>2025-10-26T07:22:05Z</time></trkpt>
    <trkpt lat="28.596081" lon="84.607461"><ele>4620.4</ele><time>2025-10-26T07:22:28Z</time></trkpt>
    <trkpt lat="28.596152" lon="84.607469"><ele>4618.8</ele><time>2025-10-26T07:22:43Z</time></trkpt>
    <trkpt lat="28.596061" lon="84.607535"><ele>4616.0</ele><time>2025-10-26T07:22:53Z</time></trkpt>
    <trkpt lat="28.596174" lon="84.607566"><ele>4612.6</ele><time>2025-10-26T07:23:18Z</time></trkpt>
    <trkpt lat="28.596058" lon="84.607647"><ele>4609.2</ele><time>2025-10-26T07:23:34Z</time></trkpt>
    <trkpt lat="28.596055" lon="84.607645"><ele>4608.4</ele><time>2025-10-26T07:23:58Z</time></trkpt>
    <trkpt lat="28.596096" lon="84.607646"><ele>4608.0</ele><time>2025-10-26T07:24:16Z</time></trkpt>
    <trkpt lat="28.596104" lon="84.607650"><ele>4607.6</ele><time>2025-10-26T07:24:17Z</time></trkpt>
    <trkpt lat="28.596170" lon="84.607731"><ele>4604.4</ele><time>2025-10-26T07:24:31Z</time></trkpt>
    <trkpt lat="28.596074" lon="84.607769"><ele>4601.4</ele><time>2025-10-26T07:24:47Z</time></trkpt>
    <trkpt lat="28.596009" lon="84.607835"><ele>4600.0</ele><time>2025-10-26T07:24:56Z</time></trkpt>
    <trkpt lat="28.595970" lon="84.607906"><ele>4597.0</ele><time>2025-10-26T07:25:09Z</time></trkpt>
    <trkpt lat="28.596077" lon="84.607872"><ele>4594.4</ele><time>2025-10-26T07:25:23Z</time></trkpt>
    <trkpt lat="28.596162" lon="84.607936"><ele>4592.0</ele><time>2025-10-26T07:25:36Z</time></trkpt>
    <trkpt lat="28.596160" lon="84.607963"><ele>4591.0</ele><time>2025-10-26T07:25:41Z</time></trkpt>
    <trkpt lat="28.596038" lon="84.608060"><ele>4585.0</ele><time>2025-10-26T07:26:02Z</time></trkpt>
    <trkpt lat="28.596032" lon="84.608092"><ele>4584.0</ele><time>2025-10-26T07:26:09Z</time></trkpt>
    <trkpt lat="28.596117" lon="84.608084"><ele>4581.6</ele><time>2025-10-26T07:26:20Z</time></trkpt>
    <trkpt lat="28.596089" lon="84.608145"><ele>4579.0</ele><time>2025-10-26T07:26:30Z</time></trkpt>
    <trkpt lat="28.596161" lon="84.608190"><ele>4576.0</ele><time>2025-10-26T07:26:48Z</time></trkpt>
    <trkpt lat="28.596206" lon="84.608160"><ele>4574.2</ele><time>2025-10-26T07:27:00Z</time></trkpt>
    <trkpt lat="28.596265" lon="84.608134"><ele>4573.6</ele><time>2025-10-26T07:27:08Z</time></trkpt>
    <trkpt lat="28.596397" lon="84.608164"><ele>4573.4</ele><time>2025-10-26T07:27:21Z</time></trkpt>
    <trkpt lat="28.596391" lon="84.608301"><ele>4572.8</ele><time>2025-10-26T07:27:34Z</time></trkpt>
    <trkpt lat="28.596377" lon="84.608323"><ele>4572.2</ele><time>2025-10-26T07:27:38Z</time></trkpt>
    <trkpt lat="28.596430" lon="84.608439"><ele>4566.8</ele><time>2025-10-26T07:28:13Z</time></trkpt>
    <trkpt lat="28.596414" lon="84.608448"><ele>4566.2</ele><time>2025-10-26T07:28:16Z</time></trkpt>
    <trkpt lat="28.596403" lon="84.608519"><ele>4564.0</ele><time>2025-10-26T07:28:31Z</time></trkpt>
    <trkpt lat="28.596446" lon="84.608557"><ele>4562.0</ele><time>2025-10-26T07:28:40Z</time></trkpt>
    <trkpt lat="28.596445" lon="84.608667"><ele>4557.4</ele><time>2025-10-26T07:28:57Z</time></trkpt>
    <trkpt lat="28.596488" lon="84.608751"><ele>4556.4</ele><time>2025-10-26T07:29:18Z</time></trkpt>
    <trkpt lat="28.596529" lon="84.609070"><ele>4548.8</ele><time>2025-10-26T07:30:01Z</time></trkpt>
    <trkpt lat="28.596514" lon="84.609222"><ele>4540.0</ele><time>2025-10-26T07:30:45Z</time></trkpt>
    <trkpt lat="28.596506" lon="84.609250"><ele>4539.0</ele><time>2025-10-26T07:30:53Z</time></trkpt>
    <trkpt lat="28.596460" lon="84.609246"><ele>4537.8</ele><time>2025-10-26T07:32:32Z</time></trkpt>
    <trkpt lat="28.596464" lon="84.609253"><ele>4537.4</ele><time>2025-10-26T07:32:38Z</time></trkpt>
    <trkpt lat="28.596453" lon="84.609532"><ele>4527.8</ele><time>2025-10-26T07:33:12Z</time></trkpt>
    <trkpt lat="28.596349" lon="84.609695"><ele>4521.2</ele><time>2025-10-26T07:33:38Z</time></trkpt>
    <trkpt lat="28.596263" lon="84.609557"><ele>4516.4</ele><time>2025-10-26T07:33:56Z</time></trkpt>
    <trkpt lat="28.596176" lon="84.609532"><ele>4512.2</ele><time>2025-10-26T07:34:14Z</time></trkpt>
    <trkpt lat="28.596115" lon="84.609813"><ele>4503.8</ele><time>2025-10-26T07:34:57Z</time></trkpt>
    <trkpt lat="28.596117" lon="84.609923"><ele>4499.6</ele><time>2025-10-26T07:35:13Z</time></trkpt>
    <trkpt lat="28.596124" lon="84.609988"><ele>4497.6</ele><time>2025-10-26T07:35:23Z</time></trkpt>
    <trkpt lat="28.596028" lon="84.609954"><ele>4492.2</ele><time>2025-10-26T07:35:42Z</time></trkpt>
    <trkpt lat="28.596048" lon="84.610064"><ele>4489.2</ele><time>2025-10-26T07:36:11Z</time></trkpt>
    <trkpt lat="28.595978" lon="84.610032"><ele>4485.4</ele><time>2025-10-26T07:36:27Z</time></trkpt>
    <trkpt lat="28.595998" lon="84.610111"><ele>4483.4</ele><time>2025-10-26T07:37:02Z</time></trkpt>
    <trkpt lat="28.595938" lon="84.610125"><ele>4479.2</ele><time>2025-10-26T07:37:20Z</time></trkpt>
    <trkpt lat="28.595930" lon="84.610194"><ele>4475.6</ele><time>2025-10-26T07:37:40Z</time></trkpt>
    <trkpt lat="28.595796" lon="84.610140"><ele>4470.8</ele><time>2025-10-26T07:38:06Z</time></trkpt>
    <trkpt lat="28.595827" lon="84.610321"><ele>4465.8</ele><time>2025-10-26T07:38:32Z</time></trkpt>
    <trkpt lat="28.595853" lon="84.610338"><ele>4463.6</ele><time>2025-10-26T07:38:46Z</time></trkpt>
    <trkpt lat="28.595884" lon="84.610384"><ele>4461.4</ele><time>2025-10-26T07:39:01Z</time></trkpt>
    <trkpt lat="28.595722" lon="84.610437"><ele>4454.2</ele><time>2025-10-26T07:39:49Z</time></trkpt>
    <trkpt lat="28.595757" lon="84.610495"><ele>4451.4</ele><time>2025-10-26T07:40:01Z</time></trkpt>
    <trkpt lat="28.595716" lon="84.610508"><ele>4449.0</ele><time>2025-10-26T07:40:10Z</time></trkpt>
    <trkpt lat="28.595753" lon="84.610553"><ele>4446.4</ele><time>2025-10-26T07:40:30Z</time></trkpt>
    <trkpt lat="28.595699" lon="84.610555"><ele>4445.8</ele><time>2025-10-26T07:40:35Z</time></trkpt>
    <trkpt lat="28.595699" lon="84.610581"><ele>4442.2</ele><time>2025-10-26T07:40:54Z</time></trkpt>
    <trkpt lat="28.595672" lon="84.610665"><ele>4439.0</ele><time>2025-10-26T07:41:58Z</time></trkpt>
    <trkpt lat="28.595669" lon="84.610668"><ele>4438.2</ele><time>2025-10-26T07:42:01Z</time></trkpt>
    <trkpt lat="28.595707" lon="84.610760"><ele>4435.6</ele><time>2025-10-26T07:42:14Z</time></trkpt>
    <trkpt lat="28.595590" lon="84.610845"><ele>4429.4</ele><time>2025-10-26T07:42:44Z</time></trkpt>
    <trkpt lat="28.595598" lon="84.610904"><ele>4427.0</ele><time>2025-10-26T07:42:58Z</time></trkpt>
    <trkpt lat="28.595574" lon="84.610955"><ele>4425.0</ele><time>2025-10-26T07:43:20Z</time></trkpt>
    <trkpt lat="28.595582" lon="84.610963"><ele>4424.6</ele><time>2025-10-26T07:43:22Z</time></trkpt>
    <trkpt lat="28.595702" lon="84.610914"><ele>4421.2</ele><time>2025-10-26T07:43:41Z</time></trkpt>
    <trkpt lat="28.595776" lon="84.610940"><ele>4417.8</ele><time>2025-10-26T07:43:52Z</time></trkpt>
    <trkpt lat="28.595880" lon="84.610862"><ele>4414.2</ele><time>2025-10-26T07:44:11Z</time></trkpt>
    <trkpt lat="28.595965" lon="84.610857"><ele>4412.0</ele><time>2025-10-26T07:44:26Z</time></trkpt>
    <trkpt lat="28.596153" lon="84.611110"><ele>4401.0</ele><time>2025-10-26T07:45:28Z</time></trkpt>
    <trkpt lat="28.596250" lon="84.611405"><ele>4391.8</ele><time>2025-10-26T07:46:19Z</time></trkpt>
    <trkpt lat="28.596235" lon="84.611462"><ele>4389.0</ele><time>2025-10-26T07:46:33Z</time></trkpt>
    <trkpt lat="28.596283" lon="84.611541"><ele>4385.8</ele><time>2025-10-26T07:46:46Z</time></trkpt>
    <trkpt lat="28.596170" lon="84.611552"><ele>4381.6</ele><time>2025-10-26T07:47:06Z</time></trkpt>
    <trkpt lat="28.595936" lon="84.611449"><ele>4372.8</ele><time>2025-10-26T07:47:53Z</time></trkpt>
    <trkpt lat="28.595889" lon="84.611421"><ele>4371.8</ele><time>2025-10-26T07:49:30Z</time></trkpt>
    <trkpt lat="28.595812" lon="84.611579"><ele>4364.2</ele><time>2025-10-26T07:50:14Z</time></trkpt>
    <trkpt lat="28.595782" lon="84.611594"><ele>4363.4</ele><time>2025-10-26T07:50:22Z</time></trkpt>
    <trkpt lat="28.595734" lon="84.611603"><ele>4362.0</ele><time>2025-10-26T07:50:28Z</time></trkpt>
    <trkpt lat="28.595764" lon="84.611664"><ele>4359.0</ele><time>2025-10-26T07:50:41Z</time></trkpt>
    <trkpt lat="28.595654" lon="84.611710"><ele>4354.0</ele><time>2025-10-26T07:51:03Z</time></trkpt>
    <trkpt lat="28.595732" lon="84.611851"><ele>4347.2</ele><time>2025-10-26T07:51:42Z</time></trkpt>
    <trkpt lat="28.595917" lon="84.611901"><ele>4339.8</ele><time>2025-10-26T07:52:18Z</time></trkpt>
    <trkpt lat="28.595938" lon="84.611991"><ele>4336.2</ele><time>2025-10-26T07:52:37Z</time></trkpt>
    <trkpt lat="28.596410" lon="84.612269"><ele>4323.0</ele><time>2025-10-26T07:53:54Z</time></trkpt>
    <trkpt lat="28.596493" lon="84.612363"><ele>4319.2</ele><time>2025-10-26T07:54:14Z</time></trkpt>
    <trkpt lat="28.596695" lon="84.612448"><ele>4312.2</ele><time>2025-10-26T07:54:56Z</time></trkpt>
    <trkpt lat="28.596716" lon="84.612467"><ele>4311.4</ele><time>2025-10-26T07:55:00Z</time></trkpt>
    <trkpt lat="28.596803" lon="84.612659"><ele>4311.2</ele><time>2025-10-26T07:55:20Z</time></trkpt>
    <trkpt lat="28.596919" lon="84.612759"><ele>4312.8</ele><time>2025-10-26T07:55:46Z</time></trkpt>
    <trkpt lat="28.597058" lon="84.612782"><ele>4312.6</ele><time>2025-10-26T07:56:09Z</time></trkpt>
    <trkpt lat="28.597112" lon="84.612794"><ele>4312.2</ele><time>2025-10-26T07:56:13Z</time></trkpt>
    <trkpt lat="28.597298" lon="84.612733"><ele>4308.2</ele><time>2025-10-26T07:56:33Z</time></trkpt>
    <trkpt lat="28.597369" lon="84.612748"><ele>4306.4</ele><time>2025-10-26T07:56:43Z</time></trkpt>
    <trkpt lat="28.597612" lon="84.613038"><ele>4303.0</ele><time>2025-10-26T07:57:21Z</time></trkpt>
    <trkpt lat="28.597666" lon="84.612956"><ele>4301.0</ele><time>2025-10-26T07:57:38Z</time></trkpt>
    <trkpt lat="28.597684" lon="84.612923"><ele>4300.0</ele><time>2025-10-26T07:57:44Z</time></trkpt>
    <trkpt lat="28.597903" lon="84.612725"><ele>4291.4</ele><time>2025-10-26T07:58:27Z</time></trkpt>
    <trkpt lat="28.597918" lon="84.612721"><ele>4291.0</ele><time>2025-10-26T07:58:29Z</time></trkpt>
    <trkpt lat="28.598034" lon="84.612767"><ele>4287.4</ele><time>2025-10-26T07:59:01Z</time></trkpt>
    <trkpt lat="28.598059" lon="84.612811"><ele>4286.4</ele><time>2025-10-26T07:59:06Z</time></trkpt>
    <trkpt lat="28.598024" lon="84.612877"><ele>4283.4</ele><time>2025-10-26T07:59:21Z</time></trkpt>
    <trkpt lat="28.598109" lon="84.612876"><ele>4281.4</ele><time>2025-10-26T07:59:37Z</time></trkpt>
    <trkpt lat="28.598176" lon="84.612780"><ele>4280.6</ele><time>2025-10-26T08:00:08Z</time></trkpt>
    <trkpt lat="28.598400" lon="84.612865"><ele>4278.0</ele><time>2025-10-26T08:00:43Z</time></trkpt>
    <trkpt lat="28.598491" lon="84.613183"><ele>4272.8</ele><time>2025-10-26T08:01:51Z</time></trkpt>
    <trkpt lat="28.598538" lon="84.613399"><ele>4265.4</ele><time>2025-10-26T08:02:26Z</time></trkpt>
    <trkpt lat="28.598576" lon="84.613437"><ele>4264.6</ele><time>2025-10-26T08:02:31Z</time></trkpt>
    <trkpt lat="28.598718" lon="84.613719"><ele>4264.6</ele><time>2025-10-26T08:02:55Z</time></trkpt>
    <trkpt lat="28.598764" lon="84.614036"><ele>4264.0</ele><time>2025-10-26T08:03:29Z</time></trkpt>
    <trkpt lat="28.598876" lon="84.614141"><ele>4264.0</ele><time>2025-10-26T08:03:45Z</time></trkpt>
    <trkpt lat="28.599080" lon="84.614392"><ele>4258.4</ele><time>2025-10-26T08:04:17Z</time></trkpt>
    <trkpt lat="28.599083" lon="84.614503"><ele>4256.4</ele><time>2025-10-26T08:04:30Z</time></trkpt>
    <trkpt lat="28.599166" lon="84.614590"><ele>4254.4</ele><time>2025-10-26T08:04:43Z</time></trkpt>
    <trkpt lat="28.599332" lon="84.614679"><ele>4249.6</ele><time>2025-10-26T08:05:08Z</time></trkpt>
    <trkpt lat="28.599482" lon="84.614822"><ele>4247.6</ele><time>2025-10-26T08:05:28Z</time></trkpt>
    <trkpt lat="28.599610" lon="84.614824"><ele>4245.8</ele><time>2025-10-26T08:05:44Z</time></trkpt>
    <trkpt lat="28.599685" lon="84.614980"><ele>4242.8</ele><time>2025-10-26T08:06:05Z</time></trkpt>
    <trkpt lat="28.599706" lon="84.615113"><ele>4238.6</ele><time>2025-10-26T08:06:34Z</time></trkpt>
    <trkpt lat="28.599743" lon="84.615305"><ele>4232.8</ele><time>2025-10-26T08:07:01Z</time></trkpt>
    <trkpt lat="28.599685" lon="84.615614"><ele>4226.2</ele><time>2025-10-26T08:07:38Z</time></trkpt>
    <trkpt lat="28.599721" lon="84.615742"><ele>4221.2</ele><time>2025-10-26T08:08:01Z</time></trkpt>
    <trkpt lat="28.599655" lon="84.615746"><ele>4218.0</ele><time>2025-10-26T08:08:14Z</time></trkpt>
    <trkpt lat="28.599676" lon="84.615858"><ele>4214.4</ele><time>2025-10-26T08:08:35Z</time></trkpt>
    <trkpt lat="28.599632" lon="84.616086"><ele>4211.4</ele><time>2025-10-26T08:08:53Z</time></trkpt>
    <trkpt lat="28.599611" lon="84.616239"><ele>4211.4</ele><time>2025-10-26T08:09:04Z</time></trkpt>
    <trkpt lat="28.599625" lon="84.616383"><ele>4211.4</ele><time>2025-10-26T08:09:18Z</time></trkpt>
    <trkpt lat="28.599711" lon="84.616452"><ele>4212.0</ele><time>2025-10-26T08:09:36Z</time></trkpt>
    <trkpt lat="28.599660" lon="84.616434"><ele>4212.0</ele><time>2025-10-26T08:29:39Z</time></trkpt>
    <trkpt lat="28.599647" lon="84.616447"><ele>4212.0</ele><time>2025-10-26T08:29:44Z</time></trkpt>
    <trkpt lat="28.599629" lon="84.616481"><ele>4210.2</ele><time>2025-10-26T08:29:59Z</time></trkpt>
    <trkpt lat="28.599601" lon="84.616453"><ele>4209.0</ele><time>2025-10-26T08:30:10Z</time></trkpt>
    <trkpt lat="28.599601" lon="84.616489"><ele>4208.8</ele><time>2025-10-26T08:30:17Z</time></trkpt>
    <trkpt lat="28.599589" lon="84.616637"><ele>4204.0</ele><time>2025-10-26T08:30:39Z</time></trkpt>
    <trkpt lat="28.599649" lon="84.616806"><ele>4200.6</ele><time>2025-10-26T08:30:58Z</time></trkpt>
    <trkpt lat="28.599630" lon="84.617084"><ele>4191.8</ele><time>2025-10-26T08:31:37Z</time></trkpt>
    <trkpt lat="28.599599" lon="84.617118"><ele>4190.0</ele><time>2025-10-26T08:31:49Z</time></trkpt>
    <trkpt lat="28.599548" lon="84.617095"><ele>4188.2</ele><time>2025-10-26T08:32:00Z</time></trkpt>
    <trkpt lat="28.599570" lon="84.617241"><ele>4184.4</ele><time>2025-10-26T08:32:19Z</time></trkpt>
    <trkpt lat="28.599531" lon="84.617235"><ele>4183.6</ele><time>2025-10-26T08:32:24Z</time></trkpt>
    <trkpt lat="28.599503" lon="84.617292"><ele>4181.2</ele><time>2025-10-26T08:32:36Z</time></trkpt>
    <trkpt lat="28.599463" lon="84.617271"><ele>4179.2</ele><time>2025-10-26T08:32:48Z</time></trkpt>
    <trkpt lat="28.599423" lon="84.617464"><ele>4172.4</ele><time>2025-10-26T08:33:28Z</time></trkpt>
    <trkpt lat="28.599457" lon="84.617616"><ele>4166.8</ele><time>2025-10-26T08:33:53Z</time></trkpt>
    <trkpt lat="28.599276" lon="84.617560"><ele>4160.4</ele><time>2025-10-26T08:34:28Z</time></trkpt>
    <trkpt lat="28.599269" lon="84.617711"><ele>4155.4</ele><time>2025-10-26T08:34:56Z</time></trkpt>
    <trkpt lat="28.599338" lon="84.617939"><ele>4151.2</ele><time>2025-10-26T08:35:27Z</time></trkpt>
    <trkpt lat="28.599340" lon="84.617957"><ele>4150.4</ele><time>2025-10-26T08:35:30Z</time></trkpt>
    <trkpt lat="28.599285" lon="84.617945"><ele>4147.2</ele><time>2025-10-26T08:35:43Z</time></trkpt>
    <trkpt lat="28.599287" lon="84.618115"><ele>4141.4</ele><time>2025-10-26T08:36:20Z</time></trkpt>
    <trkpt lat="28.599220" lon="84.618123"><ele>4138.2</ele><time>2025-10-26T08:36:35Z</time></trkpt>
    <trkpt lat="28.599216" lon="84.618132"><ele>4138.0</ele><time>2025-10-26T08:36:37Z</time></trkpt>
    <trkpt lat="28.599232" lon="84.618188"><ele>4136.6</ele><time>2025-10-26T08:37:05Z</time></trkpt>
    <trkpt lat="28.599343" lon="84.618519"><ele>4127.4</ele><time>2025-10-26T08:37:51Z</time></trkpt>
    <trkpt lat="28.599379" lon="84.618782"><ele>4119.0</ele><time>2025-10-26T08:38:28Z</time></trkpt>
    <trkpt lat="28.599380" lon="84.618925"><ele>4114.8</ele><time>2025-10-26T08:38:56Z</time></trkpt>
    <trkpt lat="28.599383" lon="84.619220"><ele>4107.2</ele><time>2025-10-26T08:39:49Z</time></trkpt>
    <trkpt lat="28.599379" lon="84.619359"><ele>4102.2</ele><time>2025-10-26T08:40:12Z</time></trkpt>
    <trkpt lat="28.599431" lon="84.619482"><ele>4099.6</ele><time>2025-10-26T08:40:32Z</time></trkpt>
    <trkpt lat="28.599451" lon="84.619715"><ele>4094.2</ele><time>2025-10-26T08:41:03Z</time></trkpt>
    <trkpt lat="28.599405" lon="84.619842"><ele>4088.2</ele><time>2025-10-26T08:41:37Z</time></trkpt>
    <trkpt lat="28.599403" lon="84.619826"><ele>4087.4</ele><time>2025-10-26T08:41:55Z</time></trkpt>
    <trkpt lat="28.599412" lon="84.619888"><ele>4086.0</ele><time>2025-10-26T08:43:01Z</time></trkpt>
    <trkpt lat="28.599433" lon="84.620103"><ele>4079.2</ele><time>2025-10-26T08:43:26Z</time></trkpt>
    <trkpt lat="28.599389" lon="84.620190"><ele>4077.4</ele><time>2025-10-26T08:43:35Z</time></trkpt>
    <trkpt lat="28.599357" lon="84.620083"><ele>4074.6</ele><time>2025-10-26T08:43:50Z</time></trkpt>
    <trkpt lat="28.599306" lon="84.620050"><ele>4072.6</ele><time>2025-10-26T08:43:58Z</time></trkpt>
    <trkpt lat="28.599187" lon="84.619986"><ele>4069.2</ele><time>2025-10-26T08:44:17Z</time></trkpt>
    <trkpt lat="28.599178" lon="84.620292"><ele>4059.2</ele><time>2025-10-26T08:45:15Z</time></trkpt>
    <trkpt lat="28.599138" lon="84.620326"><ele>4055.8</ele><time>2025-10-26T08:45:32Z</time></trkpt>
    <trkpt lat="28.599158" lon="84.620484"><ele>4049.6</ele><time>2025-10-26T08:46:18Z</time></trkpt>
    <trkpt lat="28.599106" lon="84.620499"><ele>4046.6</ele><time>2025-10-26T08:46:42Z</time></trkpt>
    <trkpt lat="28.599122" lon="84.620569"><ele>4045.0</ele><time>2025-10-26T08:46:57Z</time></trkpt>
    <trkpt lat="28.599114" lon="84.620762"><ele>4038.2</ele><time>2025-10-26T08:47:27Z</time></trkpt>
    <trkpt lat="28.599025" lon="84.621084"><ele>4024.0</ele><time>2025-10-26T08:48:30Z</time></trkpt>
    <trkpt lat="28.599050" lon="84.621216"><ele>4020.2</ele><time>2025-10-26T08:48:48Z</time></trkpt>
    <trkpt lat="28.598965" lon="84.621203"><ele>4016.4</ele><time>2025-10-26T08:49:06Z</time></trkpt>
    <trkpt lat="28.598968" lon="84.621303"><ele>4012.2</ele><time>2025-10-26T08:49:32Z</time></trkpt>
    <trkpt lat="28.598901" lon="84.621322"><ele>4008.8</ele><time>2025-10-26T08:49:49Z</time></trkpt>
    <trkpt lat="28.598846" lon="84.621333"><ele>4007.2</ele><time>2025-10-26T08:50:17Z</time></trkpt>
    <trkpt lat="28.598858" lon="84.621406"><ele>4004.4</ele><time>2025-10-26T08:50:30Z</time></trkpt>
    <trkpt lat="28.598997" lon="84.621547"><ele>3998.8</ele><time>2025-10-26T08:51:07Z</time></trkpt>
    <trkpt lat="28.599201" lon="84.621909"><ele>3989.0</ele><time>2025-10-26T08:51:57Z</time></trkpt>
    <trkpt lat="28.599216" lon="84.621928"><ele>3988.2</ele><time>2025-10-26T08:53:11Z</time></trkpt>
    <trkpt lat="28.599218" lon="84.621954"><ele>3988.0</ele><time>2025-10-26T08:53:14Z</time></trkpt>
    <trkpt lat="28.599203" lon="84.622066"><ele>3984.8</ele><time>2025-10-26T08:53:26Z</time></trkpt>
    <trkpt lat="28.599235" lon="84.622141"><ele>3982.0</ele><time>2025-10-26T08:53:36Z</time></trkpt>
    <trkpt lat="28.599096" lon="84.622137"><ele>3974.6</ele><time>2025-10-26T08:54:00Z</time></trkpt>
    <trkpt lat="28.599149" lon="84.622257"><ele>3970.8</ele><time>2025-10-26T08:54:17Z</time></trkpt>
    <trkpt lat="28.599101" lon="84.622295"><ele>3967.8</ele><time>2025-10-26T08:54:27Z</time></trkpt>
    <trkpt lat="28.598948" lon="84.622280"><ele>3961.2</ele><time>2025-10-26T08:55:05Z</time></trkpt>
    <trkpt lat="28.598945" lon="84.622365"><ele>3957.2</ele><time>2025-10-26T08:55:25Z</time></trkpt>
    <trkpt lat="28.599000" lon="84.622448"><ele>3954.0</ele><time>2025-10-26T08:55:43Z</time></trkpt>
    <trkpt lat="28.598964" lon="84.622465"><ele>3951.4</ele><time>2025-10-26T08:55:50Z</time></trkpt>
    <trkpt lat="28.598983" lon="84.622549"><ele>3948.0</ele><time>2025-10-26T08:56:09Z</time></trkpt>
    <trkpt lat="28.598786" lon="84.622525"><ele>3939.6</ele><time>2025-10-26T08:56:40Z</time></trkpt>
    <trkpt lat="28.598729" lon="84.622496"><ele>3936.6</ele><time>2025-10-26T08:56:51Z</time></trkpt>
    <trkpt lat="28.598674" lon="84.622394"><ele>3933.8</ele><time>2025-10-26T08:57:01Z</time></trkpt>
    <trkpt lat="28.598473" lon="84.622332"><ele>3924.4</ele><time>2025-10-26T08:57:41Z</time></trkpt>
    <trkpt lat="28.598494" lon="84.622509"><ele>3918.6</ele><time>2025-10-26T08:58:09Z</time></trkpt>
    <trkpt lat="28.598514" lon="84.622540"><ele>3917.4</ele><time>2025-10-26T08:58:23Z</time></trkpt>
    <trkpt lat="28.598498" lon="84.622588"><ele>3915.0</ele><time>2025-10-26T08:58:33Z</time></trkpt>
    <trkpt lat="28.598442" lon="84.622579"><ele>3913.0</ele><time>2025-10-26T08:58:43Z</time></trkpt>
    <trkpt lat="28.598501" lon="84.622709"><ele>3908.0</ele><time>2025-10-26T08:59:26Z</time></trkpt>
    <trkpt lat="28.598473" lon="84.622810"><ele>3904.4</ele><time>2025-10-26T08:59:45Z</time></trkpt>
    <trkpt lat="28.598299" lon="84.622726"><ele>3897.4</ele><time>2025-10-26T09:00:54Z</time></trkpt>
    <trkpt lat="28.598338" lon="84.622838"><ele>3893.8</ele><time>2025-10-26T09:02:24Z</time></trkpt>
    <trkpt lat="28.598349" lon="84.622852"><ele>3893.4</ele><time>2025-10-26T09:02:31Z</time></trkpt>
    <trkpt lat="28.598335" lon="84.623003"><ele>3890.2</ele><time>2025-10-26T09:03:00Z</time></trkpt>
    <trkpt lat="28.598450" lon="84.623171"><ele>3884.6</ele><time>2025-10-26T09:03:48Z</time></trkpt>
    <trkpt lat="28.598484" lon="84.623271"><ele>3881.6</ele><time>2025-10-26T09:04:11Z</time></trkpt>
    <trkpt lat="28.598593" lon="84.623513"><ele>3872.2</ele><time>2025-10-26T09:05:09Z</time></trkpt>
    <trkpt lat="28.598548" lon="84.623662"><ele>3867.6</ele><time>2025-10-26T09:05:35Z</time></trkpt>
    <trkpt lat="28.598611" lon="84.623683"><ele>3865.4</ele><time>2025-10-26T09:05:49Z</time></trkpt>
    <trkpt lat="28.598696" lon="84.623978"><ele>3856.0</ele><time>2025-10-26T09:06:47Z</time></trkpt>
    <trkpt lat="28.598661" lon="84.624106"><ele>3852.2</ele><time>2025-10-26T09:07:03Z</time></trkpt>
    <trkpt lat="28.598682" lon="84.624122"><ele>3851.2</ele><time>2025-10-26T09:07:09Z</time></trkpt>
    <trkpt lat="28.598729" lon="84.624158"><ele>3849.2</ele><time>2025-10-26T09:07:38Z</time></trkpt>
    <trkpt lat="28.598751" lon="84.624190"><ele>3848.0</ele><time>2025-10-26T09:07:43Z</time></trkpt>
    <trkpt lat="28.598751" lon="84.624312"><ele>3843.2</ele><time>2025-10-26T09:08:08Z</time></trkpt>
    <trkpt lat="28.598815" lon="84.624329"><ele>3840.4</ele><time>2025-10-26T09:08:23Z</time></trkpt>
    <trkpt lat="28.598819" lon="84.624417"><ele>3838.2</ele><time>2025-10-26T09:08:34Z</time></trkpt>
    <trkpt lat="28.598877" lon="84.624503"><ele>3834.0</ele><time>2025-10-26T09:09:00Z</time></trkpt>
    <trkpt lat="28.598888" lon="84.624547"><ele>3832.8</ele><time>2025-10-26T09:09:29Z</time></trkpt>
    <trkpt lat="28.599170" lon="84.624839"><ele>3825.6</ele><time>2025-10-26T09:10:23Z</time></trkpt>
    <trkpt lat="28.599191" lon="84.624888"><ele>3824.8</ele><time>2025-10-26T09:10:28Z</time></trkpt>
    <trkpt lat="28.599271" lon="84.625000"><ele>3824.8</ele><time>2025-10-26T09:10:40Z</time></trkpt>
    <trkpt lat="28.599449" lon="84.625110"><ele>3824.2</ele><time>2025-10-26T09:11:18Z</time></trkpt>
    <trkpt lat="28.599549" lon="84.625114"><ele>3824.0</ele><time>2025-10-26T09:11:32Z</time></trkpt>
    <trkpt lat="28.599575" lon="84.625128"><ele>3823.0</ele><time>2025-10-26T09:11:36Z</time></trkpt>
    <trkpt lat="28.599784" lon="84.625521"><ele>3815.8</ele><time>2025-10-26T09:12:27Z</time></trkpt>
    <trkpt lat="28.600081" lon="84.625954"><ele>3810.0</ele><time>2025-10-26T09:13:18Z</time></trkpt>
    <trkpt lat="28.600148" lon="84.626002"><ele>3806.4</ele><time>2025-10-26T09:13:40Z</time></trkpt>
    <trkpt lat="28.600209" lon="84.626110"><ele>3803.0</ele><time>2025-10-26T09:14:11Z</time></trkpt>
    <trkpt lat="28.600217" lon="84.626143"><ele>3801.6</ele><time>2025-10-26T09:14:17Z</time></trkpt>
    <trkpt lat="28.600565" lon="84.626520"><ele>3786.4</ele><time>2025-10-26T09:15:38Z</time></trkpt>
    <trkpt lat="28.600696" lon="84.626591"><ele>3780.6</ele><time>2025-10-26T09:16:22Z</time></trkpt>
    <trkpt lat="28.600753" lon="84.626709"><ele>3777.4</ele><time>2025-10-26T09:16:50Z</time></trkpt>
    <trkpt lat="28.600685" lon="84.626773"><ele>3775.6</ele><time>2025-10-26T09:17:14Z</time></trkpt>
    <trkpt lat="28.600724" lon="84.627130"><ele>3773.2</ele><time>2025-10-26T09:18:08Z</time></trkpt>
    <trkpt lat="28.600726" lon="84.627140"><ele>3773.2</ele><time>2025-10-26T09:18:09Z</time></trkpt>
    <trkpt lat="28.600675" lon="84.627241"><ele>3773.2</ele><time>2025-10-26T09:18:20Z</time></trkpt>
    <trkpt lat="28.600759" lon="84.627472"><ele>3774.8</ele><time>2025-10-26T09:18:50Z</time></trkpt>
    <trkpt lat="28.600684" lon="84.627650"><ele>3774.2</ele><time>2025-10-26T09:19:21Z</time></trkpt>
    <trkpt lat="28.600679" lon="84.627760"><ele>3773.2</ele><time>2025-10-26T09:19:52Z</time></trkpt>
    <trkpt lat="28.600658" lon="84.627793"><ele>3773.2</ele><time>2025-10-26T09:19:57Z</time></trkpt>
    <trkpt lat="28.600623" lon="84.627813"><ele>3769.6</ele><time>2025-10-26T09:20:43Z</time></trkpt>
    <trkpt lat="28.600704" lon="84.628157"><ele>3757.6</ele><time>2025-10-26T09:21:43Z</time></trkpt>
    <trkpt lat="28.600672" lon="84.628367"><ele>3748.6</ele><time>2025-10-26T09:22:23Z</time></trkpt>
    <trkpt lat="28.600616" lon="84.628345"><ele>3746.2</ele><time>2025-10-26T09:22:38Z</time></trkpt>
    <trkpt lat="28.600628" lon="84.628387"><ele>3742.8</ele><time>2025-10-26T09:22:59Z</time></trkpt>
    <trkpt lat="28.600582" lon="84.628394"><ele>3741.0</ele><time>2025-10-26T09:23:09Z</time></trkpt>
    <trkpt lat="28.600615" lon="84.628492"><ele>3737.8</ele><time>2025-10-26T09:23:37Z</time></trkpt>
    <trkpt lat="28.600577" lon="84.628484"><ele>3735.4</ele><time>2025-10-26T09:23:50Z</time></trkpt>
    <trkpt lat="28.600608" lon="84.628596"><ele>3729.8</ele><time>2025-10-26T09:24:20Z</time></trkpt>
    <trkpt lat="28.600592" lon="84.628751"><ele>3723.6</ele><time>2025-10-26T09:24:56Z</time></trkpt>
    <trkpt lat="28.600574" lon="84.628767"><ele>3722.2</ele><time>2025-10-26T09:25:23Z</time></trkpt>
    <trkpt lat="28.600579" lon="84.628818"><ele>3720.6</ele><time>2025-10-26T09:25:29Z</time></trkpt>
    <trkpt lat="28.600592" lon="84.628901"><ele>3716.8</ele><time>2025-10-26T09:25:44Z</time></trkpt>
    <trkpt lat="28.600539" lon="84.629027"><ele>3712.0</ele><time>2025-10-26T09:26:18Z</time></trkpt>
    <trkpt lat="28.600554" lon="84.629156"><ele>3708.8</ele><time>2025-10-26T09:26:34Z</time></trkpt>
    <trkpt lat="28.600499" lon="84.629348"><ele>3703.8</ele><time>2025-10-26T09:27:07Z</time></trkpt>
    <trkpt lat="28.600487" lon="84.629360"><ele>3703.6</ele><time>2025-10-26T09:27:26Z</time></trkpt>
    <trkpt lat="28.600517" lon="84.629351"><ele>3703.4</ele><time>2025-10-26T09:27:45Z</time></trkpt>
    <trkpt lat="28.600463" lon="84.629338"><ele>3703.2</ele><time>2025-10-26T09:28:17Z</time></trkpt>
    <trkpt lat="28.600496" lon="84.629335"><ele>3702.4</ele><time>2025-10-26T09:28:40Z</time></trkpt>
    <trkpt lat="28.600399" lon="84.629543"><ele>3700.4</ele><time>2025-10-26T09:30:23Z</time></trkpt>
    <trkpt lat="28.600284" lon="84.629424"><ele>3698.0</ele><time>2025-10-26T09:31:05Z</time></trkpt>
    <trkpt lat="28.600176" lon="84.629494"><ele>3696.8</ele><time>2025-10-26T09:31:46Z</time></trkpt>
    <trkpt lat="28.600207" lon="84.629538"><ele>3696.6</ele><time>2025-10-26T09:31:57Z</time></trkpt>
    <trkpt lat="28.600094" lon="84.629690"><ele>3696.0</ele><time>2025-10-26T09:32:24Z</time></trkpt>
    <trkpt lat="28.600105" lon="84.629722"><ele>3696.0</ele><time>2025-10-26T09:32:32Z</time></trkpt>
    <trkpt lat="28.600122" lon="84.629769"><ele>3694.8</ele><time>2025-10-26T09:32:39Z</time></trkpt>
    <trkpt lat="28.599999" lon="84.629780"><ele>3693.4</ele><time>2025-10-26T09:33:00Z</time></trkpt>
    <trkpt lat="28.600083" lon="84.629928"><ele>3692.4</ele><time>2025-10-26T09:33:31Z</time></trkpt>
    <trkpt lat="28.600000" lon="84.629853"><ele>3691.8</ele><time>2025-10-26T09:33:49Z</time></trkpt>
    <trkpt lat="28.599851" lon="84.629907"><ele>3688.6</ele><time>2025-10-26T09:34:18Z</time></trkpt>
    <trkpt lat="28.599910" lon="84.629981"><ele>3687.6</ele><time>2025-10-26T09:34:38Z</time></trkpt>
    <trkpt lat="28.599874" lon="84.630036"><ele>3687.4</ele><time>2025-10-26T09:34:51Z</time></trkpt>
    <trkpt lat="28.599741" lon="84.630098"><ele>3685.2</ele><time>2025-10-26T09:35:22Z</time></trkpt>
    <trkpt lat="28.599599" lon="84.630232"><ele>3680.8</ele><time>2025-10-26T09:36:08Z</time></trkpt>
    <trkpt lat="28.599594" lon="84.630235"><ele>3680.8</ele><time>2025-10-26T09:36:14Z</time></trkpt>
    <trkpt lat="28.599575" lon="84.630168"><ele>3680.6</ele><time>2025-10-26T09:36:40Z</time></trkpt>
    <trkpt lat="28.599554" lon="84.630272"><ele>3680.0</ele><time>2025-10-26T09:37:07Z</time></trkpt>
    <trkpt lat="28.599397" lon="84.630474"><ele>3677.0</ele><time>2025-10-26T09:38:04Z</time></trkpt>
    <trkpt lat="28.599312" lon="84.630495"><ele>3675.6</ele><time>2025-10-26T09:38:18Z</time></trkpt>
    <trkpt lat="28.599181" lon="84.630516"><ele>3673.4</ele><time>2025-10-26T09:38:41Z</time></trkpt>
    <trkpt lat="28.599029" lon="84.630602"><ele>3669.4</ele><time>2025-10-26T09:39:32Z</time></trkpt>
    <trkpt lat="28.598964" lon="84.630585"><ele>3668.0</ele><time>2025-10-26T09:39:49Z</time></trkpt>
    <trkpt lat="28.598623" lon="84.630797"><ele>3660.8</ele><time>2025-10-26T09:41:17Z</time></trkpt>
    <trkpt lat="28.598477" lon="84.630940"><ele>3658.2</ele><time>2025-10-26T09:41:42Z</time></trkpt>
    <trkpt lat="28.598383" lon="84.631008"><ele>3655.8</ele><time>2025-10-26T09:44:03Z</time></trkpt>
    <trkpt lat="28.598346" lon="84.631101"><ele>3654.8</ele><time>2025-10-26T09:44:49Z</time></trkpt>
    <trkpt lat="28.598221" lon="84.631137"><ele>3652.6</ele><time>2025-10-26T09:46:08Z</time></trkpt>
    <trkpt lat="28.598214" lon="84.631169"><ele>3652.6</ele><time>2025-10-26T09:46:13Z</time></trkpt>
    <trkpt lat="28.598132" lon="84.631306"><ele>3650.8</ele><time>2025-10-26T09:46:40Z</time></trkpt>
    <trkpt lat="28.598108" lon="84.631588"><ele>3647.4</ele><time>2025-10-26T09:48:11Z</time></trkpt>
    <trkpt lat="28.598088" lon="84.631579"><ele>3647.6</ele><time>2025-10-26T09:49:07Z</time></trkpt>
    <trkpt lat="28.598187" lon="84.631579"><ele>3648.0</ele><time>2025-10-26T09:49:53Z</time></trkpt>
    <trkpt lat="28.598158" lon="84.631592"><ele>3648.0</ele><time>2025-10-26T09:50:03Z</time></trkpt>
    <trkpt lat="28.598183" lon="84.631699"><ele>3647.8</ele><time>2025-10-26T09:50:23Z</time></trkpt>
    <trkpt lat="28.598335" lon="84.631779"><ele>3647.4</ele><time>2025-10-26T09:50:44Z</time></trkpt>
    <trkpt lat="28.598414" lon="84.632005"><ele>3647.0</ele><time>2025-10-26T09:51:13Z</time></trkpt>
    <trkpt lat="28.598593" lon="84.632235"><ele>3646.8</ele><time>2025-10-26T09:51:48Z</time></trkpt>
    <trkpt lat="28.598689" lon="84.632473"><ele>3646.8</ele><time>2025-10-26T09:52:16Z</time></trkpt>
    <trkpt lat="28.598868" lon="84.633210"><ele>3646.6</ele><time>2025-10-26T09:53:48Z</time></trkpt>
    <trkpt lat="28.598800" lon="84.633421"><ele>3646.4</ele><time>2025-10-26T09:54:09Z</time></trkpt>
    <trkpt lat="28.598714" lon="84.633482"><ele>3645.8</ele><time>2025-10-26T09:55:42Z</time></trkpt>
    <trkpt lat="28.598727" lon="84.633453"><ele>3645.6</ele><time>2025-10-26T09:57:30Z</time></trkpt>
    <trkpt lat="28.598229" lon="84.633525"><ele>3646.4</ele><time>2025-10-26T10:00:55Z</time></trkpt>
    <trkpt lat="28.597640" lon="84.633289"><ele>3646.2</ele><time>2025-10-26T10:03:48Z</time></trkpt>
    <trkpt lat="28.597341" lon="84.633258"><ele>3646.4</ele><time>2025-10-26T10:04:22Z</time></trkpt>
    <trkpt lat="28.597238" lon="84.633291"><ele>3646.2</ele><time>2025-10-26T10:04:37Z</time></trkpt>
    <trkpt lat="28.596800" lon="84.633676"><ele>3644.6</ele><time>2025-10-26T10:05:41Z</time></trkpt>
    <trkpt lat="28.596687" lon="84.633742"><ele>3642.4</ele><time>2025-10-26T10:05:56Z</time></trkpt>
    <trkpt lat="28.596492" lon="84.633777"><ele>3642.2</ele><time>2025-10-26T10:06:57Z</time></trkpt>
    <trkpt lat="28.596485" lon="84.633804"><ele>3642.2</ele><time>2025-10-26T10:07:05Z</time></trkpt>
    <trkpt lat="28.596360" lon="84.634028"><ele>3644.6</ele><time>2025-10-26T10:07:37Z</time></trkpt>
    <trkpt lat="28.596364" lon="84.634171"><ele>3645.4</ele><time>2025-10-26T10:08:03Z</time></trkpt>
    <trkpt lat="28.596268" lon="84.634354"><ele>3649.0</ele><time>2025-10-26T10:08:39Z</time></trkpt>
    <trkpt lat="28.596082" lon="84.634548"><ele>3651.4</ele><time>2025-10-26T10:09:11Z</time></trkpt>
    <trkpt lat="28.595882" lon="84.634649"><ele>3655.6</ele><time>2025-10-26T10:09:44Z</time></trkpt>
    <trkpt lat="28.595837" lon="84.634720"><ele>3657.6</ele><time>2025-10-26T10:10:00Z</time></trkpt>
    <trkpt lat="28.595783" lon="84.634839"><ele>3659.2</ele><time>2025-10-26T10:10:41Z</time></trkpt>
    <trkpt lat="28.595660" lon="84.634871"><ele>3659.8</ele><time>2025-10-26T10:10:53Z</time></trkpt>
    <trkpt lat="28.595503" lon="84.635287"><ele>3661.8</ele><time>2025-10-26T10:11:45Z</time></trkpt>
    <trkpt lat="28.595617" lon="84.635627"><ele>3661.8</ele><time>2025-10-26T10:12:21Z</time></trkpt>
    <trkpt lat="28.595599" lon="84.635773"><ele>3662.0</ele><time>2025-10-26T10:12:35Z</time></trkpt>
    <trkpt lat="28.595696" lon="84.635910"><ele>3662.0</ele><time>2025-10-26T10:12:52Z</time></trkpt>
    <trkpt lat="28.595758" lon="84.635939"><ele>3662.0</ele><time>2025-10-26T10:12:59Z</time></trkpt>
    <trkpt lat="28.595929" lon="84.636058"><ele>3664.0</ele><time>2025-10-26T10:13:25Z</time></trkpt>
    <trkpt lat="28.595879" lon="84.636255"><ele>3664.6</ele><time>2025-10-26T10:13:47Z</time></trkpt>
    <trkpt lat="28.595931" lon="84.636362"><ele>3668.0</ele><time>2025-10-26T10:14:16Z</time></trkpt>
    <trkpt lat="28.595933" lon="84.636357"><ele>3668.0</ele><time>2025-10-26T10:14:51Z</time></trkpt>
    <trkpt lat="28.596133" lon="84.636461"><ele>3664.4</ele><time>2025-10-26T10:15:15Z</time></trkpt>
    <trkpt lat="28.596176" lon="84.636629"><ele>3659.4</ele><time>2025-10-26T10:15:36Z</time></trkpt>
    <trkpt lat="28.596164" lon="84.636854"><ele>3651.4</ele><time>2025-10-26T10:16:06Z</time></trkpt>
    <trkpt lat="28.596290" lon="84.637111"><ele>3646.0</ele><time>2025-10-26T10:16:28Z</time></trkpt>
    <trkpt lat="28.596319" lon="84.637274"><ele>3643.8</ele><time>2025-10-26T10:16:40Z</time></trkpt>
    <trkpt lat="28.596310" lon="84.637446"><ele>3640.4</ele><time>2025-10-26T10:16:52Z</time></trkpt>
    <trkpt lat="28.596391" lon="84.637619"><ele>3634.4</ele><time>2025-10-26T10:17:13Z</time></trkpt>
    <trkpt lat="28.596373" lon="84.637709"><ele>3632.4</ele><time>2025-10-26T10:17:20Z</time></trkpt>
    <trkpt lat="28.596215" lon="84.637760"><ele>3630.4</ele><time>2025-10-26T10:17:33Z</time></trkpt>
    <trkpt lat="28.596067" lon="84.637959"><ele>3629.2</ele><time>2025-10-26T10:17:55Z</time></trkpt>
    <trkpt lat="28.596053" lon="84.638065"><ele>3626.8</ele><time>2025-10-26T10:18:06Z</time></trkpt>
    <trkpt lat="28.596105" lon="84.638218"><ele>3625.0</ele><time>2025-10-26T10:18:21Z</time></trkpt>
    <trkpt lat="28.596073" lon="84.638267"><ele>3624.2</ele><time>2025-10-26T10:18:26Z</time></trkpt>
    <trkpt lat="28.595740" lon="84.638448"><ele>3619.4</ele><time>2025-10-26T10:19:02Z</time></trkpt>
    <trkpt lat="28.595624" lon="84.638563"><ele>3616.8</ele><time>2025-10-26T10:19:19Z</time></trkpt>
    <trkpt lat="28.595385" lon="84.638639"><ele>3616.0</ele><time>2025-10-26T10:19:41Z</time></trkpt>
    <trkpt lat="28.595231" lon="84.638788"><ele>3615.0</ele><time>2025-10-26T10:20:03Z</time></trkpt>
    <trkpt lat="28.595226" lon="84.638787"><ele>3615.0</ele><time>2025-10-26T10:20:04Z</time></trkpt>
    <trkpt lat="28.595066" lon="84.638761"><ele>3611.2</ele><time>2025-10-26T10:20:20Z</time></trkpt>
    <trkpt lat="28.594981" lon="84.638808"><ele>3610.2</ele><time>2025-10-26T10:20:29Z</time></trkpt>
    <trkpt lat="28.594783" lon="84.638818"><ele>3608.8</ele><time>2025-10-26T10:20:49Z</time></trkpt>
    <trkpt lat="28.594591" lon="84.638745"><ele>3605.8</ele><time>2025-10-26T10:21:06Z</time></trkpt>
    <trkpt lat="28.594434" lon="84.638761"><ele>3603.6</ele><time>2025-10-26T10:21:19Z</time></trkpt>
    <trkpt lat="28.594232" lon="84.638963"><ele>3601.2</ele><time>2025-10-26T10:21:45Z</time></trkpt>
    <trkpt lat="28.594151" lon="84.638923"><ele>3599.0</ele><time>2025-10-26T10:21:57Z</time></trkpt>
    <trkpt lat="28.594102" lon="84.638822"><ele>3596.8</ele><time>2025-10-26T10:22:05Z</time></trkpt>
    <trkpt lat="28.593779" lon="84.638691"><ele>3594.0</ele><time>2025-10-26T10:22:33Z</time></trkpt>
    <trkpt lat="28.593545" lon="84.638488"><ele>3592.6</ele><time>2025-10-26T10:22:57Z</time></trkpt>
    <trkpt lat="28.593253" lon="84.638378"><ele>3590.6</ele><time>2025-10-26T10:23:23Z</time></trkpt>
    <trkpt lat="28.592965" lon="84.638180"><ele>3588.4</ele><time>2025-10-26T10:23:51Z</time></trkpt>
    <trkpt lat="28.592845" lon="84.638022"><ele>3585.6</ele><time>2025-10-26T10:24:10Z</time></trkpt>
    <trkpt lat="28.592718" lon="84.637988"><ele>3583.0</ele><time>2025-10-26T10:24:25Z</time></trkpt>
    <trkpt lat="28.592666" lon="84.637915"><ele>3581.8</ele><time>2025-10-26T10:24:33Z</time></trkpt>
    <trkpt lat="28.592567" lon="84.637983"><ele>3578.8</ele><time>2025-10-26T10:24:45Z</time></trkpt>
    <trkpt lat="28.592463" lon="84.638011"><ele>3577.6</ele><time>2025-10-26T10:24:54Z</time></trkpt>
    <trkpt lat="28.591865" lon="84.638215"><ele>3576.4</ele><time>2025-10-26T10:25:47Z</time></trkpt>
    <trkpt lat="28.591060" lon="84.638807"><ele>3575.2</ele><time>2025-10-26T10:27:16Z</time></trkpt>
    <trkpt lat="28.590571" lon="84.638623"><ele>3575.6</ele><time>2025-10-26T10:28:08Z</time></trkpt>
    <trkpt lat="28.590092" lon="84.638643"><ele>3575.6</ele><time>2025-10-26T10:28:48Z</time></trkpt>
    <trkpt lat="28.589874" lon="84.638798"><ele>3575.4</ele><time>2025-10-26T10:29:10Z</time></trkpt>
    <trkpt lat="28.589752" lon="84.638921"><ele>3575.2</ele><time>2025-10-26T10:29:24Z</time></trkpt>
    <trkpt lat="28.589752" lon="84.638973"><ele>3575.2</ele><time>2025-10-26T10:29:30Z</time></trkpt>
    <trkpt lat="28.589684" lon="84.638952"><ele>3575.0</ele><time>2025-10-26T10:30:01Z</time></trkpt>
    <trkpt lat="28.589581" lon="84.638997"><ele>3575.0</ele><time>2025-10-26T10:30:13Z</time></trkpt>
    <trkpt lat="28.589397" lon="84.639249"><ele>3574.6</ele><time>2025-10-26T10:30:36Z</time></trkpt>
    <trkpt lat="28.589370" lon="84.639263"><ele>3574.4</ele><time>2025-10-26T10:30:38Z</time></trkpt>
    <trkpt lat="28.589202" lon="84.639392"><ele>3569.6</ele><time>2025-10-26T10:31:03Z</time></trkpt>
    <trkpt lat="28.589061" lon="84.639413"><ele>3568.6</ele><time>2025-10-26T10:31:14Z</time></trkpt>
    <trkpt lat="28.588915" lon="84.639576"><ele>3566.4</ele><time>2025-10-26T10:31:32Z</time></trkpt>
    <trkpt lat="28.588897" lon="84.639709"><ele>3563.2</ele><time>2025-10-26T10:31:49Z</time></trkpt>
    <trkpt lat="28.588906" lon="84.639813"><ele>3560.8</ele><time>2025-10-26T10:31:57Z</time></trkpt>
    <trkpt lat="28.588869" lon="84.639860"><ele>3558.2</ele><time>2025-10-26T10:32:01Z</time></trkpt>
    <trkpt lat="28.588685" lon="84.639736"><ele>3552.0</ele><time>2025-10-26T10:32:23Z</time></trkpt>
    <trkpt lat="28.588539" lon="84.639726"><ele>3548.6</ele><time>2025-10-26T10:32:37Z</time></trkpt>
    <trkpt lat="28.588449" lon="84.639791"><ele>3546.8</ele><time>2025-10-26T10:32:46Z</time></trkpt>
    <trkpt lat="28.588368" lon="84.639937"><ele>3545.2</ele><time>2025-10-26T10:33:00Z</time></trkpt>
    <trkpt lat="28.588215" lon="84.640096"><ele>3543.0</ele><time>2025-10-26T10:33:15Z</time></trkpt>
    <trkpt lat="28.588019" lon="84.640264"><ele>3542.2</ele><time>2025-10-26T10:33:36Z</time></trkpt>
    <trkpt lat="28.587951" lon="84.640281"><ele>3542.0</ele><time>2025-10-26T10:33:42Z</time></trkpt>
    <trkpt lat="28.587813" lon="84.640471"><ele>3541.0</ele><time>2025-10-26T10:34:03Z</time></trkpt>
    <trkpt lat="28.587741" lon="84.640502"><ele>3539.4</ele><time>2025-10-26T10:34:12Z</time></trkpt>
    <trkpt lat="28.587632" lon="84.640892"><ele>3538.6</ele><time>2025-10-26T10:34:45Z</time></trkpt>
    <trkpt lat="28.587264" lon="84.641301"><ele>3536.6</ele><time>2025-10-26T10:35:27Z</time></trkpt>
    <trkpt lat="28.587267" lon="84.641448"><ele>3535.6</ele><time>2025-10-26T10:35:40Z</time></trkpt>
    <trkpt lat="28.587233" lon="84.641506"><ele>3535.2</ele><time>2025-10-26T10:35:46Z</time></trkpt>
    <trkpt lat="28.587214" lon="84.641526"><ele>3535.2</ele><time>2025-10-26T10:35:49Z</time></trkpt>
    <trkpt lat="28.586960" lon="84.641683"><ele>3535.0</ele><time>2025-10-26T10:36:13Z</time></trkpt>
    <trkpt lat="28.586723" lon="84.641759"><ele>3534.6</ele><time>2025-10-26T10:36:35Z</time></trkpt>
    <trkpt lat="28.586117" lon="84.642300"><ele>3532.8</ele><time>2025-10-26T10:37:55Z</time></trkpt>
    <trkpt lat="28.586071" lon="84.642309"><ele>3532.6</ele><time>2025-10-26T10:37:59Z</time></trkpt>
    <trkpt lat="28.586027" lon="84.642253"><ele>3532.4</ele><time>2025-10-26T10:38:06Z</time></trkpt>
    </trkseg>
  </trk>
</gpx>
