<?xml version="1.0" encoding="UTF-8"?>
<gpx version="1.1" creator="tripplanner (simplified from Strava export)" xmlns="http://www.topografix.com/GPX/1/1">
  <metadata>
    <name>Manaslu — Jagat → Deng</name>
    <time>2025-10-22T02:12:13Z</time>
  </metadata>
  <trk>
    <name>Manaslu — Jagat → Deng</name>
    <trkseg>
    <trkpt lat="28.352943" lon="84.896659"><ele>1338.6</ele><time>2025-10-22T02:12:13Z</time></trkpt>
    <trkpt lat="28.352985" lon="84.896584"><ele>1337.0</ele><time>2025-10-22T02:12:34Z</time></trkpt>
    <trkpt lat="28.352962" lon="84.896534"><ele>1336.4</ele><time>2025-10-22T02:12:42Z</time></trkpt>
    <trkpt lat="28.353044" lon="84.895874"><ele>1325.4</ele><time>2025-10-22T02:13:33Z</time></trkpt>
    <trkpt lat="28.353050" lon="84.895872"><ele>1325.0</ele><time>2025-10-22T02:13:36Z</time></trkpt>
    <trkpt lat="28.353120" lon="84.895689"><ele>1323.4</ele><time>2025-10-22T02:14:03Z</time></trkpt>
    <trkpt lat="28.353051" lon="84.895290"><ele>1322.2</ele><time>2025-10-22T02:14:34Z</time></trkpt>
    <trkpt lat="28.353093" lon="84.895083"><ele>1320.6</ele><time>2025-10-22T02:14:51Z</time></trkpt>
    <trkpt lat="28.353105" lon="84.894661"><ele>1320.0</ele><time>2025-10-22T02:15:33Z</time></trkpt>
    <trkpt lat="28.353124" lon="84.894567"><ele>1319.8</ele><time>2025-10-22T02:15:38Z</time></trkpt>
    <trkpt lat="28.353269" lon="84.894226"><ele>1320.2</ele><time>2025-10-22T02:16:11Z</time></trkpt>
    <trkpt lat="28.353305" lon="84.893852"><ele>1321.4</ele><time>2025-10-22T02:16:38Z</time></trkpt>
    <trkpt lat="28.353337" lon="84.893735"><ele>1324.6</ele><time>2025-10-22T02:16:50Z</time></trkpt>
    <trkpt lat="28.353274" lon="84.893588"><ele>1329.2</ele><time>2025-10-22T02:17:07Z</time></trkpt>
    <trkpt lat="28.352943" lon="84.893023"><ele>1338.6</ele><time>2025-10-22T02:18:01Z</time></trkpt>
    <trkpt lat="28.352810" lon="84.892860"><ele>1342.8</ele><time>2025-10-22T02:18:23Z</time></trkpt>
    <trkpt lat="28.352803" lon="84.892839"><ele>1342.8</ele><time>2025-10-22T02:18:26Z</time></trkpt>
    <trkpt lat="28.352846" lon="84.892698"><ele>1342.8</ele><time>2025-10-22T02:18:39Z</time></trkpt>
    <trkpt lat="28.353027" lon="84.892483"><ele>1342.2</ele><time>2025-10-22T02:19:13Z</time></trkpt>
    <trkpt lat="28.352980" lon="84.892469"><ele>1342.2</ele><time>2025-10-22T02:19:34Z</time></trkpt>
    <trkpt lat="28.353107" lon="84.892360"><ele>1342.2</ele><time>2025-10-22T02:19:45Z</time></trkpt>
    <trkpt lat="28.353399" lon="84.891960"><ele>1348.0</ele><time>2025-10-22T02:20:32Z</time></trkpt>
    <trkpt lat="28.353416" lon="84.892005"><ele>1349.0</ele><time>2025-10-22T02:20:39Z</time></trkpt>
    <trkpt lat="28.353448" lon="84.892057"><ele>1349.0</ele><time>2025-10-22T02:20:48Z</time></trkpt>
    <trkpt lat="28.353420" lon="84.892050"><ele>1349.0</ele><time>2025-10-22T02:20:58Z</time></trkpt>
    <trkpt lat="28.353482" lon="84.892336"><ele>1344.6</ele><time>2025-10-22T02:21:29Z</time></trkpt>
    <trkpt lat="28.353678" lon="84.892563"><ele>1343.6</ele><time>2025-10-22T02:21:59Z</time></trkpt>
    <trkpt lat="28.353753" lon="84.892712"><ele>1343.0</ele><time>2025-10-22T02:22:14Z</time></trkpt>
    <trkpt lat="28.353784" lon="84.892707"><ele>1343.0</ele><time>2025-10-22T02:22:20Z</time></trkpt>
    <trkpt lat="28.353941" lon="84.892683"><ele>1338.6</ele><time>2025-10-22T02:22:36Z</time></trkpt>
    <trkpt lat="28.354033" lon="84.892766"><ele>1331.8</ele><time>2025-10-22T02:22:57Z</time></trkpt>
    <trkpt lat="28.354147" lon="84.892767"><ele>1330.0</ele><time>2025-10-22T02:23:06Z</time></trkpt>
    <trkpt lat="28.354155" lon="84.892818"><ele>1330.0</ele><time>2025-10-22T02:23:12Z</time></trkpt>
    <trkpt lat="28.354192" lon="84.892745"><ele>1330.0</ele><time>2025-10-22T02:23:29Z</time></trkpt>
    <trkpt lat="28.354390" lon="84.892690"><ele>1328.6</ele><time>2025-10-22T02:23:50Z</time></trkpt>
    <trkpt lat="28.354459" lon="84.892688"><ele>1328.2</ele><time>2025-10-22T02:23:56Z</time></trkpt>
    <trkpt lat="28.354769" lon="84.892761"><ele>1328.2</ele><time>2025-10-22T02:24:19Z</time></trkpt>
    <trkpt lat="28.354929" lon="84.892711"><ele>1328.6</ele><time>2025-10-22T02:24:34Z</time></trkpt>
    <trkpt lat="28.355141" lon="84.892761"><ele>1331.0</ele><time>2025-10-22T02:24:54Z</time></trkpt>
    <trkpt lat="28.355161" lon="84.892808"><ele>1331.2</ele><time>2025-10-22T02:25:00Z</time></trkpt>
    <trkpt lat="28.355232" lon="84.892785"><ele>1331.8</ele><time>2025-10-22T02:25:07Z</time></trkpt>
    <trkpt lat="28.355897" lon="84.892964"><ele>1333.8</ele><time>2025-10-22T02:25:55Z</time></trkpt>
    <trkpt lat="28.356090" lon="84.893103"><ele>1334.8</ele><time>2025-10-22T02:26:11Z</time></trkpt>
    <trkpt lat="28.356143" lon="84.893086"><ele>1335.4</ele><time>2025-10-22T02:26:18Z</time></trkpt>
    <trkpt lat="28.356223" lon="84.892966"><ele>1335.4</ele><time>2025-10-22T02:26:29Z</time></trkpt>
    <trkpt lat="28.356270" lon="84.892725"><ele>1335.4</ele><time>2025-10-22T02:26:50Z</time></trkpt>
    <trkpt lat="28.356186" lon="84.891975"><ele>1335.0</ele><time>2025-10-22T02:27:31Z</time></trkpt>
    <trkpt lat="28.356122" lon="84.891553"><ele>1337.4</ele><time>2025-10-22T02:27:52Z</time></trkpt>
    <trkpt lat="28.356142" lon="84.891150"><ele>1338.2</ele><time>2025-10-22T02:28:13Z</time></trkpt>
    <trkpt lat="28.356178" lon="84.890929"><ele>1340.2</ele><time>2025-10-22T02:28:34Z</time></trkpt>
    <trkpt lat="28.356246" lon="84.890783"><ele>1341.8</ele><time>2025-10-22T02:28:51Z</time></trkpt>
    <trkpt lat="28.356226" lon="84.890681"><ele>1342.2</ele><time>2025-10-22T02:29:29Z</time></trkpt>
    <trkpt lat="28.356304" lon="84.890468"><ele>1342.8</ele><time>2025-10-22T02:29:43Z</time></trkpt>
    <trkpt lat="28.356268" lon="84.890441"><ele>1343.0</ele><time>2025-10-22T02:29:52Z</time></trkpt>
    <trkpt lat="28.356285" lon="84.890358"><ele>1343.0</ele><time>2025-10-22T02:29:58Z</time></trkpt>
    <trkpt lat="28.356410" lon="84.890227"><ele>1343.0</ele><time>2025-10-22T02:30:10Z</time></trkpt>
    <trkpt lat="28.356564" lon="84.890065"><ele>1342.2</ele><time>2025-10-22T02:30:25Z</time></trkpt>
    <trkpt lat="28.356602" lon="84.889996"><ele>1341.2</ele><time>2025-10-22T02:30:30Z</time></trkpt>
    <trkpt lat="28.356604" lon="84.889801"><ele>1339.0</ele><time>2025-10-22T02:30:44Z</time></trkpt>
    <trkpt lat="28.356761" lon="84.889699"><ele>1338.0</ele><time>2025-10-22T02:31:02Z</time></trkpt>
    <trkpt lat="28.356896" lon="84.889509"><ele>1337.2</ele><time>2025-10-22T02:31:19Z</time></trkpt>
    <trkpt lat="28.357116" lon="84.889382"><ele>1336.4</ele><time>2025-10-22T02:31:39Z</time></trkpt>
    <trkpt lat="28.357345" lon="84.889182"><ele>1334.2</ele><time>2025-10-22T02:32:03Z</time></trkpt>
    <trkpt lat="28.357517" lon="84.889117"><ele>1332.8</ele><time>2025-10-22T02:32:21Z</time></trkpt>
    <trkpt lat="28.357723" lon="84.888874"><ele>1331.8</ele><time>2025-10-22T02:32:45Z</time></trkpt>
    <trkpt lat="28.358139" lon="84.888573"><ele>1325.0</ele><time>2025-10-22T02:33:26Z</time></trkpt>
    <trkpt lat="28.358245" lon="84.888549"><ele>1324.2</ele><time>2025-10-22T02:33:34Z</time></trkpt>
    <trkpt lat="28.358494" lon="84.888542"><ele>1324.2</ele><time>2025-10-22T02:33:58Z</time></trkpt>
    <trkpt lat="28.358578" lon="84.888540"><ele>1325.0</ele><time>2025-10-22T02:34:07Z</time></trkpt>
    <trkpt lat="28.358614" lon="84.888586"><ele>1325.6</ele><time>2025-10-22T02:34:25Z</time></trkpt>
    <trkpt lat="28.358695" lon="84.888552"><ele>1326.4</ele><time>2025-10-22T02:34:37Z</time></trkpt>
    <trkpt lat="28.358983" lon="84.888401"><ele>1333.0</ele><time>2025-10-22T02:35:17Z</time></trkpt>
    <trkpt lat="28.359161" lon="84.888368"><ele>1336.0</ele><time>2025-10-22T02:35:38Z</time></trkpt>
    <trkpt lat="28.359339" lon="84.888260"><ele>1338.2</ele><time>2025-10-22T02:36:00Z</time></trkpt>
    <trkpt lat="28.359558" lon="84.888193"><ele>1342.4</ele><time>2025-10-22T02:36:29Z</time></trkpt>
    <trkpt lat="28.359599" lon="84.888157"><ele>1343.4</ele><time>2025-10-22T02:36:36Z</time></trkpt>
    <trkpt lat="28.360006" lon="84.887869"><ele>1343.8</ele><time>2025-10-22T02:38:26Z</time></trkpt>
    <trkpt lat="28.360579" lon="84.887764"><ele>1343.0</ele><time>2025-10-22T02:39:15Z</time></trkpt>
    <trkpt lat="28.361060" lon="84.887735"><ele>1343.4</ele><time>2025-10-22T02:39:57Z</time></trkpt>
    <trkpt lat="28.361295" lon="84.887668"><ele>1343.4</ele><time>2025-10-22T02:40:18Z</time></trkpt>
    <trkpt lat="28.361497" lon="84.887596"><ele>1344.4</ele><time>2025-10-22T02:40:37Z</time></trkpt>
    <trkpt lat="28.361860" lon="84.887591"><ele>1347.6</ele><time>2025-10-22T02:41:10Z</time></trkpt>
    <trkpt lat="28.362006" lon="84.887564"><ele>1348.2</ele><time>2025-10-22T02:41:23Z</time></trkpt>
    <trkpt lat="28.362421" lon="84.887453"><ele>1348.6</ele><time>2025-10-22T02:42:11Z</time></trkpt>
    <trkpt lat="28.362583" lon="84.887362"><ele>1349.0</ele><time>2025-10-22T02:42:26Z</time></trkpt>
    <trkpt lat="28.362750" lon="84.887151"><ele>1349.0</ele><time>2025-10-22T02:42:47Z</time></trkpt>
    <trkpt lat="28.363011" lon="84.887056"><ele>1350.6</ele><time>2025-10-22T02:43:15Z</time></trkpt>
    <trkpt lat="28.363271" lon="84.886844"><ele>1351.2</ele><time>2025-10-22T02:43:47Z</time></trkpt>
    <trkpt lat="28.363378" lon="84.886798"><ele>1351.2</ele><time>2025-10-22T02:44:04Z</time></trkpt>
    <trkpt lat="28.363517" lon="84.886730"><ele>1351.8</ele><time>2025-10-22T02:44:19Z</time></trkpt>
    <trkpt lat="28.363747" lon="84.886551"><ele>1353.8</ele><time>2025-10-22T02:44:47Z</time></trkpt>
    <trkpt lat="28.363916" lon="84.886501"><ele>1356.0</ele><time>2025-10-22T02:45:04Z</time></trkpt>
    <trkpt lat="28.364000" lon="84.886506"><ele>1356.4</ele><time>2025-10-22T02:45:12Z</time></trkpt>
    <trkpt lat="28.364183" lon="84.886520"><ele>1357.2</ele><time>2025-10-22T02:45:45Z</time></trkpt>
    <trkpt lat="28.364220" lon="84.886474"><ele>1357.4</ele><time>2025-10-22T02:46:12Z</time></trkpt>
    <trkpt lat="28.364509" lon="84.886433"><ele>1358.0</ele><time>2025-10-22T02:46:36Z</time></trkpt>
    <trkpt lat="28.365066" lon="84.886237"><ele>1357.8</ele><time>2025-10-22T02:47:34Z</time></trkpt>
    <trkpt lat="28.365319" lon="84.886274"><ele>1357.8</ele><time>2025-10-22T02:48:03Z</time></trkpt>
    <trkpt lat="28.365863" lon="84.886377"><ele>1365.6</ele><time>2025-10-22T02:49:03Z</time></trkpt>
    <trkpt lat="28.366112" lon="84.886497"><ele>1370.0</ele><time>2025-10-22T02:49:33Z</time></trkpt>
    <trkpt lat="28.366272" lon="84.886460"><ele>1372.6</ele><time>2025-10-22T02:49:54Z</time></trkpt>
    <trkpt lat="28.366669" lon="84.886272"><ele>1382.0</ele><time>2025-10-22T02:50:51Z</time></trkpt>
    <trkpt lat="28.367144" lon="84.886258"><ele>1387.2</ele><time>2025-10-22T02:51:47Z</time></trkpt>
    <trkpt lat="28.367333" lon="84.886199"><ele>1389.8</ele><time>2025-10-22T02:52:07Z</time></trkpt>
    <trkpt lat="28.367543" lon="84.886231"><ele>1392.4</ele><time>2025-10-22T02:52:28Z</time></trkpt>
    <trkpt lat="28.367627" lon="84.886224"><ele>1392.6</ele><time>2025-10-22T02:52:35Z</time></trkpt>
    <trkpt lat="28.367793" lon="84.886154"><ele>1393.2</ele><time>2025-10-22T02:52:51Z</time></trkpt>
    <trkpt lat="28.368097" lon="84.886223"><ele>1393.4</ele><time>2025-10-22T02:53:20Z</time></trkpt>
    <trkpt lat="28.368065" lon="84.886268"><ele>1393.6</ele><time>2025-10-22T02:53:45Z</time></trkpt>
    <trkpt lat="28.368329" lon="84.886151"><ele>1393.8</ele><time>2025-10-22T02:54:35Z</time></trkpt>
    <trkpt lat="28.368419" lon="84.886181"><ele>1393.8</ele><time>2025-10-22T02:54:43Z</time></trkpt>
    <trkpt lat="28.369172" lon="84.886359"><ele>1400.2</ele><time>2025-10-22T02:55:57Z</time></trkpt>
    <trkpt lat="28.369761" lon="84.886347"><ele>1403.8</ele><time>2025-10-22T02:56:51Z</time></trkpt>
    <trkpt lat="28.369777" lon="84.886365"><ele>1404.0</ele><time>2025-10-22T02:57:09Z</time></trkpt>
    <trkpt lat="28.370705" lon="84.886187"><ele>1404.8</ele><time>2025-10-22T02:58:41Z</time></trkpt>
    <trkpt lat="28.371013" lon="84.886044"><ele>1407.4</ele><time>2025-10-22T02:59:13Z</time></trkpt>
    <trkpt lat="28.371093" lon="84.886021"><ele>1408.2</ele><time>2025-10-22T02:59:22Z</time></trkpt>
    <trkpt lat="28.371767" lon="84.886045"><ele>1419.2</ele><time>2025-10-22T03:00:50Z</time></trkpt>
    <trkpt lat="28.371917" lon="84.886156"><ele>1422.2</ele><time>2025-10-22T03:01:14Z</time></trkpt>
    <trkpt lat="28.372115" lon="84.886215"><ele>1425.2</ele><time>2025-10-22T03:01:41Z</time></trkpt>
    <trkpt lat="28.372269" lon="84.886361"><ele>1427.8</ele><time>2025-10-22T03:02:02Z</time></trkpt>
    <trkpt lat="28.372441" lon="84.886555"><ele>1430.6</ele><time>2025-10-22T03:02:32Z</time></trkpt>
    <trkpt lat="28.372815" lon="84.886857"><ele>1435.8</ele><time>2025-10-22T03:03:35Z</time></trkpt>
    <trkpt lat="28.372976" lon="84.886924"><ele>1437.6</ele><time>2025-10-22T03:03:52Z</time></trkpt>
    <trkpt lat="28.373364" lon="84.886815"><ele>1438.8</ele><time>2025-10-22T03:04:28Z</time></trkpt>
    <trkpt lat="28.373447" lon="84.886771"><ele>1439.2</ele><time>2025-10-22T03:04:36Z</time></trkpt>
    <trkpt lat="28.373595" lon="84.886702"><ele>1441.4</ele><time>2025-10-22T03:04:51Z</time></trkpt>
    <trkpt lat="28.374168" lon="84.886318"><ele>1449.2</ele><time>2025-10-22T03:05:57Z</time></trkpt>
    <trkpt lat="28.374534" lon="84.886427"><ele>1452.8</ele><time>2025-10-22T03:06:31Z</time></trkpt>
    <trkpt lat="28.374669" lon="84.886431"><ele>1454.0</ele><time>2025-10-22T03:06:45Z</time></trkpt>
    <trkpt lat="28.374873" lon="84.886355"><ele>1456.6</ele><time>2025-10-22T03:07:06Z</time></trkpt>
    <trkpt lat="28.374986" lon="84.886260"><ele>1458.4</ele><time>2025-10-22T03:07:21Z</time></trkpt>
    <trkpt lat="28.375020" lon="84.886215"><ele>1458.6</ele><time>2025-10-22T03:07:49Z</time></trkpt>
    <trkpt lat="28.375013" lon="84.886163"><ele>1458.8</ele><time>2025-10-22T03:08:42Z</time></trkpt>
    <trkpt lat="28.375021" lon="84.886228"><ele>1458.6</ele><time>2025-10-22T03:21:04Z</time></trkpt>
    <trkpt lat="28.375081" lon="84.886121"><ele>1458.8</ele><time>2025-10-22T03:21:27Z</time></trkpt>
    <trkpt lat="28.375163" lon="84.886075"><ele>1459.0</ele><time>2025-10-22T03:21:36Z</time></trkpt>
    <trkpt lat="28.375408" lon="84.886089"><ele>1459.0</ele><time>2025-10-22T03:21:56Z</time></trkpt>
    <trkpt lat="28.375514" lon="84.886074"><ele>1459.0</ele><time>2025-10-22T03:22:05Z</time></trkpt>
    <trkpt lat="28.375695" lon="84.886027"><ele>1458.4</ele><time>2025-10-22T03:22:20Z</time></trkpt>
    <trkpt lat="28.375922" lon="84.886026"><ele>1456.2</ele><time>2025-10-22T03:22:39Z</time></trkpt>
    <trkpt lat="28.376337" lon="84.886101"><ele>1451.8</ele><time>2025-10-22T03:23:13Z</time></trkpt>
    <trkpt lat="28.376580" lon="84.886180"><ele>1451.4</ele><time>2025-10-22T03:23:34Z</time></trkpt>
    <trkpt lat="28.376807" lon="84.886347"><ele>1451.2</ele><time>2025-10-22T03:23:55Z</time></trkpt>
    <trkpt lat="28.377219" lon="84.886374"><ele>1449.2</ele><time>2025-10-22T03:24:29Z</time></trkpt>
    <trkpt lat="28.377434" lon="84.886511"><ele>1448.0</ele><time>2025-10-22T03:24:46Z</time></trkpt>
    <trkpt lat="28.377480" lon="84.886540"><ele>1448.0</ele><time>2025-10-22T03:24:50Z</time></trkpt>
    <trkpt lat="28.377955" lon="84.886608"><ele>1448.6</ele><time>2025-10-22T03:25:33Z</time></trkpt>
    <trkpt lat="28.378273" lon="84.886719"><ele>1448.6</ele><time>2025-10-22T03:26:01Z</time></trkpt>
    <trkpt lat="28.378353" lon="84.886751"><ele>1447.8</ele><time>2025-10-22T03:26:09Z</time></trkpt>
    <trkpt lat="28.378744" lon="84.886828"><ele>1445.6</ele><time>2025-10-22T03:26:42Z</time></trkpt>
    <trkpt lat="28.378954" lon="84.887024"><ele>1444.4</ele><time>2025-10-22T03:27:04Z</time></trkpt>
    <trkpt lat="28.379316" lon="84.887054"><ele>1442.8</ele><time>2025-10-22T03:27:35Z</time></trkpt>
    <trkpt lat="28.379633" lon="84.887270"><ele>1440.2</ele><time>2025-10-22T03:28:06Z</time></trkpt>
    <trkpt lat="28.379767" lon="84.887320"><ele>1439.2</ele><time>2025-10-22T03:28:19Z</time></trkpt>
    <trkpt lat="28.380075" lon="84.887457"><ele>1439.0</ele><time>2025-10-22T03:28:47Z</time></trkpt>
    <trkpt lat="28.380347" lon="84.887640"><ele>1439.2</ele><time>2025-10-22T03:29:31Z</time></trkpt>
    <trkpt lat="28.380765" lon="84.887788"><ele>1441.4</ele><time>2025-10-22T03:30:08Z</time></trkpt>
    <trkpt lat="28.380959" lon="84.888051"><ele>1441.4</ele><time>2025-10-22T03:30:34Z</time></trkpt>
    <trkpt lat="28.381195" lon="84.888178"><ele>1441.4</ele><time>2025-10-22T03:31:01Z</time></trkpt>
    <trkpt lat="28.381333" lon="84.888378"><ele>1441.4</ele><time>2025-10-22T03:31:19Z</time></trkpt>
    <trkpt lat="28.381450" lon="84.888479"><ele>1442.4</ele><time>2025-10-22T03:31:35Z</time></trkpt>
    <trkpt lat="28.381948" lon="84.888643"><ele>1442.0</ele><time>2025-10-22T03:32:20Z</time></trkpt>
    <trkpt lat="28.382149" lon="84.888655"><ele>1442.0</ele><time>2025-10-22T03:32:39Z</time></trkpt>
    <trkpt lat="28.382227" lon="84.888710"><ele>1442.0</ele><time>2025-10-22T03:32:47Z</time></trkpt>
    <trkpt lat="28.382277" lon="84.888770"><ele>1442.0</ele><time>2025-10-22T03:32:53Z</time></trkpt>
    <trkpt lat="28.382329" lon="84.888894"><ele>1444.0</ele><time>2025-10-22T03:33:06Z</time></trkpt>
    <trkpt lat="28.382355" lon="84.889186"><ele>1449.0</ele><time>2025-10-22T03:33:35Z</time></trkpt>
    <trkpt lat="28.382458" lon="84.889373"><ele>1452.8</ele><time>2025-10-22T03:33:58Z</time></trkpt>
    <trkpt lat="28.382734" lon="84.889561"><ele>1456.4</ele><time>2025-10-22T03:34:36Z</time></trkpt>
    <trkpt lat="28.383109" lon="84.889676"><ele>1460.6</ele><time>2025-10-22T03:35:22Z</time></trkpt>
    <trkpt lat="28.383571" lon="84.890026"><ele>1466.2</ele><time>2025-10-22T03:36:19Z</time></trkpt>
    <trkpt lat="28.383672" lon="84.890160"><ele>1468.4</ele><time>2025-10-22T03:36:35Z</time></trkpt>
    <trkpt lat="28.383786" lon="84.890506"><ele>1474.6</ele><time>2025-10-22T03:37:20Z</time></trkpt>
    <trkpt lat="28.383847" lon="84.890548"><ele>1475.4</ele><time>2025-10-22T03:37:27Z</time></trkpt>
    <trkpt lat="28.383940" lon="84.890550"><ele>1476.4</ele><time>2025-10-22T03:37:42Z</time></trkpt>
    <trkpt lat="28.384050" lon="84.890561"><ele>1477.6</ele><time>2025-10-22T03:37:56Z</time></trkpt>
    <trkpt lat="28.384119" lon="84.890668"><ele>1477.8</ele><time>2025-10-22T03:38:08Z</time></trkpt>
    <trkpt lat="28.384290" lon="84.890752"><ele>1477.8</ele><time>2025-10-22T03:38:28Z</time></trkpt>
    <trkpt lat="28.384358" lon="84.890815"><ele>1477.8</ele><time>2025-10-22T03:38:36Z</time></trkpt>
    <trkpt lat="28.384389" lon="84.890865"><ele>1477.0</ele><time>2025-10-22T03:38:43Z</time></trkpt>
    <trkpt lat="28.384435" lon="84.891169"><ele>1475.4</ele><time>2025-10-22T03:39:10Z</time></trkpt>
    <trkpt lat="28.384860" lon="84.891470"><ele>1471.6</ele><time>2025-10-22T03:40:00Z</time></trkpt>
    <trkpt lat="28.385057" lon="84.891467"><ele>1471.6</ele><time>2025-10-22T03:40:22Z</time></trkpt>
    <trkpt lat="28.385344" lon="84.891334"><ele>1474.8</ele><time>2025-10-22T03:40:57Z</time></trkpt>
    <trkpt lat="28.385627" lon="84.890808"><ele>1479.0</ele><time>2025-10-22T03:41:50Z</time></trkpt>
    <trkpt lat="28.385639" lon="84.890685"><ele>1480.4</ele><time>2025-10-22T03:42:01Z</time></trkpt>
    <trkpt lat="28.385722" lon="84.889916"><ele>1481.2</ele><time>2025-10-22T03:43:05Z</time></trkpt>
    <trkpt lat="28.385678" lon="84.889666"><ele>1483.2</ele><time>2025-10-22T03:43:36Z</time></trkpt>
    <trkpt lat="28.386057" lon="84.889240"><ele>1482.2</ele><time>2025-10-22T03:44:29Z</time></trkpt>
    <trkpt lat="28.386139" lon="84.889179"><ele>1482.4</ele><time>2025-10-22T03:44:39Z</time></trkpt>
    <trkpt lat="28.386188" lon="84.889141"><ele>1484.0</ele><time>2025-10-22T03:44:46Z</time></trkpt>
    <trkpt lat="28.386245" lon="84.889158"><ele>1484.4</ele><time>2025-10-22T03:44:52Z</time></trkpt>
    <trkpt lat="28.386318" lon="84.889112"><ele>1486.0</ele><time>2025-10-22T03:45:03Z</time></trkpt>
    <trkpt lat="28.386290" lon="84.888936"><ele>1488.6</ele><time>2025-10-22T03:45:22Z</time></trkpt>
    <trkpt lat="28.386323" lon="84.888894"><ele>1489.8</ele><time>2025-10-22T03:45:28Z</time></trkpt>
    <trkpt lat="28.386415" lon="84.889051"><ele>1492.2</ele><time>2025-10-22T03:45:46Z</time></trkpt>
    <trkpt lat="28.386554" lon="84.889191"><ele>1494.8</ele><time>2025-10-22T03:46:06Z</time></trkpt>
    <trkpt lat="28.386600" lon="84.889249"><ele>1494.8</ele><time>2025-10-22T03:46:14Z</time></trkpt>
    <trkpt lat="28.386839" lon="84.889345"><ele>1494.8</ele><time>2025-10-22T03:46:39Z</time></trkpt>
    <trkpt lat="28.386938" lon="84.889456"><ele>1494.4</ele><time>2025-10-22T03:46:51Z</time></trkpt>
    <trkpt lat="28.386944" lon="84.889707"><ele>1492.2</ele><time>2025-10-22T03:47:12Z</time></trkpt>
    <trkpt lat="28.387076" lon="84.890133"><ele>1492.6</ele><time>2025-10-22T03:47:48Z</time></trkpt>
    <trkpt lat="28.387098" lon="84.890425"><ele>1494.0</ele><time>2025-10-22T03:48:13Z</time></trkpt>
    <trkpt lat="28.387266" lon="84.890834"><ele>1493.0</ele><time>2025-10-22T03:48:51Z</time></trkpt>
    <trkpt lat="28.387601" lon="84.890811"><ele>1493.4</ele><time>2025-10-22T03:49:23Z</time></trkpt>
    <trkpt lat="28.387707" lon="84.890772"><ele>1493.4</ele><time>2025-10-22T03:49:33Z</time></trkpt>
    <trkpt lat="28.387912" lon="84.890670"><ele>1491.8</ele><time>2025-10-22T03:49:53Z</time></trkpt>
    <trkpt lat="28.388163" lon="84.890692"><ele>1490.4</ele><time>2025-10-22T03:50:15Z</time></trkpt>
    <trkpt lat="28.388421" lon="84.890623"><ele>1488.8</ele><time>2025-10-22T03:50:38Z</time></trkpt>
    <trkpt lat="28.388741" lon="84.890641"><ele>1488.0</ele><time>2025-10-22T03:51:09Z</time></trkpt>
    <trkpt lat="28.388759" lon="84.890672"><ele>1487.8</ele><time>2025-10-22T03:51:12Z</time></trkpt>
    <trkpt lat="28.388757" lon="84.890742"><ele>1488.0</ele><time>2025-10-22T03:52:53Z</time></trkpt>
    <trkpt lat="28.388783" lon="84.890728"><ele>1488.0</ele><time>2025-10-22T03:53:12Z</time></trkpt>
    <trkpt lat="28.388746" lon="84.890727"><ele>1488.2</ele><time>2025-10-22T03:56:07Z</time></trkpt>
    <trkpt lat="28.388762" lon="84.890692"><ele>1488.4</ele><time>2025-10-22T03:56:29Z</time></trkpt>
    <trkpt lat="28.388761" lon="84.890732"><ele>1488.4</ele><time>2025-10-22T03:56:42Z</time></trkpt>
    <trkpt lat="28.388751" lon="84.890698"><ele>1488.4</ele><time>2025-10-22T03:56:59Z</time></trkpt>
    <trkpt lat="28.388721" lon="84.890726"><ele>1488.4</ele><time>2025-10-22T03:57:41Z</time></trkpt>
    <trkpt lat="28.388801" lon="84.890641"><ele>1488.6</ele><time>2025-10-22T03:58:42Z</time></trkpt>
    <trkpt lat="28.388793" lon="84.890723"><ele>1488.8</ele><time>2025-10-22T03:59:03Z</time></trkpt>
    <trkpt lat="28.388752" lon="84.890707"><ele>1488.8</ele><time>2025-10-22T03:59:27Z</time></trkpt>
    <trkpt lat="28.388788" lon="84.890674"><ele>1489.0</ele><time>2025-10-22T03:59:45Z</time></trkpt>
    <trkpt lat="28.388737" lon="84.890673"><ele>1489.0</ele><time>2025-10-22T04:00:16Z</time></trkpt>
    <trkpt lat="28.388761" lon="84.890705"><ele>1489.0</ele><time>2025-10-22T04:00:26Z</time></trkpt>
    <trkpt lat="28.388753" lon="84.890654"><ele>1489.2</ele><time>2025-10-22T04:00:56Z</time></trkpt>
    <trkpt lat="28.388784" lon="84.890634"><ele>1489.4</ele><time>2025-10-22T04:01:02Z</time></trkpt>
    <trkpt lat="28.389496" lon="84.890413"><ele>1492.0</ele><time>2025-10-22T04:02:04Z</time></trkpt>
    <trkpt lat="28.389511" lon="84.890478"><ele>1492.0</ele><time>2025-10-22T04:02:13Z</time></trkpt>
    <trkpt lat="28.389567" lon="84.890508"><ele>1491.8</ele><time>2025-10-22T04:02:32Z</time></trkpt>
    <trkpt lat="28.389627" lon="84.890501"><ele>1491.6</ele><time>2025-10-22T04:02:39Z</time></trkpt>
    <trkpt lat="28.389703" lon="84.890467"><ele>1489.4</ele><time>2025-10-22T04:02:53Z</time></trkpt>
    <trkpt lat="28.389988" lon="84.890645"><ele>1485.2</ele><time>2025-10-22T04:03:23Z</time></trkpt>
    <trkpt lat="28.390147" lon="84.890596"><ele>1482.8</ele><time>2025-10-22T04:03:40Z</time></trkpt>
    <trkpt lat="28.390205" lon="84.890556"><ele>1480.4</ele><time>2025-10-22T04:03:50Z</time></trkpt>
    <trkpt lat="28.390536" lon="84.890631"><ele>1468.2</ele><time>2025-10-22T04:04:39Z</time></trkpt>
    <trkpt lat="28.390580" lon="84.890646"><ele>1466.2</ele><time>2025-10-22T04:04:54Z</time></trkpt>
    <trkpt lat="28.390510" lon="84.890758"><ele>1461.2</ele><time>2025-10-22T04:05:20Z</time></trkpt>
    <trkpt lat="28.390644" lon="84.891320"><ele>1453.0</ele><time>2025-10-22T04:06:21Z</time></trkpt>
    <trkpt lat="28.390791" lon="84.891957"><ele>1449.6</ele><time>2025-10-22T04:07:14Z</time></trkpt>
    <trkpt lat="28.390828" lon="84.892285"><ele>1449.6</ele><time>2025-10-22T04:07:37Z</time></trkpt>
    <trkpt lat="28.390855" lon="84.892343"><ele>1449.6</ele><time>2025-10-22T04:07:43Z</time></trkpt>
    <trkpt lat="28.390910" lon="84.892515"><ele>1450.4</ele><time>2025-10-22T04:07:58Z</time></trkpt>
    <trkpt lat="28.391008" lon="84.893034"><ele>1456.2</ele><time>2025-10-22T04:09:16Z</time></trkpt>
    <trkpt lat="28.391109" lon="84.893390"><ele>1462.4</ele><time>2025-10-22T04:10:01Z</time></trkpt>
    <trkpt lat="28.391111" lon="84.893389"><ele>1462.4</ele><time>2025-10-22T04:10:08Z</time></trkpt>
    <trkpt lat="28.391092" lon="84.893410"><ele>1462.6</ele><time>2025-10-22T04:10:30Z</time></trkpt>
    <trkpt lat="28.391120" lon="84.893394"><ele>1462.6</ele><time>2025-10-22T04:11:14Z</time></trkpt>
    <trkpt lat="28.391075" lon="84.893422"><ele>1462.8</ele><time>2025-10-22T04:11:37Z</time></trkpt>
    <trkpt lat="28.391148" lon="84.893376"><ele>1463.2</ele><time>2025-10-22T04:13:45Z</time></trkpt>
    <trkpt lat="28.391231" lon="84.893398"><ele>1463.6</ele><time>2025-10-22T04:14:31Z</time></trkpt>
    <trkpt lat="28.391236" lon="84.893402"><ele>1463.6</ele><time>2025-10-22T04:14:32Z</time></trkpt>
    <trkpt lat="28.391645" lon="84.893668"><ele>1473.0</ele><time>2025-10-22T04:15:46Z</time></trkpt>
    <trkpt lat="28.391663" lon="84.893671"><ele>1473.4</ele><time>2025-10-22T04:15:50Z</time></trkpt>
    <trkpt lat="28.391770" lon="84.893669"><ele>1473.8</ele><time>2025-10-22T04:16:04Z</time></trkpt>
    <trkpt lat="28.391903" lon="84.893753"><ele>1474.0</ele><time>2025-10-22T04:16:24Z</time></trkpt>
    <trkpt lat="28.391978" lon="84.893757"><ele>1474.0</ele><time>2025-10-22T04:16:33Z</time></trkpt>
    <trkpt lat="28.392064" lon="84.893759"><ele>1475.2</ele><time>2025-10-22T04:16:44Z</time></trkpt>
    <trkpt lat="28.392333" lon="84.893677"><ele>1480.8</ele><time>2025-10-22T04:17:21Z</time></trkpt>
    <trkpt lat="28.392577" lon="84.893515"><ele>1489.6</ele><time>2025-10-22T04:18:11Z</time></trkpt>
    <trkpt lat="28.392712" lon="84.893574"><ele>1493.8</ele><time>2025-10-22T04:18:37Z</time></trkpt>
    <trkpt lat="28.392853" lon="84.893568"><ele>1499.4</ele><time>2025-10-22T04:19:12Z</time></trkpt>
    <trkpt lat="28.393053" lon="84.893673"><ele>1507.2</ele><time>2025-10-22T04:20:04Z</time></trkpt>
    <trkpt lat="28.393048" lon="84.893729"><ele>1509.2</ele><time>2025-10-22T04:20:15Z</time></trkpt>
    <trkpt lat="28.392732" lon="84.893963"><ele>1520.0</ele><time>2025-10-22T04:21:28Z</time></trkpt>
    <trkpt lat="28.392653" lon="84.894120"><ele>1525.0</ele><time>2025-10-22T04:22:05Z</time></trkpt>
    <trkpt lat="28.392679" lon="84.894177"><ele>1527.4</ele><time>2025-10-22T04:22:17Z</time></trkpt>
    <trkpt lat="28.392658" lon="84.894312"><ele>1531.2</ele><time>2025-10-22T04:22:42Z</time></trkpt>
    <trkpt lat="28.392564" lon="84.894429"><ele>1535.0</ele><time>2025-10-22T04:23:07Z</time></trkpt>
    <trkpt lat="28.392626" lon="84.894489"><ele>1538.4</ele><time>2025-10-22T04:23:23Z</time></trkpt>
    <trkpt lat="28.392612" lon="84.894589"><ele>1540.8</ele><time>2025-10-22T04:23:36Z</time></trkpt>
    <trkpt lat="28.392745" lon="84.894727"><ele>1544.0</ele><time>2025-10-22T04:24:03Z</time></trkpt>
    <trkpt lat="28.392757" lon="84.894919"><ele>1549.2</ele><time>2025-10-22T04:24:37Z</time></trkpt>
    <trkpt lat="28.392759" lon="84.894946"><ele>1550.4</ele><time>2025-10-22T04:25:35Z</time></trkpt>
    <trkpt lat="28.392767" lon="84.895340"><ele>1558.4</ele><time>2025-10-22T04:26:31Z</time></trkpt>
    <trkpt lat="28.392838" lon="84.895407"><ele>1559.8</ele><time>2025-10-22T04:26:44Z</time></trkpt>
    <trkpt lat="28.392886" lon="84.895546"><ele>1561.0</ele><time>2025-10-22T04:26:58Z</time></trkpt>
    <trkpt lat="28.392903" lon="84.895662"><ele>1561.2</ele><time>2025-10-22T04:27:09Z</time></trkpt>
    <trkpt lat="28.393119" lon="84.896181"><ele>1564.6</ele><time>2025-10-22T04:29:25Z</time></trkpt>
    <trkpt lat="28.393463" lon="84.896207"><ele>1564.8</ele><time>2025-10-22T04:30:22Z</time></trkpt>
    <trkpt lat="28.393452" lon="84.896222"><ele>1564.8</ele><time>2025-10-22T04:30:31Z</time></trkpt>
    <trkpt lat="28.393606" lon="84.896263"><ele>1568.4</ele><time>2025-10-22T05:11:30Z</time></trkpt>
    <trkpt lat="28.393751" lon="84.896329"><ele>1569.0</ele><time>2025-10-22T05:11:53Z</time></trkpt>
    <trkpt lat="28.394249" lon="84.896448"><ele>1571.2</ele><time>2025-10-22T05:12:49Z</time></trkpt>
    <trkpt lat="28.394452" lon="84.896571"><ele>1571.8</ele><time>2025-10-22T05:13:15Z</time></trkpt>
    <trkpt lat="28.394752" lon="84.896739"><ele>1571.6</ele><time>2025-10-22T05:14:13Z</time></trkpt>
    <trkpt lat="28.394868" lon="84.897022"><ele>1570.2</ele><time>2025-10-22T05:14:42Z</time></trkpt>
    <trkpt lat="28.394937" lon="84.897070"><ele>1570.2</ele><time>2025-10-22T05:14:50Z</time></trkpt>
    <trkpt lat="28.395177" lon="84.896944"><ele>1571.6</ele><time>2025-10-22T05:15:21Z</time></trkpt>
    <trkpt lat="28.395415" lon="84.897010"><ele>1571.8</ele><time>2025-10-22T05:15:53Z</time></trkpt>
    <trkpt lat="28.395766" lon="84.896919"><ele>1571.6</ele><time>2025-10-22T05:16:31Z</time></trkpt>
    <trkpt lat="28.395955" lon="84.897026"><ele>1570.6</ele><time>2025-10-22T05:16:53Z</time></trkpt>
    <trkpt lat="28.396133" lon="84.896837"><ele>1570.8</ele><time>2025-10-22T05:17:16Z</time></trkpt>
    <trkpt lat="28.396163" lon="84.896832"><ele>1570.8</ele><time>2025-10-22T05:17:19Z</time></trkpt>
    <trkpt lat="28.396242" lon="84.896811"><ele>1571.8</ele><time>2025-10-22T05:17:27Z</time></trkpt>
    <trkpt lat="28.396441" lon="84.896676"><ele>1574.2</ele><time>2025-10-22T05:17:50Z</time></trkpt>
    <trkpt lat="28.396611" lon="84.896641"><ele>1575.4</ele><time>2025-10-22T05:18:06Z</time></trkpt>
    <trkpt lat="28.396852" lon="84.896568"><ele>1575.4</ele><time>2025-10-22T05:18:29Z</time></trkpt>
    <trkpt lat="28.397053" lon="84.896471"><ele>1575.6</ele><time>2025-10-22T05:18:47Z</time></trkpt>
    <trkpt lat="28.397232" lon="84.896423"><ele>1575.6</ele><time>2025-10-22T05:19:02Z</time></trkpt>
    <trkpt lat="28.397307" lon="84.896434"><ele>1575.8</ele><time>2025-10-22T05:19:10Z</time></trkpt>
    <trkpt lat="28.397569" lon="84.896494"><ele>1583.0</ele><time>2025-10-22T05:19:58Z</time></trkpt>
    <trkpt lat="28.397625" lon="84.896483"><ele>1584.4</ele><time>2025-10-22T05:20:07Z</time></trkpt>
    <trkpt lat="28.397690" lon="84.896468"><ele>1584.4</ele><time>2025-10-22T05:20:14Z</time></trkpt>
    <trkpt lat="28.398024" lon="84.896293"><ele>1584.2</ele><time>2025-10-22T05:20:51Z</time></trkpt>
    <trkpt lat="28.398273" lon="84.896157"><ele>1581.2</ele><time>2025-10-22T05:21:15Z</time></trkpt>
    <trkpt lat="28.398483" lon="84.895863"><ele>1574.6</ele><time>2025-10-22T05:21:51Z</time></trkpt>
    <trkpt lat="28.398600" lon="84.895748"><ele>1574.6</ele><time>2025-10-22T05:22:04Z</time></trkpt>
    <trkpt lat="28.399067" lon="84.895482"><ele>1574.8</ele><time>2025-10-22T05:22:56Z</time></trkpt>
    <trkpt lat="28.399095" lon="84.895467"><ele>1574.0</ele><time>2025-10-22T05:23:01Z</time></trkpt>
    <trkpt lat="28.399198" lon="84.895314"><ele>1569.2</ele><time>2025-10-22T05:23:31Z</time></trkpt>
    <trkpt lat="28.399228" lon="84.895300"><ele>1568.4</ele><time>2025-10-22T05:23:37Z</time></trkpt>
    <trkpt lat="28.399444" lon="84.895074"><ele>1568.2</ele><time>2025-10-22T05:24:10Z</time></trkpt>
    <trkpt lat="28.399514" lon="84.895051"><ele>1568.2</ele><time>2025-10-22T05:24:18Z</time></trkpt>
    <trkpt lat="28.399644" lon="84.895033"><ele>1572.0</ele><time>2025-10-22T05:24:41Z</time></trkpt>
    <trkpt lat="28.400111" lon="84.894765"><ele>1581.8</ele><time>2025-10-22T05:25:55Z</time></trkpt>
    <trkpt lat="28.400400" lon="84.894704"><ele>1583.6</ele><time>2025-10-22T05:26:31Z</time></trkpt>
    <trkpt lat="28.400601" lon="84.894715"><ele>1586.6</ele><time>2025-10-22T05:26:57Z</time></trkpt>
    <trkpt lat="28.400676" lon="84.894674"><ele>1586.8</ele><time>2025-10-22T05:27:05Z</time></trkpt>
    <trkpt lat="28.400895" lon="84.894473"><ele>1586.8</ele><time>2025-10-22T05:27:39Z</time></trkpt>
    <trkpt lat="28.401169" lon="84.894181"><ele>1583.8</ele><time>2025-10-22T05:28:13Z</time></trkpt>
    <trkpt lat="28.401432" lon="84.894062"><ele>1583.8</ele><time>2025-10-22T05:28:40Z</time></trkpt>
    <trkpt lat="28.401673" lon="84.894000"><ele>1589.8</ele><time>2025-10-22T05:29:23Z</time></trkpt>
    <trkpt lat="28.401908" lon="84.893862"><ele>1591.2</ele><time>2025-10-22T05:29:49Z</time></trkpt>
    <trkpt lat="28.402036" lon="84.893753"><ele>1591.4</ele><time>2025-10-22T05:30:03Z</time></trkpt>
    <trkpt lat="28.402628" lon="84.893697"><ele>1591.6</ele><time>2025-10-22T05:30:58Z</time></trkpt>
    <trkpt lat="28.403076" lon="84.893605"><ele>1590.6</ele><time>2025-10-22T05:31:31Z</time></trkpt>
    <trkpt lat="28.403879" lon="84.893584"><ele>1587.6</ele><time>2025-10-22T05:32:44Z</time></trkpt>
    <trkpt lat="28.404021" lon="84.893530"><ele>1587.6</ele><time>2025-10-22T05:32:58Z</time></trkpt>
    <trkpt lat="28.404123" lon="84.893544"><ele>1587.6</ele><time>2025-10-22T05:33:06Z</time></trkpt>
    <trkpt lat="28.404502" lon="84.893580"><ele>1588.8</ele><time>2025-10-22T05:33:49Z</time></trkpt>
    <trkpt lat="28.404991" lon="84.893554"><ele>1592.6</ele><time>2025-10-22T05:34:49Z</time></trkpt>
    <trkpt lat="28.405008" lon="84.893561"><ele>1592.8</ele><time>2025-10-22T05:34:51Z</time></trkpt>
    <trkpt lat="28.405285" lon="84.893694"><ele>1598.2</ele><time>2025-10-22T05:35:31Z</time></trkpt>
    <trkpt lat="28.405657" lon="84.893762"><ele>1602.6</ele><time>2025-10-22T05:36:14Z</time></trkpt>
    <trkpt lat="28.405781" lon="84.893718"><ele>1607.0</ele><time>2025-10-22T05:36:38Z</time></trkpt>
    <trkpt lat="28.405909" lon="84.893689"><ele>1608.0</ele><time>2025-10-22T05:36:52Z</time></trkpt>
    <trkpt lat="28.406303" lon="84.893444"><ele>1611.2</ele><time>2025-10-22T05:37:42Z</time></trkpt>
    <trkpt lat="28.406407" lon="84.893481"><ele>1612.4</ele><time>2025-10-22T05:37:55Z</time></trkpt>
    <trkpt lat="28.406656" lon="84.893814"><ele>1618.2</ele><time>2025-10-22T05:38:41Z</time></trkpt>
    <trkpt lat="28.406673" lon="84.893835"><ele>1618.2</ele><time>2025-10-22T05:38:45Z</time></trkpt>
    <trkpt lat="28.406861" lon="84.893897"><ele>1619.8</ele><time>2025-10-22T05:39:05Z</time></trkpt>
    <trkpt lat="28.407031" lon="84.893888"><ele>1620.0</ele><time>2025-10-22T05:39:20Z</time></trkpt>
    <trkpt lat="28.407104" lon="84.893955"><ele>1620.0</ele><time>2025-10-22T05:39:30Z</time></trkpt>
    <trkpt lat="28.407242" lon="84.894130"><ele>1625.8</ele><time>2025-10-22T05:40:00Z</time></trkpt>
    <trkpt lat="28.407519" lon="84.894231"><ele>1633.2</ele><time>2025-10-22T05:40:45Z</time></trkpt>
    <trkpt lat="28.407595" lon="84.894243"><ele>1633.8</ele><time>2025-10-22T05:41:19Z</time></trkpt>
    <trkpt lat="28.407635" lon="84.894301"><ele>1633.8</ele><time>2025-10-22T05:41:43Z</time></trkpt>
    <trkpt lat="28.407806" lon="84.894385"><ele>1633.8</ele><time>2025-10-22T05:42:00Z</time></trkpt>
    <trkpt lat="28.408041" lon="84.894463"><ele>1633.4</ele><time>2025-10-22T05:42:21Z</time></trkpt>
    <trkpt lat="28.408199" lon="84.894449"><ele>1633.2</ele><time>2025-10-22T05:42:36Z</time></trkpt>
    <trkpt lat="28.408632" lon="84.894540"><ele>1633.0</ele><time>2025-10-22T05:43:22Z</time></trkpt>
    <trkpt lat="28.408659" lon="84.894542"><ele>1633.4</ele><time>2025-10-22T05:43:25Z</time></trkpt>
    <trkpt lat="28.408893" lon="84.894508"><ele>1637.8</ele><time>2025-10-22T05:43:54Z</time></trkpt>
    <trkpt lat="28.409029" lon="84.894552"><ele>1639.6</ele><time>2025-10-22T05:44:11Z</time></trkpt>
    <trkpt lat="28.409050" lon="84.894553"><ele>1639.8</ele><time>2025-10-22T05:44:13Z</time></trkpt>
    <trkpt lat="28.409351" lon="84.894522"><ele>1641.2</ele><time>2025-10-22T05:44:46Z</time></trkpt>
    <trkpt lat="28.409422" lon="84.894479"><ele>1642.2</ele><time>2025-10-22T05:45:53Z</time></trkpt>
    <trkpt lat="28.409426" lon="84.894461"><ele>1644.6</ele><time>2025-10-22T05:55:43Z</time></trkpt>
    <trkpt lat="28.409462" lon="84.894440"><ele>1644.6</ele><time>2025-10-22T05:55:54Z</time></trkpt>
    <trkpt lat="28.409759" lon="84.894399"><ele>1643.0</ele><time>2025-10-22T05:56:31Z</time></trkpt>
    <trkpt lat="28.409792" lon="84.894378"><ele>1642.8</ele><time>2025-10-22T05:56:37Z</time></trkpt>
    <trkpt lat="28.410102" lon="84.894192"><ele>1636.0</ele><time>2025-10-22T05:57:20Z</time></trkpt>
    <trkpt lat="28.410652" lon="84.894291"><ele>1623.2</ele><time>2025-10-22T05:58:39Z</time></trkpt>
    <trkpt lat="28.410708" lon="84.894268"><ele>1621.4</ele><time>2025-10-22T05:58:49Z</time></trkpt>
    <trkpt lat="28.410896" lon="84.894265"><ele>1620.2</ele><time>2025-10-22T05:59:19Z</time></trkpt>
    <trkpt lat="28.410967" lon="84.894315"><ele>1620.0</ele><time>2025-10-22T05:59:32Z</time></trkpt>
    <trkpt lat="28.411026" lon="84.894288"><ele>1619.0</ele><time>2025-10-22T05:59:44Z</time></trkpt>
    <trkpt lat="28.411143" lon="84.894292"><ele>1618.0</ele><time>2025-10-22T05:59:56Z</time></trkpt>
    <trkpt lat="28.411509" lon="84.894328"><ele>1611.6</ele><time>2025-10-22T06:00:33Z</time></trkpt>
    <trkpt lat="28.411519" lon="84.894327"><ele>1611.6</ele><time>2025-10-22T06:00:34Z</time></trkpt>
    <trkpt lat="28.412177" lon="84.893892"><ele>1614.2</ele><time>2025-10-22T06:01:45Z</time></trkpt>
    <trkpt lat="28.412308" lon="84.893820"><ele>1617.2</ele><time>2025-10-22T06:02:03Z</time></trkpt>
    <trkpt lat="28.412431" lon="84.893686"><ele>1620.4</ele><time>2025-10-22T06:02:22Z</time></trkpt>
    <trkpt lat="28.412530" lon="84.893696"><ele>1623.8</ele><time>2025-10-22T06:02:37Z</time></trkpt>
    <trkpt lat="28.412629" lon="84.893637"><ele>1626.0</ele><time>2025-10-22T06:02:53Z</time></trkpt>
    <trkpt lat="28.412816" lon="84.893699"><ele>1628.8</ele><time>2025-10-22T06:03:18Z</time></trkpt>
    <trkpt lat="28.412905" lon="84.893726"><ele>1628.8</ele><time>2025-10-22T06:03:27Z</time></trkpt>
    <trkpt lat="28.412992" lon="84.893826"><ele>1629.0</ele><time>2025-10-22T06:03:57Z</time></trkpt>
    <trkpt lat="28.412892" lon="84.893726"><ele>1629.0</ele><time>2025-10-22T06:04:17Z</time></trkpt>
    <trkpt lat="28.412634" lon="84.893696"><ele>1627.6</ele><time>2025-10-22T06:04:59Z</time></trkpt>
    <trkpt lat="28.412835" lon="84.893673"><ele>1629.4</ele><time>2025-10-22T06:06:23Z</time></trkpt>
    <trkpt lat="28.413182" lon="84.893957"><ele>1629.6</ele><time>2025-10-22T06:07:01Z</time></trkpt>
    <trkpt lat="28.413297" lon="84.894008"><ele>1629.4</ele><time>2025-10-22T06:07:55Z</time></trkpt>
    <trkpt lat="28.413379" lon="84.894157"><ele>1629.4</ele><time>2025-10-22T06:08:10Z</time></trkpt>
    <trkpt lat="28.413466" lon="84.894319"><ele>1627.0</ele><time>2025-10-22T06:08:32Z</time></trkpt>
    <trkpt lat="28.413529" lon="84.894309"><ele>1626.8</ele><time>2025-10-22T06:08:39Z</time></trkpt>
    <trkpt lat="28.413647" lon="84.894169"><ele>1626.4</ele><time>2025-10-22T06:08:54Z</time></trkpt>
    <trkpt lat="28.413733" lon="84.894165"><ele>1626.4</ele><time>2025-10-22T06:09:00Z</time></trkpt>
    <trkpt lat="28.414309" lon="84.894439"><ele>1625.2</ele><time>2025-10-22T06:09:52Z</time></trkpt>
    <trkpt lat="28.414653" lon="84.894518"><ele>1624.4</ele><time>2025-10-22T06:10:26Z</time></trkpt>
    <trkpt lat="28.415177" lon="84.894504"><ele>1623.6</ele><time>2025-10-22T06:11:12Z</time></trkpt>
    <trkpt lat="28.415407" lon="84.894722"><ele>1623.4</ele><time>2025-10-22T06:11:35Z</time></trkpt>
    <trkpt lat="28.415524" lon="84.894989"><ele>1623.4</ele><time>2025-10-22T06:11:57Z</time></trkpt>
    <trkpt lat="28.415637" lon="84.895123"><ele>1623.2</ele><time>2025-10-22T06:12:10Z</time></trkpt>
    <trkpt lat="28.415668" lon="84.895243"><ele>1622.6</ele><time>2025-10-22T06:12:19Z</time></trkpt>
    <trkpt lat="28.415730" lon="84.895343"><ele>1622.4</ele><time>2025-10-22T06:12:29Z</time></trkpt>
    <trkpt lat="28.415834" lon="84.895500"><ele>1618.0</ele><time>2025-10-22T06:12:44Z</time></trkpt>
    <trkpt lat="28.416085" lon="84.895678"><ele>1613.2</ele><time>2025-10-22T06:13:10Z</time></trkpt>
    <trkpt lat="28.416429" lon="84.895841"><ele>1606.6</ele><time>2025-10-22T06:13:42Z</time></trkpt>
    <trkpt lat="28.416547" lon="84.895893"><ele>1605.6</ele><time>2025-10-22T06:13:55Z</time></trkpt>
    <trkpt lat="28.416952" lon="84.896135"><ele>1603.4</ele><time>2025-10-22T06:14:32Z</time></trkpt>
    <trkpt lat="28.416964" lon="84.896269"><ele>1603.4</ele><time>2025-10-22T06:14:46Z</time></trkpt>
    <trkpt lat="28.417103" lon="84.896416"><ele>1603.2</ele><time>2025-10-22T06:15:03Z</time></trkpt>
    <trkpt lat="28.417138" lon="84.896429"><ele>1603.2</ele><time>2025-10-22T06:15:07Z</time></trkpt>
    <trkpt lat="28.417232" lon="84.896353"><ele>1603.2</ele><time>2025-10-22T06:15:22Z</time></trkpt>
    <trkpt lat="28.417358" lon="84.896240"><ele>1601.4</ele><time>2025-10-22T06:15:36Z</time></trkpt>
    <trkpt lat="28.417424" lon="84.896216"><ele>1599.0</ele><time>2025-10-22T06:15:43Z</time></trkpt>
    <trkpt lat="28.417685" lon="84.896102"><ele>1599.0</ele><time>2025-10-22T06:16:13Z</time></trkpt>
    <trkpt lat="28.417750" lon="84.896062"><ele>1602.2</ele><time>2025-10-22T06:16:23Z</time></trkpt>
    <trkpt lat="28.417882" lon="84.896036"><ele>1604.2</ele><time>2025-10-22T06:16:36Z</time></trkpt>
    <trkpt lat="28.417894" lon="84.896035"><ele>1604.2</ele><time>2025-10-22T06:16:37Z</time></trkpt>
    <trkpt lat="28.417924" lon="84.896057"><ele>1604.4</ele><time>2025-10-22T06:16:42Z</time></trkpt>
    <trkpt lat="28.417892" lon="84.896099"><ele>1604.6</ele><time>2025-10-22T06:17:33Z</time></trkpt>
    <trkpt lat="28.417911" lon="84.896051"><ele>1604.2</ele><time>2025-10-22T06:17:54Z</time></trkpt>
    <trkpt lat="28.418008" lon="84.896098"><ele>1604.2</ele><time>2025-10-22T06:18:20Z</time></trkpt>
    <trkpt lat="28.418085" lon="84.896155"><ele>1603.4</ele><time>2025-10-22T06:18:29Z</time></trkpt>
    <trkpt lat="28.418224" lon="84.896361"><ele>1601.2</ele><time>2025-10-22T06:18:49Z</time></trkpt>
    <trkpt lat="28.418411" lon="84.896625"><ele>1592.0</ele><time>2025-10-22T06:19:19Z</time></trkpt>
    <trkpt lat="28.418551" lon="84.896762"><ele>1587.6</ele><time>2025-10-22T06:19:37Z</time></trkpt>
    <trkpt lat="28.418606" lon="84.896774"><ele>1587.6</ele><time>2025-10-22T06:19:43Z</time></trkpt>
    <trkpt lat="28.418658" lon="84.896725"><ele>1587.6</ele><time>2025-10-22T06:19:50Z</time></trkpt>
    <trkpt lat="28.418904" lon="84.896701"><ele>1587.8</ele><time>2025-10-22T06:20:16Z</time></trkpt>
    <trkpt lat="28.419038" lon="84.896525"><ele>1589.8</ele><time>2025-10-22T06:20:34Z</time></trkpt>
    <trkpt lat="28.419291" lon="84.896574"><ele>1590.8</ele><time>2025-10-22T06:20:58Z</time></trkpt>
    <trkpt lat="28.419368" lon="84.896652"><ele>1590.8</ele><time>2025-10-22T06:21:06Z</time></trkpt>
    <trkpt lat="28.419484" lon="84.896546"><ele>1591.4</ele><time>2025-10-22T06:21:21Z</time></trkpt>
    <trkpt lat="28.419603" lon="84.896555"><ele>1591.4</ele><time>2025-10-22T06:21:30Z</time></trkpt>
    <trkpt lat="28.419933" lon="84.896714"><ele>1592.0</ele><time>2025-10-22T06:22:07Z</time></trkpt>
    <trkpt lat="28.420030" lon="84.896659"><ele>1592.8</ele><time>2025-10-22T06:22:21Z</time></trkpt>
    <trkpt lat="28.420065" lon="84.896660"><ele>1593.0</ele><time>2025-10-22T06:22:26Z</time></trkpt>
    <trkpt lat="28.420317" lon="84.896663"><ele>1593.0</ele><time>2025-10-22T06:22:50Z</time></trkpt>
    <trkpt lat="28.420637" lon="84.896393"><ele>1589.4</ele><time>2025-10-22T06:23:31Z</time></trkpt>
    <trkpt lat="28.420784" lon="84.896336"><ele>1588.4</ele><time>2025-10-22T06:24:28Z</time></trkpt>
    <trkpt lat="28.420896" lon="84.896421"><ele>1588.4</ele><time>2025-10-22T06:24:39Z</time></trkpt>
    <trkpt lat="28.421073" lon="84.896412"><ele>1588.4</ele><time>2025-10-22T06:25:01Z</time></trkpt>
    <trkpt lat="28.421081" lon="84.896400"><ele>1588.4</ele><time>2025-10-22T06:25:07Z</time></trkpt>
    <trkpt lat="28.421116" lon="84.896270"><ele>1593.0</ele><time>2025-10-22T06:25:26Z</time></trkpt>
    <trkpt lat="28.421141" lon="84.896245"><ele>1594.6</ele><time>2025-10-22T06:25:32Z</time></trkpt>
    <trkpt lat="28.421185" lon="84.896207"><ele>1594.8</ele><time>2025-10-22T06:25:42Z</time></trkpt>
    <trkpt lat="28.421255" lon="84.896203"><ele>1594.8</ele><time>2025-10-22T06:25:57Z</time></trkpt>
    <trkpt lat="28.421581" lon="84.896220"><ele>1592.6</ele><time>2025-10-22T06:26:30Z</time></trkpt>
    <trkpt lat="28.421858" lon="84.895962"><ele>1592.0</ele><time>2025-10-22T06:27:21Z</time></trkpt>
    <trkpt lat="28.421902" lon="84.895962"><ele>1591.8</ele><time>2025-10-22T06:27:28Z</time></trkpt>
    <trkpt lat="28.421981" lon="84.895932"><ele>1587.2</ele><time>2025-10-22T06:27:50Z</time></trkpt>
    <trkpt lat="28.422079" lon="84.895971"><ele>1584.6</ele><time>2025-10-22T06:28:04Z</time></trkpt>
    <trkpt lat="28.422108" lon="84.895898"><ele>1583.6</ele><time>2025-10-22T06:28:15Z</time></trkpt>
    <trkpt lat="28.422180" lon="84.895941"><ele>1580.8</ele><time>2025-10-22T06:28:28Z</time></trkpt>
    <trkpt lat="28.422307" lon="84.895895"><ele>1578.2</ele><time>2025-10-22T06:28:46Z</time></trkpt>
    <trkpt lat="28.422380" lon="84.895883"><ele>1578.0</ele><time>2025-10-22T06:28:52Z</time></trkpt>
    <trkpt lat="28.422533" lon="84.895783"><ele>1577.8</ele><time>2025-10-22T06:29:15Z</time></trkpt>
    <trkpt lat="28.422709" lon="84.895783"><ele>1575.4</ele><time>2025-10-22T06:29:36Z</time></trkpt>
    <trkpt lat="28.422762" lon="84.895705"><ele>1575.4</ele><time>2025-10-22T06:29:48Z</time></trkpt>
    <trkpt lat="28.422981" lon="84.895681"><ele>1575.4</ele><time>2025-10-22T06:30:12Z</time></trkpt>
    <trkpt lat="28.423008" lon="84.895687"><ele>1575.6</ele><time>2025-10-22T06:30:14Z</time></trkpt>
    <trkpt lat="28.423309" lon="84.895478"><ele>1578.6</ele><time>2025-10-22T06:30:56Z</time></trkpt>
    <trkpt lat="28.423724" lon="84.895336"><ele>1581.0</ele><time>2025-10-22T06:31:42Z</time></trkpt>
    <trkpt lat="28.423772" lon="84.895310"><ele>1581.0</ele><time>2025-10-22T06:31:49Z</time></trkpt>
    <trkpt lat="28.424260" lon="84.895046"><ele>1590.6</ele><time>2025-10-22T06:32:55Z</time></trkpt>
    <trkpt lat="28.424308" lon="84.895035"><ele>1590.6</ele><time>2025-10-22T06:33:03Z</time></trkpt>
    <trkpt lat="28.424452" lon="84.895067"><ele>1590.6</ele><time>2025-10-22T06:33:17Z</time></trkpt>
    <trkpt lat="28.424619" lon="84.895048"><ele>1589.8</ele><time>2025-10-22T06:33:42Z</time></trkpt>
    <trkpt lat="28.424850" lon="84.895105"><ele>1589.6</ele><time>2025-10-22T06:33:58Z</time></trkpt>
    <trkpt lat="28.425014" lon="84.895078"><ele>1588.4</ele><time>2025-10-22T06:34:14Z</time></trkpt>
    <trkpt lat="28.425356" lon="84.895167"><ele>1585.2</ele><time>2025-10-22T06:34:42Z</time></trkpt>
    <trkpt lat="28.425552" lon="84.895310"><ele>1585.2</ele><time>2025-10-22T06:35:04Z</time></trkpt>
    <trkpt lat="28.425631" lon="84.895265"><ele>1585.2</ele><time>2025-10-22T06:35:17Z</time></trkpt>
    <trkpt lat="28.425634" lon="84.895263"><ele>1585.4</ele><time>2025-10-22T06:35:18Z</time></trkpt>
    <trkpt lat="28.425869" lon="84.895241"><ele>1591.2</ele><time>2025-10-22T06:35:53Z</time></trkpt>
    <trkpt lat="28.425940" lon="84.895193"><ele>1593.6</ele><time>2025-10-22T06:36:09Z</time></trkpt>
    <trkpt lat="28.426007" lon="84.895259"><ele>1597.0</ele><time>2025-10-22T06:36:27Z</time></trkpt>
    <trkpt lat="28.426111" lon="84.895241"><ele>1599.6</ele><time>2025-10-22T06:36:45Z</time></trkpt>
    <trkpt lat="28.426225" lon="84.895303"><ele>1601.0</ele><time>2025-10-22T06:36:59Z</time></trkpt>
    <trkpt lat="28.426284" lon="84.895305"><ele>1601.2</ele><time>2025-10-22T06:37:06Z</time></trkpt>
    <trkpt lat="28.426419" lon="84.895415"><ele>1601.2</ele><time>2025-10-22T06:37:23Z</time></trkpt>
    <trkpt lat="28.426587" lon="84.895310"><ele>1600.8</ele><time>2025-10-22T06:37:42Z</time></trkpt>
    <trkpt lat="28.426838" lon="84.895499"><ele>1600.4</ele><time>2025-10-22T06:38:03Z</time></trkpt>
    <trkpt lat="28.426989" lon="84.895690"><ele>1600.2</ele><time>2025-10-22T06:38:25Z</time></trkpt>
    <trkpt lat="28.427109" lon="84.895726"><ele>1600.2</ele><time>2025-10-22T06:38:34Z</time></trkpt>
    <trkpt lat="28.427147" lon="84.895752"><ele>1600.2</ele><time>2025-10-22T06:38:39Z</time></trkpt>
    <trkpt lat="28.427381" lon="84.895952"><ele>1603.8</ele><time>2025-10-22T06:39:11Z</time></trkpt>
    <trkpt lat="28.427455" lon="84.895972"><ele>1605.2</ele><time>2025-10-22T06:39:24Z</time></trkpt>
    <trkpt lat="28.427577" lon="84.896040"><ele>1606.6</ele><time>2025-10-22T06:40:38Z</time></trkpt>
    <trkpt lat="28.427774" lon="84.896293"><ele>1612.0</ele><time>2025-10-22T06:41:22Z</time></trkpt>
    <trkpt lat="28.427944" lon="84.896432"><ele>1617.0</ele><time>2025-10-22T06:41:57Z</time></trkpt>
    <trkpt lat="28.428465" lon="84.896433"><ele>1624.0</ele><time>2025-10-22T06:43:41Z</time></trkpt>
    <trkpt lat="28.428662" lon="84.896535"><ele>1628.0</ele><time>2025-10-22T06:44:19Z</time></trkpt>
    <trkpt lat="28.428884" lon="84.896568"><ele>1633.6</ele><time>2025-10-22T06:45:04Z</time></trkpt>
    <trkpt lat="28.429082" lon="84.896613"><ele>1633.0</ele><time>2025-10-22T06:45:59Z</time></trkpt>
    <trkpt lat="28.429530" lon="84.896884"><ele>1636.2</ele><time>2025-10-22T06:47:00Z</time></trkpt>
    <trkpt lat="28.429605" lon="84.896854"><ele>1636.2</ele><time>2025-10-22T06:47:08Z</time></trkpt>
    <trkpt lat="28.429752" lon="84.896877"><ele>1635.4</ele><time>2025-10-22T06:47:22Z</time></trkpt>
    <trkpt lat="28.429750" lon="84.896907"><ele>1635.4</ele><time>2025-10-22T06:47:44Z</time></trkpt>
    <trkpt lat="28.430008" lon="84.896915"><ele>1636.0</ele><time>2025-10-22T06:48:29Z</time></trkpt>
    <trkpt lat="28.430188" lon="84.897008"><ele>1637.4</ele><time>2025-10-22T06:48:47Z</time></trkpt>
    <trkpt lat="28.430442" lon="84.897184"><ele>1634.8</ele><time>2025-10-22T06:49:23Z</time></trkpt>
    <trkpt lat="28.430584" lon="84.897215"><ele>1634.8</ele><time>2025-10-22T06:49:35Z</time></trkpt>
    <trkpt lat="28.431024" lon="84.897590"><ele>1636.4</ele><time>2025-10-22T06:50:36Z</time></trkpt>
    <trkpt lat="28.431044" lon="84.897613"><ele>1636.2</ele><time>2025-10-22T06:50:40Z</time></trkpt>
    <trkpt lat="28.431096" lon="84.897604"><ele>1635.6</ele><time>2025-10-22T06:50:46Z</time></trkpt>
    <trkpt lat="28.431198" lon="84.897675"><ele>1634.8</ele><time>2025-10-22T06:50:57Z</time></trkpt>
    <trkpt lat="28.431321" lon="84.897624"><ele>1633.2</ele><time>2025-10-22T06:51:10Z</time></trkpt>
    <trkpt lat="28.431489" lon="84.897471"><ele>1633.0</ele><time>2025-10-22T06:51:27Z</time></trkpt>
    <trkpt lat="28.431598" lon="84.897595"><ele>1632.4</ele><time>2025-10-22T06:51:37Z</time></trkpt>
    <trkpt lat="28.431687" lon="84.897552"><ele>1630.0</ele><time>2025-10-22T06:51:52Z</time></trkpt>
    <trkpt lat="28.431770" lon="84.897586"><ele>1630.0</ele><time>2025-10-22T06:51:57Z</time></trkpt>
    <trkpt lat="28.431861" lon="84.897693"><ele>1629.2</ele><time>2025-10-22T06:52:07Z</time></trkpt>
    <trkpt lat="28.431885" lon="84.897598"><ele>1626.4</ele><time>2025-10-22T06:52:18Z</time></trkpt>
    <trkpt lat="28.431982" lon="84.897576"><ele>1626.4</ele><time>2025-10-22T06:52:31Z</time></trkpt>
    <trkpt lat="28.432074" lon="84.897496"><ele>1626.4</ele><time>2025-10-22T06:52:44Z</time></trkpt>
    <trkpt lat="28.432183" lon="84.897492"><ele>1628.6</ele><time>2025-10-22T06:52:53Z</time></trkpt>
    <trkpt lat="28.432265" lon="84.897563"><ele>1631.0</ele><time>2025-10-22T06:53:07Z</time></trkpt>
    <trkpt lat="28.432333" lon="84.897474"><ele>1633.0</ele><time>2025-10-22T06:53:21Z</time></trkpt>
    <trkpt lat="28.432484" lon="84.897623"><ele>1635.2</ele><time>2025-10-22T06:53:46Z</time></trkpt>
    <trkpt lat="28.432508" lon="84.897723"><ele>1636.4</ele><time>2025-10-22T06:53:57Z</time></trkpt>
    <trkpt lat="28.432523" lon="84.897735"><ele>1637.0</ele><time>2025-10-22T06:54:00Z</time></trkpt>
    <trkpt lat="28.432570" lon="84.897794"><ele>1637.4</ele><time>2025-10-22T06:54:13Z</time></trkpt>
    <trkpt lat="28.432544" lon="84.897808"><ele>1638.4</ele><time>2025-10-22T06:54:35Z</time></trkpt>
    <trkpt lat="28.432662" lon="84.897799"><ele>1638.8</ele><time>2025-10-22T06:54:47Z</time></trkpt>
    <trkpt lat="28.432769" lon="84.897858"><ele>1638.8</ele><time>2025-10-22T06:54:59Z</time></trkpt>
    <trkpt lat="28.432791" lon="84.897837"><ele>1639.0</ele><time>2025-10-22T06:55:05Z</time></trkpt>
    <trkpt lat="28.432909" lon="84.897810"><ele>1640.8</ele><time>2025-10-22T06:55:20Z</time></trkpt>
    <trkpt lat="28.432990" lon="84.897844"><ele>1641.0</ele><time>2025-10-22T06:55:27Z</time></trkpt>
    <trkpt lat="28.433030" lon="84.897909"><ele>1642.2</ele><time>2025-10-22T06:55:33Z</time></trkpt>
    <trkpt lat="28.433211" lon="84.897767"><ele>1644.2</ele><time>2025-10-22T06:56:11Z</time></trkpt>
    <trkpt lat="28.433234" lon="84.897852"><ele>1645.2</ele><time>2025-10-22T06:56:25Z</time></trkpt>
    <trkpt lat="28.433389" lon="84.897795"><ele>1649.2</ele><time>2025-10-22T06:56:45Z</time></trkpt>
    <trkpt lat="28.433742" lon="84.897939"><ele>1654.2</ele><time>2025-10-22T06:57:29Z</time></trkpt>
    <trkpt lat="28.433869" lon="84.898047"><ele>1657.2</ele><time>2025-10-22T06:57:49Z</time></trkpt>
    <trkpt lat="28.433964" lon="84.898051"><ele>1658.0</ele><time>2025-10-22T06:58:00Z</time></trkpt>
    <trkpt lat="28.434027" lon="84.898090"><ele>1659.2</ele><time>2025-10-22T06:58:10Z</time></trkpt>
    <trkpt lat="28.434034" lon="84.898097"><ele>1659.2</ele><time>2025-10-22T06:58:12Z</time></trkpt>
    <trkpt lat="28.434055" lon="84.898165"><ele>1659.4</ele><time>2025-10-22T06:58:55Z</time></trkpt>
    <trkpt lat="28.434077" lon="84.898149"><ele>1659.4</ele><time>2025-10-22T08:55:36Z</time></trkpt>
    <trkpt lat="28.434010" lon="84.898125"><ele>1658.6</ele><time>2025-10-22T08:55:41Z</time></trkpt>
    <trkpt lat="28.434060" lon="84.898066"><ele>1658.0</ele><time>2025-10-22T08:55:55Z</time></trkpt>
    <trkpt lat="28.434324" lon="84.898221"><ele>1656.2</ele><time>2025-10-22T08:56:37Z</time></trkpt>
    <trkpt lat="28.434624" lon="84.898428"><ele>1656.2</ele><time>2025-10-22T08:57:09Z</time></trkpt>
    <trkpt lat="28.434697" lon="84.898508"><ele>1657.0</ele><time>2025-10-22T08:57:21Z</time></trkpt>
    <trkpt lat="28.434697" lon="84.898716"><ele>1657.8</ele><time>2025-10-22T08:57:39Z</time></trkpt>
    <trkpt lat="28.434811" lon="84.898922"><ele>1657.8</ele><time>2025-10-22T08:57:59Z</time></trkpt>
    <trkpt lat="28.435068" lon="84.898994"><ele>1658.0</ele><time>2025-10-22T08:58:29Z</time></trkpt>
    <trkpt lat="28.435209" lon="84.899140"><ele>1658.0</ele><time>2025-10-22T08:58:48Z</time></trkpt>
    <trkpt lat="28.435431" lon="84.899350"><ele>1662.6</ele><time>2025-10-22T08:59:23Z</time></trkpt>
    <trkpt lat="28.435477" lon="84.899524"><ele>1664.8</ele><time>2025-10-22T08:59:41Z</time></trkpt>
    <trkpt lat="28.435356" lon="84.899616"><ele>1666.6</ele><time>2025-10-22T09:00:01Z</time></trkpt>
    <trkpt lat="28.435525" lon="84.899646"><ele>1668.4</ele><time>2025-10-22T09:00:22Z</time></trkpt>
    <trkpt lat="28.435570" lon="84.899688"><ele>1670.0</ele><time>2025-10-22T09:00:31Z</time></trkpt>
    <trkpt lat="28.435641" lon="84.899791"><ele>1670.0</ele><time>2025-10-22T09:00:46Z</time></trkpt>
    <trkpt lat="28.435988" lon="84.899988"><ele>1670.6</ele><time>2025-10-22T09:01:30Z</time></trkpt>
    <trkpt lat="28.436038" lon="84.900035"><ele>1671.8</ele><time>2025-10-22T09:01:38Z</time></trkpt>
    <trkpt lat="28.436141" lon="84.900022"><ele>1676.4</ele><time>2025-10-22T09:02:02Z</time></trkpt>
    <trkpt lat="28.436466" lon="84.900194"><ele>1685.2</ele><time>2025-10-22T09:03:06Z</time></trkpt>
    <trkpt lat="28.436653" lon="84.900233"><ele>1689.8</ele><time>2025-10-22T09:03:35Z</time></trkpt>
    <trkpt lat="28.436715" lon="84.900303"><ele>1690.8</ele><time>2025-10-22T09:03:47Z</time></trkpt>
    <trkpt lat="28.436774" lon="84.900298"><ele>1691.6</ele><time>2025-10-22T09:03:54Z</time></trkpt>
    <trkpt lat="28.436904" lon="84.900326"><ele>1691.4</ele><time>2025-10-22T09:04:58Z</time></trkpt>
    <trkpt lat="28.437030" lon="84.900336"><ele>1687.6</ele><time>2025-10-22T09:05:20Z</time></trkpt>
    <trkpt lat="28.437047" lon="84.900332"><ele>1687.0</ele><time>2025-10-22T09:05:25Z</time></trkpt>
    <trkpt lat="28.437042" lon="84.900271"><ele>1686.2</ele><time>2025-10-22T09:05:57Z</time></trkpt>
    <trkpt lat="28.437078" lon="84.900299"><ele>1686.2</ele><time>2025-10-22T09:06:06Z</time></trkpt>
    <trkpt lat="28.437073" lon="84.900230"><ele>1684.8</ele><time>2025-10-22T09:06:31Z</time></trkpt>
    <trkpt lat="28.437217" lon="84.899881"><ele>1682.4</ele><time>2025-10-22T09:07:00Z</time></trkpt>
    <trkpt lat="28.437296" lon="84.899733"><ele>1682.0</ele><time>2025-10-22T09:07:13Z</time></trkpt>
    <trkpt lat="28.437336" lon="84.899763"><ele>1682.0</ele><time>2025-10-22T09:07:44Z</time></trkpt>
    <trkpt lat="28.437361" lon="84.899756"><ele>1682.4</ele><time>2025-10-22T09:07:55Z</time></trkpt>
    <trkpt lat="28.437334" lon="84.899747"><ele>1682.4</ele><time>2025-10-22T09:08:13Z</time></trkpt>
    <trkpt lat="28.437393" lon="84.899506"><ele>1683.0</ele><time>2025-10-22T09:08:33Z</time></trkpt>
    <trkpt lat="28.437398" lon="84.899497"><ele>1683.2</ele><time>2025-10-22T09:08:34Z</time></trkpt>
    <trkpt lat="28.437524" lon="84.899232"><ele>1689.8</ele><time>2025-10-22T09:09:08Z</time></trkpt>
    <trkpt lat="28.437530" lon="84.899218"><ele>1689.8</ele><time>2025-10-22T09:09:10Z</time></trkpt>
    <trkpt lat="28.437922" lon="84.899414"><ele>1693.4</ele><time>2025-10-22T09:10:22Z</time></trkpt>
    <trkpt lat="28.439153" lon="84.899526"><ele>1700.6</ele><time>2025-10-22T09:12:24Z</time></trkpt>
    <trkpt lat="28.439440" lon="84.899573"><ele>1701.2</ele><time>2025-10-22T09:12:57Z</time></trkpt>
    <trkpt lat="28.439739" lon="84.899619"><ele>1699.2</ele><time>2025-10-22T09:13:27Z</time></trkpt>
    <trkpt lat="28.440077" lon="84.899573"><ele>1696.0</ele><time>2025-10-22T09:14:16Z</time></trkpt>
    <trkpt lat="28.440315" lon="84.899620"><ele>1695.8</ele><time>2025-10-22T09:14:39Z</time></trkpt>
    <trkpt lat="28.440463" lon="84.899696"><ele>1695.2</ele><time>2025-10-22T09:14:58Z</time></trkpt>
    <trkpt lat="28.440888" lon="84.899768"><ele>1694.6</ele><time>2025-10-22T09:15:43Z</time></trkpt>
    <trkpt lat="28.440970" lon="84.899906"><ele>1694.2</ele><time>2025-10-22T09:15:57Z</time></trkpt>
    <trkpt lat="28.441552" lon="84.900134"><ele>1690.6</ele><time>2025-10-22T09:17:00Z</time></trkpt>
    <trkpt lat="28.441641" lon="84.900126"><ele>1690.6</ele><time>2025-10-22T09:17:14Z</time></trkpt>
    <trkpt lat="28.441988" lon="84.900017"><ele>1693.0</ele><time>2025-10-22T09:18:10Z</time></trkpt>
    <trkpt lat="28.442041" lon="84.900005"><ele>1693.6</ele><time>2025-10-22T09:18:16Z</time></trkpt>
    <trkpt lat="28.442211" lon="84.900026"><ele>1697.2</ele><time>2025-10-22T09:18:39Z</time></trkpt>
    <trkpt lat="28.442652" lon="84.899977"><ele>1706.0</ele><time>2025-10-22T09:19:44Z</time></trkpt>
    <trkpt lat="28.443115" lon="84.899777"><ele>1711.8</ele><time>2025-10-22T09:20:40Z</time></trkpt>
    <trkpt lat="28.443425" lon="84.899663"><ele>1711.8</ele><time>2025-10-22T09:21:14Z</time></trkpt>
    <trkpt lat="28.443703" lon="84.899560"><ele>1706.4</ele><time>2025-10-22T09:21:47Z</time></trkpt>
    <trkpt lat="28.443948" lon="84.899373"><ele>1702.0</ele><time>2025-10-22T09:22:23Z</time></trkpt>
    <trkpt lat="28.444035" lon="84.899368"><ele>1700.0</ele><time>2025-10-22T09:22:31Z</time></trkpt>
    <trkpt lat="28.444303" lon="84.899372"><ele>1700.2</ele><time>2025-10-22T09:23:00Z</time></trkpt>
    <trkpt lat="28.444384" lon="84.899197"><ele>1700.6</ele><time>2025-10-22T09:23:18Z</time></trkpt>
    <trkpt lat="28.444632" lon="84.899239"><ele>1700.6</ele><time>2025-10-22T09:23:40Z</time></trkpt>
    <trkpt lat="28.444821" lon="84.899173"><ele>1696.4</ele><time>2025-10-22T09:24:08Z</time></trkpt>
    <trkpt lat="28.444833" lon="84.899165"><ele>1696.2</ele><time>2025-10-22T09:24:09Z</time></trkpt>
    <trkpt lat="28.444893" lon="84.899055"><ele>1696.0</ele><time>2025-10-22T09:24:31Z</time></trkpt>
    <trkpt lat="28.444991" lon="84.899076"><ele>1696.2</ele><time>2025-10-22T09:24:43Z</time></trkpt>
    <trkpt lat="28.445168" lon="84.898976"><ele>1696.4</ele><time>2025-10-22T09:25:09Z</time></trkpt>
    <trkpt lat="28.445208" lon="84.898960"><ele>1695.6</ele><time>2025-10-22T09:25:13Z</time></trkpt>
    <trkpt lat="28.445457" lon="84.898968"><ele>1694.6</ele><time>2025-10-22T09:25:38Z</time></trkpt>
    <trkpt lat="28.445860" lon="84.898883"><ele>1693.0</ele><time>2025-10-22T09:26:17Z</time></trkpt>
    <trkpt lat="28.445973" lon="84.898813"><ele>1690.6</ele><time>2025-10-22T09:26:30Z</time></trkpt>
    <trkpt lat="28.446030" lon="84.898698"><ele>1689.6</ele><time>2025-10-22T09:26:42Z</time></trkpt>
    <trkpt lat="28.446009" lon="84.898521"><ele>1688.6</ele><time>2025-10-22T09:27:03Z</time></trkpt>
    <trkpt lat="28.445984" lon="84.898507"><ele>1687.8</ele><time>2025-10-22T09:27:09Z</time></trkpt>
    <trkpt lat="28.445969" lon="84.898518"><ele>1687.8</ele><time>2025-10-22T09:27:13Z</time></trkpt>
    <trkpt lat="28.445997" lon="84.898554"><ele>1687.6</ele><time>2025-10-22T09:27:22Z</time></trkpt>
    <trkpt lat="28.446164" lon="84.898548"><ele>1687.4</ele><time>2025-10-22T09:27:40Z</time></trkpt>
    <trkpt lat="28.446562" lon="84.898174"><ele>1688.0</ele><time>2025-10-22T09:28:32Z</time></trkpt>
    <trkpt lat="28.446717" lon="84.898135"><ele>1688.0</ele><time>2025-10-22T09:28:46Z</time></trkpt>
    <trkpt lat="28.446748" lon="84.898027"><ele>1685.2</ele><time>2025-10-22T09:29:02Z</time></trkpt>
    <trkpt lat="28.446816" lon="84.897971"><ele>1685.0</ele><time>2025-10-22T09:29:12Z</time></trkpt>
    <trkpt lat="28.446936" lon="84.898076"><ele>1684.6</ele><time>2025-10-22T09:29:26Z</time></trkpt>
    <trkpt lat="28.446990" lon="84.898046"><ele>1684.4</ele><time>2025-10-22T09:29:33Z</time></trkpt>
    <trkpt lat="28.447075" lon="84.897902"><ele>1682.4</ele><time>2025-10-22T09:29:46Z</time></trkpt>
    <trkpt lat="28.447202" lon="84.897801"><ele>1680.2</ele><time>2025-10-22T09:30:03Z</time></trkpt>
    <trkpt lat="28.447374" lon="84.897708"><ele>1680.2</ele><time>2025-10-22T09:30:23Z</time></trkpt>
    <trkpt lat="28.447447" lon="84.897609"><ele>1680.2</ele><time>2025-10-22T09:30:35Z</time></trkpt>
    <trkpt lat="28.447665" lon="84.897582"><ele>1678.8</ele><time>2025-10-22T09:31:11Z</time></trkpt>
    <trkpt lat="28.447778" lon="84.897626"><ele>1678.4</ele><time>2025-10-22T09:31:29Z</time></trkpt>
    <trkpt lat="28.447880" lon="84.897590"><ele>1678.0</ele><time>2025-10-22T09:31:44Z</time></trkpt>
    <trkpt lat="28.447978" lon="84.897476"><ele>1677.6</ele><time>2025-10-22T09:31:53Z</time></trkpt>
    <trkpt lat="28.448147" lon="84.897409"><ele>1676.8</ele><time>2025-10-22T09:32:56Z</time></trkpt>
    <trkpt lat="28.448191" lon="84.897397"><ele>1676.0</ele><time>2025-10-22T09:33:02Z</time></trkpt>
    <trkpt lat="28.448254" lon="84.897475"><ele>1673.8</ele><time>2025-10-22T09:33:16Z</time></trkpt>
    <trkpt lat="28.448337" lon="84.897456"><ele>1672.2</ele><time>2025-10-22T09:33:27Z</time></trkpt>
    <trkpt lat="28.448463" lon="84.897357"><ele>1667.4</ele><time>2025-10-22T09:33:54Z</time></trkpt>
    <trkpt lat="28.448633" lon="84.897165"><ele>1665.8</ele><time>2025-10-22T09:34:25Z</time></trkpt>
    <trkpt lat="28.448701" lon="84.897170"><ele>1665.4</ele><time>2025-10-22T09:34:35Z</time></trkpt>
    <trkpt lat="28.448946" lon="84.897369"><ele>1665.0</ele><time>2025-10-22T09:35:03Z</time></trkpt>
    <trkpt lat="28.448989" lon="84.897359"><ele>1665.4</ele><time>2025-10-22T09:35:13Z</time></trkpt>
    <trkpt lat="28.448941" lon="84.897365"><ele>1665.4</ele><time>2025-10-22T09:35:25Z</time></trkpt>
    <trkpt lat="28.448955" lon="84.897365"><ele>1665.4</ele><time>2025-10-22T09:35:31Z</time></trkpt>
    <trkpt lat="28.449122" lon="84.897193"><ele>1660.6</ele><time>2025-10-22T09:35:59Z</time></trkpt>
    <trkpt lat="28.449350" lon="84.897006"><ele>1660.6</ele><time>2025-10-22T09:36:32Z</time></trkpt>
    <trkpt lat="28.449572" lon="84.896841"><ele>1665.0</ele><time>2025-10-22T09:37:06Z</time></trkpt>
    <trkpt lat="28.449582" lon="84.896835"><ele>1665.0</ele><time>2025-10-22T09:37:08Z</time></trkpt>
    <trkpt lat="28.449630" lon="84.896653"><ele>1664.8</ele><time>2025-10-22T09:37:39Z</time></trkpt>
    <trkpt lat="28.449741" lon="84.896582"><ele>1664.8</ele><time>2025-10-22T09:37:55Z</time></trkpt>
    <trkpt lat="28.449761" lon="84.896545"><ele>1664.8</ele><time>2025-10-22T09:38:00Z</time></trkpt>
    <trkpt lat="28.449791" lon="84.896410"><ele>1668.0</ele><time>2025-10-22T09:38:18Z</time></trkpt>
    <trkpt lat="28.449874" lon="84.896369"><ele>1671.2</ele><time>2025-10-22T09:38:41Z</time></trkpt>
    <trkpt lat="28.449934" lon="84.896425"><ele>1674.6</ele><time>2025-10-22T09:38:58Z</time></trkpt>
    <trkpt lat="28.450023" lon="84.896430"><ele>1678.0</ele><time>2025-10-22T09:39:16Z</time></trkpt>
    <trkpt lat="28.450093" lon="84.896466"><ele>1678.0</ele><time>2025-10-22T09:39:30Z</time></trkpt>
    <trkpt lat="28.450256" lon="84.896354"><ele>1678.2</ele><time>2025-10-22T09:39:52Z</time></trkpt>
    <trkpt lat="28.450387" lon="84.896319"><ele>1678.2</ele><time>2025-10-22T09:40:07Z</time></trkpt>
    <trkpt lat="28.450543" lon="84.896158"><ele>1682.4</ele><time>2025-10-22T09:40:38Z</time></trkpt>
    <trkpt lat="28.450722" lon="84.896047"><ele>1683.8</ele><time>2025-10-22T09:41:03Z</time></trkpt>
    <trkpt lat="28.450808" lon="84.895990"><ele>1688.4</ele><time>2025-10-22T09:41:29Z</time></trkpt>
    <trkpt lat="28.450911" lon="84.895964"><ele>1691.2</ele><time>2025-10-22T09:41:48Z</time></trkpt>
    <trkpt lat="28.450913" lon="84.895911"><ele>1692.8</ele><time>2025-10-22T09:41:57Z</time></trkpt>
    <trkpt lat="28.451035" lon="84.895802"><ele>1696.6</ele><time>2025-10-22T09:42:27Z</time></trkpt>
    <trkpt lat="28.451188" lon="84.895501"><ele>1699.8</ele><time>2025-10-22T09:43:01Z</time></trkpt>
    <trkpt lat="28.451235" lon="84.895484"><ele>1700.4</ele><time>2025-10-22T09:43:06Z</time></trkpt>
    <trkpt lat="28.451411" lon="84.895572"><ele>1703.0</ele><time>2025-10-22T09:43:34Z</time></trkpt>
    <trkpt lat="28.451454" lon="84.895562"><ele>1703.0</ele><time>2025-10-22T09:43:39Z</time></trkpt>
    <trkpt lat="28.451789" lon="84.895457"><ele>1702.6</ele><time>2025-10-22T09:44:11Z</time></trkpt>
    <trkpt lat="28.451892" lon="84.895295"><ele>1701.8</ele><time>2025-10-22T09:44:31Z</time></trkpt>
    <trkpt lat="28.451996" lon="84.895261"><ele>1701.6</ele><time>2025-10-22T09:44:39Z</time></trkpt>
    <trkpt lat="28.452077" lon="84.895233"><ele>1700.8</ele><time>2025-10-22T09:44:49Z</time></trkpt>
    <trkpt lat="28.452096" lon="84.895044"><ele>1698.4</ele><time>2025-10-22T09:45:03Z</time></trkpt>
    <trkpt lat="28.452050" lon="84.894851"><ele>1696.6</ele><time>2025-10-22T09:45:14Z</time></trkpt>
    <trkpt lat="28.452096" lon="84.894575"><ele>1694.6</ele><time>2025-10-22T09:45:27Z</time></trkpt>
    <trkpt lat="28.452046" lon="84.894516"><ele>1693.4</ele><time>2025-10-22T09:45:33Z</time></trkpt>
    <trkpt lat="28.452086" lon="84.894407"><ele>1691.6</ele><time>2025-10-22T09:45:44Z</time></trkpt>
    <trkpt lat="28.452136" lon="84.894240"><ele>1691.4</ele><time>2025-10-22T09:45:59Z</time></trkpt>
    <trkpt lat="28.452177" lon="84.894216"><ele>1691.4</ele><time>2025-10-22T09:46:05Z</time></trkpt>
    <trkpt lat="28.452245" lon="84.894334"><ele>1691.2</ele><time>2025-10-22T09:46:23Z</time></trkpt>
    <trkpt lat="28.452625" lon="84.894684"><ele>1691.2</ele><time>2025-10-22T09:46:44Z</time></trkpt>
    <trkpt lat="28.452716" lon="84.894795"><ele>1691.2</ele><time>2025-10-22T09:46:55Z</time></trkpt>
    <trkpt lat="28.452697" lon="84.894821"><ele>1691.2</ele><time>2025-10-22T09:47:06Z</time></trkpt>
    <trkpt lat="28.453080" lon="84.894633"><ele>1693.6</ele><time>2025-10-22T09:47:58Z</time></trkpt>
    <trkpt lat="28.453246" lon="84.894643"><ele>1691.4</ele><time>2025-10-22T09:48:11Z</time></trkpt>
    <trkpt lat="28.453227" lon="84.894530"><ele>1691.4</ele><time>2025-10-22T09:48:20Z</time></trkpt>
    <trkpt lat="28.453177" lon="84.894476"><ele>1691.4</ele><time>2025-10-22T09:48:27Z</time></trkpt>
    <trkpt lat="28.453020" lon="84.894486"><ele>1691.4</ele><time>2025-10-22T09:48:42Z</time></trkpt>
    <trkpt lat="28.452985" lon="84.894375"><ele>1691.4</ele><time>2025-10-22T09:48:59Z</time></trkpt>
    <trkpt lat="28.453051" lon="84.894542"><ele>1691.8</ele><time>2025-10-22T09:49:17Z</time></trkpt>
    <trkpt lat="28.453267" lon="84.894456"><ele>1691.8</ele><time>2025-10-22T09:49:47Z</time></trkpt>
    <trkpt lat="28.453271" lon="84.894457"><ele>1691.6</ele><time>2025-10-22T09:50:00Z</time></trkpt>
    <trkpt lat="28.453501" lon="84.894307"><ele>1689.2</ele><time>2025-10-22T09:50:24Z</time></trkpt>
    <trkpt lat="28.453852" lon="84.894250"><ele>1687.0</ele><time>2025-10-22T09:50:54Z</time></trkpt>
    <trkpt lat="28.454030" lon="84.894283"><ele>1686.2</ele><time>2025-10-22T09:51:14Z</time></trkpt>
    <trkpt lat="28.454169" lon="84.894220"><ele>1685.0</ele><time>2025-10-22T09:51:32Z</time></trkpt>
    <trkpt lat="28.454368" lon="84.894213"><ele>1681.4</ele><time>2025-10-22T09:52:01Z</time></trkpt>
    <trkpt lat="28.454403" lon="84.894206"><ele>1681.0</ele><time>2025-10-22T09:52:05Z</time></trkpt>
    <trkpt lat="28.454592" lon="84.894117"><ele>1681.0</ele><time>2025-10-22T09:52:27Z</time></trkpt>
    <trkpt lat="28.454695" lon="84.894120"><ele>1681.0</ele><time>2025-10-22T09:52:41Z</time></trkpt>
    <trkpt lat="28.454785" lon="84.894034"><ele>1681.4</ele><time>2025-10-22T09:53:05Z</time></trkpt>
    <trkpt lat="28.454796" lon="84.894065"><ele>1681.6</ele><time>2025-10-22T09:53:21Z</time></trkpt>
    <trkpt lat="28.454766" lon="84.894034"><ele>1681.6</ele><time>2025-10-22T09:53:37Z</time></trkpt>
    <trkpt lat="28.454810" lon="84.893949"><ele>1683.0</ele><time>2025-10-22T09:53:48Z</time></trkpt>
    <trkpt lat="28.454985" lon="84.893823"><ele>1687.4</ele><time>2025-10-22T09:54:22Z</time></trkpt>
    <trkpt lat="28.455094" lon="84.893688"><ele>1690.6</ele><time>2025-10-22T09:54:43Z</time></trkpt>
    <trkpt lat="28.455143" lon="84.893683"><ele>1690.6</ele><time>2025-10-22T09:54:48Z</time></trkpt>
    <trkpt lat="28.455169" lon="84.893602"><ele>1690.8</ele><time>2025-10-22T09:55:01Z</time></trkpt>
    <trkpt lat="28.455447" lon="84.893318"><ele>1694.8</ele><time>2025-10-22T09:55:46Z</time></trkpt>
    <trkpt lat="28.455542" lon="84.893226"><ele>1695.0</ele><time>2025-10-22T09:56:01Z</time></trkpt>
    <trkpt lat="28.455738" lon="84.892881"><ele>1694.0</ele><time>2025-10-22T09:56:41Z</time></trkpt>
    <trkpt lat="28.455762" lon="84.892810"><ele>1694.0</ele><time>2025-10-22T09:56:51Z</time></trkpt>
    <trkpt lat="28.455810" lon="84.892704"><ele>1696.8</ele><time>2025-10-22T09:57:14Z</time></trkpt>
    <trkpt lat="28.455786" lon="84.892539"><ele>1699.2</ele><time>2025-10-22T09:57:34Z</time></trkpt>
    <trkpt lat="28.455911" lon="84.892034"><ele>1704.4</ele><time>2025-10-22T09:58:30Z</time></trkpt>
    <trkpt lat="28.455947" lon="84.891826"><ele>1704.4</ele><time>2025-10-22T09:58:49Z</time></trkpt>
    <trkpt lat="28.456209" lon="84.891476"><ele>1702.4</ele><time>2025-10-22T09:59:29Z</time></trkpt>
    <trkpt lat="28.456355" lon="84.891350"><ele>1701.6</ele><time>2025-10-22T09:59:49Z</time></trkpt>
    <trkpt lat="28.456366" lon="84.891240"><ele>1699.4</ele><time>2025-10-22T10:00:07Z</time></trkpt>
    <trkpt lat="28.456278" lon="84.890826"><ele>1699.2</ele><time>2025-10-22T10:00:38Z</time></trkpt>
    <trkpt lat="28.456266" lon="84.890729"><ele>1701.4</ele><time>2025-10-22T10:00:56Z</time></trkpt>
    <trkpt lat="28.456534" lon="84.890518"><ele>1705.6</ele><time>2025-10-22T10:01:40Z</time></trkpt>
    <trkpt lat="28.456911" lon="84.890336"><ele>1710.0</ele><time>2025-10-22T10:02:29Z</time></trkpt>
    <trkpt lat="28.457054" lon="84.890240"><ele>1713.8</ele><time>2025-10-22T10:02:54Z</time></trkpt>
    <trkpt lat="28.457192" lon="84.890123"><ele>1714.6</ele><time>2025-10-22T10:03:39Z</time></trkpt>
    <trkpt lat="28.457192" lon="84.890065"><ele>1714.6</ele><time>2025-10-22T10:03:51Z</time></trkpt>
    <trkpt lat="28.457254" lon="84.890034"><ele>1715.2</ele><time>2025-10-22T10:03:58Z</time></trkpt>
    <trkpt lat="28.457658" lon="84.889701"><ele>1725.8</ele><time>2025-10-22T10:05:07Z</time></trkpt>
    <trkpt lat="28.457695" lon="84.889659"><ele>1725.8</ele><time>2025-10-22T10:05:12Z</time></trkpt>
    <trkpt lat="28.457789" lon="84.889413"><ele>1725.8</ele><time>2025-10-22T10:05:40Z</time></trkpt>
    <trkpt lat="28.457848" lon="84.889346"><ele>1725.0</ele><time>2025-10-22T10:05:50Z</time></trkpt>
    <trkpt lat="28.458285" lon="84.889055"><ele>1720.0</ele><time>2025-10-22T10:06:45Z</time></trkpt>
    <trkpt lat="28.458616" lon="84.888909"><ele>1719.6</ele><time>2025-10-22T10:07:17Z</time></trkpt>
    <trkpt lat="28.458901" lon="84.888586"><ele>1719.6</ele><time>2025-10-22T10:07:53Z</time></trkpt>
    <trkpt lat="28.458986" lon="84.888500"><ele>1720.6</ele><time>2025-10-22T10:08:06Z</time></trkpt>
    <trkpt lat="28.459215" lon="84.888413"><ele>1722.8</ele><time>2025-10-22T10:08:30Z</time></trkpt>
    <trkpt lat="28.459567" lon="84.888072"><ele>1727.2</ele><time>2025-10-22T10:09:17Z</time></trkpt>
    <trkpt lat="28.459654" lon="84.887937"><ele>1729.0</ele><time>2025-10-22T10:09:33Z</time></trkpt>
    <trkpt lat="28.459784" lon="84.887784"><ele>1730.0</ele><time>2025-10-22T10:09:51Z</time></trkpt>
    <trkpt lat="28.459862" lon="84.887580"><ele>1730.8</ele><time>2025-10-22T10:10:11Z</time></trkpt>
    <trkpt lat="28.460036" lon="84.887322"><ele>1731.2</ele><time>2025-10-22T10:10:37Z</time></trkpt>
    <trkpt lat="28.460346" lon="84.887207"><ele>1735.0</ele><time>2025-10-22T10:11:38Z</time></trkpt>
    <trkpt lat="28.460801" lon="84.886870"><ele>1736.8</ele><time>2025-10-22T10:12:33Z</time></trkpt>
    <trkpt lat="28.460914" lon="84.886527"><ele>1739.8</ele><time>2025-10-22T10:13:11Z</time></trkpt>
    <trkpt lat="28.460917" lon="84.886537"><ele>1739.8</ele><time>2025-10-22T10:13:37Z</time></trkpt>
    <trkpt lat="28.460869" lon="84.886340"><ele>1736.8</ele><time>2025-10-22T10:14:00Z</time></trkpt>
    <trkpt lat="28.460936" lon="84.886292"><ele>1735.8</ele><time>2025-10-22T10:14:11Z</time></trkpt>
    <trkpt lat="28.461081" lon="84.886281"><ele>1735.8</ele><time>2025-10-22T10:14:27Z</time></trkpt>
    <trkpt lat="28.461120" lon="84.886243"><ele>1735.4</ele><time>2025-10-22T10:14:32Z</time></trkpt>
    <trkpt lat="28.461173" lon="84.886152"><ele>1733.6</ele><time>2025-10-22T10:14:43Z</time></trkpt>
    <trkpt lat="28.461202" lon="84.886017"><ele>1730.8</ele><time>2025-10-22T10:14:59Z</time></trkpt>
    <trkpt lat="28.461287" lon="84.885863"><ele>1727.6</ele><time>2025-10-22T10:15:15Z</time></trkpt>
    <trkpt lat="28.461332" lon="84.885800"><ele>1727.6</ele><time>2025-10-22T10:15:22Z</time></trkpt>
    <trkpt lat="28.461491" lon="84.885378"><ele>1729.4</ele><time>2025-10-22T10:16:05Z</time></trkpt>
    <trkpt lat="28.461663" lon="84.884801"><ele>1733.0</ele><time>2025-10-22T10:17:02Z</time></trkpt>
    <trkpt lat="28.461784" lon="84.884443"><ele>1733.2</ele><time>2025-10-22T10:17:44Z</time></trkpt>
    <trkpt lat="28.461931" lon="84.884146"><ele>1733.0</ele><time>2025-10-22T10:18:10Z</time></trkpt>
    <trkpt lat="28.462312" lon="84.883593"><ele>1731.8</ele><time>2025-10-22T10:19:05Z</time></trkpt>
    <trkpt lat="28.462364" lon="84.883507"><ele>1733.6</ele><time>2025-10-22T10:19:16Z</time></trkpt>
    <trkpt lat="28.462612" lon="84.883222"><ele>1735.4</ele><time>2025-10-22T10:19:54Z</time></trkpt>
    <trkpt lat="28.462657" lon="84.883225"><ele>1735.6</ele><time>2025-10-22T10:20:12Z</time></trkpt>
    <trkpt lat="28.462593" lon="84.883273"><ele>1736.8</ele><time>2025-10-22T10:20:36Z</time></trkpt>
    <trkpt lat="28.462588" lon="84.883281"><ele>1737.0</ele><time>2025-10-22T10:20:41Z</time></trkpt>
    <trkpt lat="28.462605" lon="84.883297"><ele>1737.0</ele><time>2025-10-22T10:20:59Z</time></trkpt>
    <trkpt lat="28.462575" lon="84.883247"><ele>1737.0</ele><time>2025-10-22T10:21:19Z</time></trkpt>
    <trkpt lat="28.462645" lon="84.883309"><ele>1737.0</ele><time>2025-10-22T10:21:41Z</time></trkpt>
    <trkpt lat="28.462665" lon="84.883224"><ele>1735.4</ele><time>2025-10-22T10:21:53Z</time></trkpt>
    <trkpt lat="28.462625" lon="84.883219"><ele>1734.8</ele><time>2025-10-22T10:22:57Z</time></trkpt>
    <trkpt lat="28.462644" lon="84.883261"><ele>1734.8</ele><time>2025-10-22T10:23:11Z</time></trkpt>
    <trkpt lat="28.462610" lon="84.883213"><ele>1734.8</ele><time>2025-10-22T10:23:37Z</time></trkpt>
    <trkpt lat="28.462655" lon="84.883271"><ele>1734.8</ele><time>2025-10-22T10:24:13Z</time></trkpt>
    <trkpt lat="28.462644" lon="84.883195"><ele>1734.8</ele><time>2025-10-22T10:24:40Z</time></trkpt>
    <trkpt lat="28.462636" lon="84.883237"><ele>1734.8</ele><time>2025-10-22T10:25:13Z</time></trkpt>
    <trkpt lat="28.462663" lon="84.883232"><ele>1734.8</ele><time>2025-10-22T10:25:53Z</time></trkpt>
    <trkpt lat="28.462625" lon="84.883206"><ele>1734.8</ele><time>2025-10-22T10:26:02Z</time></trkpt>
    <trkpt lat="28.462674" lon="84.883249"><ele>1734.8</ele><time>2025-10-22T10:26:26Z</time></trkpt>
    <trkpt lat="28.462616" lon="84.883198"><ele>1735.0</ele><time>2025-10-22T10:28:08Z</time></trkpt>
    <trkpt lat="28.462655" lon="84.883201"><ele>1735.0</ele><time>2025-10-22T10:28:24Z</time></trkpt>
    <trkpt lat="28.462639" lon="84.883244"><ele>1735.0</ele><time>2025-10-22T10:28:35Z</time></trkpt>
    <trkpt lat="28.462690" lon="84.883245"><ele>1735.2</ele><time>2025-10-22T10:29:00Z</time></trkpt>
    <trkpt lat="28.462620" lon="84.883225"><ele>1735.0</ele><time>2025-10-22T10:30:23Z</time></trkpt>
    <trkpt lat="28.462668" lon="84.883258"><ele>1734.6</ele><time>2025-10-22T10:30:31Z</time></trkpt>
    <trkpt lat="28.462642" lon="84.883233"><ele>1734.6</ele><time>2025-10-22T10:30:42Z</time></trkpt>
    <trkpt lat="28.462668" lon="84.883239"><ele>1734.2</ele><time>2025-10-22T10:33:00Z</time></trkpt>
    <trkpt lat="28.462641" lon="84.882974"><ele>1734.2</ele><time>2025-10-22T10:35:35Z</time></trkpt>
    <trkpt lat="28.462727" lon="84.882415"><ele>1734.6</ele><time>2025-10-22T10:36:20Z</time></trkpt>
    <trkpt lat="28.462797" lon="84.882224"><ele>1734.6</ele><time>2025-10-22T10:36:36Z</time></trkpt>
    <trkpt lat="28.462982" lon="84.881896"><ele>1731.6</ele><time>2025-10-22T10:37:08Z</time></trkpt>
    <trkpt lat="28.463140" lon="84.881398"><ele>1730.0</ele><time>2025-10-22T10:37:48Z</time></trkpt>
    <trkpt lat="28.463445" lon="84.880822"><ele>1727.4</ele><time>2025-10-22T10:38:40Z</time></trkpt>
    <trkpt lat="28.463526" lon="84.880725"><ele>1727.4</ele><time>2025-10-22T10:38:49Z</time></trkpt>
    <trkpt lat="28.463685" lon="84.880311"><ele>1727.4</ele><time>2025-10-22T10:39:24Z</time></trkpt>
    <trkpt lat="28.463847" lon="84.880139"><ele>1727.8</ele><time>2025-10-22T10:39:44Z</time></trkpt>
    <trkpt lat="28.464023" lon="84.879813"><ele>1728.2</ele><time>2025-10-22T10:40:18Z</time></trkpt>
    <trkpt lat="28.464168" lon="84.879469"><ele>1730.4</ele><time>2025-10-22T10:40:55Z</time></trkpt>
    <trkpt lat="28.464366" lon="84.879208"><ele>1732.0</ele><time>2025-10-22T10:41:26Z</time></trkpt>
    <trkpt lat="28.464505" lon="84.879103"><ele>1735.2</ele><time>2025-10-22T10:41:48Z</time></trkpt>
    <trkpt lat="28.464734" lon="84.879012"><ele>1737.4</ele><time>2025-10-22T10:42:14Z</time></trkpt>
    <trkpt lat="28.464959" lon="84.878970"><ele>1740.4</ele><time>2025-10-22T10:42:42Z</time></trkpt>
    <trkpt lat="28.465029" lon="84.878980"><ele>1741.2</ele><time>2025-10-22T10:42:51Z</time></trkpt>
    <trkpt lat="28.465018" lon="84.879004"><ele>1741.4</ele><time>2025-10-22T10:43:00Z</time></trkpt>
    <trkpt lat="28.465176" lon="84.878995"><ele>1743.8</ele><time>2025-10-22T10:43:19Z</time></trkpt>
    <trkpt lat="28.465410" lon="84.878946"><ele>1744.2</ele><time>2025-10-22T10:43:40Z</time></trkpt>
    <trkpt lat="28.465510" lon="84.878883"><ele>1744.8</ele><time>2025-10-22T10:43:52Z</time></trkpt>
    <trkpt lat="28.465557" lon="84.878806"><ele>1747.0</ele><time>2025-10-22T10:44:06Z</time></trkpt>
    <trkpt lat="28.465570" lon="84.878790"><ele>1747.2</ele><time>2025-10-22T10:44:09Z</time></trkpt>
    <trkpt lat="28.465814" lon="84.878658"><ele>1746.8</ele><time>2025-10-22T10:44:39Z</time></trkpt>
    <trkpt lat="28.465927" lon="84.878526"><ele>1746.2</ele><time>2025-10-22T10:44:55Z</time></trkpt>
    <trkpt lat="28.466108" lon="84.878450"><ele>1746.2</ele><time>2025-10-22T10:45:19Z</time></trkpt>
    <trkpt lat="28.466218" lon="84.878267"><ele>1746.8</ele><time>2025-10-22T10:45:39Z</time></trkpt>
    <trkpt lat="28.466225" lon="84.878252"><ele>1747.0</ele><time>2025-10-22T10:45:41Z</time></trkpt>
    <trkpt lat="28.466499" lon="84.878115"><ele>1750.8</ele><time>2025-10-22T10:46:13Z</time></trkpt>
    <trkpt lat="28.466987" lon="84.877774"><ele>1755.4</ele><time>2025-10-22T10:47:14Z</time></trkpt>
    <trkpt lat="28.467083" lon="84.877731"><ele>1757.4</ele><time>2025-10-22T10:47:28Z</time></trkpt>
    <trkpt lat="28.467360" lon="84.877621"><ele>1757.4</ele><time>2025-10-22T10:47:55Z</time></trkpt>
    <trkpt lat="28.467456" lon="84.877460"><ele>1756.6</ele><time>2025-10-22T10:48:15Z</time></trkpt>
    <trkpt lat="28.467563" lon="84.877529"><ele>1756.2</ele><time>2025-10-22T10:48:29Z</time></trkpt>
    <trkpt lat="28.467789" lon="84.877441"><ele>1756.0</ele><time>2025-10-22T10:48:50Z</time></trkpt>
    <trkpt lat="28.467912" lon="84.877305"><ele>1756.0</ele><time>2025-10-22T10:49:06Z</time></trkpt>
    <trkpt lat="28.468042" lon="84.877233"><ele>1756.0</ele><time>2025-10-22T10:49:21Z</time></trkpt>
    <trkpt lat="28.468251" lon="84.877072"><ele>1757.8</ele><time>2025-10-22T10:49:49Z</time></trkpt>
    <trkpt lat="28.468554" lon="84.876906"><ele>1758.8</ele><time>2025-10-22T10:50:20Z</time></trkpt>
    <trkpt lat="28.468887" lon="84.876808"><ele>1759.4</ele><time>2025-10-22T10:50:50Z</time></trkpt>
    <trkpt lat="28.468954" lon="84.876729"><ele>1760.8</ele><time>2025-10-22T10:51:03Z</time></trkpt>
    <trkpt lat="28.469259" lon="84.876556"><ele>1761.6</ele><time>2025-10-22T10:51:39Z</time></trkpt>
    <trkpt lat="28.469353" lon="84.876503"><ele>1759.4</ele><time>2025-10-22T10:51:53Z</time></trkpt>
    <trkpt lat="28.469826" lon="84.876650"><ele>1755.8</ele><time>2025-10-22T10:52:47Z</time></trkpt>
    <trkpt lat="28.470313" lon="84.876276"><ele>1760.4</ele><time>2025-10-22T10:53:38Z</time></trkpt>
    <trkpt lat="28.470348" lon="84.876238"><ele>1760.8</ele><time>2025-10-22T10:53:43Z</time></trkpt>
    <trkpt lat="28.470388" lon="84.876138"><ele>1763.4</ele><time>2025-10-22T10:53:59Z</time></trkpt>
    <trkpt lat="28.470390" lon="84.875969"><ele>1767.0</ele><time>2025-10-22T10:54:20Z</time></trkpt>
    <trkpt lat="28.470427" lon="84.875951"><ele>1768.4</ele><time>2025-10-22T10:54:30Z</time></trkpt>
    <trkpt lat="28.470389" lon="84.875950"><ele>1770.4</ele><time>2025-10-22T10:54:42Z</time></trkpt>
    <trkpt lat="28.470516" lon="84.875842"><ele>1774.6</ele><time>2025-10-22T10:55:13Z</time></trkpt>
    <trkpt lat="28.470493" lon="84.875832"><ele>1775.6</ele><time>2025-10-22T10:55:22Z</time></trkpt>
    <trkpt lat="28.470529" lon="84.875792"><ele>1777.6</ele><time>2025-10-22T10:55:36Z</time></trkpt>
    <trkpt lat="28.470530" lon="84.875792"><ele>1777.6</ele><time>2025-10-22T10:55:39Z</time></trkpt>
    <trkpt lat="28.470505" lon="84.875775"><ele>1777.6</ele><time>2025-10-22T10:55:54Z</time></trkpt>
    <trkpt lat="28.470537" lon="84.875771"><ele>1778.6</ele><time>2025-10-22T10:56:22Z</time></trkpt>
    <trkpt lat="28.470500" lon="84.875735"><ele>1779.0</ele><time>2025-10-22T10:56:28Z</time></trkpt>
    <trkpt lat="28.470519" lon="84.875680"><ele>1780.0</ele><time>2025-10-22T10:56:34Z</time></trkpt>
    <trkpt lat="28.470819" lon="84.875511"><ele>1784.4</ele><time>2025-10-22T10:57:24Z</time></trkpt>
    <trkpt lat="28.470973" lon="84.875305"><ele>1786.6</ele><time>2025-10-22T10:57:53Z</time></trkpt>
    <trkpt lat="28.471122" lon="84.875200"><ele>1787.8</ele><time>2025-10-22T10:58:30Z</time></trkpt>
    <trkpt lat="28.471366" lon="84.875074"><ele>1790.8</ele><time>2025-10-22T10:58:58Z</time></trkpt>
    <trkpt lat="28.471584" lon="84.874886"><ele>1795.8</ele><time>2025-10-22T10:59:34Z</time></trkpt>
    <trkpt lat="28.471693" lon="84.874853"><ele>1797.4</ele><time>2025-10-22T10:59:46Z</time></trkpt>
    <trkpt lat="28.471873" lon="84.874679"><ele>1799.4</ele><time>2025-10-22T11:00:13Z</time></trkpt>
    <trkpt lat="28.471916" lon="84.874588"><ele>1801.4</ele><time>2025-10-22T11:00:28Z</time></trkpt>
    <trkpt lat="28.471861" lon="84.874572"><ele>1802.8</ele><time>2025-10-22T11:00:38Z</time></trkpt>
    <trkpt lat="28.471878" lon="84.874454"><ele>1804.8</ele><time>2025-10-22T11:00:54Z</time></trkpt>
    <trkpt lat="28.471969" lon="84.874385"><ele>1807.0</ele><time>2025-10-22T11:01:13Z</time></trkpt>
    <trkpt lat="28.472004" lon="84.874346"><ele>1807.0</ele><time>2025-10-22T11:01:24Z</time></trkpt>
    <trkpt lat="28.471999" lon="84.874286"><ele>1807.0</ele><time>2025-10-22T11:01:34Z</time></trkpt>
    <trkpt lat="28.472163" lon="84.873987"><ele>1808.0</ele><time>2025-10-22T11:02:11Z</time></trkpt>
    <trkpt lat="28.472181" lon="84.873836"><ele>1809.2</ele><time>2025-10-22T11:02:24Z</time></trkpt>
    <trkpt lat="28.472322" lon="84.873696"><ele>1811.6</ele><time>2025-10-22T11:02:55Z</time></trkpt>
    <trkpt lat="28.472331" lon="84.873504"><ele>1812.4</ele><time>2025-10-22T11:03:16Z</time></trkpt>
    <trkpt lat="28.472409" lon="84.873355"><ele>1812.4</ele><time>2025-10-22T11:03:34Z</time></trkpt>
    <trkpt lat="28.472480" lon="84.873270"><ele>1814.4</ele><time>2025-10-22T11:03:48Z</time></trkpt>
    <trkpt lat="28.472512" lon="84.872911"><ele>1816.2</ele><time>2025-10-22T11:04:28Z</time></trkpt>
    <trkpt lat="28.472594" lon="84.872846"><ele>1818.6</ele><time>2025-10-22T11:04:42Z</time></trkpt>
    <trkpt lat="28.472978" lon="84.872584"><ele>1821.0</ele><time>2025-10-22T11:05:31Z</time></trkpt>
    <trkpt lat="28.473153" lon="84.872426"><ele>1825.0</ele><time>2025-10-22T11:06:03Z</time></trkpt>
    <trkpt lat="28.473139" lon="84.872370"><ele>1827.8</ele><time>2025-10-22T11:06:21Z</time></trkpt>
    <trkpt lat="28.473234" lon="84.872278"><ele>1832.2</ele><time>2025-10-22T11:06:52Z</time></trkpt>
    <trkpt lat="28.473304" lon="84.872112"><ele>1837.4</ele><time>2025-10-22T11:07:33Z</time></trkpt>
    <trkpt lat="28.473334" lon="84.872089"><ele>1838.2</ele><time>2025-10-22T11:07:40Z</time></trkpt>
    <trkpt lat="28.473496" lon="84.871963"><ele>1839.2</ele><time>2025-10-22T11:08:02Z</time></trkpt>
    <trkpt lat="28.473627" lon="84.871655"><ele>1842.6</ele><time>2025-10-22T11:08:45Z</time></trkpt>
    <trkpt lat="28.473772" lon="84.871580"><ele>1845.2</ele><time>2025-10-22T11:09:15Z</time></trkpt>
    <trkpt lat="28.473934" lon="84.871637"><ele>1847.8</ele><time>2025-10-22T11:09:40Z</time></trkpt>
    <trkpt lat="28.474009" lon="84.871547"><ele>1850.0</ele><time>2025-10-22T11:09:59Z</time></trkpt>
    <trkpt lat="28.474019" lon="84.871449"><ele>1853.2</ele><time>2025-10-22T11:10:21Z</time></trkpt>
    <trkpt lat="28.474083" lon="84.871349"><ele>1855.6</ele><time>2025-10-22T11:10:37Z</time></trkpt>
    <trkpt lat="28.474181" lon="84.871285"><ele>1857.4</ele><time>2025-10-22T11:10:54Z</time></trkpt>
    <trkpt lat="28.474265" lon="84.871160"><ele>1861.8</ele><time>2025-10-22T11:11:19Z</time></trkpt>
    <trkpt lat="28.474401" lon="84.871157"><ele>1864.6</ele><time>2025-10-22T11:11:40Z</time></trkpt>
    <trkpt lat="28.474406" lon="84.871174"><ele>1864.6</ele><time>2025-10-22T11:11:58Z</time></trkpt>
    <trkpt lat="28.474499" lon="84.870962"><ele>1864.0</ele><time>2025-10-22T11:13:00Z</time></trkpt>
    <trkpt lat="28.474603" lon="84.870840"><ele>1863.2</ele><time>2025-10-22T11:13:12Z</time></trkpt>
    <trkpt lat="28.474786" lon="84.870746"><ele>1862.8</ele><time>2025-10-22T11:13:29Z</time></trkpt>
    <trkpt lat="28.475004" lon="84.870566"><ele>1862.8</ele><time>2025-10-22T11:13:53Z</time></trkpt>
    <trkpt lat="28.475060" lon="84.870584"><ele>1862.8</ele><time>2025-10-22T11:14:09Z</time></trkpt>
    <trkpt lat="28.475100" lon="84.870452"><ele>1867.0</ele><time>2025-10-22T11:14:30Z</time></trkpt>
    <trkpt lat="28.475166" lon="84.870404"><ele>1869.6</ele><time>2025-10-22T11:14:41Z</time></trkpt>
    <trkpt lat="28.475337" lon="84.870133"><ele>1870.2</ele><time>2025-10-22T11:15:09Z</time></trkpt>
    <trkpt lat="28.475427" lon="84.870052"><ele>1869.8</ele><time>2025-10-22T11:15:21Z</time></trkpt>
    <trkpt lat="28.475509" lon="84.870009"><ele>1869.4</ele><time>2025-10-22T11:15:35Z</time></trkpt>
    <trkpt lat="28.475635" lon="84.869969"><ele>1862.0</ele><time>2025-10-22T11:16:12Z</time></trkpt>
    <trkpt lat="28.475981" lon="84.869738"><ele>1855.2</ele><time>2025-10-22T11:16:55Z</time></trkpt>
    <trkpt lat="28.476264" lon="84.869605"><ele>1853.2</ele><time>2025-10-22T11:17:24Z</time></trkpt>
    <trkpt lat="28.476577" lon="84.869477"><ele>1853.2</ele><time>2025-10-22T11:17:58Z</time></trkpt>
    <trkpt lat="28.476619" lon="84.869445"><ele>1854.0</ele><time>2025-10-22T11:18:04Z</time></trkpt>
    <trkpt lat="28.476633" lon="84.869303"><ele>1857.6</ele><time>2025-10-22T11:18:28Z</time></trkpt>
    <trkpt lat="28.476693" lon="84.869230"><ele>1859.4</ele><time>2025-10-22T11:18:41Z</time></trkpt>
    <trkpt lat="28.476717" lon="84.869146"><ele>1861.8</ele><time>2025-10-22T11:18:58Z</time></trkpt>
    <trkpt lat="28.476747" lon="84.869009"><ele>1862.0</ele><time>2025-10-22T11:19:16Z</time></trkpt>
    <trkpt lat="28.476784" lon="84.868973"><ele>1861.8</ele><time>2025-10-22T11:19:30Z</time></trkpt>
    <trkpt lat="28.476903" lon="84.868475"><ele>1862.8</ele><time>2025-10-22T11:20:16Z</time></trkpt>
    <trkpt lat="28.477151" lon="84.868272"><ele>1864.2</ele><time>2025-10-22T11:20:44Z</time></trkpt>
    <trkpt lat="28.477209" lon="84.868242"><ele>1866.2</ele><time>2025-10-22T11:20:54Z</time></trkpt>
    <trkpt lat="28.477156" lon="84.868215"><ele>1868.2</ele><time>2025-10-22T11:21:07Z</time></trkpt>
    <trkpt lat="28.477246" lon="84.868161"><ele>1871.2</ele><time>2025-10-22T11:21:25Z</time></trkpt>
    <trkpt lat="28.477321" lon="84.868050"><ele>1873.0</ele><time>2025-10-22T11:21:40Z</time></trkpt>
    <trkpt lat="28.477326" lon="84.868041"><ele>1873.0</ele><time>2025-10-22T11:21:54Z</time></trkpt>
    <trkpt lat="28.477735" lon="84.867754"><ele>1874.2</ele><time>2025-10-22T11:23:01Z</time></trkpt>
    <trkpt lat="28.477894" lon="84.867414"><ele>1874.6</ele><time>2025-10-22T11:23:37Z</time></trkpt>
    <trkpt lat="28.477899" lon="84.867318"><ele>1872.6</ele><time>2025-10-22T11:23:45Z</time></trkpt>
    <trkpt lat="28.478041" lon="84.867134"><ele>1871.6</ele><time>2025-10-22T11:24:03Z</time></trkpt>
    <trkpt lat="28.478065" lon="84.867024"><ele>1871.4</ele><time>2025-10-22T11:24:13Z</time></trkpt>
    <trkpt lat="28.478061" lon="84.866893"><ele>1868.4</ele><time>2025-10-22T11:24:29Z</time></trkpt>
    <trkpt lat="28.478189" lon="84.866694"><ele>1864.6</ele><time>2025-10-22T11:24:53Z</time></trkpt>
    <trkpt lat="28.478324" lon="84.866370"><ele>1861.2</ele><time>2025-10-22T11:25:32Z</time></trkpt>
    <trkpt lat="28.478673" lon="84.866464"><ele>1861.2</ele><time>2025-10-22T11:26:00Z</time></trkpt>
    <trkpt lat="28.478736" lon="84.866445"><ele>1861.2</ele><time>2025-10-22T11:26:07Z</time></trkpt>
    <trkpt lat="28.478753" lon="84.866431"><ele>1861.8</ele><time>2025-10-22T11:26:10Z</time></trkpt>
    <trkpt lat="28.478784" lon="84.866315"><ele>1865.4</ele><time>2025-10-22T11:26:29Z</time></trkpt>
    <trkpt lat="28.478840" lon="84.866414"><ele>1868.6</ele><time>2025-10-22T11:26:47Z</time></trkpt>
    <trkpt lat="28.478849" lon="84.866303"><ele>1872.6</ele><time>2025-10-22T11:27:10Z</time></trkpt>
    <trkpt lat="28.478881" lon="84.866315"><ele>1874.0</ele><time>2025-10-22T11:27:19Z</time></trkpt>
    <trkpt lat="28.478949" lon="84.866411"><ele>1876.2</ele><time>2025-10-22T11:27:31Z</time></trkpt>
    <trkpt lat="28.478947" lon="84.866459"><ele>1876.6</ele><time>2025-10-22T11:27:37Z</time></trkpt>
    <trkpt lat="28.478874" lon="84.866732"><ele>1876.6</ele><time>2025-10-22T11:28:14Z</time></trkpt>
    <trkpt lat="28.478894" lon="84.866707"><ele>1876.2</ele><time>2025-10-22T11:28:22Z</time></trkpt>
    <trkpt lat="28.479187" lon="84.866920"><ele>1872.6</ele><time>2025-10-22T11:29:07Z</time></trkpt>
    <trkpt lat="28.479475" lon="84.866966"><ele>1872.0</ele><time>2025-10-22T11:29:38Z</time></trkpt>
    <trkpt lat="28.479658" lon="84.866915"><ele>1871.0</ele><time>2025-10-22T11:29:57Z</time></trkpt>
    <trkpt lat="28.480127" lon="84.866745"><ele>1872.0</ele><time>2025-10-22T11:30:48Z</time></trkpt>
    </trkseg>
  </trk>
</gpx>
