<?xml version="1.0" encoding="UTF-8"?>
<gpx version="1.1" creator="tripplanner (simplified from Strava export)" xmlns="http://www.topografix.com/GPX/1/1">
  <metadata>
    <name>Manaslu — Machhakhola → Jagat</name>
    <time>2025-10-21T02:11:11Z</time>
  </metadata>
  <trk>
    <name>Manaslu — Machhakhola → Jagat</name>
    <trkseg>
    <trkpt lat="28.230031" lon="84.870697"><ele>887.0</ele><time>2025-10-21T02:11:11Z</time></trkpt>
    <trkpt lat="28.230098" lon="84.870521"><ele>886.0</ele><time>2025-10-21T02:11:28Z</time></trkpt>
    <trkpt lat="28.230236" lon="84.870348"><ele>885.0</ele><time>2025-10-21T02:11:57Z</time></trkpt>
    <trkpt lat="28.230303" lon="84.870251"><ele>884.0</ele><time>2025-10-21T02:12:05Z</time></trkpt>
    <trkpt lat="28.230640" lon="84.869978"><ele>879.0</ele><time>2025-10-21T02:12:38Z</time></trkpt>
    <trkpt lat="28.230860" lon="84.869857"><ele>874.8</ele><time>2025-10-21T02:13:04Z</time></trkpt>
    <trkpt lat="28.230965" lon="84.869851"><ele>873.2</ele><time>2025-10-21T02:13:18Z</time></trkpt>
    <trkpt lat="28.231110" lon="84.869977"><ele>872.0</ele><time>2025-10-21T02:13:33Z</time></trkpt>
    <trkpt lat="28.231216" lon="84.870085"><ele>871.8</ele><time>2025-10-21T02:13:54Z</time></trkpt>
    <trkpt lat="28.231234" lon="84.870163"><ele>871.8</ele><time>2025-10-21T02:14:04Z</time></trkpt>
    <trkpt lat="28.231300" lon="84.870164"><ele>871.8</ele><time>2025-10-21T02:14:22Z</time></trkpt>
    <trkpt lat="28.231493" lon="84.870444"><ele>871.6</ele><time>2025-10-21T02:14:51Z</time></trkpt>
    <trkpt lat="28.231520" lon="84.870546"><ele>871.2</ele><time>2025-10-21T02:14:58Z</time></trkpt>
    <trkpt lat="28.231475" lon="84.871076"><ele>871.2</ele><time>2025-10-21T02:15:36Z</time></trkpt>
    <trkpt lat="28.231479" lon="84.871368"><ele>873.6</ele><time>2025-10-21T02:16:00Z</time></trkpt>
    <trkpt lat="28.231408" lon="84.871735"><ele>876.8</ele><time>2025-10-21T02:16:37Z</time></trkpt>
    <trkpt lat="28.231463" lon="84.872244"><ele>880.0</ele><time>2025-10-21T02:17:29Z</time></trkpt>
    <trkpt lat="28.231541" lon="84.872808"><ele>880.0</ele><time>2025-10-21T02:18:34Z</time></trkpt>
    <trkpt lat="28.231585" lon="84.872949"><ele>879.6</ele><time>2025-10-21T02:18:45Z</time></trkpt>
    <trkpt lat="28.231682" lon="84.873248"><ele>877.4</ele><time>2025-10-21T02:19:09Z</time></trkpt>
    <trkpt lat="28.231666" lon="84.873439"><ele>875.6</ele><time>2025-10-21T02:19:23Z</time></trkpt>
    <trkpt lat="28.231502" lon="84.873836"><ele>869.2</ele><time>2025-10-21T02:19:58Z</time></trkpt>
    <trkpt lat="28.231572" lon="84.873915"><ele>867.8</ele><time>2025-10-21T02:20:06Z</time></trkpt>
    <trkpt lat="28.232019" lon="84.874096"><ele>858.6</ele><time>2025-10-21T02:20:46Z</time></trkpt>
    <trkpt lat="28.232020" lon="84.874127"><ele>858.0</ele><time>2025-10-21T02:21:04Z</time></trkpt>
    <trkpt lat="28.232084" lon="84.874124"><ele>855.8</ele><time>2025-10-21T02:22:20Z</time></trkpt>
    <trkpt lat="28.232352" lon="84.874293"><ele>852.4</ele><time>2025-10-21T02:22:48Z</time></trkpt>
    <trkpt lat="28.232500" lon="84.874415"><ele>851.2</ele><time>2025-10-21T02:23:04Z</time></trkpt>
    <trkpt lat="28.232989" lon="84.874792"><ele>851.6</ele><time>2025-10-21T02:23:57Z</time></trkpt>
    <trkpt lat="28.233698" lon="84.875128"><ele>852.0</ele><time>2025-10-21T02:25:10Z</time></trkpt>
    <trkpt lat="28.233889" lon="84.875302"><ele>851.6</ele><time>2025-10-21T02:25:32Z</time></trkpt>
    <trkpt lat="28.234796" lon="84.875806"><ele>850.8</ele><time>2025-10-21T02:27:00Z</time></trkpt>
    <trkpt lat="28.235460" lon="84.875964"><ele>850.6</ele><time>2025-10-21T02:28:01Z</time></trkpt>
    <trkpt lat="28.235739" lon="84.875961"><ele>849.2</ele><time>2025-10-21T02:28:30Z</time></trkpt>
    <trkpt lat="28.235899" lon="84.876044"><ele>848.2</ele><time>2025-10-21T02:28:46Z</time></trkpt>
    <trkpt lat="28.236053" lon="84.876063"><ele>848.2</ele><time>2025-10-21T02:28:59Z</time></trkpt>
    <trkpt lat="28.236354" lon="84.876049"><ele>848.2</ele><time>2025-10-21T02:29:24Z</time></trkpt>
    <trkpt lat="28.236476" lon="84.876028"><ele>848.2</ele><time>2025-10-21T02:29:35Z</time></trkpt>
    <trkpt lat="28.236878" lon="84.875942"><ele>852.2</ele><time>2025-10-21T02:30:13Z</time></trkpt>
    <trkpt lat="28.237380" lon="84.875960"><ele>856.6</ele><time>2025-10-21T02:31:02Z</time></trkpt>
    <trkpt lat="28.237894" lon="84.875788"><ele>861.4</ele><time>2025-10-21T02:31:56Z</time></trkpt>
    <trkpt lat="28.238153" lon="84.875867"><ele>862.4</ele><time>2025-10-21T02:32:21Z</time></trkpt>
    <trkpt lat="28.238245" lon="84.875867"><ele>862.6</ele><time>2025-10-21T02:32:29Z</time></trkpt>
    <trkpt lat="28.238273" lon="84.875939"><ele>862.6</ele><time>2025-10-21T02:33:10Z</time></trkpt>
    <trkpt lat="28.238251" lon="84.875877"><ele>862.4</ele><time>2025-10-21T02:33:53Z</time></trkpt>
    <trkpt lat="28.238904" lon="84.875865"><ele>861.0</ele><time>2025-10-21T02:36:22Z</time></trkpt>
    <trkpt lat="28.239222" lon="84.875796"><ele>861.0</ele><time>2025-10-21T02:36:50Z</time></trkpt>
    <trkpt lat="28.239686" lon="84.875927"><ele>862.2</ele><time>2025-10-21T02:37:37Z</time></trkpt>
    <trkpt lat="28.239843" lon="84.876022"><ele>862.4</ele><time>2025-10-21T02:37:54Z</time></trkpt>
    <trkpt lat="28.240391" lon="84.875991"><ele>861.6</ele><time>2025-10-21T02:38:42Z</time></trkpt>
    <trkpt lat="28.240580" lon="84.876030"><ele>861.6</ele><time>2025-10-21T02:39:00Z</time></trkpt>
    <trkpt lat="28.240606" lon="84.876038"><ele>861.6</ele><time>2025-10-21T02:39:03Z</time></trkpt>
    <trkpt lat="28.241154" lon="84.876203"><ele>867.6</ele><time>2025-10-21T02:39:57Z</time></trkpt>
    <trkpt lat="28.241417" lon="84.876427"><ele>869.6</ele><time>2025-10-21T02:40:28Z</time></trkpt>
    <trkpt lat="28.241437" lon="84.876434"><ele>869.6</ele><time>2025-10-21T02:40:30Z</time></trkpt>
    <trkpt lat="28.241639" lon="84.876425"><ele>870.2</ele><time>2025-10-21T02:40:51Z</time></trkpt>
    <trkpt lat="28.241666" lon="84.876376"><ele>870.2</ele><time>2025-10-21T02:41:08Z</time></trkpt>
    <trkpt lat="28.241749" lon="84.876363"><ele>870.2</ele><time>2025-10-21T02:41:15Z</time></trkpt>
    <trkpt lat="28.242054" lon="84.876405"><ele>868.0</ele><time>2025-10-21T02:41:38Z</time></trkpt>
    <trkpt lat="28.242267" lon="84.876578"><ele>866.4</ele><time>2025-10-21T02:41:58Z</time></trkpt>
    <trkpt lat="28.242559" lon="84.876736"><ele>863.6</ele><time>2025-10-21T02:42:25Z</time></trkpt>
    <trkpt lat="28.243004" lon="84.876742"><ele>858.6</ele><time>2025-10-21T02:43:00Z</time></trkpt>
    <trkpt lat="28.243163" lon="84.876857"><ele>857.6</ele><time>2025-10-21T02:43:14Z</time></trkpt>
    <trkpt lat="28.243203" lon="84.876886"><ele>857.4</ele><time>2025-10-21T02:43:31Z</time></trkpt>
    <trkpt lat="28.243197" lon="84.876891"><ele>857.0</ele><time>2025-10-21T02:44:17Z</time></trkpt>
    <trkpt lat="28.243578" lon="84.877367"><ele>853.4</ele><time>2025-10-21T02:45:01Z</time></trkpt>
    <trkpt lat="28.243845" lon="84.877559"><ele>850.8</ele><time>2025-10-21T02:45:26Z</time></trkpt>
    <trkpt lat="28.243855" lon="84.877570"><ele>850.8</ele><time>2025-10-21T02:45:27Z</time></trkpt>
    <trkpt lat="28.244105" lon="84.878091"><ele>850.8</ele><time>2025-10-21T02:46:08Z</time></trkpt>
    <trkpt lat="28.244393" lon="84.878551"><ele>850.6</ele><time>2025-10-21T02:46:51Z</time></trkpt>
    <trkpt lat="28.244520" lon="84.878652"><ele>850.0</ele><time>2025-10-21T02:47:13Z</time></trkpt>
    <trkpt lat="28.244500" lon="84.878666"><ele>849.8</ele><time>2025-10-21T02:49:47Z</time></trkpt>
    <trkpt lat="28.244636" lon="84.878699"><ele>848.6</ele><time>2025-10-21T02:50:38Z</time></trkpt>
    <trkpt lat="28.244947" lon="84.879074"><ele>846.8</ele><time>2025-10-21T02:51:17Z</time></trkpt>
    <trkpt lat="28.245311" lon="84.879390"><ele>846.8</ele><time>2025-10-21T02:51:55Z</time></trkpt>
    <trkpt lat="28.245393" lon="84.879438"><ele>847.2</ele><time>2025-10-21T02:52:03Z</time></trkpt>
    <trkpt lat="28.245763" lon="84.879544"><ele>850.6</ele><time>2025-10-21T02:52:36Z</time></trkpt>
    <trkpt lat="28.246012" lon="84.879525"><ele>853.8</ele><time>2025-10-21T02:53:01Z</time></trkpt>
    <trkpt lat="28.247013" lon="84.879680"><ele>860.2</ele><time>2025-10-21T02:54:41Z</time></trkpt>
    <trkpt lat="28.247403" lon="84.879770"><ele>860.6</ele><time>2025-10-21T02:55:14Z</time></trkpt>
    <trkpt lat="28.247866" lon="84.879983"><ele>863.2</ele><time>2025-10-21T02:55:58Z</time></trkpt>
    <trkpt lat="28.248050" lon="84.879995"><ele>863.8</ele><time>2025-10-21T02:56:14Z</time></trkpt>
    <trkpt lat="28.248409" lon="84.879910"><ele>866.0</ele><time>2025-10-21T02:56:50Z</time></trkpt>
    <trkpt lat="28.248557" lon="84.879920"><ele>866.6</ele><time>2025-10-21T02:57:02Z</time></trkpt>
    <trkpt lat="28.248698" lon="84.879975"><ele>868.2</ele><time>2025-10-21T02:57:15Z</time></trkpt>
    <trkpt lat="28.248735" lon="84.880123"><ele>870.0</ele><time>2025-10-21T02:57:27Z</time></trkpt>
    <trkpt lat="28.248812" lon="84.880177"><ele>870.8</ele><time>2025-10-21T02:57:37Z</time></trkpt>
    <trkpt lat="28.249111" lon="84.880129"><ele>873.4</ele><time>2025-10-21T02:58:06Z</time></trkpt>
    <trkpt lat="28.249275" lon="84.880135"><ele>874.6</ele><time>2025-10-21T02:58:23Z</time></trkpt>
    <trkpt lat="28.249434" lon="84.880159"><ele>874.6</ele><time>2025-10-21T02:58:39Z</time></trkpt>
    <trkpt lat="28.249673" lon="84.880035"><ele>874.6</ele><time>2025-10-21T02:59:01Z</time></trkpt>
    <trkpt lat="28.249912" lon="84.880060"><ele>873.6</ele><time>2025-10-21T02:59:29Z</time></trkpt>
    <trkpt lat="28.249980" lon="84.880098"><ele>873.2</ele><time>2025-10-21T02:59:36Z</time></trkpt>
    <trkpt lat="28.250121" lon="84.880194"><ele>872.0</ele><time>2025-10-21T02:59:48Z</time></trkpt>
    <trkpt lat="28.250405" lon="84.880309"><ele>869.6</ele><time>2025-10-21T03:00:14Z</time></trkpt>
    <trkpt lat="28.250516" lon="84.880299"><ele>868.4</ele><time>2025-10-21T03:00:23Z</time></trkpt>
    <trkpt lat="28.250619" lon="84.880317"><ele>867.6</ele><time>2025-10-21T03:00:31Z</time></trkpt>
    <trkpt lat="28.250803" lon="84.880435"><ele>865.6</ele><time>2025-10-21T03:00:48Z</time></trkpt>
    <trkpt lat="28.251057" lon="84.880476"><ele>862.4</ele><time>2025-10-21T03:01:10Z</time></trkpt>
    <trkpt lat="28.251218" lon="84.880590"><ele>860.0</ele><time>2025-10-21T03:01:25Z</time></trkpt>
    <trkpt lat="28.251274" lon="84.880628"><ele>859.6</ele><time>2025-10-21T03:01:35Z</time></trkpt>
    <trkpt lat="28.251294" lon="84.881126"><ele>858.8</ele><time>2025-10-21T03:02:09Z</time></trkpt>
    <trkpt lat="28.251387" lon="84.881297"><ele>858.8</ele><time>2025-10-21T03:02:25Z</time></trkpt>
    <trkpt lat="28.251490" lon="84.881389"><ele>858.8</ele><time>2025-10-21T03:02:36Z</time></trkpt>
    <trkpt lat="28.251893" lon="84.881635"><ele>860.8</ele><time>2025-10-21T03:03:18Z</time></trkpt>
    <trkpt lat="28.252238" lon="84.882161"><ele>867.6</ele><time>2025-10-21T03:04:17Z</time></trkpt>
    <trkpt lat="28.252351" lon="84.882251"><ele>869.0</ele><time>2025-10-21T03:04:32Z</time></trkpt>
    <trkpt lat="28.252660" lon="84.882204"><ele>871.8</ele><time>2025-10-21T03:05:05Z</time></trkpt>
    <trkpt lat="28.252655" lon="84.882204"><ele>872.0</ele><time>2025-10-21T03:05:07Z</time></trkpt>
    <trkpt lat="28.252675" lon="84.882231"><ele>872.2</ele><time>2025-10-21T03:05:29Z</time></trkpt>
    <trkpt lat="28.252852" lon="84.882131"><ele>872.4</ele><time>2025-10-21T03:05:47Z</time></trkpt>
    <trkpt lat="28.252922" lon="84.882064"><ele>873.0</ele><time>2025-10-21T03:05:57Z</time></trkpt>
    <trkpt lat="28.253252" lon="84.881652"><ele>880.2</ele><time>2025-10-21T03:06:50Z</time></trkpt>
    <trkpt lat="28.253383" lon="84.881569"><ele>882.0</ele><time>2025-10-21T03:07:05Z</time></trkpt>
    <trkpt lat="28.253443" lon="84.881544"><ele>882.8</ele><time>2025-10-21T03:07:10Z</time></trkpt>
    <trkpt lat="28.253468" lon="84.881542"><ele>883.0</ele><time>2025-10-21T03:07:13Z</time></trkpt>
    <trkpt lat="28.253710" lon="84.881656"><ele>883.6</ele><time>2025-10-21T03:07:36Z</time></trkpt>
    <trkpt lat="28.253891" lon="84.881858"><ele>883.6</ele><time>2025-10-21T03:07:59Z</time></trkpt>
    <trkpt lat="28.253965" lon="84.881994"><ele>883.8</ele><time>2025-10-21T03:08:11Z</time></trkpt>
    <trkpt lat="28.254003" lon="84.882056"><ele>884.2</ele><time>2025-10-21T03:08:17Z</time></trkpt>
    <trkpt lat="28.254218" lon="84.882552"><ele>889.6</ele><time>2025-10-21T03:09:07Z</time></trkpt>
    <trkpt lat="28.254253" lon="84.882667"><ele>889.6</ele><time>2025-10-21T03:09:17Z</time></trkpt>
    <trkpt lat="28.254324" lon="84.882751"><ele>889.6</ele><time>2025-10-21T03:10:32Z</time></trkpt>
    <trkpt lat="28.254364" lon="84.882748"><ele>889.6</ele><time>2025-10-21T03:11:15Z</time></trkpt>
    <trkpt lat="28.254374" lon="84.882799"><ele>889.8</ele><time>2025-10-21T03:12:02Z</time></trkpt>
    <trkpt lat="28.254367" lon="84.882752"><ele>889.8</ele><time>2025-10-21T03:12:37Z</time></trkpt>
    <trkpt lat="28.254415" lon="84.882776"><ele>889.8</ele><time>2025-10-21T03:13:25Z</time></trkpt>
    <trkpt lat="28.254431" lon="84.882813"><ele>889.8</ele><time>2025-10-21T03:14:03Z</time></trkpt>
    <trkpt lat="28.254408" lon="84.882807"><ele>890.0</ele><time>2025-10-21T03:15:49Z</time></trkpt>
    <trkpt lat="28.254436" lon="84.882811"><ele>889.8</ele><time>2025-10-21T03:16:46Z</time></trkpt>
    <trkpt lat="28.254691" lon="84.883072"><ele>890.4</ele><time>2025-10-21T03:17:31Z</time></trkpt>
    <trkpt lat="28.255160" lon="84.883366"><ele>892.6</ele><time>2025-10-21T03:18:17Z</time></trkpt>
    <trkpt lat="28.255285" lon="84.883540"><ele>893.0</ele><time>2025-10-21T03:18:35Z</time></trkpt>
    <trkpt lat="28.255473" lon="84.883699"><ele>893.2</ele><time>2025-10-21T03:18:56Z</time></trkpt>
    <trkpt lat="28.255592" lon="84.883943"><ele>893.8</ele><time>2025-10-21T03:19:18Z</time></trkpt>
    <trkpt lat="28.255783" lon="84.884212"><ele>894.4</ele><time>2025-10-21T03:19:52Z</time></trkpt>
    <trkpt lat="28.255963" lon="84.884390"><ele>895.0</ele><time>2025-10-21T03:20:14Z</time></trkpt>
    <trkpt lat="28.256269" lon="84.884813"><ele>895.0</ele><time>2025-10-21T03:20:56Z</time></trkpt>
    <trkpt lat="28.256320" lon="84.884852"><ele>895.0</ele><time>2025-10-21T03:21:02Z</time></trkpt>
    <trkpt lat="28.256463" lon="84.885003"><ele>892.4</ele><time>2025-10-21T03:21:18Z</time></trkpt>
    <trkpt lat="28.256698" lon="84.885153"><ele>890.0</ele><time>2025-10-21T03:21:42Z</time></trkpt>
    <trkpt lat="28.256906" lon="84.885393"><ele>886.8</ele><time>2025-10-21T03:22:06Z</time></trkpt>
    <trkpt lat="28.257180" lon="84.885905"><ele>882.4</ele><time>2025-10-21T03:22:48Z</time></trkpt>
    <trkpt lat="28.257446" lon="84.886388"><ele>879.4</ele><time>2025-10-21T03:23:35Z</time></trkpt>
    <trkpt lat="28.257674" lon="84.886568"><ele>879.0</ele><time>2025-10-21T03:24:01Z</time></trkpt>
    <trkpt lat="28.257893" lon="84.886820"><ele>877.0</ele><time>2025-10-21T03:24:40Z</time></trkpt>
    <trkpt lat="28.257931" lon="84.886875"><ele>877.0</ele><time>2025-10-21T03:24:46Z</time></trkpt>
    <trkpt lat="28.258146" lon="84.887020"><ele>877.0</ele><time>2025-10-21T03:25:07Z</time></trkpt>
    <trkpt lat="28.258274" lon="84.887158"><ele>877.0</ele><time>2025-10-21T03:25:21Z</time></trkpt>
    <trkpt lat="28.258462" lon="84.887560"><ele>878.0</ele><time>2025-10-21T03:25:59Z</time></trkpt>
    <trkpt lat="28.258621" lon="84.887631"><ele>878.0</ele><time>2025-10-21T03:26:14Z</time></trkpt>
    <trkpt lat="28.258977" lon="84.887888"><ele>876.6</ele><time>2025-10-21T03:26:50Z</time></trkpt>
    <trkpt lat="28.259300" lon="84.888026"><ele>876.6</ele><time>2025-10-21T03:27:22Z</time></trkpt>
    <trkpt lat="28.259759" lon="84.888294"><ele>877.2</ele><time>2025-10-21T03:28:09Z</time></trkpt>
    <trkpt lat="28.259958" lon="84.888355"><ele>877.4</ele><time>2025-10-21T03:28:27Z</time></trkpt>
    <trkpt lat="28.260088" lon="84.888372"><ele>878.4</ele><time>2025-10-21T03:28:39Z</time></trkpt>
    <trkpt lat="28.260418" lon="84.888537"><ele>882.4</ele><time>2025-10-21T03:29:13Z</time></trkpt>
    <trkpt lat="28.260576" lon="84.888573"><ele>883.4</ele><time>2025-10-21T03:29:28Z</time></trkpt>
    <trkpt lat="28.260813" lon="84.888620"><ele>883.6</ele><time>2025-10-21T03:29:49Z</time></trkpt>
    <trkpt lat="28.260952" lon="84.888690"><ele>883.6</ele><time>2025-10-21T03:30:03Z</time></trkpt>
    <trkpt lat="28.261155" lon="84.888728"><ele>883.6</ele><time>2025-10-21T03:30:22Z</time></trkpt>
    <trkpt lat="28.261546" lon="84.888792"><ele>880.2</ele><time>2025-10-21T03:30:58Z</time></trkpt>
    <trkpt lat="28.261711" lon="84.888755"><ele>877.8</ele><time>2025-10-21T03:31:13Z</time></trkpt>
    <trkpt lat="28.261849" lon="84.888799"><ele>876.2</ele><time>2025-10-21T03:31:25Z</time></trkpt>
    <trkpt lat="28.262219" lon="84.888769"><ele>870.6</ele><time>2025-10-21T03:32:01Z</time></trkpt>
    <trkpt lat="28.262323" lon="84.888801"><ele>869.6</ele><time>2025-10-21T03:32:14Z</time></trkpt>
    <trkpt lat="28.262784" lon="84.888945"><ele>867.0</ele><time>2025-10-21T03:32:54Z</time></trkpt>
    <trkpt lat="28.263237" lon="84.889009"><ele>866.6</ele><time>2025-10-21T03:33:35Z</time></trkpt>
    <trkpt lat="28.263314" lon="84.889043"><ele>866.6</ele><time>2025-10-21T03:33:44Z</time></trkpt>
    <trkpt lat="28.263497" lon="84.889131"><ele>868.2</ele><time>2025-10-21T03:34:01Z</time></trkpt>
    <trkpt lat="28.263922" lon="84.889075"><ele>869.6</ele><time>2025-10-21T03:34:43Z</time></trkpt>
    <trkpt lat="28.264317" lon="84.889120"><ele>869.8</ele><time>2025-10-21T03:35:18Z</time></trkpt>
    <trkpt lat="28.264455" lon="84.889164"><ele>869.8</ele><time>2025-10-21T03:35:30Z</time></trkpt>
    <trkpt lat="28.264567" lon="84.889261"><ele>870.2</ele><time>2025-10-21T03:35:42Z</time></trkpt>
    <trkpt lat="28.264602" lon="84.889283"><ele>870.8</ele><time>2025-10-21T03:35:46Z</time></trkpt>
    <trkpt lat="28.265137" lon="84.889386"><ele>880.6</ele><time>2025-10-21T03:36:49Z</time></trkpt>
    <trkpt lat="28.265252" lon="84.889448"><ele>882.2</ele><time>2025-10-21T03:37:02Z</time></trkpt>
    <trkpt lat="28.265492" lon="84.889723"><ele>888.0</ele><time>2025-10-21T03:37:42Z</time></trkpt>
    <trkpt lat="28.265563" lon="84.889935"><ele>890.8</ele><time>2025-10-21T03:38:03Z</time></trkpt>
    <trkpt lat="28.265649" lon="84.890041"><ele>892.4</ele><time>2025-10-21T03:38:16Z</time></trkpt>
    <trkpt lat="28.265708" lon="84.890086"><ele>893.2</ele><time>2025-10-21T03:38:25Z</time></trkpt>
    <trkpt lat="28.265741" lon="84.890113"><ele>893.2</ele><time>2025-10-21T03:38:31Z</time></trkpt>
    <trkpt lat="28.266053" lon="84.890232"><ele>890.2</ele><time>2025-10-21T03:39:27Z</time></trkpt>
    <trkpt lat="28.266303" lon="84.890469"><ele>889.2</ele><time>2025-10-21T03:39:59Z</time></trkpt>
    <trkpt lat="28.266425" lon="84.890524"><ele>889.2</ele><time>2025-10-21T03:40:10Z</time></trkpt>
    <trkpt lat="28.266508" lon="84.890580"><ele>889.4</ele><time>2025-10-21T03:40:17Z</time></trkpt>
    <trkpt lat="28.266680" lon="84.890940"><ele>891.8</ele><time>2025-10-21T03:40:48Z</time></trkpt>
    <trkpt lat="28.266739" lon="84.891135"><ele>895.6</ele><time>2025-10-21T03:41:05Z</time></trkpt>
    <trkpt lat="28.266767" lon="84.891249"><ele>895.6</ele><time>2025-10-21T03:41:14Z</time></trkpt>
    <trkpt lat="28.267038" lon="84.891655"><ele>895.4</ele><time>2025-10-21T03:41:54Z</time></trkpt>
    <trkpt lat="28.267197" lon="84.892066"><ele>895.4</ele><time>2025-10-21T03:42:27Z</time></trkpt>
    <trkpt lat="28.267248" lon="84.892135"><ele>895.4</ele><time>2025-10-21T03:42:33Z</time></trkpt>
    <trkpt lat="28.267772" lon="84.892634"><ele>899.8</ele><time>2025-10-21T03:43:41Z</time></trkpt>
    <trkpt lat="28.267812" lon="84.892696"><ele>900.8</ele><time>2025-10-21T03:43:48Z</time></trkpt>
    <trkpt lat="28.267975" lon="84.892805"><ele>904.0</ele><time>2025-10-21T03:44:08Z</time></trkpt>
    <trkpt lat="28.268110" lon="84.892955"><ele>908.0</ele><time>2025-10-21T03:44:29Z</time></trkpt>
    <trkpt lat="28.268543" lon="84.893225"><ele>914.8</ele><time>2025-10-21T03:45:22Z</time></trkpt>
    <trkpt lat="28.268711" lon="84.893210"><ele>916.8</ele><time>2025-10-21T03:45:38Z</time></trkpt>
    <trkpt lat="28.268896" lon="84.893208"><ele>916.8</ele><time>2025-10-21T03:45:56Z</time></trkpt>
    <trkpt lat="28.269143" lon="84.893267"><ele>915.0</ele><time>2025-10-21T03:46:21Z</time></trkpt>
    <trkpt lat="28.269184" lon="84.893463"><ele>915.0</ele><time>2025-10-21T03:46:33Z</time></trkpt>
    <trkpt lat="28.269313" lon="84.893606"><ele>915.0</ele><time>2025-10-21T03:46:49Z</time></trkpt>
    <trkpt lat="28.269383" lon="84.893651"><ele>915.4</ele><time>2025-10-21T03:46:56Z</time></trkpt>
    <trkpt lat="28.269713" lon="84.893709"><ele>918.0</ele><time>2025-10-21T03:47:26Z</time></trkpt>
    <trkpt lat="28.269865" lon="84.893782"><ele>918.8</ele><time>2025-10-21T03:47:48Z</time></trkpt>
    <trkpt lat="28.270182" lon="84.893946"><ele>918.8</ele><time>2025-10-21T03:48:17Z</time></trkpt>
    <trkpt lat="28.270672" lon="84.894178"><ele>913.0</ele><time>2025-10-21T03:49:01Z</time></trkpt>
    <trkpt lat="28.270792" lon="84.894283"><ele>912.0</ele><time>2025-10-21T03:49:12Z</time></trkpt>
    <trkpt lat="28.270883" lon="84.894413"><ele>911.0</ele><time>2025-10-21T03:49:23Z</time></trkpt>
    <trkpt lat="28.270974" lon="84.894594"><ele>911.0</ele><time>2025-10-21T03:49:50Z</time></trkpt>
    <trkpt lat="28.271055" lon="84.894668"><ele>911.0</ele><time>2025-10-21T03:49:58Z</time></trkpt>
    <trkpt lat="28.271395" lon="84.894902"><ele>911.2</ele><time>2025-10-21T03:50:36Z</time></trkpt>
    <trkpt lat="28.271471" lon="84.894971"><ele>910.4</ele><time>2025-10-21T03:50:44Z</time></trkpt>
    <trkpt lat="28.271738" lon="84.895041"><ele>906.4</ele><time>2025-10-21T03:51:06Z</time></trkpt>
    <trkpt lat="28.271995" lon="84.895207"><ele>906.0</ele><time>2025-10-21T03:51:31Z</time></trkpt>
    <trkpt lat="28.272099" lon="84.895428"><ele>905.2</ele><time>2025-10-21T03:51:50Z</time></trkpt>
    <trkpt lat="28.272255" lon="84.895533"><ele>905.0</ele><time>2025-10-21T03:52:20Z</time></trkpt>
    <trkpt lat="28.272304" lon="84.895668"><ele>903.2</ele><time>2025-10-21T03:52:30Z</time></trkpt>
    <trkpt lat="28.272314" lon="84.895691"><ele>903.2</ele><time>2025-10-21T03:52:32Z</time></trkpt>
    <trkpt lat="28.272539" lon="84.895984"><ele>903.2</ele><time>2025-10-21T03:53:02Z</time></trkpt>
    <trkpt lat="28.272580" lon="84.896056"><ele>903.8</ele><time>2025-10-21T03:53:09Z</time></trkpt>
    <trkpt lat="28.272809" lon="84.896245"><ele>908.8</ele><time>2025-10-21T03:53:41Z</time></trkpt>
    <trkpt lat="28.272965" lon="84.896559"><ele>914.2</ele><time>2025-10-21T03:54:17Z</time></trkpt>
    <trkpt lat="28.273168" lon="84.896754"><ele>918.4</ele><time>2025-10-21T03:54:46Z</time></trkpt>
    <trkpt lat="28.273406" lon="84.897144"><ele>921.0</ele><time>2025-10-21T03:55:29Z</time></trkpt>
    <trkpt lat="28.273773" lon="84.897407"><ele>922.6</ele><time>2025-10-21T03:56:06Z</time></trkpt>
    <trkpt lat="28.273986" lon="84.897650"><ele>922.8</ele><time>2025-10-21T03:56:32Z</time></trkpt>
    <trkpt lat="28.274075" lon="84.897710"><ele>923.4</ele><time>2025-10-21T03:56:41Z</time></trkpt>
    <trkpt lat="28.274239" lon="84.897800"><ele>923.4</ele><time>2025-10-21T03:56:56Z</time></trkpt>
    <trkpt lat="28.274490" lon="84.898126"><ele>921.4</ele><time>2025-10-21T03:57:28Z</time></trkpt>
    <trkpt lat="28.274731" lon="84.898373"><ele>918.4</ele><time>2025-10-21T03:57:55Z</time></trkpt>
    <trkpt lat="28.274959" lon="84.898431"><ele>915.0</ele><time>2025-10-21T03:58:17Z</time></trkpt>
    <trkpt lat="28.275002" lon="84.898458"><ele>914.0</ele><time>2025-10-21T03:58:22Z</time></trkpt>
    <trkpt lat="28.275131" lon="84.898538"><ele>914.0</ele><time>2025-10-21T03:58:37Z</time></trkpt>
    <trkpt lat="28.275287" lon="84.898562"><ele>914.0</ele><time>2025-10-21T03:58:54Z</time></trkpt>
    <trkpt lat="28.275262" lon="84.898564"><ele>914.0</ele><time>2025-10-21T03:59:11Z</time></trkpt>
    <trkpt lat="28.275316" lon="84.898620"><ele>914.6</ele><time>2025-10-21T04:00:15Z</time></trkpt>
    <trkpt lat="28.275392" lon="84.898578"><ele>914.6</ele><time>2025-10-21T04:00:33Z</time></trkpt>
    <trkpt lat="28.275353" lon="84.898509"><ele>914.6</ele><time>2025-10-21T04:00:58Z</time></trkpt>
    <trkpt lat="28.275326" lon="84.898547"><ele>914.8</ele><time>2025-10-21T04:01:19Z</time></trkpt>
    <trkpt lat="28.275403" lon="84.898569"><ele>914.8</ele><time>2025-10-21T04:01:42Z</time></trkpt>
    <trkpt lat="28.275483" lon="84.898599"><ele>914.6</ele><time>2025-10-21T04:01:47Z</time></trkpt>
    <trkpt lat="28.275583" lon="84.898603"><ele>911.8</ele><time>2025-10-21T04:02:06Z</time></trkpt>
    <trkpt lat="28.275649" lon="84.898604"><ele>911.8</ele><time>2025-10-21T04:02:25Z</time></trkpt>
    <trkpt lat="28.275632" lon="84.898649"><ele>911.8</ele><time>2025-10-21T04:02:38Z</time></trkpt>
    <trkpt lat="28.275545" lon="84.898589"><ele>912.6</ele><time>2025-10-21T04:02:55Z</time></trkpt>
    <trkpt lat="28.275413" lon="84.898608"><ele>914.8</ele><time>2025-10-21T04:03:08Z</time></trkpt>
    <trkpt lat="28.275357" lon="84.898623"><ele>914.8</ele><time>2025-10-21T04:03:17Z</time></trkpt>
    <trkpt lat="28.275341" lon="84.898463"><ele>914.8</ele><time>2025-10-21T04:04:17Z</time></trkpt>
    <trkpt lat="28.275366" lon="84.898500"><ele>914.8</ele><time>2025-10-21T04:04:35Z</time></trkpt>
    <trkpt lat="28.275377" lon="84.898474"><ele>914.6</ele><time>2025-10-21T04:04:55Z</time></trkpt>
    <trkpt lat="28.275343" lon="84.898464"><ele>914.6</ele><time>2025-10-21T04:05:07Z</time></trkpt>
    <trkpt lat="28.275324" lon="84.898551"><ele>914.6</ele><time>2025-10-21T04:05:13Z</time></trkpt>
    <trkpt lat="28.275382" lon="84.898526"><ele>914.4</ele><time>2025-10-21T04:05:23Z</time></trkpt>
    <trkpt lat="28.275317" lon="84.898627"><ele>913.8</ele><time>2025-10-21T04:05:56Z</time></trkpt>
    <trkpt lat="28.275337" lon="84.898652"><ele>913.8</ele><time>2025-10-21T04:06:27Z</time></trkpt>
    <trkpt lat="28.275322" lon="84.898611"><ele>913.6</ele><time>2025-10-21T04:07:47Z</time></trkpt>
    <trkpt lat="28.275354" lon="84.898584"><ele>913.6</ele><time>2025-10-21T04:07:55Z</time></trkpt>
    <trkpt lat="28.275311" lon="84.898636"><ele>913.6</ele><time>2025-10-21T04:08:45Z</time></trkpt>
    <trkpt lat="28.275342" lon="84.898557"><ele>913.6</ele><time>2025-10-21T04:09:05Z</time></trkpt>
    <trkpt lat="28.275304" lon="84.898645"><ele>914.0</ele><time>2025-10-21T04:09:38Z</time></trkpt>
    <trkpt lat="28.275361" lon="84.898541"><ele>914.2</ele><time>2025-10-21T04:09:59Z</time></trkpt>
    <trkpt lat="28.275392" lon="84.898585"><ele>914.2</ele><time>2025-10-21T04:10:14Z</time></trkpt>
    <trkpt lat="28.275348" lon="84.898615"><ele>914.4</ele><time>2025-10-21T04:10:24Z</time></trkpt>
    <trkpt lat="28.275321" lon="84.898556"><ele>914.6</ele><time>2025-10-21T04:10:50Z</time></trkpt>
    <trkpt lat="28.275276" lon="84.898603"><ele>914.4</ele><time>2025-10-21T04:11:16Z</time></trkpt>
    <trkpt lat="28.275356" lon="84.898593"><ele>914.4</ele><time>2025-10-21T04:11:34Z</time></trkpt>
    <trkpt lat="28.275302" lon="84.898525"><ele>914.4</ele><time>2025-10-21T04:12:02Z</time></trkpt>
    <trkpt lat="28.275301" lon="84.898607"><ele>914.4</ele><time>2025-10-21T04:12:15Z</time></trkpt>
    <trkpt lat="28.275347" lon="84.898584"><ele>914.4</ele><time>2025-10-21T04:12:22Z</time></trkpt>
    <trkpt lat="28.275359" lon="84.898635"><ele>914.4</ele><time>2025-10-21T04:12:44Z</time></trkpt>
    <trkpt lat="28.275356" lon="84.898487"><ele>914.4</ele><time>2025-10-21T04:13:21Z</time></trkpt>
    <trkpt lat="28.275351" lon="84.898594"><ele>914.4</ele><time>2025-10-21T04:13:58Z</time></trkpt>
    <trkpt lat="28.275391" lon="84.898607"><ele>914.4</ele><time>2025-10-21T04:14:40Z</time></trkpt>
    <trkpt lat="28.275363" lon="84.898598"><ele>914.4</ele><time>2025-10-21T04:14:54Z</time></trkpt>
    <trkpt lat="28.275348" lon="84.898656"><ele>914.4</ele><time>2025-10-21T04:15:28Z</time></trkpt>
    <trkpt lat="28.275369" lon="84.898588"><ele>914.6</ele><time>2025-10-21T04:16:07Z</time></trkpt>
    <trkpt lat="28.275296" lon="84.898621"><ele>914.6</ele><time>2025-10-21T04:16:28Z</time></trkpt>
    <trkpt lat="28.275337" lon="84.898591"><ele>914.6</ele><time>2025-10-21T04:16:37Z</time></trkpt>
    <trkpt lat="28.275383" lon="84.898645"><ele>914.4</ele><time>2025-10-21T04:17:15Z</time></trkpt>
    <trkpt lat="28.275317" lon="84.898685"><ele>914.4</ele><time>2025-10-21T04:17:57Z</time></trkpt>
    <trkpt lat="28.275351" lon="84.898636"><ele>914.4</ele><time>2025-10-21T04:18:25Z</time></trkpt>
    <trkpt lat="28.275346" lon="84.898676"><ele>914.4</ele><time>2025-10-21T04:18:48Z</time></trkpt>
    <trkpt lat="28.275322" lon="84.898653"><ele>914.4</ele><time>2025-10-21T04:18:56Z</time></trkpt>
    <trkpt lat="28.275364" lon="84.898692"><ele>914.4</ele><time>2025-10-21T04:19:12Z</time></trkpt>
    <trkpt lat="28.275358" lon="84.898615"><ele>914.6</ele><time>2025-10-21T04:19:23Z</time></trkpt>
    <trkpt lat="28.275339" lon="84.898686"><ele>914.8</ele><time>2025-10-21T04:19:40Z</time></trkpt>
    <trkpt lat="28.275354" lon="84.898614"><ele>915.0</ele><time>2025-10-21T04:20:16Z</time></trkpt>
    <trkpt lat="28.275410" lon="84.898555"><ele>915.0</ele><time>2025-10-21T04:20:29Z</time></trkpt>
    <trkpt lat="28.275455" lon="84.898571"><ele>915.0</ele><time>2025-10-21T04:20:35Z</time></trkpt>
    <trkpt lat="28.275557" lon="84.898613"><ele>914.0</ele><time>2025-10-21T04:20:49Z</time></trkpt>
    <trkpt lat="28.275599" lon="84.898588"><ele>912.0</ele><time>2025-10-21T04:21:05Z</time></trkpt>
    <trkpt lat="28.275663" lon="84.898743"><ele>912.0</ele><time>2025-10-21T04:21:38Z</time></trkpt>
    <trkpt lat="28.275610" lon="84.898687"><ele>912.0</ele><time>2025-10-21T04:21:46Z</time></trkpt>
    <trkpt lat="28.275558" lon="84.898620"><ele>913.2</ele><time>2025-10-21T04:21:50Z</time></trkpt>
    <trkpt lat="28.275430" lon="84.898618"><ele>915.6</ele><time>2025-10-21T04:22:05Z</time></trkpt>
    <trkpt lat="28.275361" lon="84.898643"><ele>915.6</ele><time>2025-10-21T04:22:17Z</time></trkpt>
    <trkpt lat="28.275374" lon="84.898586"><ele>915.6</ele><time>2025-10-21T04:22:41Z</time></trkpt>
    <trkpt lat="28.275373" lon="84.898590"><ele>915.6</ele><time>2025-10-21T04:22:44Z</time></trkpt>
    <trkpt lat="28.275372" lon="84.898633"><ele>915.4</ele><time>2025-10-21T04:22:59Z</time></trkpt>
    <trkpt lat="28.275402" lon="84.898616"><ele>915.4</ele><time>2025-10-21T04:23:25Z</time></trkpt>
    <trkpt lat="28.275376" lon="84.898570"><ele>915.4</ele><time>2025-10-21T04:23:50Z</time></trkpt>
    <trkpt lat="28.275401" lon="84.898629"><ele>915.4</ele><time>2025-10-21T04:24:16Z</time></trkpt>
    <trkpt lat="28.275495" lon="84.898579"><ele>915.2</ele><time>2025-10-21T04:24:40Z</time></trkpt>
    <trkpt lat="28.275559" lon="84.898606"><ele>915.2</ele><time>2025-10-21T04:24:50Z</time></trkpt>
    <trkpt lat="28.275747" lon="84.898525"><ele>915.0</ele><time>2025-10-21T04:25:11Z</time></trkpt>
    <trkpt lat="28.276089" lon="84.898465"><ele>914.8</ele><time>2025-10-21T04:25:42Z</time></trkpt>
    <trkpt lat="28.276161" lon="84.898412"><ele>914.6</ele><time>2025-10-21T04:25:53Z</time></trkpt>
    <trkpt lat="28.276409" lon="84.898432"><ele>913.0</ele><time>2025-10-21T04:26:18Z</time></trkpt>
    <trkpt lat="28.276736" lon="84.898372"><ele>913.0</ele><time>2025-10-21T04:26:48Z</time></trkpt>
    <trkpt lat="28.277058" lon="84.898457"><ele>917.8</ele><time>2025-10-21T04:27:32Z</time></trkpt>
    <trkpt lat="28.277182" lon="84.898430"><ele>920.2</ele><time>2025-10-21T04:27:47Z</time></trkpt>
    <trkpt lat="28.277541" lon="84.898418"><ele>922.2</ele><time>2025-10-21T04:28:42Z</time></trkpt>
    <trkpt lat="28.277754" lon="84.898391"><ele>925.6</ele><time>2025-10-21T04:29:07Z</time></trkpt>
    <trkpt lat="28.277988" lon="84.898542"><ele>929.0</ele><time>2025-10-21T04:29:36Z</time></trkpt>
    <trkpt lat="28.278234" lon="84.898570"><ele>932.0</ele><time>2025-10-21T04:30:04Z</time></trkpt>
    <trkpt lat="28.278298" lon="84.898602"><ele>933.0</ele><time>2025-10-21T04:30:12Z</time></trkpt>
    <trkpt lat="28.278413" lon="84.898641"><ele>933.2</ele><time>2025-10-21T04:30:23Z</time></trkpt>
    <trkpt lat="28.278801" lon="84.898625"><ele>934.0</ele><time>2025-10-21T04:31:16Z</time></trkpt>
    <trkpt lat="28.279305" lon="84.898815"><ele>937.0</ele><time>2025-10-21T04:32:08Z</time></trkpt>
    <trkpt lat="28.279716" lon="84.899021"><ele>937.6</ele><time>2025-10-21T04:32:48Z</time></trkpt>
    <trkpt lat="28.280209" lon="84.899118"><ele>938.4</ele><time>2025-10-21T04:33:34Z</time></trkpt>
    <trkpt lat="28.280690" lon="84.899300"><ele>938.2</ele><time>2025-10-21T04:34:14Z</time></trkpt>
    <trkpt lat="28.281003" lon="84.899307"><ele>938.2</ele><time>2025-10-21T04:34:41Z</time></trkpt>
    <trkpt lat="28.281191" lon="84.899314"><ele>942.4</ele><time>2025-10-21T04:35:01Z</time></trkpt>
    <trkpt lat="28.281429" lon="84.899281"><ele>948.2</ele><time>2025-10-21T04:35:30Z</time></trkpt>
    <trkpt lat="28.281519" lon="84.899308"><ele>950.4</ele><time>2025-10-21T04:35:43Z</time></trkpt>
    <trkpt lat="28.281785" lon="84.899319"><ele>954.6</ele><time>2025-10-21T04:36:14Z</time></trkpt>
    <trkpt lat="28.281904" lon="84.899410"><ele>956.8</ele><time>2025-10-21T04:36:31Z</time></trkpt>
    <trkpt lat="28.282324" lon="84.899354"><ele>964.6</ele><time>2025-10-21T04:37:40Z</time></trkpt>
    <trkpt lat="28.282364" lon="84.899367"><ele>965.0</ele><time>2025-10-21T04:38:02Z</time></trkpt>
    <trkpt lat="28.282346" lon="84.899401"><ele>965.0</ele><time>2025-10-21T04:38:26Z</time></trkpt>
    <trkpt lat="28.282355" lon="84.899323"><ele>965.2</ele><time>2025-10-21T04:38:43Z</time></trkpt>
    <trkpt lat="28.282360" lon="84.899392"><ele>965.4</ele><time>2025-10-21T04:39:43Z</time></trkpt>
    <trkpt lat="28.282382" lon="84.899354"><ele>965.6</ele><time>2025-10-21T04:40:02Z</time></trkpt>
    <trkpt lat="28.282627" lon="84.899273"><ele>968.0</ele><time>2025-10-21T04:40:41Z</time></trkpt>
    <trkpt lat="28.282612" lon="84.899333"><ele>968.4</ele><time>2025-10-21T04:41:00Z</time></trkpt>
    <trkpt lat="28.282621" lon="84.899246"><ele>968.4</ele><time>2025-10-21T04:41:34Z</time></trkpt>
    <trkpt lat="28.282842" lon="84.899318"><ele>970.4</ele><time>2025-10-21T04:42:09Z</time></trkpt>
    <trkpt lat="28.282986" lon="84.899420"><ele>970.6</ele><time>2025-10-21T04:42:24Z</time></trkpt>
    <trkpt lat="28.282971" lon="84.899474"><ele>970.8</ele><time>2025-10-21T04:42:45Z</time></trkpt>
    <trkpt lat="28.282980" lon="84.899395"><ele>970.8</ele><time>2025-10-21T04:43:21Z</time></trkpt>
    <trkpt lat="28.282977" lon="84.899462"><ele>970.8</ele><time>2025-10-21T04:43:32Z</time></trkpt>
    <trkpt lat="28.283054" lon="84.899450"><ele>970.8</ele><time>2025-10-21T04:43:51Z</time></trkpt>
    <trkpt lat="28.283152" lon="84.899472"><ele>971.6</ele><time>2025-10-21T04:44:00Z</time></trkpt>
    <trkpt lat="28.283342" lon="84.899576"><ele>973.8</ele><time>2025-10-21T04:44:22Z</time></trkpt>
    <trkpt lat="28.283435" lon="84.899591"><ele>974.4</ele><time>2025-10-21T04:44:44Z</time></trkpt>
    <trkpt lat="28.283617" lon="84.899505"><ele>977.0</ele><time>2025-10-21T04:45:46Z</time></trkpt>
    <trkpt lat="28.283636" lon="84.899489"><ele>977.4</ele><time>2025-10-21T04:45:52Z</time></trkpt>
    <trkpt lat="28.283729" lon="84.899484"><ele>978.4</ele><time>2025-10-21T04:46:03Z</time></trkpt>
    <trkpt lat="28.283883" lon="84.899510"><ele>979.8</ele><time>2025-10-21T04:46:20Z</time></trkpt>
    <trkpt lat="28.284281" lon="84.899704"><ele>985.2</ele><time>2025-10-21T04:47:03Z</time></trkpt>
    <trkpt lat="28.284306" lon="84.899715"><ele>985.2</ele><time>2025-10-21T04:47:05Z</time></trkpt>
    <trkpt lat="28.284577" lon="84.899789"><ele>985.4</ele><time>2025-10-21T04:47:29Z</time></trkpt>
    <trkpt lat="28.284757" lon="84.899804"><ele>985.2</ele><time>2025-10-21T04:47:45Z</time></trkpt>
    <trkpt lat="28.284913" lon="84.899744"><ele>985.2</ele><time>2025-10-21T04:48:00Z</time></trkpt>
    <trkpt lat="28.285086" lon="84.899738"><ele>984.4</ele><time>2025-10-21T04:48:14Z</time></trkpt>
    <trkpt lat="28.285173" lon="84.899764"><ele>984.4</ele><time>2025-10-21T04:48:25Z</time></trkpt>
    <trkpt lat="28.285375" lon="84.899942"><ele>983.2</ele><time>2025-10-21T04:48:47Z</time></trkpt>
    <trkpt lat="28.285815" lon="84.900045"><ele>983.0</ele><time>2025-10-21T04:49:26Z</time></trkpt>
    <trkpt lat="28.286458" lon="84.900369"><ele>990.0</ele><time>2025-10-21T04:50:33Z</time></trkpt>
    <trkpt lat="28.286548" lon="84.900385"><ele>990.0</ele><time>2025-10-21T04:50:41Z</time></trkpt>
    <trkpt lat="28.286867" lon="84.900262"><ele>990.0</ele><time>2025-10-21T04:51:11Z</time></trkpt>
    <trkpt lat="28.287055" lon="84.900204"><ele>986.4</ele><time>2025-10-21T04:51:28Z</time></trkpt>
    <trkpt lat="28.287159" lon="84.900147"><ele>984.2</ele><time>2025-10-21T04:51:38Z</time></trkpt>
    <trkpt lat="28.287408" lon="84.899953"><ele>984.0</ele><time>2025-10-21T04:52:04Z</time></trkpt>
    <trkpt lat="28.287566" lon="84.899949"><ele>984.0</ele><time>2025-10-21T04:52:17Z</time></trkpt>
    <trkpt lat="28.287776" lon="84.900029"><ele>982.6</ele><time>2025-10-21T04:53:00Z</time></trkpt>
    <trkpt lat="28.287973" lon="84.899998"><ele>982.4</ele><time>2025-10-21T04:53:15Z</time></trkpt>
    <trkpt lat="28.288082" lon="84.899994"><ele>981.8</ele><time>2025-10-21T04:53:24Z</time></trkpt>
    <trkpt lat="28.288420" lon="84.900032"><ele>976.2</ele><time>2025-10-21T04:53:53Z</time></trkpt>
    <trkpt lat="28.288516" lon="84.899990"><ele>975.4</ele><time>2025-10-21T04:54:02Z</time></trkpt>
    <trkpt lat="28.288567" lon="84.899822"><ele>972.8</ele><time>2025-10-21T04:54:15Z</time></trkpt>
    <trkpt lat="28.288589" lon="84.899776"><ele>972.8</ele><time>2025-10-21T04:54:19Z</time></trkpt>
    <trkpt lat="28.288701" lon="84.899669"><ele>972.8</ele><time>2025-10-21T04:54:31Z</time></trkpt>
    <trkpt lat="28.288803" lon="84.899697"><ele>972.8</ele><time>2025-10-21T04:54:39Z</time></trkpt>
    <trkpt lat="28.288898" lon="84.899798"><ele>975.6</ele><time>2025-10-21T04:54:53Z</time></trkpt>
    <trkpt lat="28.289055" lon="84.899872"><ele>977.2</ele><time>2025-10-21T04:55:10Z</time></trkpt>
    <trkpt lat="28.289303" lon="84.899796"><ele>977.2</ele><time>2025-10-21T04:55:39Z</time></trkpt>
    <trkpt lat="28.289710" lon="84.899769"><ele>971.4</ele><time>2025-10-21T04:56:14Z</time></trkpt>
    <trkpt lat="28.289929" lon="84.899803"><ele>969.6</ele><time>2025-10-21T04:56:30Z</time></trkpt>
    <trkpt lat="28.290241" lon="84.899796"><ele>969.6</ele><time>2025-10-21T04:56:55Z</time></trkpt>
    <trkpt lat="28.290501" lon="84.899855"><ele>969.6</ele><time>2025-10-21T04:57:20Z</time></trkpt>
    <trkpt lat="28.290647" lon="84.899889"><ele>970.0</ele><time>2025-10-21T04:57:32Z</time></trkpt>
    <trkpt lat="28.291308" lon="84.899931"><ele>973.8</ele><time>2025-10-21T04:58:31Z</time></trkpt>
    <trkpt lat="28.291994" lon="84.900179"><ele>976.2</ele><time>2025-10-21T04:59:39Z</time></trkpt>
    <trkpt lat="28.292144" lon="84.900217"><ele>974.8</ele><time>2025-10-21T04:59:54Z</time></trkpt>
    <trkpt lat="28.292392" lon="84.900188"><ele>973.0</ele><time>2025-10-21T05:00:16Z</time></trkpt>
    <trkpt lat="28.292407" lon="84.900231"><ele>972.8</ele><time>2025-10-21T05:00:32Z</time></trkpt>
    <trkpt lat="28.292498" lon="84.900243"><ele>971.0</ele><time>2025-10-21T05:01:13Z</time></trkpt>
    <trkpt lat="28.292488" lon="84.900282"><ele>970.0</ele><time>2025-10-21T05:01:19Z</time></trkpt>
    <trkpt lat="28.292547" lon="84.900357"><ele>966.4</ele><time>2025-10-21T05:01:40Z</time></trkpt>
    <trkpt lat="28.292711" lon="84.900366"><ele>966.4</ele><time>2025-10-21T05:02:04Z</time></trkpt>
    <trkpt lat="28.292720" lon="84.900357"><ele>966.4</ele><time>2025-10-21T05:02:08Z</time></trkpt>
    <trkpt lat="28.292744" lon="84.900306"><ele>969.2</ele><time>2025-10-21T05:02:27Z</time></trkpt>
    <trkpt lat="28.292782" lon="84.900306"><ele>969.8</ele><time>2025-10-21T05:02:32Z</time></trkpt>
    <trkpt lat="28.292915" lon="84.900438"><ele>973.0</ele><time>2025-10-21T05:02:58Z</time></trkpt>
    <trkpt lat="28.293002" lon="84.900491"><ele>973.0</ele><time>2025-10-21T05:03:08Z</time></trkpt>
    <trkpt lat="28.293057" lon="84.900495"><ele>973.0</ele><time>2025-10-21T05:03:16Z</time></trkpt>
    <trkpt lat="28.293039" lon="84.900434"><ele>973.0</ele><time>2025-10-21T05:03:23Z</time></trkpt>
    <trkpt lat="28.292985" lon="84.900461"><ele>972.6</ele><time>2025-10-21T05:03:39Z</time></trkpt>
    <trkpt lat="28.293005" lon="84.900377"><ele>972.8</ele><time>2025-10-21T05:04:19Z</time></trkpt>
    <trkpt lat="28.293056" lon="84.900335"><ele>973.0</ele><time>2025-10-21T05:04:43Z</time></trkpt>
    <trkpt lat="28.293032" lon="84.900335"><ele>973.0</ele><time>2025-10-21T05:05:07Z</time></trkpt>
    <trkpt lat="28.293053" lon="84.900397"><ele>973.0</ele><time>2025-10-21T05:05:20Z</time></trkpt>
    <trkpt lat="28.293023" lon="84.900478"><ele>973.2</ele><time>2025-10-21T05:05:45Z</time></trkpt>
    <trkpt lat="28.293103" lon="84.900469"><ele>973.2</ele><time>2025-10-21T05:09:02Z</time></trkpt>
    <trkpt lat="28.293498" lon="84.900796"><ele>971.8</ele><time>2025-10-21T05:09:52Z</time></trkpt>
    <trkpt lat="28.293547" lon="84.900838"><ele>972.6</ele><time>2025-10-21T05:09:59Z</time></trkpt>
    <trkpt lat="28.294144" lon="84.901595"><ele>986.2</ele><time>2025-10-21T05:11:40Z</time></trkpt>
    <trkpt lat="28.294301" lon="84.901688"><ele>987.6</ele><time>2025-10-21T05:11:59Z</time></trkpt>
    <trkpt lat="28.294312" lon="84.901699"><ele>987.6</ele><time>2025-10-21T05:12:11Z</time></trkpt>
    <trkpt lat="28.294339" lon="84.901793"><ele>987.4</ele><time>2025-10-21T05:12:33Z</time></trkpt>
    <trkpt lat="28.294386" lon="84.901938"><ele>984.0</ele><time>2025-10-21T05:12:48Z</time></trkpt>
    <trkpt lat="28.294508" lon="84.902099"><ele>979.4</ele><time>2025-10-21T05:13:06Z</time></trkpt>
    <trkpt lat="28.294321" lon="84.902326"><ele>976.6</ele><time>2025-10-21T05:13:38Z</time></trkpt>
    <trkpt lat="28.294089" lon="84.902568"><ele>976.6</ele><time>2025-10-21T05:14:25Z</time></trkpt>
    <trkpt lat="28.294028" lon="84.902633"><ele>977.4</ele><time>2025-10-21T05:14:32Z</time></trkpt>
    <trkpt lat="28.293712" lon="84.902938"><ele>984.2</ele><time>2025-10-21T05:15:17Z</time></trkpt>
    <trkpt lat="28.293707" lon="84.902930"><ele>984.2</ele><time>2025-10-21T05:15:21Z</time></trkpt>
    <trkpt lat="28.293711" lon="84.902966"><ele>984.4</ele><time>2025-10-21T05:15:54Z</time></trkpt>
    <trkpt lat="28.293784" lon="84.902981"><ele>984.4</ele><time>2025-10-21T05:16:42Z</time></trkpt>
    <trkpt lat="28.293999" lon="84.903253"><ele>984.4</ele><time>2025-10-21T05:17:10Z</time></trkpt>
    <trkpt lat="28.294218" lon="84.903396"><ele>985.8</ele><time>2025-10-21T05:17:38Z</time></trkpt>
    <trkpt lat="28.294232" lon="84.903409"><ele>985.8</ele><time>2025-10-21T05:17:40Z</time></trkpt>
    <trkpt lat="28.294410" lon="84.903611"><ele>983.4</ele><time>2025-10-21T05:18:02Z</time></trkpt>
    <trkpt lat="28.294565" lon="84.903720"><ele>983.4</ele><time>2025-10-21T05:18:17Z</time></trkpt>
    <trkpt lat="28.294732" lon="84.904020"><ele>983.2</ele><time>2025-10-21T05:18:43Z</time></trkpt>
    <trkpt lat="28.294954" lon="84.904171"><ele>983.0</ele><time>2025-10-21T05:19:04Z</time></trkpt>
    <trkpt lat="28.295094" lon="84.904396"><ele>983.0</ele><time>2025-10-21T05:19:37Z</time></trkpt>
    <trkpt lat="28.295110" lon="84.904453"><ele>983.0</ele><time>2025-10-21T05:19:43Z</time></trkpt>
    <trkpt lat="28.295192" lon="84.904676"><ele>986.0</ele><time>2025-10-21T05:20:04Z</time></trkpt>
    <trkpt lat="28.295311" lon="84.904897"><ele>986.8</ele><time>2025-10-21T05:20:26Z</time></trkpt>
    <trkpt lat="28.295472" lon="84.905224"><ele>992.2</ele><time>2025-10-21T05:21:01Z</time></trkpt>
    <trkpt lat="28.295493" lon="84.905306"><ele>993.0</ele><time>2025-10-21T05:21:08Z</time></trkpt>
    <trkpt lat="28.295562" lon="84.905602"><ele>993.4</ele><time>2025-10-21T05:21:32Z</time></trkpt>
    <trkpt lat="28.295568" lon="84.905773"><ele>994.4</ele><time>2025-10-21T05:21:45Z</time></trkpt>
    <trkpt lat="28.295626" lon="84.905911"><ele>996.4</ele><time>2025-10-21T05:21:59Z</time></trkpt>
    <trkpt lat="28.295698" lon="84.906062"><ele>998.8</ele><time>2025-10-21T05:22:19Z</time></trkpt>
    <trkpt lat="28.295995" lon="84.906447"><ele>1000.4</ele><time>2025-10-21T05:23:00Z</time></trkpt>
    <trkpt lat="28.296042" lon="84.906553"><ele>1002.2</ele><time>2025-10-21T05:23:21Z</time></trkpt>
    <trkpt lat="28.296046" lon="84.906552"><ele>1002.2</ele><time>2025-10-21T05:23:38Z</time></trkpt>
    <trkpt lat="28.295996" lon="84.906520"><ele>1002.4</ele><time>2025-10-21T05:24:10Z</time></trkpt>
    <trkpt lat="28.296089" lon="84.906530"><ele>1002.2</ele><time>2025-10-21T05:24:39Z</time></trkpt>
    <trkpt lat="28.296053" lon="84.906566"><ele>1002.2</ele><time>2025-10-21T05:24:53Z</time></trkpt>
    <trkpt lat="28.296036" lon="84.906527"><ele>1002.2</ele><time>2025-10-21T05:25:04Z</time></trkpt>
    <trkpt lat="28.296391" lon="84.906542"><ele>1002.6</ele><time>2025-10-21T05:26:03Z</time></trkpt>
    <trkpt lat="28.296462" lon="84.906534"><ele>1000.6</ele><time>2025-10-21T05:26:12Z</time></trkpt>
    <trkpt lat="28.296614" lon="84.906770"><ele>994.0</ele><time>2025-10-21T05:26:41Z</time></trkpt>
    <trkpt lat="28.296757" lon="84.906825"><ele>990.8</ele><time>2025-10-21T05:26:58Z</time></trkpt>
    <trkpt lat="28.296818" lon="84.906861"><ele>990.8</ele><time>2025-10-21T05:27:05Z</time></trkpt>
    <trkpt lat="28.296901" lon="84.906946"><ele>990.8</ele><time>2025-10-21T05:27:14Z</time></trkpt>
    <trkpt lat="28.297417" lon="84.907828"><ele>991.0</ele><time>2025-10-21T05:28:45Z</time></trkpt>
    <trkpt lat="28.297641" lon="84.907964"><ele>991.0</ele><time>2025-10-21T05:29:07Z</time></trkpt>
    <trkpt lat="28.297770" lon="84.907989"><ele>991.4</ele><time>2025-10-21T05:29:19Z</time></trkpt>
    <trkpt lat="28.298006" lon="84.908234"><ele>992.2</ele><time>2025-10-21T05:29:51Z</time></trkpt>
    <trkpt lat="28.298282" lon="84.908404"><ele>992.8</ele><time>2025-10-21T05:30:22Z</time></trkpt>
    <trkpt lat="28.298478" lon="84.908472"><ele>993.0</ele><time>2025-10-21T05:30:43Z</time></trkpt>
    <trkpt lat="28.299119" lon="84.908755"><ele>996.0</ele><time>2025-10-21T05:31:48Z</time></trkpt>
    <trkpt lat="28.299535" lon="84.908864"><ele>997.8</ele><time>2025-10-21T05:32:26Z</time></trkpt>
    <trkpt lat="28.299806" lon="84.908897"><ele>1001.4</ele><time>2025-10-21T05:32:55Z</time></trkpt>
    <trkpt lat="28.300063" lon="84.909010"><ele>1005.2</ele><time>2025-10-21T05:33:26Z</time></trkpt>
    <trkpt lat="28.300342" lon="84.909036"><ele>1008.4</ele><time>2025-10-21T05:33:55Z</time></trkpt>
    <trkpt lat="28.300361" lon="84.909078"><ele>1008.6</ele><time>2025-10-21T05:34:19Z</time></trkpt>
    <trkpt lat="28.300594" lon="84.909152"><ele>1011.0</ele><time>2025-10-21T05:34:50Z</time></trkpt>
    <trkpt lat="28.300839" lon="84.909165"><ele>1012.4</ele><time>2025-10-21T05:35:18Z</time></trkpt>
    <trkpt lat="28.300972" lon="84.909126"><ele>1013.8</ele><time>2025-10-21T05:35:36Z</time></trkpt>
    <trkpt lat="28.301053" lon="84.909157"><ele>1014.0</ele><time>2025-10-21T05:35:46Z</time></trkpt>
    <trkpt lat="28.301130" lon="84.909091"><ele>1014.8</ele><time>2025-10-21T05:35:57Z</time></trkpt>
    <trkpt lat="28.301204" lon="84.909090"><ele>1015.4</ele><time>2025-10-21T05:36:04Z</time></trkpt>
    <trkpt lat="28.301330" lon="84.909073"><ele>1019.4</ele><time>2025-10-21T05:36:26Z</time></trkpt>
    <trkpt lat="28.301357" lon="84.909088"><ele>1020.8</ele><time>2025-10-21T05:36:32Z</time></trkpt>
    <trkpt lat="28.301395" lon="84.909123"><ele>1020.8</ele><time>2025-10-21T05:36:38Z</time></trkpt>
    <trkpt lat="28.301476" lon="84.909110"><ele>1020.8</ele><time>2025-10-21T05:36:46Z</time></trkpt>
    <trkpt lat="28.301540" lon="84.909075"><ele>1020.8</ele><time>2025-10-21T05:36:53Z</time></trkpt>
    <trkpt lat="28.301735" lon="84.908809"><ele>1016.4</ele><time>2025-10-21T05:37:35Z</time></trkpt>
    <trkpt lat="28.301779" lon="84.908773"><ele>1016.4</ele><time>2025-10-21T05:37:41Z</time></trkpt>
    <trkpt lat="28.302054" lon="84.908664"><ele>1017.4</ele><time>2025-10-21T05:38:05Z</time></trkpt>
    <trkpt lat="28.302130" lon="84.908592"><ele>1017.8</ele><time>2025-10-21T05:38:14Z</time></trkpt>
    <trkpt lat="28.302218" lon="84.908535"><ele>1019.6</ele><time>2025-10-21T05:38:24Z</time></trkpt>
    <trkpt lat="28.302452" lon="84.908469"><ele>1022.4</ele><time>2025-10-21T05:38:48Z</time></trkpt>
    <trkpt lat="28.302514" lon="84.908385"><ele>1023.2</ele><time>2025-10-21T05:38:57Z</time></trkpt>
    <trkpt lat="28.302998" lon="84.908345"><ele>1029.6</ele><time>2025-10-21T05:39:48Z</time></trkpt>
    <trkpt lat="28.303117" lon="84.908268"><ele>1031.0</ele><time>2025-10-21T05:40:01Z</time></trkpt>
    <trkpt lat="28.303203" lon="84.908147"><ele>1033.6</ele><time>2025-10-21T05:40:18Z</time></trkpt>
    <trkpt lat="28.303427" lon="84.908138"><ele>1037.4</ele><time>2025-10-21T05:40:46Z</time></trkpt>
    <trkpt lat="28.303759" lon="84.908017"><ele>1038.4</ele><time>2025-10-21T05:41:24Z</time></trkpt>
    <trkpt lat="28.303895" lon="84.907847"><ele>1039.8</ele><time>2025-10-21T05:41:51Z</time></trkpt>
    <trkpt lat="28.303905" lon="84.907884"><ele>1040.0</ele><time>2025-10-21T05:42:03Z</time></trkpt>
    <trkpt lat="28.303896" lon="84.907856"><ele>1040.0</ele><time>2025-10-21T05:42:16Z</time></trkpt>
    <trkpt lat="28.304025" lon="84.907752"><ele>1040.4</ele><time>2025-10-21T05:42:43Z</time></trkpt>
    <trkpt lat="28.304120" lon="84.907739"><ele>1040.6</ele><time>2025-10-21T05:43:22Z</time></trkpt>
    <trkpt lat="28.304229" lon="84.907800"><ele>1040.6</ele><time>2025-10-21T05:43:37Z</time></trkpt>
    <trkpt lat="28.304314" lon="84.907710"><ele>1040.6</ele><time>2025-10-21T05:43:50Z</time></trkpt>
    <trkpt lat="28.304376" lon="84.907720"><ele>1040.8</ele><time>2025-10-21T05:44:12Z</time></trkpt>
    <trkpt lat="28.304366" lon="84.907672"><ele>1040.8</ele><time>2025-10-21T05:44:31Z</time></trkpt>
    <trkpt lat="28.304375" lon="84.907728"><ele>1040.8</ele><time>2025-10-21T05:44:50Z</time></trkpt>
    <trkpt lat="28.304606" lon="84.907678"><ele>1041.2</ele><time>2025-10-21T05:45:42Z</time></trkpt>
    <trkpt lat="28.304648" lon="84.907660"><ele>1042.4</ele><time>2025-10-21T05:45:49Z</time></trkpt>
    <trkpt lat="28.304753" lon="84.907477"><ele>1045.6</ele><time>2025-10-21T05:46:11Z</time></trkpt>
    <trkpt lat="28.304889" lon="84.907373"><ele>1047.6</ele><time>2025-10-21T05:46:31Z</time></trkpt>
    <trkpt lat="28.304956" lon="84.907244"><ele>1049.0</ele><time>2025-10-21T05:46:46Z</time></trkpt>
    <trkpt lat="28.305075" lon="84.907155"><ele>1051.4</ele><time>2025-10-21T05:47:06Z</time></trkpt>
    <trkpt lat="28.305195" lon="84.906977"><ele>1053.2</ele><time>2025-10-21T05:47:27Z</time></trkpt>
    <trkpt lat="28.305342" lon="84.906889"><ele>1056.4</ele><time>2025-10-21T05:47:46Z</time></trkpt>
    <trkpt lat="28.305549" lon="84.906882"><ele>1063.4</ele><time>2025-10-21T05:48:27Z</time></trkpt>
    <trkpt lat="28.305627" lon="84.906775"><ele>1067.4</ele><time>2025-10-21T05:48:59Z</time></trkpt>
    <trkpt lat="28.305745" lon="84.906653"><ele>1068.2</ele><time>2025-10-21T05:49:22Z</time></trkpt>
    <trkpt lat="28.305763" lon="84.906538"><ele>1068.6</ele><time>2025-10-21T05:49:34Z</time></trkpt>
    <trkpt lat="28.306005" lon="84.906387"><ele>1071.8</ele><time>2025-10-21T05:50:18Z</time></trkpt>
    <trkpt lat="28.306125" lon="84.906233"><ele>1073.8</ele><time>2025-10-21T05:50:46Z</time></trkpt>
    <trkpt lat="28.306167" lon="84.906197"><ele>1073.8</ele><time>2025-10-21T05:50:55Z</time></trkpt>
    <trkpt lat="28.306329" lon="84.905978"><ele>1073.6</ele><time>2025-10-21T05:51:48Z</time></trkpt>
    <trkpt lat="28.306320" lon="84.905840"><ele>1073.6</ele><time>2025-10-21T05:52:36Z</time></trkpt>
    <trkpt lat="28.306410" lon="84.905703"><ele>1073.8</ele><time>2025-10-21T05:52:50Z</time></trkpt>
    <trkpt lat="28.306448" lon="84.905636"><ele>1074.8</ele><time>2025-10-21T05:52:58Z</time></trkpt>
    <trkpt lat="28.306496" lon="84.905625"><ele>1075.0</ele><time>2025-10-21T05:53:05Z</time></trkpt>
    <trkpt lat="28.306568" lon="84.905310"><ele>1077.8</ele><time>2025-10-21T05:53:44Z</time></trkpt>
    <trkpt lat="28.306639" lon="84.905217"><ele>1080.0</ele><time>2025-10-21T05:54:12Z</time></trkpt>
    <trkpt lat="28.306660" lon="84.905237"><ele>1080.4</ele><time>2025-10-21T05:54:21Z</time></trkpt>
    <trkpt lat="28.306651" lon="84.905265"><ele>1080.4</ele><time>2025-10-21T05:54:46Z</time></trkpt>
    <trkpt lat="28.306640" lon="84.905228"><ele>1080.6</ele><time>2025-10-21T05:55:15Z</time></trkpt>
    <trkpt lat="28.306664" lon="84.905232"><ele>1081.4</ele><time>2025-10-21T05:56:32Z</time></trkpt>
    <trkpt lat="28.306623" lon="84.905284"><ele>1082.0</ele><time>2025-10-21T05:58:54Z</time></trkpt>
    <trkpt lat="28.306627" lon="84.905229"><ele>1082.0</ele><time>2025-10-21T05:59:06Z</time></trkpt>
    <trkpt lat="28.306642" lon="84.905288"><ele>1082.0</ele><time>2025-10-21T05:59:27Z</time></trkpt>
    <trkpt lat="28.306629" lon="84.905234"><ele>1082.0</ele><time>2025-10-21T05:59:36Z</time></trkpt>
    <trkpt lat="28.306728" lon="84.905165"><ele>1083.6</ele><time>2025-10-21T05:59:51Z</time></trkpt>
    <trkpt lat="28.306965" lon="84.905138"><ele>1086.2</ele><time>2025-10-21T06:02:16Z</time></trkpt>
    <trkpt lat="28.307048" lon="84.905036"><ele>1086.2</ele><time>2025-10-21T06:02:52Z</time></trkpt>
    <trkpt lat="28.307121" lon="84.904943"><ele>1087.4</ele><time>2025-10-21T06:03:07Z</time></trkpt>
    <trkpt lat="28.307282" lon="84.904893"><ele>1090.4</ele><time>2025-10-21T06:03:33Z</time></trkpt>
    <trkpt lat="28.307372" lon="84.904820"><ele>1091.4</ele><time>2025-10-21T06:03:47Z</time></trkpt>
    <trkpt lat="28.307385" lon="84.904796"><ele>1091.4</ele><time>2025-10-21T06:03:52Z</time></trkpt>
    <trkpt lat="28.307392" lon="84.904835"><ele>1091.4</ele><time>2025-10-21T06:04:03Z</time></trkpt>
    <trkpt lat="28.307376" lon="84.904792"><ele>1091.4</ele><time>2025-10-21T06:04:37Z</time></trkpt>
    <trkpt lat="28.307724" lon="84.904700"><ele>1092.6</ele><time>2025-10-21T06:05:58Z</time></trkpt>
    <trkpt lat="28.307837" lon="84.904600"><ele>1093.0</ele><time>2025-10-21T06:06:18Z</time></trkpt>
    <trkpt lat="28.307954" lon="84.904621"><ele>1093.0</ele><time>2025-10-21T06:06:33Z</time></trkpt>
    <trkpt lat="28.308193" lon="84.904555"><ele>1093.0</ele><time>2025-10-21T06:07:10Z</time></trkpt>
    <trkpt lat="28.308281" lon="84.904538"><ele>1092.2</ele><time>2025-10-21T06:07:19Z</time></trkpt>
    <trkpt lat="28.308364" lon="84.904581"><ele>1091.2</ele><time>2025-10-21T06:07:34Z</time></trkpt>
    <trkpt lat="28.308395" lon="84.904527"><ele>1090.6</ele><time>2025-10-21T06:07:48Z</time></trkpt>
    <trkpt lat="28.308513" lon="84.904547"><ele>1090.0</ele><time>2025-10-21T06:08:35Z</time></trkpt>
    <trkpt lat="28.308614" lon="84.904352"><ele>1087.6</ele><time>2025-10-21T06:08:57Z</time></trkpt>
    <trkpt lat="28.308774" lon="84.904252"><ele>1087.6</ele><time>2025-10-21T06:09:17Z</time></trkpt>
    <trkpt lat="28.308890" lon="84.904086"><ele>1087.6</ele><time>2025-10-21T06:09:37Z</time></trkpt>
    <trkpt lat="28.308984" lon="84.903920"><ele>1092.0</ele><time>2025-10-21T06:10:04Z</time></trkpt>
    <trkpt lat="28.309136" lon="84.903889"><ele>1096.4</ele><time>2025-10-21T06:10:28Z</time></trkpt>
    <trkpt lat="28.309256" lon="84.903578"><ele>1103.6</ele><time>2025-10-21T06:11:34Z</time></trkpt>
    <trkpt lat="28.309566" lon="84.903537"><ele>1113.0</ele><time>2025-10-21T06:12:41Z</time></trkpt>
    <trkpt lat="28.309622" lon="84.903560"><ele>1114.0</ele><time>2025-10-21T06:12:53Z</time></trkpt>
    <trkpt lat="28.309644" lon="84.903580"><ele>1114.0</ele><time>2025-10-21T06:14:36Z</time></trkpt>
    <trkpt lat="28.309831" lon="84.903395"><ele>1115.0</ele><time>2025-10-21T06:18:20Z</time></trkpt>
    <trkpt lat="28.309836" lon="84.903444"><ele>1115.4</ele><time>2025-10-21T06:18:46Z</time></trkpt>
    <trkpt lat="28.309880" lon="84.903368"><ele>1115.4</ele><time>2025-10-21T06:19:01Z</time></trkpt>
    <trkpt lat="28.309938" lon="84.903347"><ele>1115.6</ele><time>2025-10-21T06:19:07Z</time></trkpt>
    <trkpt lat="28.310276" lon="84.903455"><ele>1116.6</ele><time>2025-10-21T06:19:43Z</time></trkpt>
    <trkpt lat="28.310499" lon="84.903454"><ele>1116.6</ele><time>2025-10-21T06:20:07Z</time></trkpt>
    <trkpt lat="28.311011" lon="84.903444"><ele>1105.0</ele><time>2025-10-21T06:21:15Z</time></trkpt>
    <trkpt lat="28.311065" lon="84.903420"><ele>1103.8</ele><time>2025-10-21T06:21:21Z</time></trkpt>
    <trkpt lat="28.311519" lon="84.903298"><ele>1104.2</ele><time>2025-10-21T06:22:22Z</time></trkpt>
    <trkpt lat="28.311613" lon="84.903184"><ele>1104.2</ele><time>2025-10-21T06:23:03Z</time></trkpt>
    <trkpt lat="28.311680" lon="84.903069"><ele>1106.8</ele><time>2025-10-21T06:23:21Z</time></trkpt>
    <trkpt lat="28.311728" lon="84.903058"><ele>1109.2</ele><time>2025-10-21T06:23:27Z</time></trkpt>
    <trkpt lat="28.311755" lon="84.903062"><ele>1110.2</ele><time>2025-10-21T06:23:30Z</time></trkpt>
    <trkpt lat="28.311844" lon="84.903071"><ele>1110.4</ele><time>2025-10-21T06:23:38Z</time></trkpt>
    <trkpt lat="28.311868" lon="84.903142"><ele>1110.4</ele><time>2025-10-21T06:24:04Z</time></trkpt>
    <trkpt lat="28.311996" lon="84.903133"><ele>1108.6</ele><time>2025-10-21T06:24:18Z</time></trkpt>
    <trkpt lat="28.312149" lon="84.903278"><ele>1105.8</ele><time>2025-10-21T06:24:38Z</time></trkpt>
    <trkpt lat="28.312222" lon="84.903332"><ele>1103.4</ele><time>2025-10-21T06:24:49Z</time></trkpt>
    <trkpt lat="28.312303" lon="84.903366"><ele>1099.6</ele><time>2025-10-21T06:25:03Z</time></trkpt>
    <trkpt lat="28.312478" lon="84.903418"><ele>1099.6</ele><time>2025-10-21T06:25:19Z</time></trkpt>
    <trkpt lat="28.312732" lon="84.903710"><ele>1101.0</ele><time>2025-10-21T06:25:56Z</time></trkpt>
    <trkpt lat="28.312840" lon="84.903755"><ele>1101.6</ele><time>2025-10-21T06:26:05Z</time></trkpt>
    <trkpt lat="28.312785" lon="84.903709"><ele>1101.8</ele><time>2025-10-21T06:26:24Z</time></trkpt>
    <trkpt lat="28.312770" lon="84.903748"><ele>1101.8</ele><time>2025-10-21T06:26:32Z</time></trkpt>
    <trkpt lat="28.312826" lon="84.903744"><ele>1102.0</ele><time>2025-10-21T06:26:41Z</time></trkpt>
    <trkpt lat="28.312817" lon="84.903840"><ele>1102.2</ele><time>2025-10-21T06:27:07Z</time></trkpt>
    <trkpt lat="28.312808" lon="84.903704"><ele>1102.2</ele><time>2025-10-21T06:27:21Z</time></trkpt>
    <trkpt lat="28.312850" lon="84.903721"><ele>1102.4</ele><time>2025-10-21T06:27:34Z</time></trkpt>
    <trkpt lat="28.312831" lon="84.903799"><ele>1102.2</ele><time>2025-10-21T06:27:44Z</time></trkpt>
    <trkpt lat="28.312784" lon="84.903768"><ele>1102.2</ele><time>2025-10-21T06:28:06Z</time></trkpt>
    <trkpt lat="28.312779" lon="84.903689"><ele>1102.2</ele><time>2025-10-21T06:29:48Z</time></trkpt>
    <trkpt lat="28.312779" lon="84.903731"><ele>1102.2</ele><time>2025-10-21T06:30:19Z</time></trkpt>
    <trkpt lat="28.312750" lon="84.903722"><ele>1102.6</ele><time>2025-10-21T06:30:33Z</time></trkpt>
    <trkpt lat="28.312792" lon="84.903738"><ele>1102.6</ele><time>2025-10-21T06:30:39Z</time></trkpt>
    <trkpt lat="28.312851" lon="84.903676"><ele>1103.0</ele><time>2025-10-21T06:30:52Z</time></trkpt>
    <trkpt lat="28.312801" lon="84.903821"><ele>1103.2</ele><time>2025-10-21T06:31:08Z</time></trkpt>
    <trkpt lat="28.312765" lon="84.903805"><ele>1103.4</ele><time>2025-10-21T06:31:12Z</time></trkpt>
    <trkpt lat="28.312826" lon="84.903754"><ele>1103.4</ele><time>2025-10-21T06:31:19Z</time></trkpt>
    <trkpt lat="28.312838" lon="84.903570"><ele>1103.4</ele><time>2025-10-21T06:31:32Z</time></trkpt>
    <trkpt lat="28.312895" lon="84.903866"><ele>1103.0</ele><time>2025-10-21T06:32:27Z</time></trkpt>
    <trkpt lat="28.312856" lon="84.903776"><ele>1103.2</ele><time>2025-10-21T06:32:45Z</time></trkpt>
    <trkpt lat="28.312798" lon="84.903771"><ele>1103.2</ele><time>2025-10-21T06:33:02Z</time></trkpt>
    <trkpt lat="28.312799" lon="84.903711"><ele>1103.4</ele><time>2025-10-21T06:33:07Z</time></trkpt>
    <trkpt lat="28.312852" lon="84.903648"><ele>1103.4</ele><time>2025-10-21T06:33:11Z</time></trkpt>
    <trkpt lat="28.312812" lon="84.903675"><ele>1103.6</ele><time>2025-10-21T06:33:21Z</time></trkpt>
    <trkpt lat="28.312836" lon="84.903871"><ele>1103.6</ele><time>2025-10-21T06:33:54Z</time></trkpt>
    <trkpt lat="28.312871" lon="84.903852"><ele>1103.6</ele><time>2025-10-21T06:33:58Z</time></trkpt>
    <trkpt lat="28.312770" lon="84.903847"><ele>1103.6</ele><time>2025-10-21T06:34:26Z</time></trkpt>
    <trkpt lat="28.312810" lon="84.903918"><ele>1103.6</ele><time>2025-10-21T06:34:49Z</time></trkpt>
    <trkpt lat="28.312771" lon="84.903837"><ele>1103.6</ele><time>2025-10-21T06:35:16Z</time></trkpt>
    <trkpt lat="28.312839" lon="84.903845"><ele>1103.6</ele><time>2025-10-21T06:35:24Z</time></trkpt>
    <trkpt lat="28.312894" lon="84.903772"><ele>1103.6</ele><time>2025-10-21T06:36:06Z</time></trkpt>
    <trkpt lat="28.312850" lon="84.903739"><ele>1103.6</ele><time>2025-10-21T06:36:19Z</time></trkpt>
    <trkpt lat="28.312862" lon="84.903748"><ele>1103.6</ele><time>2025-10-21T06:36:29Z</time></trkpt>
    <trkpt lat="28.313203" lon="84.904493"><ele>1126.0</ele><time>2025-10-21T07:54:22Z</time></trkpt>
    <trkpt lat="28.313157" lon="84.904546"><ele>1128.0</ele><time>2025-10-21T07:54:36Z</time></trkpt>
    <trkpt lat="28.313144" lon="84.904641"><ele>1130.4</ele><time>2025-10-21T07:54:51Z</time></trkpt>
    <trkpt lat="28.313246" lon="84.904671"><ele>1135.8</ele><time>2025-10-21T07:55:30Z</time></trkpt>
    <trkpt lat="28.313315" lon="84.904786"><ele>1140.4</ele><time>2025-10-21T07:55:59Z</time></trkpt>
    <trkpt lat="28.313442" lon="84.904800"><ele>1143.0</ele><time>2025-10-21T07:56:23Z</time></trkpt>
    <trkpt lat="28.313490" lon="84.904887"><ele>1146.0</ele><time>2025-10-21T07:56:42Z</time></trkpt>
    <trkpt lat="28.313645" lon="84.904945"><ele>1150.2</ele><time>2025-10-21T07:57:07Z</time></trkpt>
    <trkpt lat="28.313761" lon="84.905067"><ele>1155.2</ele><time>2025-10-21T07:57:40Z</time></trkpt>
    <trkpt lat="28.313870" lon="84.905035"><ele>1156.8</ele><time>2025-10-21T07:58:05Z</time></trkpt>
    <trkpt lat="28.313963" lon="84.905065"><ele>1157.8</ele><time>2025-10-21T07:58:18Z</time></trkpt>
    <trkpt lat="28.313965" lon="84.905071"><ele>1158.0</ele><time>2025-10-21T07:58:19Z</time></trkpt>
    <trkpt lat="28.314039" lon="84.905178"><ele>1161.2</ele><time>2025-10-21T07:58:39Z</time></trkpt>
    <trkpt lat="28.314050" lon="84.905260"><ele>1163.4</ele><time>2025-10-21T07:58:51Z</time></trkpt>
    <trkpt lat="28.314152" lon="84.905636"><ele>1164.6</ele><time>2025-10-21T07:59:59Z</time></trkpt>
    <trkpt lat="28.314278" lon="84.905782"><ele>1167.6</ele><time>2025-10-21T08:00:26Z</time></trkpt>
    <trkpt lat="28.314301" lon="84.905941"><ele>1170.0</ele><time>2025-10-21T08:00:46Z</time></trkpt>
    <trkpt lat="28.314320" lon="84.905973"><ele>1170.0</ele><time>2025-10-21T08:00:53Z</time></trkpt>
    <trkpt lat="28.314520" lon="84.905979"><ele>1167.6</ele><time>2025-10-21T08:01:39Z</time></trkpt>
    <trkpt lat="28.314516" lon="84.906060"><ele>1167.4</ele><time>2025-10-21T08:01:54Z</time></trkpt>
    <trkpt lat="28.314767" lon="84.906152"><ele>1167.4</ele><time>2025-10-21T08:02:27Z</time></trkpt>
    <trkpt lat="28.314827" lon="84.906300"><ele>1164.8</ele><time>2025-10-21T08:02:51Z</time></trkpt>
    <trkpt lat="28.314911" lon="84.906257"><ele>1159.8</ele><time>2025-10-21T08:03:17Z</time></trkpt>
    <trkpt lat="28.314966" lon="84.906336"><ele>1157.6</ele><time>2025-10-21T08:03:32Z</time></trkpt>
    <trkpt lat="28.314977" lon="84.906382"><ele>1157.4</ele><time>2025-10-21T08:03:41Z</time></trkpt>
    <trkpt lat="28.315246" lon="84.906526"><ele>1155.4</ele><time>2025-10-21T08:04:24Z</time></trkpt>
    <trkpt lat="28.315365" lon="84.906452"><ele>1151.2</ele><time>2025-10-21T08:04:45Z</time></trkpt>
    <trkpt lat="28.315617" lon="84.906403"><ele>1149.8</ele><time>2025-10-21T08:05:07Z</time></trkpt>
    <trkpt lat="28.315661" lon="84.906398"><ele>1149.8</ele><time>2025-10-21T08:05:11Z</time></trkpt>
    <trkpt lat="28.315778" lon="84.906454"><ele>1149.8</ele><time>2025-10-21T08:05:23Z</time></trkpt>
    <trkpt lat="28.315772" lon="84.906529"><ele>1150.4</ele><time>2025-10-21T08:06:00Z</time></trkpt>
    <trkpt lat="28.315977" lon="84.906514"><ele>1153.8</ele><time>2025-10-21T08:06:37Z</time></trkpt>
    <trkpt lat="28.316206" lon="84.906560"><ele>1154.0</ele><time>2025-10-21T08:07:01Z</time></trkpt>
    <trkpt lat="28.316307" lon="84.906559"><ele>1156.0</ele><time>2025-10-21T08:07:20Z</time></trkpt>
    <trkpt lat="28.316374" lon="84.906612"><ele>1157.6</ele><time>2025-10-21T08:07:35Z</time></trkpt>
    <trkpt lat="28.316502" lon="84.906608"><ele>1159.4</ele><time>2025-10-21T08:07:50Z</time></trkpt>
    <trkpt lat="28.316651" lon="84.906658"><ele>1160.8</ele><time>2025-10-21T08:08:09Z</time></trkpt>
    <trkpt lat="28.316740" lon="84.906675"><ele>1160.8</ele><time>2025-10-21T08:08:17Z</time></trkpt>
    <trkpt lat="28.317119" lon="84.906469"><ele>1160.6</ele><time>2025-10-21T08:09:13Z</time></trkpt>
    <trkpt lat="28.317151" lon="84.906523"><ele>1160.6</ele><time>2025-10-21T08:10:01Z</time></trkpt>
    <trkpt lat="28.317164" lon="84.906489"><ele>1160.6</ele><time>2025-10-21T08:10:13Z</time></trkpt>
    <trkpt lat="28.317385" lon="84.906530"><ele>1164.2</ele><time>2025-10-21T08:10:45Z</time></trkpt>
    <trkpt lat="28.317622" lon="84.906430"><ele>1166.2</ele><time>2025-10-21T08:11:10Z</time></trkpt>
    <trkpt lat="28.318103" lon="84.906371"><ele>1170.0</ele><time>2025-10-21T08:12:06Z</time></trkpt>
    <trkpt lat="28.318359" lon="84.906398"><ele>1172.8</ele><time>2025-10-21T08:12:32Z</time></trkpt>
    <trkpt lat="28.318513" lon="84.906459"><ele>1174.6</ele><time>2025-10-21T08:12:49Z</time></trkpt>
    <trkpt lat="28.318684" lon="84.906419"><ele>1177.4</ele><time>2025-10-21T08:13:12Z</time></trkpt>
    <trkpt lat="28.318721" lon="84.906443"><ele>1177.6</ele><time>2025-10-21T08:13:18Z</time></trkpt>
    <trkpt lat="28.318718" lon="84.906525"><ele>1178.0</ele><time>2025-10-21T08:13:33Z</time></trkpt>
    <trkpt lat="28.318731" lon="84.906458"><ele>1178.0</ele><time>2025-10-21T08:13:42Z</time></trkpt>
    <trkpt lat="28.318858" lon="84.906425"><ele>1179.6</ele><time>2025-10-21T08:13:57Z</time></trkpt>
    <trkpt lat="28.318952" lon="84.906385"><ele>1181.2</ele><time>2025-10-21T08:14:08Z</time></trkpt>
    <trkpt lat="28.319074" lon="84.906418"><ele>1183.6</ele><time>2025-10-21T08:14:25Z</time></trkpt>
    <trkpt lat="28.319233" lon="84.906400"><ele>1187.4</ele><time>2025-10-21T08:14:49Z</time></trkpt>
    <trkpt lat="28.319611" lon="84.906491"><ele>1198.2</ele><time>2025-10-21T08:15:56Z</time></trkpt>
    <trkpt lat="28.319645" lon="84.906498"><ele>1199.2</ele><time>2025-10-21T08:16:04Z</time></trkpt>
    <trkpt lat="28.319762" lon="84.906433"><ele>1201.2</ele><time>2025-10-21T08:16:30Z</time></trkpt>
    <trkpt lat="28.319919" lon="84.906426"><ele>1203.2</ele><time>2025-10-21T08:16:53Z</time></trkpt>
    <trkpt lat="28.320032" lon="84.906492"><ele>1204.6</ele><time>2025-10-21T08:17:08Z</time></trkpt>
    <trkpt lat="28.320180" lon="84.906492"><ele>1207.0</ele><time>2025-10-21T08:17:30Z</time></trkpt>
    <trkpt lat="28.320329" lon="84.906694"><ele>1211.8</ele><time>2025-10-21T08:18:02Z</time></trkpt>
    <trkpt lat="28.320357" lon="84.906729"><ele>1212.0</ele><time>2025-10-21T08:18:09Z</time></trkpt>
    <trkpt lat="28.320440" lon="84.906773"><ele>1213.0</ele><time>2025-10-21T08:18:24Z</time></trkpt>
    <trkpt lat="28.320597" lon="84.906718"><ele>1212.2</ele><time>2025-10-21T08:18:49Z</time></trkpt>
    <trkpt lat="28.320759" lon="84.906791"><ele>1211.2</ele><time>2025-10-21T08:19:08Z</time></trkpt>
    <trkpt lat="28.320760" lon="84.906845"><ele>1211.2</ele><time>2025-10-21T08:19:31Z</time></trkpt>
    <trkpt lat="28.320792" lon="84.906812"><ele>1211.2</ele><time>2025-10-21T08:19:45Z</time></trkpt>
    <trkpt lat="28.320932" lon="84.906822"><ele>1211.2</ele><time>2025-10-21T08:20:00Z</time></trkpt>
    <trkpt lat="28.321121" lon="84.906904"><ele>1216.2</ele><time>2025-10-21T08:20:32Z</time></trkpt>
    <trkpt lat="28.321411" lon="84.906821"><ele>1219.6</ele><time>2025-10-21T08:21:15Z</time></trkpt>
    <trkpt lat="28.321431" lon="84.906830"><ele>1220.4</ele><time>2025-10-21T08:21:19Z</time></trkpt>
    <trkpt lat="28.321465" lon="84.906928"><ele>1220.2</ele><time>2025-10-21T08:22:01Z</time></trkpt>
    <trkpt lat="28.321488" lon="84.906847"><ele>1220.4</ele><time>2025-10-21T08:23:50Z</time></trkpt>
    <trkpt lat="28.321471" lon="84.906870"><ele>1220.2</ele><time>2025-10-21T08:24:04Z</time></trkpt>
    <trkpt lat="28.321486" lon="84.906857"><ele>1220.2</ele><time>2025-10-21T08:24:19Z</time></trkpt>
    <trkpt lat="28.321616" lon="84.906947"><ele>1217.2</ele><time>2025-10-21T08:24:45Z</time></trkpt>
    <trkpt lat="28.321726" lon="84.906962"><ele>1217.2</ele><time>2025-10-21T08:25:00Z</time></trkpt>
    <trkpt lat="28.322004" lon="84.907023"><ele>1225.8</ele><time>2025-10-21T08:25:53Z</time></trkpt>
    <trkpt lat="28.322025" lon="84.907011"><ele>1226.0</ele><time>2025-10-21T08:26:01Z</time></trkpt>
    <trkpt lat="28.321975" lon="84.907038"><ele>1226.2</ele><time>2025-10-21T08:26:25Z</time></trkpt>
    <trkpt lat="28.322096" lon="84.907020"><ele>1227.2</ele><time>2025-10-21T08:26:44Z</time></trkpt>
    <trkpt lat="28.322245" lon="84.907152"><ele>1233.6</ele><time>2025-10-21T08:27:18Z</time></trkpt>
    <trkpt lat="28.322654" lon="84.907211"><ele>1241.6</ele><time>2025-10-21T08:28:20Z</time></trkpt>
    <trkpt lat="28.322700" lon="84.907282"><ele>1244.2</ele><time>2025-10-21T08:28:35Z</time></trkpt>
    <trkpt lat="28.322924" lon="84.907378"><ele>1252.0</ele><time>2025-10-21T08:29:32Z</time></trkpt>
    <trkpt lat="28.322926" lon="84.907411"><ele>1253.4</ele><time>2025-10-21T08:29:40Z</time></trkpt>
    <trkpt lat="28.322937" lon="84.907413"><ele>1254.0</ele><time>2025-10-21T08:29:43Z</time></trkpt>
    <trkpt lat="28.323052" lon="84.907454"><ele>1255.0</ele><time>2025-10-21T08:30:15Z</time></trkpt>
    <trkpt lat="28.323129" lon="84.907437"><ele>1255.6</ele><time>2025-10-21T08:30:39Z</time></trkpt>
    <trkpt lat="28.323161" lon="84.907475"><ele>1257.6</ele><time>2025-10-21T08:30:51Z</time></trkpt>
    <trkpt lat="28.323205" lon="84.907562"><ele>1261.2</ele><time>2025-10-21T08:31:11Z</time></trkpt>
    <trkpt lat="28.323367" lon="84.907646"><ele>1266.0</ele><time>2025-10-21T08:31:52Z</time></trkpt>
    <trkpt lat="28.323498" lon="84.907651"><ele>1268.6</ele><time>2025-10-21T08:32:22Z</time></trkpt>
    <trkpt lat="28.323541" lon="84.907702"><ele>1270.2</ele><time>2025-10-21T08:32:49Z</time></trkpt>
    <trkpt lat="28.323664" lon="84.907697"><ele>1272.4</ele><time>2025-10-21T08:33:15Z</time></trkpt>
    <trkpt lat="28.323951" lon="84.907788"><ele>1280.8</ele><time>2025-10-21T08:34:34Z</time></trkpt>
    <trkpt lat="28.324263" lon="84.907806"><ele>1288.0</ele><time>2025-10-21T08:35:44Z</time></trkpt>
    <trkpt lat="28.324349" lon="84.907717"><ele>1293.2</ele><time>2025-10-21T08:36:18Z</time></trkpt>
    <trkpt lat="28.324489" lon="84.907658"><ele>1293.2</ele><time>2025-10-21T08:37:19Z</time></trkpt>
    <trkpt lat="28.324515" lon="84.907619"><ele>1295.2</ele><time>2025-10-21T08:37:30Z</time></trkpt>
    <trkpt lat="28.324580" lon="84.907631"><ele>1298.4</ele><time>2025-10-21T08:37:46Z</time></trkpt>
    <trkpt lat="28.324611" lon="84.907642"><ele>1298.4</ele><time>2025-10-21T08:37:54Z</time></trkpt>
    <trkpt lat="28.324756" lon="84.907552"><ele>1298.0</ele><time>2025-10-21T08:38:28Z</time></trkpt>
    <trkpt lat="28.324914" lon="84.907553"><ele>1298.0</ele><time>2025-10-21T08:38:55Z</time></trkpt>
    <trkpt lat="28.325085" lon="84.907530"><ele>1305.0</ele><time>2025-10-21T08:39:44Z</time></trkpt>
    <trkpt lat="28.325101" lon="84.907530"><ele>1305.6</ele><time>2025-10-21T08:40:06Z</time></trkpt>
    <trkpt lat="28.325308" lon="84.907422"><ele>1307.0</ele><time>2025-10-21T08:40:32Z</time></trkpt>
    <trkpt lat="28.325388" lon="84.907511"><ele>1307.6</ele><time>2025-10-21T08:40:50Z</time></trkpt>
    <trkpt lat="28.325476" lon="84.907461"><ele>1308.8</ele><time>2025-10-21T08:41:09Z</time></trkpt>
    <trkpt lat="28.325599" lon="84.907484"><ele>1312.2</ele><time>2025-10-21T08:41:29Z</time></trkpt>
    <trkpt lat="28.325697" lon="84.907584"><ele>1312.4</ele><time>2025-10-21T08:42:06Z</time></trkpt>
    <trkpt lat="28.325816" lon="84.907539"><ele>1312.4</ele><time>2025-10-21T09:24:26Z</time></trkpt>
    <trkpt lat="28.325911" lon="84.907553"><ele>1312.2</ele><time>2025-10-21T09:24:54Z</time></trkpt>
    <trkpt lat="28.325911" lon="84.907565"><ele>1311.8</ele><time>2025-10-21T09:24:56Z</time></trkpt>
    <trkpt lat="28.325914" lon="84.907621"><ele>1310.8</ele><time>2025-10-21T09:25:03Z</time></trkpt>
    <trkpt lat="28.326042" lon="84.907700"><ele>1309.8</ele><time>2025-10-21T09:25:21Z</time></trkpt>
    <trkpt lat="28.326090" lon="84.907784"><ele>1308.8</ele><time>2025-10-21T09:25:41Z</time></trkpt>
    <trkpt lat="28.326138" lon="84.907759"><ele>1308.6</ele><time>2025-10-21T09:25:50Z</time></trkpt>
    <trkpt lat="28.326147" lon="84.907749"><ele>1307.8</ele><time>2025-10-21T09:25:54Z</time></trkpt>
    <trkpt lat="28.326131" lon="84.907707"><ele>1305.4</ele><time>2025-10-21T09:26:05Z</time></trkpt>
    <trkpt lat="28.326165" lon="84.907720"><ele>1303.8</ele><time>2025-10-21T09:26:16Z</time></trkpt>
    <trkpt lat="28.326190" lon="84.907645"><ele>1301.0</ele><time>2025-10-21T09:26:31Z</time></trkpt>
    <trkpt lat="28.326328" lon="84.907762"><ele>1295.4</ele><time>2025-10-21T09:27:02Z</time></trkpt>
    <trkpt lat="28.326333" lon="84.907783"><ele>1295.0</ele><time>2025-10-21T09:27:06Z</time></trkpt>
    <trkpt lat="28.326337" lon="84.907837"><ele>1295.0</ele><time>2025-10-21T09:27:19Z</time></trkpt>
    <trkpt lat="28.326402" lon="84.907890"><ele>1295.0</ele><time>2025-10-21T09:27:33Z</time></trkpt>
    <trkpt lat="28.326531" lon="84.908435"><ele>1295.4</ele><time>2025-10-21T09:28:23Z</time></trkpt>
    <trkpt lat="28.326890" lon="84.908586"><ele>1295.2</ele><time>2025-10-21T09:29:11Z</time></trkpt>
    <trkpt lat="28.326947" lon="84.908529"><ele>1295.0</ele><time>2025-10-21T09:29:28Z</time></trkpt>
    <trkpt lat="28.327081" lon="84.908565"><ele>1295.2</ele><time>2025-10-21T09:29:45Z</time></trkpt>
    <trkpt lat="28.327278" lon="84.908666"><ele>1295.4</ele><time>2025-10-21T09:30:05Z</time></trkpt>
    <trkpt lat="28.327368" lon="84.908728"><ele>1295.6</ele><time>2025-10-21T09:30:17Z</time></trkpt>
    <trkpt lat="28.327522" lon="84.908922"><ele>1295.8</ele><time>2025-10-21T09:30:37Z</time></trkpt>
    <trkpt lat="28.327574" lon="84.909002"><ele>1296.2</ele><time>2025-10-21T09:30:45Z</time></trkpt>
    <trkpt lat="28.327811" lon="84.909177"><ele>1296.8</ele><time>2025-10-21T09:31:17Z</time></trkpt>
    <trkpt lat="28.328226" lon="84.909610"><ele>1298.6</ele><time>2025-10-21T09:32:09Z</time></trkpt>
    <trkpt lat="28.329063" lon="84.909981"><ele>1300.4</ele><time>2025-10-21T09:33:34Z</time></trkpt>
    <trkpt lat="28.329212" lon="84.909992"><ele>1301.2</ele><time>2025-10-21T09:33:47Z</time></trkpt>
    <trkpt lat="28.329282" lon="84.909927"><ele>1301.4</ele><time>2025-10-21T09:33:55Z</time></trkpt>
    <trkpt lat="28.329347" lon="84.909929"><ele>1302.4</ele><time>2025-10-21T09:34:04Z</time></trkpt>
    <trkpt lat="28.329444" lon="84.909783"><ele>1302.6</ele><time>2025-10-21T09:34:17Z</time></trkpt>
    <trkpt lat="28.329604" lon="84.909707"><ele>1302.6</ele><time>2025-10-21T09:34:32Z</time></trkpt>
    <trkpt lat="28.329634" lon="84.909656"><ele>1303.6</ele><time>2025-10-21T09:34:40Z</time></trkpt>
    <trkpt lat="28.329628" lon="84.908836"><ele>1305.4</ele><time>2025-10-21T09:36:12Z</time></trkpt>
    <trkpt lat="28.329625" lon="84.908684"><ele>1308.2</ele><time>2025-10-21T09:36:27Z</time></trkpt>
    <trkpt lat="28.329610" lon="84.908628"><ele>1309.4</ele><time>2025-10-21T09:36:34Z</time></trkpt>
    <trkpt lat="28.329476" lon="84.908552"><ele>1317.0</ele><time>2025-10-21T09:37:06Z</time></trkpt>
    <trkpt lat="28.329558" lon="84.908521"><ele>1319.6</ele><time>2025-10-21T09:37:22Z</time></trkpt>
    <trkpt lat="28.329510" lon="84.908463"><ele>1323.0</ele><time>2025-10-21T09:37:39Z</time></trkpt>
    <trkpt lat="28.329544" lon="84.908497"><ele>1324.8</ele><time>2025-10-21T09:37:48Z</time></trkpt>
    <trkpt lat="28.329671" lon="84.908479"><ele>1329.2</ele><time>2025-10-21T09:38:24Z</time></trkpt>
    <trkpt lat="28.329741" lon="84.908408"><ele>1331.0</ele><time>2025-10-21T09:38:44Z</time></trkpt>
    <trkpt lat="28.329816" lon="84.908208"><ele>1331.0</ele><time>2025-10-21T09:39:11Z</time></trkpt>
    <trkpt lat="28.329852" lon="84.908134"><ele>1327.6</ele><time>2025-10-21T09:39:26Z</time></trkpt>
    <trkpt lat="28.329941" lon="84.908063"><ele>1325.8</ele><time>2025-10-21T09:39:39Z</time></trkpt>
    <trkpt lat="28.330001" lon="84.908148"><ele>1325.8</ele><time>2025-10-21T09:39:45Z</time></trkpt>
    <trkpt lat="28.330120" lon="84.907901"><ele>1325.4</ele><time>2025-10-21T09:40:55Z</time></trkpt>
    <trkpt lat="28.330157" lon="84.907966"><ele>1325.4</ele><time>2025-10-21T09:41:05Z</time></trkpt>
    <trkpt lat="28.330191" lon="84.907913"><ele>1325.2</ele><time>2025-10-21T09:41:22Z</time></trkpt>
    <trkpt lat="28.330148" lon="84.907974"><ele>1325.2</ele><time>2025-10-21T09:42:11Z</time></trkpt>
    <trkpt lat="28.330130" lon="84.907934"><ele>1325.0</ele><time>2025-10-21T09:43:42Z</time></trkpt>
    <trkpt lat="28.330231" lon="84.907911"><ele>1324.4</ele><time>2025-10-21T09:43:58Z</time></trkpt>
    <trkpt lat="28.330369" lon="84.907847"><ele>1322.0</ele><time>2025-10-21T09:44:14Z</time></trkpt>
    <trkpt lat="28.330661" lon="84.907540"><ele>1315.6</ele><time>2025-10-21T09:44:51Z</time></trkpt>
    <trkpt lat="28.330856" lon="84.907182"><ele>1311.6</ele><time>2025-10-21T09:45:31Z</time></trkpt>
    <trkpt lat="28.330937" lon="84.907122"><ele>1311.0</ele><time>2025-10-21T09:45:40Z</time></trkpt>
    <trkpt lat="28.331252" lon="84.907092"><ele>1301.4</ele><time>2025-10-21T09:46:37Z</time></trkpt>
    <trkpt lat="28.331470" lon="84.906987"><ele>1296.4</ele><time>2025-10-21T09:47:05Z</time></trkpt>
    <trkpt lat="28.331575" lon="84.906870"><ele>1293.4</ele><time>2025-10-21T09:47:23Z</time></trkpt>
    <trkpt lat="28.331741" lon="84.906714"><ele>1293.4</ele><time>2025-10-21T09:47:52Z</time></trkpt>
    <trkpt lat="28.332035" lon="84.906540"><ele>1297.6</ele><time>2025-10-21T09:48:38Z</time></trkpt>
    <trkpt lat="28.332088" lon="84.906464"><ele>1297.8</ele><time>2025-10-21T09:48:45Z</time></trkpt>
    <trkpt lat="28.332306" lon="84.906214"><ele>1297.8</ele><time>2025-10-21T09:49:11Z</time></trkpt>
    <trkpt lat="28.332666" lon="84.906007"><ele>1297.8</ele><time>2025-10-21T09:49:50Z</time></trkpt>
    <trkpt lat="28.333210" lon="84.905355"><ele>1297.2</ele><time>2025-10-21T09:51:09Z</time></trkpt>
    <trkpt lat="28.333468" lon="84.905153"><ele>1288.0</ele><time>2025-10-21T09:52:09Z</time></trkpt>
    <trkpt lat="28.333506" lon="84.905167"><ele>1287.4</ele><time>2025-10-21T09:52:19Z</time></trkpt>
    <trkpt lat="28.333522" lon="84.905122"><ele>1286.8</ele><time>2025-10-21T09:52:24Z</time></trkpt>
    <trkpt lat="28.333589" lon="84.904999"><ele>1286.8</ele><time>2025-10-21T09:52:46Z</time></trkpt>
    <trkpt lat="28.333869" lon="84.904802"><ele>1287.0</ele><time>2025-10-21T09:53:22Z</time></trkpt>
    <trkpt lat="28.334404" lon="84.904071"><ele>1287.4</ele><time>2025-10-21T09:54:53Z</time></trkpt>
    <trkpt lat="28.334652" lon="84.903899"><ele>1288.8</ele><time>2025-10-21T09:55:27Z</time></trkpt>
    <trkpt lat="28.334775" lon="84.903908"><ele>1288.8</ele><time>2025-10-21T09:55:43Z</time></trkpt>
    <trkpt lat="28.334763" lon="84.903898"><ele>1288.8</ele><time>2025-10-21T09:55:51Z</time></trkpt>
    <trkpt lat="28.334569" lon="84.903646"><ele>1287.4</ele><time>2025-10-21T09:56:22Z</time></trkpt>
    <trkpt lat="28.334566" lon="84.903584"><ele>1287.4</ele><time>2025-10-21T09:56:31Z</time></trkpt>
    <trkpt lat="28.334560" lon="84.903639"><ele>1287.2</ele><time>2025-10-21T09:56:53Z</time></trkpt>
    <trkpt lat="28.334582" lon="84.903560"><ele>1287.0</ele><time>2025-10-21T09:57:40Z</time></trkpt>
    <trkpt lat="28.334544" lon="84.903662"><ele>1286.0</ele><time>2025-10-21T09:58:14Z</time></trkpt>
    <trkpt lat="28.334541" lon="84.903600"><ele>1285.8</ele><time>2025-10-21T09:58:53Z</time></trkpt>
    <trkpt lat="28.334581" lon="84.903657"><ele>1285.6</ele><time>2025-10-21T09:59:16Z</time></trkpt>
    <trkpt lat="28.334535" lon="84.903541"><ele>1283.0</ele><time>2025-10-21T10:00:44Z</time></trkpt>
    <trkpt lat="28.334555" lon="84.903555"><ele>1283.0</ele><time>2025-10-21T10:01:12Z</time></trkpt>
    <trkpt lat="28.334580" lon="84.903581"><ele>1285.8</ele><time>2025-10-21T10:02:04Z</time></trkpt>
    <trkpt lat="28.334566" lon="84.903632"><ele>1285.8</ele><time>2025-10-21T10:02:17Z</time></trkpt>
    <trkpt lat="28.334598" lon="84.903617"><ele>1285.6</ele><time>2025-10-21T10:02:25Z</time></trkpt>
    <trkpt lat="28.334550" lon="84.903611"><ele>1284.8</ele><time>2025-10-21T10:03:27Z</time></trkpt>
    <trkpt lat="28.334603" lon="84.903648"><ele>1284.6</ele><time>2025-10-21T10:03:59Z</time></trkpt>
    <trkpt lat="28.334561" lon="84.903659"><ele>1284.6</ele><time>2025-10-21T10:04:13Z</time></trkpt>
    <trkpt lat="28.334782" lon="84.903876"><ele>1286.4</ele><time>2025-10-21T10:11:26Z</time></trkpt>
    <trkpt lat="28.334840" lon="84.903870"><ele>1286.8</ele><time>2025-10-21T10:11:34Z</time></trkpt>
    <trkpt lat="28.334904" lon="84.903864"><ele>1288.6</ele><time>2025-10-21T10:11:44Z</time></trkpt>
    <trkpt lat="28.334995" lon="84.903757"><ele>1293.6</ele><time>2025-10-21T10:12:20Z</time></trkpt>
    <trkpt lat="28.334988" lon="84.903679"><ele>1297.4</ele><time>2025-10-21T10:12:35Z</time></trkpt>
    <trkpt lat="28.335086" lon="84.903569"><ele>1299.6</ele><time>2025-10-21T10:12:53Z</time></trkpt>
    <trkpt lat="28.335161" lon="84.903565"><ele>1302.8</ele><time>2025-10-21T10:13:15Z</time></trkpt>
    <trkpt lat="28.335246" lon="84.903570"><ele>1302.8</ele><time>2025-10-21T10:13:28Z</time></trkpt>
    <trkpt lat="28.335383" lon="84.903514"><ele>1302.8</ele><time>2025-10-21T10:13:48Z</time></trkpt>
    <trkpt lat="28.335359" lon="84.903534"><ele>1302.8</ele><time>2025-10-21T10:13:59Z</time></trkpt>
    <trkpt lat="28.335626" lon="84.903753"><ele>1301.8</ele><time>2025-10-21T10:14:48Z</time></trkpt>
    <trkpt lat="28.335831" lon="84.903789"><ele>1294.8</ele><time>2025-10-21T10:15:20Z</time></trkpt>
    <trkpt lat="28.335928" lon="84.903766"><ele>1294.6</ele><time>2025-10-21T10:15:30Z</time></trkpt>
    <trkpt lat="28.336064" lon="84.903646"><ele>1294.6</ele><time>2025-10-21T10:15:49Z</time></trkpt>
    <trkpt lat="28.336080" lon="84.903602"><ele>1294.6</ele><time>2025-10-21T10:15:54Z</time></trkpt>
    <trkpt lat="28.336028" lon="84.903515"><ele>1294.8</ele><time>2025-10-21T10:16:02Z</time></trkpt>
    <trkpt lat="28.336197" lon="84.903619"><ele>1295.0</ele><time>2025-10-21T10:16:21Z</time></trkpt>
    <trkpt lat="28.336382" lon="84.903585"><ele>1295.6</ele><time>2025-10-21T10:16:43Z</time></trkpt>
    <trkpt lat="28.336549" lon="84.903616"><ele>1296.4</ele><time>2025-10-21T10:17:06Z</time></trkpt>
    <trkpt lat="28.336675" lon="84.903498"><ele>1296.6</ele><time>2025-10-21T10:17:30Z</time></trkpt>
    <trkpt lat="28.336762" lon="84.903443"><ele>1296.2</ele><time>2025-10-21T10:17:42Z</time></trkpt>
    <trkpt lat="28.336788" lon="84.903146"><ele>1294.0</ele><time>2025-10-21T10:18:35Z</time></trkpt>
    <trkpt lat="28.336856" lon="84.903053"><ele>1294.0</ele><time>2025-10-21T10:18:44Z</time></trkpt>
    <trkpt lat="28.337145" lon="84.902715"><ele>1298.2</ele><time>2025-10-21T10:19:27Z</time></trkpt>
    <trkpt lat="28.337141" lon="84.902659"><ele>1298.4</ele><time>2025-10-21T10:19:33Z</time></trkpt>
    <trkpt lat="28.337270" lon="84.902558"><ele>1304.8</ele><time>2025-10-21T10:20:05Z</time></trkpt>
    <trkpt lat="28.337292" lon="84.902511"><ele>1305.8</ele><time>2025-10-21T10:20:11Z</time></trkpt>
    <trkpt lat="28.337416" lon="84.902069"><ele>1305.8</ele><time>2025-10-21T10:21:04Z</time></trkpt>
    <trkpt lat="28.337733" lon="84.901973"><ele>1308.4</ele><time>2025-10-21T10:21:40Z</time></trkpt>
    <trkpt lat="28.337978" lon="84.901946"><ele>1309.0</ele><time>2025-10-21T10:22:04Z</time></trkpt>
    <trkpt lat="28.338082" lon="84.902001"><ele>1311.6</ele><time>2025-10-21T10:22:23Z</time></trkpt>
    <trkpt lat="28.338219" lon="84.901998"><ele>1315.6</ele><time>2025-10-21T10:22:46Z</time></trkpt>
    <trkpt lat="28.338346" lon="84.902065"><ele>1316.4</ele><time>2025-10-21T10:22:59Z</time></trkpt>
    <trkpt lat="28.338393" lon="84.902058"><ele>1316.6</ele><time>2025-10-21T10:23:04Z</time></trkpt>
    <trkpt lat="28.338413" lon="84.902048"><ele>1316.6</ele><time>2025-10-21T10:23:06Z</time></trkpt>
    <trkpt lat="28.338782" lon="84.902158"><ele>1313.4</ele><time>2025-10-21T10:23:53Z</time></trkpt>
    <trkpt lat="28.338823" lon="84.902158"><ele>1313.2</ele><time>2025-10-21T10:23:56Z</time></trkpt>
    <trkpt lat="28.339048" lon="84.902071"><ele>1313.2</ele><time>2025-10-21T10:24:25Z</time></trkpt>
    <trkpt lat="28.339074" lon="84.902188"><ele>1313.6</ele><time>2025-10-21T10:24:44Z</time></trkpt>
    <trkpt lat="28.339052" lon="84.901529"><ele>1313.8</ele><time>2025-10-21T10:25:49Z</time></trkpt>
    <trkpt lat="28.339072" lon="84.901589"><ele>1314.0</ele><time>2025-10-21T10:25:56Z</time></trkpt>
    <trkpt lat="28.339138" lon="84.901592"><ele>1314.6</ele><time>2025-10-21T10:26:10Z</time></trkpt>
    <trkpt lat="28.339097" lon="84.901575"><ele>1314.6</ele><time>2025-10-21T10:26:17Z</time></trkpt>
    <trkpt lat="28.339059" lon="84.901325"><ele>1318.0</ele><time>2025-10-21T10:26:38Z</time></trkpt>
    <trkpt lat="28.339182" lon="84.901246"><ele>1325.2</ele><time>2025-10-21T10:27:20Z</time></trkpt>
    <trkpt lat="28.339189" lon="84.901184"><ele>1329.2</ele><time>2025-10-21T10:27:46Z</time></trkpt>
    <trkpt lat="28.339162" lon="84.901195"><ele>1330.2</ele><time>2025-10-21T10:27:51Z</time></trkpt>
    <trkpt lat="28.339116" lon="84.901094"><ele>1332.4</ele><time>2025-10-21T10:28:08Z</time></trkpt>
    <trkpt lat="28.339325" lon="84.901094"><ele>1341.2</ele><time>2025-10-21T10:28:52Z</time></trkpt>
    <trkpt lat="28.339496" lon="84.901113"><ele>1341.6</ele><time>2025-10-21T10:30:29Z</time></trkpt>
    <trkpt lat="28.339733" lon="84.901011"><ele>1339.2</ele><time>2025-10-21T10:30:54Z</time></trkpt>
    <trkpt lat="28.339988" lon="84.900977"><ele>1338.8</ele><time>2025-10-21T10:31:17Z</time></trkpt>
    <trkpt lat="28.340104" lon="84.900905"><ele>1338.8</ele><time>2025-10-21T10:31:31Z</time></trkpt>
    <trkpt lat="28.340125" lon="84.900921"><ele>1338.8</ele><time>2025-10-21T10:31:44Z</time></trkpt>
    <trkpt lat="28.340567" lon="84.900800"><ele>1341.4</ele><time>2025-10-21T10:32:35Z</time></trkpt>
    <trkpt lat="28.340715" lon="84.900697"><ele>1341.4</ele><time>2025-10-21T10:32:52Z</time></trkpt>
    <trkpt lat="28.340803" lon="84.900676"><ele>1341.4</ele><time>2025-10-21T10:33:01Z</time></trkpt>
    <trkpt lat="28.340956" lon="84.900659"><ele>1340.4</ele><time>2025-10-21T10:33:17Z</time></trkpt>
    <trkpt lat="28.341403" lon="84.900470"><ele>1336.4</ele><time>2025-10-21T10:34:09Z</time></trkpt>
    <trkpt lat="28.341448" lon="84.900404"><ele>1335.0</ele><time>2025-10-21T10:34:18Z</time></trkpt>
    <trkpt lat="28.341856" lon="84.899991"><ele>1327.4</ele><time>2025-10-21T10:35:10Z</time></trkpt>
    <trkpt lat="28.341929" lon="84.899867"><ele>1325.4</ele><time>2025-10-21T10:35:22Z</time></trkpt>
    <trkpt lat="28.341984" lon="84.899789"><ele>1324.6</ele><time>2025-10-21T10:35:34Z</time></trkpt>
    <trkpt lat="28.342127" lon="84.899729"><ele>1324.4</ele><time>2025-10-21T10:35:46Z</time></trkpt>
    <trkpt lat="28.342267" lon="84.899578"><ele>1324.2</ele><time>2025-10-21T10:36:02Z</time></trkpt>
    <trkpt lat="28.342448" lon="84.899511"><ele>1324.0</ele><time>2025-10-21T10:36:19Z</time></trkpt>
    <trkpt lat="28.342577" lon="84.899513"><ele>1323.6</ele><time>2025-10-21T10:36:34Z</time></trkpt>
    <trkpt lat="28.342669" lon="84.899447"><ele>1323.4</ele><time>2025-10-21T10:36:45Z</time></trkpt>
    <trkpt lat="28.342713" lon="84.899364"><ele>1323.2</ele><time>2025-10-21T10:36:53Z</time></trkpt>
    <trkpt lat="28.342789" lon="84.898868"><ele>1319.4</ele><time>2025-10-21T10:37:34Z</time></trkpt>
    <trkpt lat="28.342872" lon="84.898709"><ele>1318.0</ele><time>2025-10-21T10:37:47Z</time></trkpt>
    <trkpt lat="28.342884" lon="84.898442"><ele>1314.8</ele><time>2025-10-21T10:38:07Z</time></trkpt>
    <trkpt lat="28.342918" lon="84.898323"><ele>1314.6</ele><time>2025-10-21T10:38:17Z</time></trkpt>
    <trkpt lat="28.343074" lon="84.898247"><ele>1314.4</ele><time>2025-10-21T10:38:30Z</time></trkpt>
    <trkpt lat="28.343727" lon="84.898143"><ele>1312.6</ele><time>2025-10-21T10:39:30Z</time></trkpt>
    <trkpt lat="28.343964" lon="84.897961"><ele>1311.6</ele><time>2025-10-21T10:39:59Z</time></trkpt>
    <trkpt lat="28.344168" lon="84.897944"><ele>1311.6</ele><time>2025-10-21T10:40:15Z</time></trkpt>
    <trkpt lat="28.344236" lon="84.897933"><ele>1310.4</ele><time>2025-10-21T10:40:22Z</time></trkpt>
    <trkpt lat="28.344459" lon="84.897769"><ele>1306.4</ele><time>2025-10-21T10:40:47Z</time></trkpt>
    <trkpt lat="28.344973" lon="84.897537"><ele>1306.4</ele><time>2025-10-21T10:41:34Z</time></trkpt>
    <trkpt lat="28.345418" lon="84.897271"><ele>1307.0</ele><time>2025-10-21T10:42:16Z</time></trkpt>
    <trkpt lat="28.345613" lon="84.897224"><ele>1307.0</ele><time>2025-10-21T10:42:33Z</time></trkpt>
    <trkpt lat="28.345874" lon="84.897238"><ele>1307.4</ele><time>2025-10-21T10:42:55Z</time></trkpt>
    <trkpt lat="28.346309" lon="84.897086"><ele>1307.4</ele><time>2025-10-21T10:43:32Z</time></trkpt>
    <trkpt lat="28.346438" lon="84.897036"><ele>1308.0</ele><time>2025-10-21T10:43:45Z</time></trkpt>
    <trkpt lat="28.346696" lon="84.896989"><ele>1310.8</ele><time>2025-10-21T10:44:11Z</time></trkpt>
    <trkpt lat="28.346724" lon="84.896937"><ele>1311.0</ele><time>2025-10-21T10:44:24Z</time></trkpt>
    <trkpt lat="28.346864" lon="84.896894"><ele>1312.2</ele><time>2025-10-21T10:44:40Z</time></trkpt>
    <trkpt lat="28.347094" lon="84.896913"><ele>1313.2</ele><time>2025-10-21T10:44:59Z</time></trkpt>
    <trkpt lat="28.347215" lon="84.896918"><ele>1314.4</ele><time>2025-10-21T10:45:10Z</time></trkpt>
    <trkpt lat="28.347861" lon="84.896777"><ele>1325.2</ele><time>2025-10-21T10:46:27Z</time></trkpt>
    <trkpt lat="28.348015" lon="84.896751"><ele>1326.4</ele><time>2025-10-21T10:46:43Z</time></trkpt>
    <trkpt lat="28.348436" lon="84.896482"><ele>1327.6</ele><time>2025-10-21T10:47:26Z</time></trkpt>
    <trkpt lat="28.349015" lon="84.896257"><ele>1328.8</ele><time>2025-10-21T10:48:24Z</time></trkpt>
    <trkpt lat="28.349074" lon="84.896231"><ele>1330.2</ele><time>2025-10-21T10:48:33Z</time></trkpt>
    <trkpt lat="28.349275" lon="84.896192"><ele>1333.0</ele><time>2025-10-21T10:48:55Z</time></trkpt>
    <trkpt lat="28.349369" lon="84.896232"><ele>1334.2</ele><time>2025-10-21T10:49:20Z</time></trkpt>
    <trkpt lat="28.349920" lon="84.896069"><ele>1337.8</ele><time>2025-10-21T10:50:18Z</time></trkpt>
    <trkpt lat="28.350136" lon="84.896150"><ele>1342.8</ele><time>2025-10-21T10:50:48Z</time></trkpt>
    <trkpt lat="28.350210" lon="84.896142"><ele>1344.0</ele><time>2025-10-21T10:50:58Z</time></trkpt>
    <trkpt lat="28.350368" lon="84.896009"><ele>1346.2</ele><time>2025-10-21T10:51:20Z</time></trkpt>
    <trkpt lat="28.350457" lon="84.895967"><ele>1346.8</ele><time>2025-10-21T10:51:29Z</time></trkpt>
    <trkpt lat="28.350731" lon="84.895809"><ele>1347.6</ele><time>2025-10-21T10:51:58Z</time></trkpt>
    <trkpt lat="28.350880" lon="84.895829"><ele>1348.0</ele><time>2025-10-21T10:52:11Z</time></trkpt>
    <trkpt lat="28.351286" lon="84.895781"><ele>1351.4</ele><time>2025-10-21T10:52:52Z</time></trkpt>
    <trkpt lat="28.351359" lon="84.895749"><ele>1351.6</ele><time>2025-10-21T10:52:59Z</time></trkpt>
    <trkpt lat="28.351485" lon="84.895642"><ele>1351.6</ele><time>2025-10-21T10:53:19Z</time></trkpt>
    <trkpt lat="28.351687" lon="84.895587"><ele>1351.6</ele><time>2025-10-21T10:53:37Z</time></trkpt>
    <trkpt lat="28.351816" lon="84.895434"><ele>1350.2</ele><time>2025-10-21T10:53:55Z</time></trkpt>
    <trkpt lat="28.351943" lon="84.895407"><ele>1349.4</ele><time>2025-10-21T10:54:21Z</time></trkpt>
    <trkpt lat="28.351911" lon="84.895460"><ele>1349.4</ele><time>2025-10-21T10:54:33Z</time></trkpt>
    </trkseg>
  </trk>
</gpx>
