<?xml version="1.0" encoding="UTF-8"?>
<gpx version="1.1" creator="tripplanner (simplified from Strava export)" xmlns="http://www.topografix.com/GPX/1/1">
  <metadata>
    <name>Manaslu — Namrung → Shyala</name>
    <time>2025-10-24T02:16:40Z</time>
  </metadata>
  <trk>
    <name>Manaslu — Namrung → Shyala</name>
    <trkseg>
    <trkpt lat="28.544536" lon="84.770210"><ele>2626.4</ele><time>2025-10-24T02:16:40Z</time></trkpt>
    <trkpt lat="28.544684" lon="84.770239"><ele>2626.4</ele><time>2025-10-24T02:17:06Z</time></trkpt>
    <trkpt lat="28.544676" lon="84.770229"><ele>2626.2</ele><time>2025-10-24T02:17:28Z</time></trkpt>
    <trkpt lat="28.544877" lon="84.770190"><ele>2622.4</ele><time>2025-10-24T02:20:32Z</time></trkpt>
    <trkpt lat="28.545049" lon="84.770021"><ele>2620.6</ele><time>2025-10-24T02:20:54Z</time></trkpt>
    <trkpt lat="28.545203" lon="84.769775"><ele>2617.6</ele><time>2025-10-24T02:21:25Z</time></trkpt>
    <trkpt lat="28.545273" lon="84.769528"><ele>2614.8</ele><time>2025-10-24T02:21:48Z</time></trkpt>
    <trkpt lat="28.545286" lon="84.769459"><ele>2612.6</ele><time>2025-10-24T02:21:58Z</time></trkpt>
    <trkpt lat="28.545581" lon="84.769076"><ele>2603.6</ele><time>2025-10-24T02:22:44Z</time></trkpt>
    <trkpt lat="28.545586" lon="84.768954"><ele>2601.4</ele><time>2025-10-24T02:22:54Z</time></trkpt>
    <trkpt lat="28.545528" lon="84.768780"><ele>2598.6</ele><time>2025-10-24T02:23:10Z</time></trkpt>
    <trkpt lat="28.545389" lon="84.768654"><ele>2594.0</ele><time>2025-10-24T02:23:30Z</time></trkpt>
    <trkpt lat="28.545324" lon="84.768530"><ele>2591.2</ele><time>2025-10-24T02:23:41Z</time></trkpt>
    <trkpt lat="28.545311" lon="84.768469"><ele>2591.2</ele><time>2025-10-24T02:23:45Z</time></trkpt>
    <trkpt lat="28.545413" lon="84.768267"><ele>2591.2</ele><time>2025-10-24T02:24:09Z</time></trkpt>
    <trkpt lat="28.545319" lon="84.767808"><ele>2591.0</ele><time>2025-10-24T02:25:07Z</time></trkpt>
    <trkpt lat="28.545188" lon="84.767251"><ele>2583.4</ele><time>2025-10-24T02:25:57Z</time></trkpt>
    <trkpt lat="28.545198" lon="84.767173"><ele>2581.8</ele><time>2025-10-24T02:26:05Z</time></trkpt>
    <trkpt lat="28.545349" lon="84.766988"><ele>2580.4</ele><time>2025-10-24T02:26:29Z</time></trkpt>
    <trkpt lat="28.545321" lon="84.766966"><ele>2580.4</ele><time>2025-10-24T02:26:34Z</time></trkpt>
    <trkpt lat="28.545190" lon="84.766835"><ele>2582.0</ele><time>2025-10-24T02:27:11Z</time></trkpt>
    <trkpt lat="28.545156" lon="84.766772"><ele>2582.4</ele><time>2025-10-24T02:27:17Z</time></trkpt>
    <trkpt lat="28.545177" lon="84.766685"><ele>2582.4</ele><time>2025-10-24T02:27:24Z</time></trkpt>
    <trkpt lat="28.545237" lon="84.766630"><ele>2582.6</ele><time>2025-10-24T02:27:32Z</time></trkpt>
    <trkpt lat="28.545557" lon="84.766324"><ele>2591.0</ele><time>2025-10-24T02:28:17Z</time></trkpt>
    <trkpt lat="28.545855" lon="84.766182"><ele>2596.6</ele><time>2025-10-24T02:28:56Z</time></trkpt>
    <trkpt lat="28.545918" lon="84.766114"><ele>2598.8</ele><time>2025-10-24T02:29:07Z</time></trkpt>
    <trkpt lat="28.546016" lon="84.765945"><ele>2598.8</ele><time>2025-10-24T02:29:23Z</time></trkpt>
    <trkpt lat="28.546144" lon="84.765857"><ele>2599.0</ele><time>2025-10-24T02:29:36Z</time></trkpt>
    <trkpt lat="28.546191" lon="84.765731"><ele>2598.8</ele><time>2025-10-24T02:29:49Z</time></trkpt>
    <trkpt lat="28.546281" lon="84.765691"><ele>2598.0</ele><time>2025-10-24T02:30:00Z</time></trkpt>
    <trkpt lat="28.546344" lon="84.765565"><ele>2596.8</ele><time>2025-10-24T02:30:15Z</time></trkpt>
    <trkpt lat="28.546497" lon="84.765513"><ele>2595.8</ele><time>2025-10-24T02:30:28Z</time></trkpt>
    <trkpt lat="28.546623" lon="84.765403"><ele>2595.0</ele><time>2025-10-24T02:30:42Z</time></trkpt>
    <trkpt lat="28.546981" lon="84.765206"><ele>2595.0</ele><time>2025-10-24T02:31:21Z</time></trkpt>
    <trkpt lat="28.547069" lon="84.765085"><ele>2595.2</ele><time>2025-10-24T02:31:43Z</time></trkpt>
    <trkpt lat="28.547307" lon="84.764854"><ele>2600.2</ele><time>2025-10-24T02:32:17Z</time></trkpt>
    <trkpt lat="28.547496" lon="84.764467"><ele>2607.8</ele><time>2025-10-24T02:33:10Z</time></trkpt>
    <trkpt lat="28.547572" lon="84.764394"><ele>2609.4</ele><time>2025-10-24T02:33:27Z</time></trkpt>
    <trkpt lat="28.547725" lon="84.764236"><ele>2610.0</ele><time>2025-10-24T02:33:50Z</time></trkpt>
    <trkpt lat="28.547958" lon="84.763897"><ele>2610.6</ele><time>2025-10-24T02:34:22Z</time></trkpt>
    <trkpt lat="28.548055" lon="84.763828"><ele>2611.2</ele><time>2025-10-24T02:34:32Z</time></trkpt>
    <trkpt lat="28.548189" lon="84.763825"><ele>2614.2</ele><time>2025-10-24T02:34:49Z</time></trkpt>
    <trkpt lat="28.548344" lon="84.763540"><ele>2616.8</ele><time>2025-10-24T02:35:17Z</time></trkpt>
    <trkpt lat="28.548461" lon="84.763438"><ele>2618.2</ele><time>2025-10-24T02:35:32Z</time></trkpt>
    <trkpt lat="28.548622" lon="84.763301"><ele>2618.4</ele><time>2025-10-24T02:35:50Z</time></trkpt>
    <trkpt lat="28.548814" lon="84.763013"><ele>2618.6</ele><time>2025-10-24T02:36:19Z</time></trkpt>
    <trkpt lat="28.549108" lon="84.762863"><ele>2620.0</ele><time>2025-10-24T02:36:49Z</time></trkpt>
    <trkpt lat="28.549368" lon="84.762606"><ele>2621.6</ele><time>2025-10-24T02:37:30Z</time></trkpt>
    <trkpt lat="28.549590" lon="84.762316"><ele>2622.2</ele><time>2025-10-24T02:38:01Z</time></trkpt>
    <trkpt lat="28.549750" lon="84.762208"><ele>2622.8</ele><time>2025-10-24T02:38:24Z</time></trkpt>
    <trkpt lat="28.549949" lon="84.762013"><ele>2625.8</ele><time>2025-10-24T02:38:55Z</time></trkpt>
    <trkpt lat="28.550088" lon="84.761836"><ele>2628.2</ele><time>2025-10-24T02:39:22Z</time></trkpt>
    <trkpt lat="28.550144" lon="84.761627"><ele>2630.2</ele><time>2025-10-24T02:39:47Z</time></trkpt>
    <trkpt lat="28.550191" lon="84.761548"><ele>2630.2</ele><time>2025-10-24T02:39:55Z</time></trkpt>
    <trkpt lat="28.550332" lon="84.761483"><ele>2630.2</ele><time>2025-10-24T02:40:07Z</time></trkpt>
    <trkpt lat="28.550777" lon="84.761129"><ele>2630.4</ele><time>2025-10-24T02:41:02Z</time></trkpt>
    <trkpt lat="28.551081" lon="84.760967"><ele>2631.2</ele><time>2025-10-24T02:41:32Z</time></trkpt>
    <trkpt lat="28.551136" lon="84.760866"><ele>2631.6</ele><time>2025-10-24T02:41:42Z</time></trkpt>
    <trkpt lat="28.551321" lon="84.760779"><ele>2631.6</ele><time>2025-10-24T02:41:59Z</time></trkpt>
    <trkpt lat="28.551520" lon="84.760636"><ele>2634.0</ele><time>2025-10-24T02:42:21Z</time></trkpt>
    <trkpt lat="28.552036" lon="84.760462"><ele>2639.8</ele><time>2025-10-24T02:43:17Z</time></trkpt>
    <trkpt lat="28.552126" lon="84.760403"><ele>2640.4</ele><time>2025-10-24T02:43:26Z</time></trkpt>
    <trkpt lat="28.552187" lon="84.760283"><ele>2642.0</ele><time>2025-10-24T02:43:39Z</time></trkpt>
    <trkpt lat="28.552353" lon="84.760177"><ele>2642.0</ele><time>2025-10-24T02:43:59Z</time></trkpt>
    <trkpt lat="28.552420" lon="84.760159"><ele>2642.0</ele><time>2025-10-24T02:44:06Z</time></trkpt>
    <trkpt lat="28.552563" lon="84.760225"><ele>2639.8</ele><time>2025-10-24T02:44:25Z</time></trkpt>
    <trkpt lat="28.552702" lon="84.760110"><ele>2639.8</ele><time>2025-10-24T02:44:42Z</time></trkpt>
    <trkpt lat="28.552842" lon="84.759778"><ele>2640.0</ele><time>2025-10-24T02:45:20Z</time></trkpt>
    <trkpt lat="28.552845" lon="84.759737"><ele>2640.0</ele><time>2025-10-24T02:45:25Z</time></trkpt>
    <trkpt lat="28.552858" lon="84.759529"><ele>2636.6</ele><time>2025-10-24T02:45:43Z</time></trkpt>
    <trkpt lat="28.552961" lon="84.759185"><ele>2635.0</ele><time>2025-10-24T02:46:09Z</time></trkpt>
    <trkpt lat="28.553094" lon="84.758921"><ele>2635.0</ele><time>2025-10-24T02:46:31Z</time></trkpt>
    <trkpt lat="28.553134" lon="84.758672"><ele>2635.0</ele><time>2025-10-24T02:46:49Z</time></trkpt>
    <trkpt lat="28.553351" lon="84.758277"><ele>2635.6</ele><time>2025-10-24T02:47:22Z</time></trkpt>
    <trkpt lat="28.553590" lon="84.758078"><ele>2635.8</ele><time>2025-10-24T02:47:47Z</time></trkpt>
    <trkpt lat="28.553647" lon="84.757869"><ele>2636.0</ele><time>2025-10-24T02:48:10Z</time></trkpt>
    <trkpt lat="28.553651" lon="84.757567"><ele>2637.8</ele><time>2025-10-24T02:48:33Z</time></trkpt>
    <trkpt lat="28.553685" lon="84.757472"><ele>2637.8</ele><time>2025-10-24T02:48:49Z</time></trkpt>
    <trkpt lat="28.553903" lon="84.757245"><ele>2637.8</ele><time>2025-10-24T02:49:13Z</time></trkpt>
    <trkpt lat="28.554014" lon="84.757049"><ele>2637.8</ele><time>2025-10-24T02:49:30Z</time></trkpt>
    <trkpt lat="28.554098" lon="84.756989"><ele>2637.8</ele><time>2025-10-24T02:49:38Z</time></trkpt>
    <trkpt lat="28.554198" lon="84.756999"><ele>2637.6</ele><time>2025-10-24T02:49:46Z</time></trkpt>
    <trkpt lat="28.554332" lon="84.756934"><ele>2637.6</ele><time>2025-10-24T02:50:00Z</time></trkpt>
    <trkpt lat="28.554512" lon="84.756662"><ele>2637.4</ele><time>2025-10-24T02:50:27Z</time></trkpt>
    <trkpt lat="28.554586" lon="84.756371"><ele>2637.4</ele><time>2025-10-24T02:50:50Z</time></trkpt>
    <trkpt lat="28.554712" lon="84.756158"><ele>2637.6</ele><time>2025-10-24T02:51:09Z</time></trkpt>
    <trkpt lat="28.554848" lon="84.755853"><ele>2638.6</ele><time>2025-10-24T02:51:33Z</time></trkpt>
    <trkpt lat="28.555006" lon="84.755618"><ele>2639.2</ele><time>2025-10-24T02:51:56Z</time></trkpt>
    <trkpt lat="28.555385" lon="84.755105"><ele>2639.6</ele><time>2025-10-24T02:52:47Z</time></trkpt>
    <trkpt lat="28.555608" lon="84.755038"><ele>2640.4</ele><time>2025-10-24T02:53:05Z</time></trkpt>
    <trkpt lat="28.555871" lon="84.754748"><ele>2641.8</ele><time>2025-10-24T02:53:40Z</time></trkpt>
    <trkpt lat="28.555921" lon="84.754617"><ele>2641.8</ele><time>2025-10-24T02:53:51Z</time></trkpt>
    <trkpt lat="28.556190" lon="84.754274"><ele>2642.2</ele><time>2025-10-24T02:54:24Z</time></trkpt>
    <trkpt lat="28.556261" lon="84.754093"><ele>2642.8</ele><time>2025-10-24T02:54:39Z</time></trkpt>
    <trkpt lat="28.556391" lon="84.753972"><ele>2643.0</ele><time>2025-10-24T02:54:54Z</time></trkpt>
    <trkpt lat="28.556471" lon="84.753875"><ele>2643.4</ele><time>2025-10-24T02:55:04Z</time></trkpt>
    <trkpt lat="28.556686" lon="84.753572"><ele>2645.0</ele><time>2025-10-24T02:55:34Z</time></trkpt>
    <trkpt lat="28.556781" lon="84.753328"><ele>2648.6</ele><time>2025-10-24T02:55:58Z</time></trkpt>
    <trkpt lat="28.556814" lon="84.753055"><ele>2652.8</ele><time>2025-10-24T02:56:24Z</time></trkpt>
    <trkpt lat="28.556893" lon="84.752600"><ele>2655.0</ele><time>2025-10-24T02:57:08Z</time></trkpt>
    <trkpt lat="28.556965" lon="84.752414"><ele>2658.6</ele><time>2025-10-24T02:57:29Z</time></trkpt>
    <trkpt lat="28.557117" lon="84.752236"><ele>2665.0</ele><time>2025-10-24T02:58:02Z</time></trkpt>
    <trkpt lat="28.557104" lon="84.752134"><ele>2666.6</ele><time>2025-10-24T02:58:17Z</time></trkpt>
    <trkpt lat="28.557080" lon="84.752012"><ele>2666.8</ele><time>2025-10-24T02:58:37Z</time></trkpt>
    <trkpt lat="28.557111" lon="84.752059"><ele>2666.4</ele><time>2025-10-24T03:00:30Z</time></trkpt>
    <trkpt lat="28.557124" lon="84.752032"><ele>2666.8</ele><time>2025-10-24T03:01:11Z</time></trkpt>
    <trkpt lat="28.557106" lon="84.752058"><ele>2667.0</ele><time>2025-10-24T03:02:45Z</time></trkpt>
    <trkpt lat="28.557092" lon="84.752029"><ele>2667.0</ele><time>2025-10-24T03:03:04Z</time></trkpt>
    <trkpt lat="28.557101" lon="84.752035"><ele>2667.0</ele><time>2025-10-24T03:03:14Z</time></trkpt>
    <trkpt lat="28.557236" lon="84.752017"><ele>2669.2</ele><time>2025-10-24T03:03:31Z</time></trkpt>
    <trkpt lat="28.557370" lon="84.751714"><ele>2675.0</ele><time>2025-10-24T03:04:19Z</time></trkpt>
    <trkpt lat="28.557454" lon="84.751412"><ele>2678.6</ele><time>2025-10-24T03:04:55Z</time></trkpt>
    <trkpt lat="28.557481" lon="84.751063"><ele>2685.2</ele><time>2025-10-24T03:05:39Z</time></trkpt>
    <trkpt lat="28.557605" lon="84.750783"><ele>2687.2</ele><time>2025-10-24T03:06:12Z</time></trkpt>
    <trkpt lat="28.557880" lon="84.750489"><ele>2689.8</ele><time>2025-10-24T03:06:49Z</time></trkpt>
    <trkpt lat="28.558008" lon="84.750473"><ele>2690.4</ele><time>2025-10-24T03:07:01Z</time></trkpt>
    <trkpt lat="28.558095" lon="84.750468"><ele>2693.0</ele><time>2025-10-24T03:07:15Z</time></trkpt>
    <trkpt lat="28.558196" lon="84.750149"><ele>2695.6</ele><time>2025-10-24T03:07:50Z</time></trkpt>
    <trkpt lat="28.558431" lon="84.749889"><ele>2701.0</ele><time>2025-10-24T03:08:34Z</time></trkpt>
    <trkpt lat="28.558556" lon="84.749934"><ele>2703.8</ele><time>2025-10-24T03:08:51Z</time></trkpt>
    <trkpt lat="28.558538" lon="84.749911"><ele>2704.4</ele><time>2025-10-24T03:09:02Z</time></trkpt>
    <trkpt lat="28.558615" lon="84.749871"><ele>2708.8</ele><time>2025-10-24T03:09:30Z</time></trkpt>
    <trkpt lat="28.558692" lon="84.749913"><ele>2711.0</ele><time>2025-10-24T03:09:41Z</time></trkpt>
    <trkpt lat="28.558744" lon="84.749881"><ele>2712.0</ele><time>2025-10-24T03:09:50Z</time></trkpt>
    <trkpt lat="28.558883" lon="84.749906"><ele>2716.0</ele><time>2025-10-24T03:10:17Z</time></trkpt>
    <trkpt lat="28.558914" lon="84.749893"><ele>2717.8</ele><time>2025-10-24T03:10:31Z</time></trkpt>
    <trkpt lat="28.558932" lon="84.749816"><ele>2718.4</ele><time>2025-10-24T03:10:44Z</time></trkpt>
    <trkpt lat="28.558886" lon="84.749579"><ele>2719.4</ele><time>2025-10-24T03:11:09Z</time></trkpt>
    <trkpt lat="28.558891" lon="84.749527"><ele>2720.0</ele><time>2025-10-24T03:11:17Z</time></trkpt>
    <trkpt lat="28.558912" lon="84.749354"><ele>2727.2</ele><time>2025-10-24T03:12:00Z</time></trkpt>
    <trkpt lat="28.559159" lon="84.749094"><ele>2737.0</ele><time>2025-10-24T03:13:15Z</time></trkpt>
    <trkpt lat="28.559300" lon="84.749113"><ele>2743.4</ele><time>2025-10-24T03:13:54Z</time></trkpt>
    <trkpt lat="28.559235" lon="84.748997"><ele>2746.2</ele><time>2025-10-24T03:14:24Z</time></trkpt>
    <trkpt lat="28.559236" lon="84.748864"><ele>2750.0</ele><time>2025-10-24T03:14:46Z</time></trkpt>
    <trkpt lat="28.559280" lon="84.748785"><ele>2753.2</ele><time>2025-10-24T03:15:07Z</time></trkpt>
    <trkpt lat="28.559341" lon="84.748769"><ele>2754.4</ele><time>2025-10-24T03:15:16Z</time></trkpt>
    <trkpt lat="28.559362" lon="84.748665"><ele>2758.6</ele><time>2025-10-24T03:15:47Z</time></trkpt>
    <trkpt lat="28.559541" lon="84.748557"><ele>2766.2</ele><time>2025-10-24T03:16:47Z</time></trkpt>
    <trkpt lat="28.559501" lon="84.748486"><ele>2769.6</ele><time>2025-10-24T03:17:08Z</time></trkpt>
    <trkpt lat="28.559500" lon="84.748337"><ele>2770.6</ele><time>2025-10-24T03:17:23Z</time></trkpt>
    <trkpt lat="28.559629" lon="84.748273"><ele>2772.0</ele><time>2025-10-24T03:17:39Z</time></trkpt>
    <trkpt lat="28.559632" lon="84.748199"><ele>2773.8</ele><time>2025-10-24T03:17:52Z</time></trkpt>
    <trkpt lat="28.559709" lon="84.748061"><ele>2778.2</ele><time>2025-10-24T03:18:20Z</time></trkpt>
    <trkpt lat="28.559746" lon="84.747787"><ele>2781.8</ele><time>2025-10-24T03:18:56Z</time></trkpt>
    <trkpt lat="28.559833" lon="84.747540"><ele>2786.6</ele><time>2025-10-24T03:19:28Z</time></trkpt>
    <trkpt lat="28.559910" lon="84.747394"><ele>2788.8</ele><time>2025-10-24T03:20:05Z</time></trkpt>
    <trkpt lat="28.560031" lon="84.747293"><ele>2789.4</ele><time>2025-10-24T03:20:24Z</time></trkpt>
    <trkpt lat="28.560047" lon="84.747242"><ele>2790.4</ele><time>2025-10-24T03:20:32Z</time></trkpt>
    <trkpt lat="28.560055" lon="84.747208"><ele>2791.0</ele><time>2025-10-24T03:20:36Z</time></trkpt>
    <trkpt lat="28.560163" lon="84.747163"><ele>2793.4</ele><time>2025-10-24T03:20:55Z</time></trkpt>
    <trkpt lat="28.560243" lon="84.746802"><ele>2800.4</ele><time>2025-10-24T03:21:52Z</time></trkpt>
    <trkpt lat="28.560346" lon="84.746583"><ele>2806.6</ele><time>2025-10-24T03:22:39Z</time></trkpt>
    <trkpt lat="28.560374" lon="84.746436"><ele>2809.6</ele><time>2025-10-24T03:23:00Z</time></trkpt>
    <trkpt lat="28.560443" lon="84.746144"><ele>2813.8</ele><time>2025-10-24T03:23:52Z</time></trkpt>
    <trkpt lat="28.560779" lon="84.745708"><ele>2821.2</ele><time>2025-10-24T03:25:04Z</time></trkpt>
    <trkpt lat="28.560792" lon="84.745599"><ele>2823.6</ele><time>2025-10-24T03:25:26Z</time></trkpt>
    <trkpt lat="28.560814" lon="84.745572"><ele>2824.2</ele><time>2025-10-24T03:25:34Z</time></trkpt>
    <trkpt lat="28.560837" lon="84.745552"><ele>2824.2</ele><time>2025-10-24T03:25:43Z</time></trkpt>
    <trkpt lat="28.560838" lon="84.745624"><ele>2824.4</ele><time>2025-10-24T03:25:51Z</time></trkpt>
    <trkpt lat="28.560794" lon="84.745644"><ele>2824.4</ele><time>2025-10-24T03:26:00Z</time></trkpt>
    <trkpt lat="28.560793" lon="84.745558"><ele>2824.4</ele><time>2025-10-24T03:26:13Z</time></trkpt>
    <trkpt lat="28.560843" lon="84.745509"><ele>2825.4</ele><time>2025-10-24T03:27:25Z</time></trkpt>
    <trkpt lat="28.560860" lon="84.745288"><ele>2827.2</ele><time>2025-10-24T03:28:14Z</time></trkpt>
    <trkpt lat="28.560831" lon="84.744967"><ele>2834.8</ele><time>2025-10-24T03:28:55Z</time></trkpt>
    <trkpt lat="28.560886" lon="84.744491"><ele>2843.4</ele><time>2025-10-24T03:30:03Z</time></trkpt>
    <trkpt lat="28.560869" lon="84.744231"><ele>2844.6</ele><time>2025-10-24T03:30:27Z</time></trkpt>
    <trkpt lat="28.560930" lon="84.744020"><ele>2846.6</ele><time>2025-10-24T03:30:52Z</time></trkpt>
    <trkpt lat="28.561257" lon="84.743733"><ele>2856.0</ele><time>2025-10-24T03:31:53Z</time></trkpt>
    <trkpt lat="28.561262" lon="84.743444"><ele>2862.8</ele><time>2025-10-24T03:32:41Z</time></trkpt>
    <trkpt lat="28.561331" lon="84.743355"><ele>2865.0</ele><time>2025-10-24T03:32:57Z</time></trkpt>
    <trkpt lat="28.561411" lon="84.743343"><ele>2867.2</ele><time>2025-10-24T03:33:16Z</time></trkpt>
    <trkpt lat="28.561323" lon="84.743319"><ele>2870.4</ele><time>2025-10-24T03:33:43Z</time></trkpt>
    <trkpt lat="28.561314" lon="84.743267"><ele>2871.4</ele><time>2025-10-24T03:33:53Z</time></trkpt>
    <trkpt lat="28.561430" lon="84.743188"><ele>2874.8</ele><time>2025-10-24T03:34:18Z</time></trkpt>
    <trkpt lat="28.561558" lon="84.743308"><ele>2881.8</ele><time>2025-10-24T03:35:06Z</time></trkpt>
    <trkpt lat="28.561623" lon="84.742995"><ele>2890.0</ele><time>2025-10-24T03:36:05Z</time></trkpt>
    <trkpt lat="28.561617" lon="84.742723"><ele>2895.2</ele><time>2025-10-24T03:36:50Z</time></trkpt>
    <trkpt lat="28.561584" lon="84.742199"><ele>2905.0</ele><time>2025-10-24T03:37:55Z</time></trkpt>
    <trkpt lat="28.561576" lon="84.742203"><ele>2905.2</ele><time>2025-10-24T03:38:10Z</time></trkpt>
    <trkpt lat="28.561621" lon="84.742168"><ele>2905.4</ele><time>2025-10-24T03:38:22Z</time></trkpt>
    <trkpt lat="28.561613" lon="84.742213"><ele>2905.4</ele><time>2025-10-24T03:39:37Z</time></trkpt>
    <trkpt lat="28.561642" lon="84.742038"><ele>2908.2</ele><time>2025-10-24T03:39:56Z</time></trkpt>
    <trkpt lat="28.561753" lon="84.741750"><ele>2908.8</ele><time>2025-10-24T03:41:06Z</time></trkpt>
    <trkpt lat="28.561723" lon="84.741697"><ele>2908.8</ele><time>2025-10-24T03:41:22Z</time></trkpt>
    <trkpt lat="28.561749" lon="84.741760"><ele>2909.0</ele><time>2025-10-24T03:41:39Z</time></trkpt>
    <trkpt lat="28.561714" lon="84.741802"><ele>2909.0</ele><time>2025-10-24T03:41:56Z</time></trkpt>
    <trkpt lat="28.561683" lon="84.741786"><ele>2908.8</ele><time>2025-10-24T03:42:19Z</time></trkpt>
    <trkpt lat="28.561748" lon="84.741815"><ele>2908.8</ele><time>2025-10-24T03:43:16Z</time></trkpt>
    <trkpt lat="28.561692" lon="84.741787"><ele>2908.8</ele><time>2025-10-24T03:43:34Z</time></trkpt>
    <trkpt lat="28.561763" lon="84.741769"><ele>2908.8</ele><time>2025-10-24T03:43:53Z</time></trkpt>
    <trkpt lat="28.561750" lon="84.741723"><ele>2909.0</ele><time>2025-10-24T03:44:10Z</time></trkpt>
    <trkpt lat="28.561764" lon="84.741757"><ele>2909.0</ele><time>2025-10-24T03:44:18Z</time></trkpt>
    <trkpt lat="28.561719" lon="84.741763"><ele>2910.0</ele><time>2025-10-24T03:47:25Z</time></trkpt>
    <trkpt lat="28.561761" lon="84.741750"><ele>2910.2</ele><time>2025-10-24T03:48:11Z</time></trkpt>
    <trkpt lat="28.561744" lon="84.741698"><ele>2910.8</ele><time>2025-10-24T03:49:17Z</time></trkpt>
    <trkpt lat="28.561760" lon="84.741740"><ele>2910.8</ele><time>2025-10-24T03:49:21Z</time></trkpt>
    <trkpt lat="28.561728" lon="84.741743"><ele>2911.4</ele><time>2025-10-24T03:49:33Z</time></trkpt>
    <trkpt lat="28.561752" lon="84.741754"><ele>2913.6</ele><time>2025-10-24T04:12:55Z</time></trkpt>
    <trkpt lat="28.561771" lon="84.741642"><ele>2914.6</ele><time>2025-10-24T04:13:45Z</time></trkpt>
    <trkpt lat="28.561915" lon="84.741083"><ele>2923.4</ele><time>2025-10-24T04:14:50Z</time></trkpt>
    <trkpt lat="28.561918" lon="84.740947"><ele>2924.8</ele><time>2025-10-24T04:15:04Z</time></trkpt>
    <trkpt lat="28.561888" lon="84.740718"><ele>2925.6</ele><time>2025-10-24T04:15:35Z</time></trkpt>
    <trkpt lat="28.561997" lon="84.740565"><ele>2927.0</ele><time>2025-10-24T04:15:55Z</time></trkpt>
    <trkpt lat="28.562019" lon="84.740240"><ele>2927.6</ele><time>2025-10-24T04:16:24Z</time></trkpt>
    <trkpt lat="28.561965" lon="84.739859"><ele>2927.8</ele><time>2025-10-24T04:16:54Z</time></trkpt>
    <trkpt lat="28.561925" lon="84.739763"><ele>2928.2</ele><time>2025-10-24T04:17:04Z</time></trkpt>
    <trkpt lat="28.561719" lon="84.739461"><ele>2932.6</ele><time>2025-10-24T04:17:40Z</time></trkpt>
    <trkpt lat="28.561691" lon="84.739307"><ele>2934.8</ele><time>2025-10-24T04:18:00Z</time></trkpt>
    <trkpt lat="28.561526" lon="84.738993"><ele>2941.4</ele><time>2025-10-24T04:18:46Z</time></trkpt>
    <trkpt lat="28.561514" lon="84.738954"><ele>2942.4</ele><time>2025-10-24T04:18:52Z</time></trkpt>
    <trkpt lat="28.561498" lon="84.738797"><ele>2942.4</ele><time>2025-10-24T04:19:09Z</time></trkpt>
    <trkpt lat="28.561547" lon="84.738515"><ele>2942.6</ele><time>2025-10-24T04:19:34Z</time></trkpt>
    <trkpt lat="28.561510" lon="84.738276"><ele>2942.8</ele><time>2025-10-24T04:19:54Z</time></trkpt>
    <trkpt lat="28.561546" lon="84.737795"><ele>2942.4</ele><time>2025-10-24T04:20:35Z</time></trkpt>
    <trkpt lat="28.561503" lon="84.737638"><ele>2939.0</ele><time>2025-10-24T04:20:50Z</time></trkpt>
    <trkpt lat="28.561621" lon="84.737301"><ele>2934.6</ele><time>2025-10-24T04:21:18Z</time></trkpt>
    <trkpt lat="28.561792" lon="84.736823"><ele>2933.6</ele><time>2025-10-24T04:22:02Z</time></trkpt>
    <trkpt lat="28.561567" lon="84.736544"><ele>2925.4</ele><time>2025-10-24T04:22:39Z</time></trkpt>
    <trkpt lat="28.561522" lon="84.736476"><ele>2925.2</ele><time>2025-10-24T04:22:45Z</time></trkpt>
    <trkpt lat="28.561547" lon="84.736336"><ele>2924.4</ele><time>2025-10-24T04:23:00Z</time></trkpt>
    <trkpt lat="28.561635" lon="84.736164"><ele>2922.2</ele><time>2025-10-24T04:23:17Z</time></trkpt>
    <trkpt lat="28.561545" lon="84.736036"><ele>2919.4</ele><time>2025-10-24T04:24:13Z</time></trkpt>
    <trkpt lat="28.561531" lon="84.736005"><ele>2918.8</ele><time>2025-10-24T04:24:17Z</time></trkpt>
    <trkpt lat="28.561493" lon="84.735668"><ele>2910.6</ele><time>2025-10-24T04:24:51Z</time></trkpt>
    <trkpt lat="28.561390" lon="84.735566"><ele>2907.0</ele><time>2025-10-24T04:25:05Z</time></trkpt>
    <trkpt lat="28.561369" lon="84.735509"><ele>2906.0</ele><time>2025-10-24T04:25:09Z</time></trkpt>
    <trkpt lat="28.561333" lon="84.735386"><ele>2905.6</ele><time>2025-10-24T04:25:18Z</time></trkpt>
    <trkpt lat="28.561325" lon="84.735099"><ele>2905.6</ele><time>2025-10-24T04:25:39Z</time></trkpt>
    <trkpt lat="28.561356" lon="84.735006"><ele>2905.6</ele><time>2025-10-24T04:25:47Z</time></trkpt>
    <trkpt lat="28.561534" lon="84.734929"><ele>2905.2</ele><time>2025-10-24T04:26:04Z</time></trkpt>
    <trkpt lat="28.561594" lon="84.734852"><ele>2905.2</ele><time>2025-10-24T04:26:12Z</time></trkpt>
    <trkpt lat="28.561602" lon="84.734809"><ele>2905.0</ele><time>2025-10-24T04:26:15Z</time></trkpt>
    <trkpt lat="28.561560" lon="84.734540"><ele>2900.4</ele><time>2025-10-24T04:26:35Z</time></trkpt>
    <trkpt lat="28.561496" lon="84.734409"><ele>2898.2</ele><time>2025-10-24T04:26:46Z</time></trkpt>
    <trkpt lat="28.561400" lon="84.734359"><ele>2895.8</ele><time>2025-10-24T04:26:55Z</time></trkpt>
    <trkpt lat="28.561354" lon="84.734323"><ele>2894.6</ele><time>2025-10-24T04:27:00Z</time></trkpt>
    <trkpt lat="28.561233" lon="84.734085"><ele>2893.6</ele><time>2025-10-24T04:27:18Z</time></trkpt>
    <trkpt lat="28.560982" lon="84.733943"><ele>2890.2</ele><time>2025-10-24T04:27:39Z</time></trkpt>
    <trkpt lat="28.560695" lon="84.733175"><ele>2886.4</ele><time>2025-10-24T04:28:35Z</time></trkpt>
    <trkpt lat="28.560428" lon="84.732957"><ele>2883.8</ele><time>2025-10-24T04:29:01Z</time></trkpt>
    <trkpt lat="28.560462" lon="84.732746"><ele>2882.6</ele><time>2025-10-24T04:29:15Z</time></trkpt>
    <trkpt lat="28.560487" lon="84.732611"><ele>2880.4</ele><time>2025-10-24T04:29:25Z</time></trkpt>
    <trkpt lat="28.560436" lon="84.732480"><ele>2877.0</ele><time>2025-10-24T04:29:36Z</time></trkpt>
    <trkpt lat="28.560324" lon="84.732458"><ele>2874.8</ele><time>2025-10-24T04:29:45Z</time></trkpt>
    <trkpt lat="28.560262" lon="84.732440"><ele>2874.8</ele><time>2025-10-24T04:29:49Z</time></trkpt>
    <trkpt lat="28.559783" lon="84.731936"><ele>2874.2</ele><time>2025-10-24T04:30:39Z</time></trkpt>
    <trkpt lat="28.559472" lon="84.731843"><ele>2874.4</ele><time>2025-10-24T04:31:09Z</time></trkpt>
    <trkpt lat="28.559520" lon="84.731706"><ele>2874.4</ele><time>2025-10-24T04:31:18Z</time></trkpt>
    <trkpt lat="28.559586" lon="84.731691"><ele>2874.4</ele><time>2025-10-24T04:31:23Z</time></trkpt>
    <trkpt lat="28.559614" lon="84.731614"><ele>2874.4</ele><time>2025-10-24T04:31:31Z</time></trkpt>
    <trkpt lat="28.559636" lon="84.731482"><ele>2874.8</ele><time>2025-10-24T04:31:41Z</time></trkpt>
    <trkpt lat="28.559824" lon="84.731197"><ele>2877.4</ele><time>2025-10-24T04:32:08Z</time></trkpt>
    <trkpt lat="28.559952" lon="84.730772"><ele>2879.0</ele><time>2025-10-24T04:32:40Z</time></trkpt>
    <trkpt lat="28.559962" lon="84.730475"><ele>2879.6</ele><time>2025-10-24T04:33:01Z</time></trkpt>
    <trkpt lat="28.559987" lon="84.730271"><ele>2882.4</ele><time>2025-10-24T04:33:17Z</time></trkpt>
    <trkpt lat="28.559923" lon="84.730131"><ele>2886.8</ele><time>2025-10-24T04:33:35Z</time></trkpt>
    <trkpt lat="28.559910" lon="84.730067"><ele>2888.0</ele><time>2025-10-24T04:33:41Z</time></trkpt>
    <trkpt lat="28.559901" lon="84.729949"><ele>2888.0</ele><time>2025-10-24T04:33:53Z</time></trkpt>
    <trkpt lat="28.559987" lon="84.729883"><ele>2888.2</ele><time>2025-10-24T04:34:04Z</time></trkpt>
    <trkpt lat="28.560490" lon="84.729735"><ele>2889.2</ele><time>2025-10-24T04:34:53Z</time></trkpt>
    <trkpt lat="28.560640" lon="84.730122"><ele>2890.2</ele><time>2025-10-24T04:35:25Z</time></trkpt>
    <trkpt lat="28.560572" lon="84.730295"><ele>2890.4</ele><time>2025-10-24T04:35:37Z</time></trkpt>
    <trkpt lat="28.560568" lon="84.730326"><ele>2890.6</ele><time>2025-10-24T04:35:41Z</time></trkpt>
    <trkpt lat="28.560575" lon="84.730389"><ele>2892.4</ele><time>2025-10-24T04:35:50Z</time></trkpt>
    <trkpt lat="28.560785" lon="84.730654"><ele>2896.6</ele><time>2025-10-24T04:36:23Z</time></trkpt>
    <trkpt lat="28.560825" lon="84.730702"><ele>2896.6</ele><time>2025-10-24T04:36:30Z</time></trkpt>
    <trkpt lat="28.561077" lon="84.730861"><ele>2896.6</ele><time>2025-10-24T04:36:55Z</time></trkpt>
    <trkpt lat="28.561390" lon="84.730968"><ele>2896.6</ele><time>2025-10-24T04:37:35Z</time></trkpt>
    <trkpt lat="28.561657" lon="84.731123"><ele>2897.0</ele><time>2025-10-24T04:37:58Z</time></trkpt>
    <trkpt lat="28.561735" lon="84.731139"><ele>2897.2</ele><time>2025-10-24T04:38:05Z</time></trkpt>
    <trkpt lat="28.562101" lon="84.731089"><ele>2903.4</ele><time>2025-10-24T04:38:44Z</time></trkpt>
    <trkpt lat="28.562124" lon="84.731092"><ele>2903.6</ele><time>2025-10-24T04:38:46Z</time></trkpt>
    <trkpt lat="28.562219" lon="84.731130"><ele>2903.6</ele><time>2025-10-24T04:38:53Z</time></trkpt>
    <trkpt lat="28.562368" lon="84.731284"><ele>2904.4</ele><time>2025-10-24T04:39:13Z</time></trkpt>
    <trkpt lat="28.562529" lon="84.731315"><ele>2904.6</ele><time>2025-10-24T04:39:29Z</time></trkpt>
    <trkpt lat="28.562713" lon="84.731264"><ele>2906.4</ele><time>2025-10-24T04:39:51Z</time></trkpt>
    <trkpt lat="28.562789" lon="84.731378"><ele>2907.6</ele><time>2025-10-24T04:40:05Z</time></trkpt>
    <trkpt lat="28.563037" lon="84.731573"><ele>2909.0</ele><time>2025-10-24T04:40:40Z</time></trkpt>
    <trkpt lat="28.563293" lon="84.731790"><ele>2914.4</ele><time>2025-10-24T04:41:23Z</time></trkpt>
    <trkpt lat="28.563476" lon="84.731875"><ele>2921.8</ele><time>2025-10-24T04:41:55Z</time></trkpt>
    <trkpt lat="28.563504" lon="84.731955"><ele>2924.6</ele><time>2025-10-24T04:42:09Z</time></trkpt>
    <trkpt lat="28.563519" lon="84.731958"><ele>2925.4</ele><time>2025-10-24T04:42:15Z</time></trkpt>
    <trkpt lat="28.563519" lon="84.731848"><ele>2928.8</ele><time>2025-10-24T04:42:39Z</time></trkpt>
    <trkpt lat="28.563574" lon="84.731911"><ele>2930.4</ele><time>2025-10-24T04:42:53Z</time></trkpt>
    <trkpt lat="28.563595" lon="84.731877"><ele>2931.0</ele><time>2025-10-24T04:43:00Z</time></trkpt>
    <trkpt lat="28.563661" lon="84.732123"><ele>2939.0</ele><time>2025-10-24T04:43:50Z</time></trkpt>
    <trkpt lat="28.563893" lon="84.732339"><ele>2945.6</ele><time>2025-10-24T04:44:53Z</time></trkpt>
    <trkpt lat="28.563922" lon="84.732477"><ele>2948.8</ele><time>2025-10-24T04:45:16Z</time></trkpt>
    <trkpt lat="28.563909" lon="84.732526"><ele>2949.6</ele><time>2025-10-24T04:45:25Z</time></trkpt>
    <trkpt lat="28.563902" lon="84.732562"><ele>2950.2</ele><time>2025-10-24T04:46:01Z</time></trkpt>
    <trkpt lat="28.563904" lon="84.732640"><ele>2952.2</ele><time>2025-10-24T04:46:12Z</time></trkpt>
    <trkpt lat="28.563999" lon="84.732735"><ele>2955.6</ele><time>2025-10-24T04:46:34Z</time></trkpt>
    <trkpt lat="28.564012" lon="84.732724"><ele>2956.0</ele><time>2025-10-24T04:46:37Z</time></trkpt>
    <trkpt lat="28.564069" lon="84.732701"><ele>2956.0</ele><time>2025-10-24T04:46:47Z</time></trkpt>
    <trkpt lat="28.564259" lon="84.732507"><ele>2956.0</ele><time>2025-10-24T04:47:18Z</time></trkpt>
    <trkpt lat="28.564503" lon="84.732437"><ele>2955.8</ele><time>2025-10-24T04:47:42Z</time></trkpt>
    <trkpt lat="28.564824" lon="84.731982"><ele>2958.6</ele><time>2025-10-24T04:48:30Z</time></trkpt>
    <trkpt lat="28.564993" lon="84.731852"><ele>2958.8</ele><time>2025-10-24T04:48:52Z</time></trkpt>
    <trkpt lat="28.565029" lon="84.731514"><ele>2958.8</ele><time>2025-10-24T04:49:21Z</time></trkpt>
    <trkpt lat="28.565066" lon="84.731436"><ele>2958.8</ele><time>2025-10-24T04:49:28Z</time></trkpt>
    <trkpt lat="28.565075" lon="84.731420"><ele>2959.4</ele><time>2025-10-24T04:49:30Z</time></trkpt>
    <trkpt lat="28.565353" lon="84.731234"><ele>2964.6</ele><time>2025-10-24T04:50:08Z</time></trkpt>
    <trkpt lat="28.565852" lon="84.730725"><ele>2972.8</ele><time>2025-10-24T04:51:30Z</time></trkpt>
    <trkpt lat="28.565896" lon="84.730619"><ele>2974.4</ele><time>2025-10-24T04:51:43Z</time></trkpt>
    <trkpt lat="28.565895" lon="84.730559"><ele>2975.0</ele><time>2025-10-24T04:51:49Z</time></trkpt>
    <trkpt lat="28.565902" lon="84.730446"><ele>2975.2</ele><time>2025-10-24T04:51:59Z</time></trkpt>
    <trkpt lat="28.565965" lon="84.730367"><ele>2975.4</ele><time>2025-10-24T04:52:09Z</time></trkpt>
    <trkpt lat="28.566107" lon="84.730343"><ele>2975.8</ele><time>2025-10-24T04:52:22Z</time></trkpt>
    <trkpt lat="28.566289" lon="84.730055"><ele>2976.6</ele><time>2025-10-24T04:52:52Z</time></trkpt>
    <trkpt lat="28.566383" lon="84.729869"><ele>2978.4</ele><time>2025-10-24T04:53:17Z</time></trkpt>
    <trkpt lat="28.566369" lon="84.729690"><ele>2980.4</ele><time>2025-10-24T04:53:36Z</time></trkpt>
    <trkpt lat="28.566394" lon="84.729530"><ele>2980.4</ele><time>2025-10-24T04:53:52Z</time></trkpt>
    <trkpt lat="28.566522" lon="84.729464"><ele>2980.4</ele><time>2025-10-24T04:54:08Z</time></trkpt>
    <trkpt lat="28.566589" lon="84.729213"><ele>2980.4</ele><time>2025-10-24T04:54:32Z</time></trkpt>
    <trkpt lat="28.566800" lon="84.729030"><ele>2980.8</ele><time>2025-10-24T04:55:01Z</time></trkpt>
    <trkpt lat="28.566899" lon="84.728693"><ele>2981.6</ele><time>2025-10-24T04:55:29Z</time></trkpt>
    <trkpt lat="28.567112" lon="84.728471"><ele>2982.8</ele><time>2025-10-24T04:55:58Z</time></trkpt>
    <trkpt lat="28.567240" lon="84.728169"><ele>2983.8</ele><time>2025-10-24T04:57:54Z</time></trkpt>
    <trkpt lat="28.567340" lon="84.727948"><ele>2988.0</ele><time>2025-10-24T05:07:13Z</time></trkpt>
    <trkpt lat="28.567387" lon="84.727906"><ele>2988.2</ele><time>2025-10-24T05:07:28Z</time></trkpt>
    <trkpt lat="28.567394" lon="84.727917"><ele>2988.2</ele><time>2025-10-24T05:07:47Z</time></trkpt>
    <trkpt lat="28.567344" lon="84.727908"><ele>2988.2</ele><time>2025-10-24T05:08:27Z</time></trkpt>
    <trkpt lat="28.567413" lon="84.727853"><ele>2988.2</ele><time>2025-10-24T05:08:39Z</time></trkpt>
    <trkpt lat="28.567486" lon="84.727670"><ele>2984.8</ele><time>2025-10-24T05:08:56Z</time></trkpt>
    <trkpt lat="28.567570" lon="84.727582"><ele>2982.6</ele><time>2025-10-24T05:09:07Z</time></trkpt>
    <trkpt lat="28.567628" lon="84.727375"><ele>2979.8</ele><time>2025-10-24T05:09:22Z</time></trkpt>
    <trkpt lat="28.567679" lon="84.727255"><ele>2979.8</ele><time>2025-10-24T05:09:32Z</time></trkpt>
    <trkpt lat="28.568019" lon="84.726697"><ele>2980.8</ele><time>2025-10-24T05:10:23Z</time></trkpt>
    <trkpt lat="28.568097" lon="84.726649"><ele>2980.8</ele><time>2025-10-24T05:11:08Z</time></trkpt>
    <trkpt lat="28.568087" lon="84.726647"><ele>2980.8</ele><time>2025-10-24T05:11:39Z</time></trkpt>
    <trkpt lat="28.568474" lon="84.726120"><ele>2985.6</ele><time>2025-10-24T05:12:41Z</time></trkpt>
    <trkpt lat="28.568476" lon="84.725979"><ele>2987.2</ele><time>2025-10-24T05:12:54Z</time></trkpt>
    <trkpt lat="28.568608" lon="84.725479"><ele>2990.2</ele><time>2025-10-24T05:13:36Z</time></trkpt>
    <trkpt lat="28.568660" lon="84.725417"><ele>2991.0</ele><time>2025-10-24T05:13:44Z</time></trkpt>
    <trkpt lat="28.568776" lon="84.725342"><ele>2991.0</ele><time>2025-10-24T05:13:58Z</time></trkpt>
    <trkpt lat="28.568806" lon="84.725271"><ele>2991.0</ele><time>2025-10-24T05:14:05Z</time></trkpt>
    <trkpt lat="28.568725" lon="84.725201"><ele>2990.8</ele><time>2025-10-24T05:14:12Z</time></trkpt>
    <trkpt lat="28.568666" lon="84.725113"><ele>2989.6</ele><time>2025-10-24T05:14:21Z</time></trkpt>
    <trkpt lat="28.568597" lon="84.724889"><ele>2985.2</ele><time>2025-10-24T05:14:39Z</time></trkpt>
    <trkpt lat="28.568510" lon="84.724754"><ele>2985.2</ele><time>2025-10-24T05:14:52Z</time></trkpt>
    <trkpt lat="28.568529" lon="84.724667"><ele>2985.2</ele><time>2025-10-24T05:15:00Z</time></trkpt>
    <trkpt lat="28.568629" lon="84.724653"><ele>2985.2</ele><time>2025-10-24T05:15:09Z</time></trkpt>
    <trkpt lat="28.568700" lon="84.724718"><ele>2985.2</ele><time>2025-10-24T05:15:17Z</time></trkpt>
    <trkpt lat="28.568705" lon="84.724737"><ele>2985.8</ele><time>2025-10-24T05:15:20Z</time></trkpt>
    <trkpt lat="28.568861" lon="84.724791"><ele>2989.0</ele><time>2025-10-24T05:15:39Z</time></trkpt>
    <trkpt lat="28.569084" lon="84.724752"><ele>2991.8</ele><time>2025-10-24T05:15:59Z</time></trkpt>
    <trkpt lat="28.569114" lon="84.724696"><ele>2993.0</ele><time>2025-10-24T05:16:05Z</time></trkpt>
    <trkpt lat="28.569153" lon="84.724296"><ele>2996.0</ele><time>2025-10-24T05:16:37Z</time></trkpt>
    <trkpt lat="28.569135" lon="84.724145"><ele>2997.2</ele><time>2025-10-24T05:16:47Z</time></trkpt>
    <trkpt lat="28.569149" lon="84.724088"><ele>2997.4</ele><time>2025-10-24T05:16:51Z</time></trkpt>
    <trkpt lat="28.569313" lon="84.723733"><ele>2997.8</ele><time>2025-10-24T05:17:20Z</time></trkpt>
    <trkpt lat="28.569492" lon="84.722924"><ele>2998.4</ele><time>2025-10-24T05:18:23Z</time></trkpt>
    <trkpt lat="28.569547" lon="84.722853"><ele>2998.2</ele><time>2025-10-24T05:18:40Z</time></trkpt>
    <trkpt lat="28.569508" lon="84.722800"><ele>2998.2</ele><time>2025-10-24T05:18:48Z</time></trkpt>
    <trkpt lat="28.569497" lon="84.722438"><ele>2998.2</ele><time>2025-10-24T05:19:13Z</time></trkpt>
    <trkpt lat="28.569538" lon="84.722188"><ele>2998.2</ele><time>2025-10-24T05:19:29Z</time></trkpt>
    <trkpt lat="28.569502" lon="84.722025"><ele>2997.8</ele><time>2025-10-24T05:19:42Z</time></trkpt>
    <trkpt lat="28.569503" lon="84.721755"><ele>2997.4</ele><time>2025-10-24T05:19:59Z</time></trkpt>
    <trkpt lat="28.569283" lon="84.721602"><ele>2995.2</ele><time>2025-10-24T05:20:23Z</time></trkpt>
    <trkpt lat="28.569380" lon="84.721475"><ele>2995.2</ele><time>2025-10-24T05:20:37Z</time></trkpt>
    <trkpt lat="28.569480" lon="84.721391"><ele>2998.0</ele><time>2025-10-24T05:20:51Z</time></trkpt>
    <trkpt lat="28.569565" lon="84.721175"><ele>3001.4</ele><time>2025-10-24T05:21:14Z</time></trkpt>
    <trkpt lat="28.569516" lon="84.720870"><ele>3004.0</ele><time>2025-10-24T05:21:44Z</time></trkpt>
    <trkpt lat="28.569511" lon="84.720867"><ele>3004.0</ele><time>2025-10-24T05:22:11Z</time></trkpt>
    <trkpt lat="28.569539" lon="84.720858"><ele>3004.2</ele><time>2025-10-24T05:22:30Z</time></trkpt>
    <trkpt lat="28.569524" lon="84.720886"><ele>3004.2</ele><time>2025-10-24T05:23:35Z</time></trkpt>
    <trkpt lat="28.569510" lon="84.720838"><ele>3004.2</ele><time>2025-10-24T05:23:48Z</time></trkpt>
    <trkpt lat="28.569536" lon="84.720842"><ele>3004.6</ele><time>2025-10-24T05:24:12Z</time></trkpt>
    <trkpt lat="28.569538" lon="84.720763"><ele>3004.8</ele><time>2025-10-24T05:24:46Z</time></trkpt>
    <trkpt lat="28.569457" lon="84.720678"><ele>3005.8</ele><time>2025-10-24T05:25:02Z</time></trkpt>
    <trkpt lat="28.569434" lon="84.720527"><ele>3006.8</ele><time>2025-10-24T05:25:17Z</time></trkpt>
    <trkpt lat="28.569493" lon="84.720404"><ele>3010.6</ele><time>2025-10-24T05:25:28Z</time></trkpt>
    <trkpt lat="28.569551" lon="84.720010"><ele>3011.6</ele><time>2025-10-24T05:26:00Z</time></trkpt>
    <trkpt lat="28.569519" lon="84.719596"><ele>3012.6</ele><time>2025-10-24T05:26:32Z</time></trkpt>
    <trkpt lat="28.569549" lon="84.719215"><ele>3016.0</ele><time>2025-10-24T05:27:05Z</time></trkpt>
    <trkpt lat="28.569561" lon="84.719108"><ele>3016.0</ele><time>2025-10-24T05:27:15Z</time></trkpt>
    <trkpt lat="28.569630" lon="84.718805"><ele>3016.0</ele><time>2025-10-24T05:27:40Z</time></trkpt>
    <trkpt lat="28.569518" lon="84.718579"><ele>3016.4</ele><time>2025-10-24T05:28:04Z</time></trkpt>
    <trkpt lat="28.569667" lon="84.718530"><ele>3016.4</ele><time>2025-10-24T05:28:17Z</time></trkpt>
    <trkpt lat="28.569683" lon="84.718446"><ele>3017.0</ele><time>2025-10-24T05:28:23Z</time></trkpt>
    <trkpt lat="28.569530" lon="84.718076"><ele>3018.8</ele><time>2025-10-24T05:28:55Z</time></trkpt>
    <trkpt lat="28.569528" lon="84.717980"><ele>3019.2</ele><time>2025-10-24T05:29:02Z</time></trkpt>
    <trkpt lat="28.569499" lon="84.717686"><ele>3023.4</ele><time>2025-10-24T05:29:30Z</time></trkpt>
    <trkpt lat="28.569534" lon="84.717457"><ele>3026.0</ele><time>2025-10-24T05:29:51Z</time></trkpt>
    <trkpt lat="28.569653" lon="84.717221"><ele>3028.8</ele><time>2025-10-24T05:30:16Z</time></trkpt>
    <trkpt lat="28.569620" lon="84.717094"><ele>3029.8</ele><time>2025-10-24T05:30:29Z</time></trkpt>
    <trkpt lat="28.569609" lon="84.717070"><ele>3029.8</ele><time>2025-10-24T05:30:31Z</time></trkpt>
    <trkpt lat="28.569640" lon="84.716739"><ele>3031.6</ele><time>2025-10-24T05:31:02Z</time></trkpt>
    <trkpt lat="28.569592" lon="84.716519"><ele>3031.8</ele><time>2025-10-24T05:31:20Z</time></trkpt>
    <trkpt lat="28.569607" lon="84.716315"><ele>3032.0</ele><time>2025-10-24T05:31:34Z</time></trkpt>
    <trkpt lat="28.569621" lon="84.716241"><ele>3032.0</ele><time>2025-10-24T05:31:40Z</time></trkpt>
    <trkpt lat="28.569729" lon="84.716144"><ele>3032.0</ele><time>2025-10-24T05:31:54Z</time></trkpt>
    <trkpt lat="28.569771" lon="84.716052"><ele>3032.2</ele><time>2025-10-24T05:32:02Z</time></trkpt>
    <trkpt lat="28.569736" lon="84.715837"><ele>3033.0</ele><time>2025-10-24T05:32:17Z</time></trkpt>
    <trkpt lat="28.569796" lon="84.715672"><ele>3034.2</ele><time>2025-10-24T05:32:34Z</time></trkpt>
    <trkpt lat="28.569796" lon="84.715337"><ele>3035.4</ele><time>2025-10-24T05:33:03Z</time></trkpt>
    <trkpt lat="28.569867" lon="84.715186"><ele>3036.4</ele><time>2025-10-24T05:33:19Z</time></trkpt>
    <trkpt lat="28.569955" lon="84.714973"><ele>3041.6</ele><time>2025-10-24T05:33:49Z</time></trkpt>
    <trkpt lat="28.570073" lon="84.714822"><ele>3048.0</ele><time>2025-10-24T05:34:26Z</time></trkpt>
    <trkpt lat="28.570092" lon="84.714771"><ele>3048.8</ele><time>2025-10-24T05:34:33Z</time></trkpt>
    <trkpt lat="28.570121" lon="84.714660"><ele>3049.8</ele><time>2025-10-24T05:35:24Z</time></trkpt>
    <trkpt lat="28.570136" lon="84.714711"><ele>3049.8</ele><time>2025-10-24T05:35:38Z</time></trkpt>
    <trkpt lat="28.569989" lon="84.714200"><ele>3047.4</ele><time>2025-10-24T05:36:56Z</time></trkpt>
    <trkpt lat="28.570017" lon="84.714005"><ele>3047.4</ele><time>2025-10-24T05:37:07Z</time></trkpt>
    <trkpt lat="28.569928" lon="84.713729"><ele>3047.4</ele><time>2025-10-24T05:37:30Z</time></trkpt>
    <trkpt lat="28.569921" lon="84.713656"><ele>3047.4</ele><time>2025-10-24T05:37:36Z</time></trkpt>
    <trkpt lat="28.569887" lon="84.713381"><ele>3050.2</ele><time>2025-10-24T05:37:59Z</time></trkpt>
    <trkpt lat="28.569785" lon="84.713294"><ele>3050.6</ele><time>2025-10-24T05:38:15Z</time></trkpt>
    <trkpt lat="28.569753" lon="84.713205"><ele>3051.0</ele><time>2025-10-24T05:38:23Z</time></trkpt>
    <trkpt lat="28.569776" lon="84.713166"><ele>3051.2</ele><time>2025-10-24T05:38:28Z</time></trkpt>
    <trkpt lat="28.569884" lon="84.713153"><ele>3051.4</ele><time>2025-10-24T05:38:37Z</time></trkpt>
    <trkpt lat="28.569931" lon="84.713148"><ele>3052.4</ele><time>2025-10-24T05:38:45Z</time></trkpt>
    <trkpt lat="28.570149" lon="84.713026"><ele>3054.6</ele><time>2025-10-24T05:39:11Z</time></trkpt>
    <trkpt lat="28.570241" lon="84.712476"><ele>3063.2</ele><time>2025-10-24T05:40:18Z</time></trkpt>
    <trkpt lat="28.570439" lon="84.712281"><ele>3067.6</ele><time>2025-10-24T05:40:53Z</time></trkpt>
    <trkpt lat="28.570460" lon="84.712171"><ele>3071.2</ele><time>2025-10-24T05:41:15Z</time></trkpt>
    <trkpt lat="28.570528" lon="84.712045"><ele>3074.2</ele><time>2025-10-24T05:41:36Z</time></trkpt>
    <trkpt lat="28.570594" lon="84.711953"><ele>3075.2</ele><time>2025-10-24T05:42:42Z</time></trkpt>
    <trkpt lat="28.570595" lon="84.711930"><ele>3075.8</ele><time>2025-10-24T05:43:48Z</time></trkpt>
    <trkpt lat="28.570684" lon="84.711542"><ele>3081.4</ele><time>2025-10-24T05:44:35Z</time></trkpt>
    <trkpt lat="28.570721" lon="84.710981"><ele>3085.2</ele><time>2025-10-24T05:45:32Z</time></trkpt>
    <trkpt lat="28.570784" lon="84.710718"><ele>3087.8</ele><time>2025-10-24T05:46:00Z</time></trkpt>
    <trkpt lat="28.570859" lon="84.710612"><ele>3088.8</ele><time>2025-10-24T05:46:13Z</time></trkpt>
    <trkpt lat="28.570968" lon="84.710563"><ele>3089.0</ele><time>2025-10-24T05:46:24Z</time></trkpt>
    <trkpt lat="28.571098" lon="84.710434"><ele>3090.6</ele><time>2025-10-24T05:46:46Z</time></trkpt>
    <trkpt lat="28.571158" lon="84.710373"><ele>3090.6</ele><time>2025-10-24T05:46:53Z</time></trkpt>
    <trkpt lat="28.571145" lon="84.710228"><ele>3090.4</ele><time>2025-10-24T05:47:15Z</time></trkpt>
    <trkpt lat="28.571118" lon="84.710131"><ele>3088.4</ele><time>2025-10-24T05:47:25Z</time></trkpt>
    <trkpt lat="28.570969" lon="84.710002"><ele>3084.6</ele><time>2025-10-24T05:47:47Z</time></trkpt>
    <trkpt lat="28.570787" lon="84.709975"><ele>3081.4</ele><time>2025-10-24T05:48:05Z</time></trkpt>
    <trkpt lat="28.570637" lon="84.709789"><ele>3076.4</ele><time>2025-10-24T05:48:33Z</time></trkpt>
    <trkpt lat="28.570624" lon="84.709759"><ele>3076.4</ele><time>2025-10-24T05:48:38Z</time></trkpt>
    <trkpt lat="28.570785" lon="84.709693"><ele>3075.4</ele><time>2025-10-24T05:48:57Z</time></trkpt>
    <trkpt lat="28.570928" lon="84.709598"><ele>3075.4</ele><time>2025-10-24T05:49:14Z</time></trkpt>
    <trkpt lat="28.571329" lon="84.709568"><ele>3079.0</ele><time>2025-10-24T05:49:56Z</time></trkpt>
    <trkpt lat="28.571421" lon="84.709566"><ele>3081.4</ele><time>2025-10-24T05:50:11Z</time></trkpt>
    <trkpt lat="28.571539" lon="84.709395"><ele>3085.0</ele><time>2025-10-24T05:50:37Z</time></trkpt>
    <trkpt lat="28.571515" lon="84.709350"><ele>3085.6</ele><time>2025-10-24T05:50:45Z</time></trkpt>
    <trkpt lat="28.571384" lon="84.709060"><ele>3085.6</ele><time>2025-10-24T05:51:15Z</time></trkpt>
    <trkpt lat="28.571445" lon="84.708456"><ele>3086.2</ele><time>2025-10-24T05:52:07Z</time></trkpt>
    <trkpt lat="28.571462" lon="84.708375"><ele>3087.6</ele><time>2025-10-24T05:52:16Z</time></trkpt>
    <trkpt lat="28.571581" lon="84.708056"><ele>3087.6</ele><time>2025-10-24T05:52:46Z</time></trkpt>
    <trkpt lat="28.571742" lon="84.707839"><ele>3087.0</ele><time>2025-10-24T05:53:10Z</time></trkpt>
    <trkpt lat="28.571772" lon="84.707815"><ele>3086.0</ele><time>2025-10-24T05:53:13Z</time></trkpt>
    <trkpt lat="28.571730" lon="84.707574"><ele>3081.2</ele><time>2025-10-24T05:53:36Z</time></trkpt>
    <trkpt lat="28.571764" lon="84.707260"><ele>3079.2</ele><time>2025-10-24T05:54:01Z</time></trkpt>
    <trkpt lat="28.571760" lon="84.707151"><ele>3079.2</ele><time>2025-10-24T05:54:08Z</time></trkpt>
    <trkpt lat="28.571879" lon="84.706703"><ele>3079.2</ele><time>2025-10-24T05:54:45Z</time></trkpt>
    <trkpt lat="28.572025" lon="84.706478"><ele>3079.2</ele><time>2025-10-24T05:55:09Z</time></trkpt>
    <trkpt lat="28.572038" lon="84.706292"><ele>3080.2</ele><time>2025-10-24T05:55:24Z</time></trkpt>
    <trkpt lat="28.572100" lon="84.706267"><ele>3080.4</ele><time>2025-10-24T05:55:32Z</time></trkpt>
    <trkpt lat="28.572144" lon="84.706235"><ele>3081.8</ele><time>2025-10-24T05:55:38Z</time></trkpt>
    <trkpt lat="28.572265" lon="84.705862"><ele>3088.6</ele><time>2025-10-24T05:56:23Z</time></trkpt>
    <trkpt lat="28.572265" lon="84.705821"><ele>3089.6</ele><time>2025-10-24T05:56:28Z</time></trkpt>
    <trkpt lat="28.572189" lon="84.705441"><ele>3090.2</ele><time>2025-10-24T05:57:02Z</time></trkpt>
    <trkpt lat="28.572201" lon="84.705379"><ele>3090.8</ele><time>2025-10-24T05:57:19Z</time></trkpt>
    <trkpt lat="28.572206" lon="84.705362"><ele>3091.4</ele><time>2025-10-24T05:57:27Z</time></trkpt>
    <trkpt lat="28.572348" lon="84.705348"><ele>3094.2</ele><time>2025-10-24T05:57:45Z</time></trkpt>
    <trkpt lat="28.572422" lon="84.705384"><ele>3097.4</ele><time>2025-10-24T05:58:05Z</time></trkpt>
    <trkpt lat="28.572405" lon="84.705241"><ele>3102.0</ele><time>2025-10-24T05:58:38Z</time></trkpt>
    <trkpt lat="28.572426" lon="84.705152"><ele>3103.6</ele><time>2025-10-24T05:58:56Z</time></trkpt>
    <trkpt lat="28.572453" lon="84.704883"><ele>3109.2</ele><time>2025-10-24T05:59:49Z</time></trkpt>
    <trkpt lat="28.572425" lon="84.704730"><ele>3111.6</ele><time>2025-10-24T06:00:12Z</time></trkpt>
    <trkpt lat="28.572477" lon="84.704606"><ele>3116.0</ele><time>2025-10-24T06:00:51Z</time></trkpt>
    <trkpt lat="28.572432" lon="84.704518"><ele>3119.8</ele><time>2025-10-24T06:01:20Z</time></trkpt>
    <trkpt lat="28.572418" lon="84.704348"><ele>3123.0</ele><time>2025-10-24T06:01:48Z</time></trkpt>
    <trkpt lat="28.572493" lon="84.704311"><ele>3124.0</ele><time>2025-10-24T06:02:05Z</time></trkpt>
    <trkpt lat="28.572688" lon="84.704256"><ele>3131.0</ele><time>2025-10-24T06:02:51Z</time></trkpt>
    <trkpt lat="28.572973" lon="84.703652"><ele>3143.2</ele><time>2025-10-24T06:04:36Z</time></trkpt>
    <trkpt lat="28.573156" lon="84.703432"><ele>3147.2</ele><time>2025-10-24T06:05:15Z</time></trkpt>
    <trkpt lat="28.573295" lon="84.703137"><ele>3151.8</ele><time>2025-10-24T06:05:59Z</time></trkpt>
    <trkpt lat="28.573373" lon="84.703082"><ele>3152.8</ele><time>2025-10-24T06:06:14Z</time></trkpt>
    <trkpt lat="28.573472" lon="84.703116"><ele>3156.0</ele><time>2025-10-24T06:06:35Z</time></trkpt>
    <trkpt lat="28.573527" lon="84.703028"><ele>3157.8</ele><time>2025-10-24T06:06:50Z</time></trkpt>
    <trkpt lat="28.573536" lon="84.703021"><ele>3158.0</ele><time>2025-10-24T06:06:52Z</time></trkpt>
    <trkpt lat="28.573578" lon="84.703039"><ele>3158.6</ele><time>2025-10-24T06:07:19Z</time></trkpt>
    <trkpt lat="28.573559" lon="84.703017"><ele>3159.0</ele><time>2025-10-24T06:07:46Z</time></trkpt>
    <trkpt lat="28.573587" lon="84.703001"><ele>3159.2</ele><time>2025-10-24T06:07:57Z</time></trkpt>
    <trkpt lat="28.573853" lon="84.702682"><ele>3164.2</ele><time>2025-10-24T06:08:47Z</time></trkpt>
    <trkpt lat="28.573906" lon="84.702643"><ele>3165.6</ele><time>2025-10-24T06:08:56Z</time></trkpt>
    <trkpt lat="28.573921" lon="84.702695"><ele>3166.4</ele><time>2025-10-24T06:09:31Z</time></trkpt>
    <trkpt lat="28.573909" lon="84.702634"><ele>3166.6</ele><time>2025-10-24T06:09:55Z</time></trkpt>
    <trkpt lat="28.574028" lon="84.702429"><ele>3167.8</ele><time>2025-10-24T06:10:19Z</time></trkpt>
    <trkpt lat="28.574137" lon="84.702341"><ele>3170.0</ele><time>2025-10-24T06:10:39Z</time></trkpt>
    <trkpt lat="28.574130" lon="84.702346"><ele>3170.8</ele><time>2025-10-24T06:10:43Z</time></trkpt>
    <trkpt lat="28.574107" lon="84.702372"><ele>3171.0</ele><time>2025-10-24T06:10:52Z</time></trkpt>
    <trkpt lat="28.574081" lon="84.702327"><ele>3171.2</ele><time>2025-10-24T06:11:09Z</time></trkpt>
    <trkpt lat="28.574017" lon="84.702357"><ele>3171.2</ele><time>2025-10-24T06:11:31Z</time></trkpt>
    <trkpt lat="28.574068" lon="84.702336"><ele>3171.4</ele><time>2025-10-24T06:11:49Z</time></trkpt>
    <trkpt lat="28.574061" lon="84.702256"><ele>3172.2</ele><time>2025-10-24T06:12:04Z</time></trkpt>
    <trkpt lat="28.574020" lon="84.702203"><ele>3173.6</ele><time>2025-10-24T06:12:14Z</time></trkpt>
    <trkpt lat="28.573968" lon="84.702204"><ele>3173.6</ele><time>2025-10-24T06:12:40Z</time></trkpt>
    <trkpt lat="28.574032" lon="84.702241"><ele>3174.2</ele><time>2025-10-24T06:13:35Z</time></trkpt>
    <trkpt lat="28.574127" lon="84.702372"><ele>3184.2</ele><time>2025-10-24T07:39:07Z</time></trkpt>
    <trkpt lat="28.574188" lon="84.702328"><ele>3184.2</ele><time>2025-10-24T07:39:21Z</time></trkpt>
    <trkpt lat="28.574298" lon="84.702031"><ele>3185.4</ele><time>2025-10-24T07:40:00Z</time></trkpt>
    <trkpt lat="28.574294" lon="84.701950"><ele>3185.6</ele><time>2025-10-24T07:40:09Z</time></trkpt>
    <trkpt lat="28.574127" lon="84.701809"><ele>3186.6</ele><time>2025-10-24T07:40:31Z</time></trkpt>
    <trkpt lat="28.574126" lon="84.701789"><ele>3186.6</ele><time>2025-10-24T07:40:33Z</time></trkpt>
    <trkpt lat="28.574149" lon="84.701595"><ele>3189.2</ele><time>2025-10-24T07:40:59Z</time></trkpt>
    <trkpt lat="28.574047" lon="84.701253"><ele>3195.2</ele><time>2025-10-24T07:41:52Z</time></trkpt>
    <trkpt lat="28.574129" lon="84.700880"><ele>3199.2</ele><time>2025-10-24T07:42:39Z</time></trkpt>
    <trkpt lat="28.574154" lon="84.700816"><ele>3200.4</ele><time>2025-10-24T07:42:48Z</time></trkpt>
    <trkpt lat="28.574254" lon="84.700750"><ele>3201.8</ele><time>2025-10-24T07:43:01Z</time></trkpt>
    <trkpt lat="28.574280" lon="84.700718"><ele>3201.8</ele><time>2025-10-24T07:43:07Z</time></trkpt>
    <trkpt lat="28.574428" lon="84.700706"><ele>3202.0</ele><time>2025-10-24T07:43:21Z</time></trkpt>
    <trkpt lat="28.574735" lon="84.700435"><ele>3204.2</ele><time>2025-10-24T07:44:15Z</time></trkpt>
    <trkpt lat="28.574827" lon="84.700396"><ele>3205.2</ele><time>2025-10-24T07:44:29Z</time></trkpt>
    <trkpt lat="28.574876" lon="84.700283"><ele>3205.8</ele><time>2025-10-24T07:44:42Z</time></trkpt>
    <trkpt lat="28.574761" lon="84.700029"><ele>3209.2</ele><time>2025-10-24T07:45:19Z</time></trkpt>
    <trkpt lat="28.574709" lon="84.700028"><ele>3209.6</ele><time>2025-10-24T07:45:28Z</time></trkpt>
    <trkpt lat="28.574674" lon="84.700011"><ele>3210.2</ele><time>2025-10-24T07:45:34Z</time></trkpt>
    <trkpt lat="28.574563" lon="84.699880"><ele>3213.6</ele><time>2025-10-24T07:46:00Z</time></trkpt>
    <trkpt lat="28.574533" lon="84.699694"><ele>3215.0</ele><time>2025-10-24T07:46:23Z</time></trkpt>
    <trkpt lat="28.574472" lon="84.699612"><ele>3216.4</ele><time>2025-10-24T07:46:37Z</time></trkpt>
    <trkpt lat="28.574439" lon="84.699403"><ele>3218.6</ele><time>2025-10-24T07:47:06Z</time></trkpt>
    <trkpt lat="28.574486" lon="84.699128"><ele>3222.2</ele><time>2025-10-24T07:47:46Z</time></trkpt>
    <trkpt lat="28.574381" lon="84.698957"><ele>3226.6</ele><time>2025-10-24T07:48:24Z</time></trkpt>
    <trkpt lat="28.574351" lon="84.698825"><ele>3228.8</ele><time>2025-10-24T07:48:46Z</time></trkpt>
    <trkpt lat="28.574287" lon="84.698765"><ele>3230.8</ele><time>2025-10-24T07:49:06Z</time></trkpt>
    <trkpt lat="28.574274" lon="84.698703"><ele>3231.8</ele><time>2025-10-24T07:49:15Z</time></trkpt>
    <trkpt lat="28.574260" lon="84.698638"><ele>3232.6</ele><time>2025-10-24T07:49:43Z</time></trkpt>
    <trkpt lat="28.574242" lon="84.698637"><ele>3233.2</ele><time>2025-10-24T07:50:18Z</time></trkpt>
    <trkpt lat="28.574179" lon="84.698559"><ele>3235.6</ele><time>2025-10-24T07:50:40Z</time></trkpt>
    <trkpt lat="28.573970" lon="84.697957"><ele>3244.8</ele><time>2025-10-24T07:52:26Z</time></trkpt>
    <trkpt lat="28.573910" lon="84.697570"><ele>3248.8</ele><time>2025-10-24T07:53:20Z</time></trkpt>
    <trkpt lat="28.573987" lon="84.697429"><ele>3250.8</ele><time>2025-10-24T07:53:42Z</time></trkpt>
    <trkpt lat="28.573976" lon="84.697384"><ele>3251.2</ele><time>2025-10-24T07:53:55Z</time></trkpt>
    <trkpt lat="28.573575" lon="84.696896"><ele>3260.6</ele><time>2025-10-24T07:55:39Z</time></trkpt>
    <trkpt lat="28.573538" lon="84.696735"><ele>3262.8</ele><time>2025-10-24T07:56:02Z</time></trkpt>
    <trkpt lat="28.573530" lon="84.696730"><ele>3264.0</ele><time>2025-10-24T07:56:07Z</time></trkpt>
    <trkpt lat="28.573499" lon="84.696726"><ele>3265.0</ele><time>2025-10-24T07:56:20Z</time></trkpt>
    <trkpt lat="28.573491" lon="84.696640"><ele>3265.4</ele><time>2025-10-24T07:56:32Z</time></trkpt>
    <trkpt lat="28.573428" lon="84.696607"><ele>3265.6</ele><time>2025-10-24T07:56:47Z</time></trkpt>
    <trkpt lat="28.573425" lon="84.696561"><ele>3265.6</ele><time>2025-10-24T07:56:53Z</time></trkpt>
    <trkpt lat="28.573468" lon="84.696499"><ele>3266.0</ele><time>2025-10-24T07:56:59Z</time></trkpt>
    <trkpt lat="28.573455" lon="84.696531"><ele>3266.8</ele><time>2025-10-24T07:57:06Z</time></trkpt>
    <trkpt lat="28.573481" lon="84.696519"><ele>3267.0</ele><time>2025-10-24T07:57:09Z</time></trkpt>
    <trkpt lat="28.573567" lon="84.696461"><ele>3269.0</ele><time>2025-10-24T07:57:22Z</time></trkpt>
    <trkpt lat="28.573513" lon="84.696483"><ele>3270.4</ele><time>2025-10-24T07:57:31Z</time></trkpt>
    <trkpt lat="28.573427" lon="84.696336"><ele>3273.6</ele><time>2025-10-24T07:57:55Z</time></trkpt>
    <trkpt lat="28.573351" lon="84.696254"><ele>3276.0</ele><time>2025-10-24T07:58:15Z</time></trkpt>
    <trkpt lat="28.573311" lon="84.696272"><ele>3277.8</ele><time>2025-10-24T07:58:28Z</time></trkpt>
    <trkpt lat="28.573258" lon="84.696181"><ele>3279.6</ele><time>2025-10-24T07:58:49Z</time></trkpt>
    <trkpt lat="28.573064" lon="84.695759"><ele>3286.4</ele><time>2025-10-24T07:59:42Z</time></trkpt>
    <trkpt lat="28.573075" lon="84.695681"><ele>3288.4</ele><time>2025-10-24T07:59:59Z</time></trkpt>
    <trkpt lat="28.572999" lon="84.695410"><ele>3293.6</ele><time>2025-10-24T08:00:38Z</time></trkpt>
    <trkpt lat="28.572856" lon="84.695228"><ele>3295.4</ele><time>2025-10-24T08:01:15Z</time></trkpt>
    <trkpt lat="28.572784" lon="84.695113"><ele>3298.4</ele><time>2025-10-24T08:01:32Z</time></trkpt>
    <trkpt lat="28.572590" lon="84.694680"><ele>3305.0</ele><time>2025-10-24T08:02:22Z</time></trkpt>
    <trkpt lat="28.572574" lon="84.694300"><ele>3312.8</ele><time>2025-10-24T08:03:12Z</time></trkpt>
    <trkpt lat="28.572734" lon="84.693547"><ele>3326.8</ele><time>2025-10-24T08:05:13Z</time></trkpt>
    <trkpt lat="28.572759" lon="84.693555"><ele>3329.2</ele><time>2025-10-24T08:05:24Z</time></trkpt>
    <trkpt lat="28.572786" lon="84.693564"><ele>3329.4</ele><time>2025-10-24T08:05:32Z</time></trkpt>
    <trkpt lat="28.572812" lon="84.693592"><ele>3329.8</ele><time>2025-10-24T08:05:51Z</time></trkpt>
    <trkpt lat="28.572785" lon="84.693579"><ele>3330.2</ele><time>2025-10-24T08:06:43Z</time></trkpt>
    <trkpt lat="28.572792" lon="84.693706"><ele>3331.0</ele><time>2025-10-24T08:07:35Z</time></trkpt>
    <trkpt lat="28.572809" lon="84.693917"><ele>3333.2</ele><time>2025-10-24T08:07:54Z</time></trkpt>
    <trkpt lat="28.572877" lon="84.694099"><ele>3334.2</ele><time>2025-10-24T08:08:04Z</time></trkpt>
    <trkpt lat="28.572890" lon="84.694304"><ele>3337.2</ele><time>2025-10-24T08:08:23Z</time></trkpt>
    <trkpt lat="28.572936" lon="84.694535"><ele>3337.8</ele><time>2025-10-24T08:08:41Z</time></trkpt>
    <trkpt lat="28.573221" lon="84.694783"><ele>3338.4</ele><time>2025-10-24T08:09:15Z</time></trkpt>
    <trkpt lat="28.573345" lon="84.695013"><ele>3339.0</ele><time>2025-10-24T08:09:36Z</time></trkpt>
    <trkpt lat="28.573516" lon="84.695197"><ele>3339.8</ele><time>2025-10-24T08:10:03Z</time></trkpt>
    <trkpt lat="28.573497" lon="84.695251"><ele>3340.0</ele><time>2025-10-24T08:10:11Z</time></trkpt>
    <trkpt lat="28.573538" lon="84.695334"><ele>3340.2</ele><time>2025-10-24T08:10:18Z</time></trkpt>
    <trkpt lat="28.573718" lon="84.695520"><ele>3340.6</ele><time>2025-10-24T08:10:32Z</time></trkpt>
    <trkpt lat="28.573719" lon="84.695475"><ele>3341.4</ele><time>2025-10-24T08:10:43Z</time></trkpt>
    <trkpt lat="28.573717" lon="84.695506"><ele>3342.8</ele><time>2025-10-24T08:10:48Z</time></trkpt>
    <trkpt lat="28.573719" lon="84.695526"><ele>3342.8</ele><time>2025-10-24T08:10:52Z</time></trkpt>
    <trkpt lat="28.573824" lon="84.695581"><ele>3343.2</ele><time>2025-10-24T08:11:20Z</time></trkpt>
    <trkpt lat="28.573801" lon="84.695596"><ele>3343.2</ele><time>2025-10-24T08:11:33Z</time></trkpt>
    <trkpt lat="28.573820" lon="84.695569"><ele>3343.2</ele><time>2025-10-24T08:11:48Z</time></trkpt>
    <trkpt lat="28.573820" lon="84.695623"><ele>3343.2</ele><time>2025-10-24T08:11:56Z</time></trkpt>
    <trkpt lat="28.573772" lon="84.695607"><ele>3343.0</ele><time>2025-10-24T08:12:01Z</time></trkpt>
    <trkpt lat="28.573783" lon="84.695510"><ele>3342.8</ele><time>2025-10-24T08:12:22Z</time></trkpt>
    <trkpt lat="28.573869" lon="84.695522"><ele>3342.6</ele><time>2025-10-24T08:12:35Z</time></trkpt>
    <trkpt lat="28.573895" lon="84.695489"><ele>3342.4</ele><time>2025-10-24T08:12:49Z</time></trkpt>
    <trkpt lat="28.573864" lon="84.695475"><ele>3342.6</ele><time>2025-10-24T08:12:56Z</time></trkpt>
    <trkpt lat="28.573935" lon="84.695520"><ele>3342.6</ele><time>2025-10-24T08:13:05Z</time></trkpt>
    <trkpt lat="28.573913" lon="84.695499"><ele>3342.6</ele><time>2025-10-24T08:13:21Z</time></trkpt>
    <trkpt lat="28.573818" lon="84.695595"><ele>3342.6</ele><time>2025-10-24T08:13:35Z</time></trkpt>
    <trkpt lat="28.573835" lon="84.695549"><ele>3342.6</ele><time>2025-10-24T08:13:43Z</time></trkpt>
    <trkpt lat="28.573819" lon="84.695647"><ele>3342.6</ele><time>2025-10-24T08:14:09Z</time></trkpt>
    <trkpt lat="28.573779" lon="84.695572"><ele>3342.6</ele><time>2025-10-24T08:14:18Z</time></trkpt>
    <trkpt lat="28.573805" lon="84.695353"><ele>3342.6</ele><time>2025-10-24T08:15:19Z</time></trkpt>
    <trkpt lat="28.573944" lon="84.695433"><ele>3343.0</ele><time>2025-10-24T08:16:08Z</time></trkpt>
    <trkpt lat="28.573894" lon="84.695326"><ele>3342.8</ele><time>2025-10-24T08:16:28Z</time></trkpt>
    <trkpt lat="28.573891" lon="84.695404"><ele>3342.8</ele><time>2025-10-24T08:16:47Z</time></trkpt>
    <trkpt lat="28.573933" lon="84.695462"><ele>3342.8</ele><time>2025-10-24T08:17:17Z</time></trkpt>
    <trkpt lat="28.573680" lon="84.695457"><ele>3342.8</ele><time>2025-10-24T08:30:02Z</time></trkpt>
    <trkpt lat="28.573658" lon="84.695442"><ele>3342.6</ele><time>2025-10-24T08:30:06Z</time></trkpt>
    <trkpt lat="28.573437" lon="84.695191"><ele>3342.0</ele><time>2025-10-24T08:30:32Z</time></trkpt>
    <trkpt lat="28.573225" lon="84.694761"><ele>3341.2</ele><time>2025-10-24T08:31:13Z</time></trkpt>
    <trkpt lat="28.572943" lon="84.694496"><ele>3340.4</ele><time>2025-10-24T08:31:44Z</time></trkpt>
    <trkpt lat="28.572897" lon="84.694360"><ele>3340.2</ele><time>2025-10-24T08:31:52Z</time></trkpt>
    <trkpt lat="28.572802" lon="84.693647"><ele>3333.2</ele><time>2025-10-24T08:32:46Z</time></trkpt>
    <trkpt lat="28.572815" lon="84.693669"><ele>3333.0</ele><time>2025-10-24T08:32:51Z</time></trkpt>
    <trkpt lat="28.572840" lon="84.693266"><ele>3332.2</ele><time>2025-10-24T08:35:11Z</time></trkpt>
    <trkpt lat="28.572809" lon="84.693250"><ele>3332.2</ele><time>2025-10-24T08:35:17Z</time></trkpt>
    <trkpt lat="28.572716" lon="84.693127"><ele>3333.0</ele><time>2025-10-24T08:35:32Z</time></trkpt>
    <trkpt lat="28.572682" lon="84.692888"><ele>3338.6</ele><time>2025-10-24T08:36:01Z</time></trkpt>
    <trkpt lat="28.572646" lon="84.692903"><ele>3339.8</ele><time>2025-10-24T08:36:11Z</time></trkpt>
    <trkpt lat="28.572454" lon="84.692681"><ele>3341.8</ele><time>2025-10-24T08:36:44Z</time></trkpt>
    <trkpt lat="28.572438" lon="84.692520"><ele>3348.6</ele><time>2025-10-24T08:37:25Z</time></trkpt>
    <trkpt lat="28.572260" lon="84.692306"><ele>3351.6</ele><time>2025-10-24T08:37:59Z</time></trkpt>
    <trkpt lat="28.572180" lon="84.692070"><ele>3355.4</ele><time>2025-10-24T08:38:34Z</time></trkpt>
    <trkpt lat="28.572140" lon="84.692051"><ele>3355.8</ele><time>2025-10-24T08:38:44Z</time></trkpt>
    <trkpt lat="28.572063" lon="84.692001"><ele>3359.2</ele><time>2025-10-24T08:39:02Z</time></trkpt>
    <trkpt lat="28.571979" lon="84.691788"><ele>3365.8</ele><time>2025-10-24T08:39:54Z</time></trkpt>
    <trkpt lat="28.571996" lon="84.691631"><ele>3371.0</ele><time>2025-10-24T08:40:24Z</time></trkpt>
    <trkpt lat="28.572016" lon="84.691403"><ele>3374.0</ele><time>2025-10-24T08:41:11Z</time></trkpt>
    <trkpt lat="28.571975" lon="84.691363"><ele>3374.6</ele><time>2025-10-24T08:41:32Z</time></trkpt>
    <trkpt lat="28.571961" lon="84.691261"><ele>3375.4</ele><time>2025-10-24T08:41:47Z</time></trkpt>
    <trkpt lat="28.571949" lon="84.691161"><ele>3377.6</ele><time>2025-10-24T08:41:58Z</time></trkpt>
    <trkpt lat="28.571987" lon="84.690977"><ele>3382.2</ele><time>2025-10-24T08:42:28Z</time></trkpt>
    <trkpt lat="28.571958" lon="84.690889"><ele>3385.2</ele><time>2025-10-24T08:42:52Z</time></trkpt>
    <trkpt lat="28.571874" lon="84.690701"><ele>3385.2</ele><time>2025-10-24T08:43:14Z</time></trkpt>
    <trkpt lat="28.571904" lon="84.690615"><ele>3385.2</ele><time>2025-10-24T08:43:27Z</time></trkpt>
    <trkpt lat="28.571938" lon="84.690516"><ele>3381.8</ele><time>2025-10-24T08:43:40Z</time></trkpt>
    <trkpt lat="28.571846" lon="84.690448"><ele>3378.8</ele><time>2025-10-24T08:43:54Z</time></trkpt>
    <trkpt lat="28.571852" lon="84.690391"><ele>3378.2</ele><time>2025-10-24T08:43:58Z</time></trkpt>
    <trkpt lat="28.571915" lon="84.689910"><ele>3378.0</ele><time>2025-10-24T08:44:33Z</time></trkpt>
    <trkpt lat="28.571983" lon="84.689707"><ele>3379.4</ele><time>2025-10-24T08:45:05Z</time></trkpt>
    <trkpt lat="28.572009" lon="84.689729"><ele>3379.4</ele><time>2025-10-24T08:45:25Z</time></trkpt>
    <trkpt lat="28.572207" lon="84.689716"><ele>3373.2</ele><time>2025-10-24T08:46:05Z</time></trkpt>
    <trkpt lat="28.572264" lon="84.689692"><ele>3372.4</ele><time>2025-10-24T08:46:11Z</time></trkpt>
    <trkpt lat="28.572315" lon="84.689604"><ele>3372.2</ele><time>2025-10-24T08:46:20Z</time></trkpt>
    <trkpt lat="28.572386" lon="84.689585"><ele>3371.4</ele><time>2025-10-24T08:46:28Z</time></trkpt>
    <trkpt lat="28.572525" lon="84.689636"><ele>3368.8</ele><time>2025-10-24T08:46:40Z</time></trkpt>
    <trkpt lat="28.572572" lon="84.689678"><ele>3368.0</ele><time>2025-10-24T08:46:44Z</time></trkpt>
    <trkpt lat="28.572599" lon="84.689762"><ele>3367.8</ele><time>2025-10-24T08:46:53Z</time></trkpt>
    <trkpt lat="28.572681" lon="84.689774"><ele>3367.8</ele><time>2025-10-24T08:46:59Z</time></trkpt>
    <trkpt lat="28.572784" lon="84.689711"><ele>3367.8</ele><time>2025-10-24T08:47:19Z</time></trkpt>
    <trkpt lat="28.572807" lon="84.689444"><ele>3367.8</ele><time>2025-10-24T08:47:42Z</time></trkpt>
    <trkpt lat="28.572834" lon="84.689423"><ele>3367.8</ele><time>2025-10-24T08:47:49Z</time></trkpt>
    <trkpt lat="28.572801" lon="84.689427"><ele>3367.4</ele><time>2025-10-24T08:48:01Z</time></trkpt>
    <trkpt lat="28.572738" lon="84.689366"><ele>3365.2</ele><time>2025-10-24T08:48:09Z</time></trkpt>
    <trkpt lat="28.572632" lon="84.689221"><ele>3364.0</ele><time>2025-10-24T08:48:30Z</time></trkpt>
    <trkpt lat="28.572611" lon="84.689096"><ele>3360.6</ele><time>2025-10-24T08:48:43Z</time></trkpt>
    <trkpt lat="28.572729" lon="84.688929"><ele>3356.4</ele><time>2025-10-24T08:49:02Z</time></trkpt>
    <trkpt lat="28.572898" lon="84.688877"><ele>3354.2</ele><time>2025-10-24T08:49:18Z</time></trkpt>
    <trkpt lat="28.572996" lon="84.688670"><ele>3348.4</ele><time>2025-10-24T08:49:44Z</time></trkpt>
    <trkpt lat="28.573146" lon="84.688536"><ele>3342.0</ele><time>2025-10-24T08:50:09Z</time></trkpt>
    <trkpt lat="28.573173" lon="84.688480"><ele>3340.8</ele><time>2025-10-24T08:50:14Z</time></trkpt>
    <trkpt lat="28.573200" lon="84.688395"><ele>3339.6</ele><time>2025-10-24T08:50:24Z</time></trkpt>
    <trkpt lat="28.573146" lon="84.688352"><ele>3338.6</ele><time>2025-10-24T08:50:31Z</time></trkpt>
    <trkpt lat="28.573128" lon="84.688275"><ele>3337.4</ele><time>2025-10-24T08:50:37Z</time></trkpt>
    <trkpt lat="28.573175" lon="84.687979"><ele>3333.8</ele><time>2025-10-24T08:50:59Z</time></trkpt>
    <trkpt lat="28.573362" lon="84.687515"><ele>3325.8</ele><time>2025-10-24T08:51:52Z</time></trkpt>
    <trkpt lat="28.573519" lon="84.687249"><ele>3321.2</ele><time>2025-10-24T08:52:25Z</time></trkpt>
    <trkpt lat="28.573555" lon="84.687105"><ele>3320.8</ele><time>2025-10-24T08:52:37Z</time></trkpt>
    <trkpt lat="28.573549" lon="84.686897"><ele>3319.0</ele><time>2025-10-24T08:52:56Z</time></trkpt>
    <trkpt lat="28.573647" lon="84.686579"><ele>3315.0</ele><time>2025-10-24T08:53:31Z</time></trkpt>
    <trkpt lat="28.573740" lon="84.686473"><ele>3312.8</ele><time>2025-10-24T08:53:44Z</time></trkpt>
    <trkpt lat="28.573832" lon="84.686114"><ele>3309.4</ele><time>2025-10-24T08:54:17Z</time></trkpt>
    <trkpt lat="28.573876" lon="84.685938"><ele>3305.4</ele><time>2025-10-24T08:54:35Z</time></trkpt>
    <trkpt lat="28.573877" lon="84.685799"><ele>3302.8</ele><time>2025-10-24T08:54:52Z</time></trkpt>
    <trkpt lat="28.573786" lon="84.685684"><ele>3299.8</ele><time>2025-10-24T08:55:10Z</time></trkpt>
    <trkpt lat="28.573761" lon="84.685568"><ele>3298.0</ele><time>2025-10-24T08:55:19Z</time></trkpt>
    <trkpt lat="28.573786" lon="84.685427"><ele>3294.6</ele><time>2025-10-24T08:55:38Z</time></trkpt>
    <trkpt lat="28.573913" lon="84.685170"><ele>3290.4</ele><time>2025-10-24T08:56:06Z</time></trkpt>
    <trkpt lat="28.574089" lon="84.684949"><ele>3284.8</ele><time>2025-10-24T08:56:39Z</time></trkpt>
    <trkpt lat="28.574179" lon="84.684707"><ele>3278.6</ele><time>2025-10-24T08:57:06Z</time></trkpt>
    <trkpt lat="28.574286" lon="84.684327"><ele>3279.8</ele><time>2025-10-24T08:57:49Z</time></trkpt>
    <trkpt lat="28.574176" lon="84.683920"><ele>3282.8</ele><time>2025-10-24T08:58:39Z</time></trkpt>
    <trkpt lat="28.574200" lon="84.683816"><ele>3283.4</ele><time>2025-10-24T08:58:51Z</time></trkpt>
    <trkpt lat="28.574172" lon="84.683676"><ele>3284.6</ele><time>2025-10-24T08:59:10Z</time></trkpt>
    <trkpt lat="28.574211" lon="84.683630"><ele>3284.8</ele><time>2025-10-24T08:59:18Z</time></trkpt>
    <trkpt lat="28.574424" lon="84.683692"><ele>3284.8</ele><time>2025-10-24T08:59:52Z</time></trkpt>
    <trkpt lat="28.574597" lon="84.683694"><ele>3284.6</ele><time>2025-10-24T09:00:14Z</time></trkpt>
    <trkpt lat="28.574647" lon="84.683641"><ele>3284.6</ele><time>2025-10-24T09:00:29Z</time></trkpt>
    <trkpt lat="28.574814" lon="84.683279"><ele>3289.8</ele><time>2025-10-24T09:01:50Z</time></trkpt>
    <trkpt lat="28.574903" lon="84.683183"><ele>3291.4</ele><time>2025-10-24T09:02:09Z</time></trkpt>
    <trkpt lat="28.575008" lon="84.683188"><ele>3292.4</ele><time>2025-10-24T09:02:23Z</time></trkpt>
    <trkpt lat="28.575033" lon="84.683104"><ele>3294.4</ele><time>2025-10-24T09:02:46Z</time></trkpt>
    <trkpt lat="28.575053" lon="84.683129"><ele>3294.6</ele><time>2025-10-24T09:02:55Z</time></trkpt>
    <trkpt lat="28.575047" lon="84.683122"><ele>3295.2</ele><time>2025-10-24T09:03:10Z</time></trkpt>
    <trkpt lat="28.575066" lon="84.683083"><ele>3295.8</ele><time>2025-10-24T09:03:17Z</time></trkpt>
    <trkpt lat="28.575115" lon="84.683071"><ele>3297.6</ele><time>2025-10-24T09:03:26Z</time></trkpt>
    <trkpt lat="28.575150" lon="84.682895"><ele>3300.4</ele><time>2025-10-24T09:03:44Z</time></trkpt>
    <trkpt lat="28.575198" lon="84.682860"><ele>3301.2</ele><time>2025-10-24T09:03:51Z</time></trkpt>
    <trkpt lat="28.575191" lon="84.682785"><ele>3303.4</ele><time>2025-10-24T09:04:07Z</time></trkpt>
    <trkpt lat="28.575264" lon="84.682781"><ele>3304.0</ele><time>2025-10-24T09:04:27Z</time></trkpt>
    <trkpt lat="28.575228" lon="84.682725"><ele>3304.6</ele><time>2025-10-24T09:04:41Z</time></trkpt>
    <trkpt lat="28.575247" lon="84.682653"><ele>3306.6</ele><time>2025-10-24T09:04:56Z</time></trkpt>
    <trkpt lat="28.575406" lon="84.682510"><ele>3310.0</ele><time>2025-10-24T09:05:23Z</time></trkpt>
    <trkpt lat="28.575417" lon="84.682331"><ele>3313.2</ele><time>2025-10-24T09:05:52Z</time></trkpt>
    <trkpt lat="28.575437" lon="84.682260"><ele>3314.2</ele><time>2025-10-24T09:06:32Z</time></trkpt>
    <trkpt lat="28.575444" lon="84.682151"><ele>3316.4</ele><time>2025-10-24T09:06:48Z</time></trkpt>
    <trkpt lat="28.575661" lon="84.681885"><ele>3321.0</ele><time>2025-10-24T09:07:33Z</time></trkpt>
    <trkpt lat="28.575801" lon="84.681587"><ele>3326.6</ele><time>2025-10-24T09:08:22Z</time></trkpt>
    <trkpt lat="28.575930" lon="84.681549"><ele>3327.6</ele><time>2025-10-24T09:08:59Z</time></trkpt>
    <trkpt lat="28.575906" lon="84.681520"><ele>3328.8</ele><time>2025-10-24T09:09:07Z</time></trkpt>
    <trkpt lat="28.575857" lon="84.681551"><ele>3330.6</ele><time>2025-10-24T09:09:20Z</time></trkpt>
    <trkpt lat="28.575849" lon="84.681453"><ele>3331.8</ele><time>2025-10-24T09:09:33Z</time></trkpt>
    <trkpt lat="28.575842" lon="84.681407"><ele>3331.8</ele><time>2025-10-24T09:09:43Z</time></trkpt>
    <trkpt lat="28.575912" lon="84.681509"><ele>3331.8</ele><time>2025-10-24T09:10:19Z</time></trkpt>
    <trkpt lat="28.575794" lon="84.681383"><ele>3334.4</ele><time>2025-10-24T09:11:36Z</time></trkpt>
    <trkpt lat="28.575816" lon="84.681383"><ele>3334.4</ele><time>2025-10-24T09:11:58Z</time></trkpt>
    <trkpt lat="28.575940" lon="84.681566"><ele>3327.8</ele><time>2025-10-24T09:12:25Z</time></trkpt>
    <trkpt lat="28.576102" lon="84.681462"><ele>3327.8</ele><time>2025-10-24T09:12:46Z</time></trkpt>
    <trkpt lat="28.576158" lon="84.681565"><ele>3327.8</ele><time>2025-10-24T09:12:58Z</time></trkpt>
    <trkpt lat="28.576204" lon="84.681634"><ele>3329.6</ele><time>2025-10-24T09:13:09Z</time></trkpt>
    <trkpt lat="28.576260" lon="84.681525"><ele>3333.2</ele><time>2025-10-24T09:13:31Z</time></trkpt>
    <trkpt lat="28.576271" lon="84.681357"><ele>3335.8</ele><time>2025-10-24T09:13:51Z</time></trkpt>
    <trkpt lat="28.576294" lon="84.681338"><ele>3336.6</ele><time>2025-10-24T09:13:58Z</time></trkpt>
    <trkpt lat="28.576399" lon="84.681445"><ele>3336.6</ele><time>2025-10-24T09:14:17Z</time></trkpt>
    <trkpt lat="28.576347" lon="84.681402"><ele>3336.8</ele><time>2025-10-24T09:14:59Z</time></trkpt>
    <trkpt lat="28.576388" lon="84.681070"><ele>3340.2</ele><time>2025-10-24T09:15:29Z</time></trkpt>
    <trkpt lat="28.576617" lon="84.680626"><ele>3345.8</ele><time>2025-10-24T09:16:22Z</time></trkpt>
    <trkpt lat="28.576765" lon="84.680451"><ele>3350.6</ele><time>2025-10-24T09:17:02Z</time></trkpt>
    <trkpt lat="28.576785" lon="84.680310"><ele>3352.6</ele><time>2025-10-24T09:17:19Z</time></trkpt>
    <trkpt lat="28.576841" lon="84.680252"><ele>3355.0</ele><time>2025-10-24T09:17:36Z</time></trkpt>
    <trkpt lat="28.576863" lon="84.680203"><ele>3355.0</ele><time>2025-10-24T09:17:45Z</time></trkpt>
    <trkpt lat="28.576914" lon="84.679799"><ele>3355.0</ele><time>2025-10-24T09:18:43Z</time></trkpt>
    <trkpt lat="28.576918" lon="84.679783"><ele>3355.4</ele><time>2025-10-24T09:18:46Z</time></trkpt>
    <trkpt lat="28.577007" lon="84.679627"><ele>3358.2</ele><time>2025-10-24T09:19:08Z</time></trkpt>
    <trkpt lat="28.577047" lon="84.679401"><ele>3362.8</ele><time>2025-10-24T09:19:41Z</time></trkpt>
    <trkpt lat="28.577091" lon="84.679334"><ele>3363.2</ele><time>2025-10-24T09:19:53Z</time></trkpt>
    <trkpt lat="28.577032" lon="84.678567"><ele>3369.4</ele><time>2025-10-24T09:21:44Z</time></trkpt>
    <trkpt lat="28.576983" lon="84.678531"><ele>3371.4</ele><time>2025-10-24T09:22:02Z</time></trkpt>
    <trkpt lat="28.577027" lon="84.678380"><ele>3374.2</ele><time>2025-10-24T09:22:22Z</time></trkpt>
    <trkpt lat="28.576938" lon="84.678326"><ele>3377.4</ele><time>2025-10-24T09:22:46Z</time></trkpt>
    <trkpt lat="28.576911" lon="84.678158"><ele>3379.6</ele><time>2025-10-24T09:23:08Z</time></trkpt>
    <trkpt lat="28.576852" lon="84.678088"><ele>3381.0</ele><time>2025-10-24T09:23:28Z</time></trkpt>
    <trkpt lat="28.576841" lon="84.678054"><ele>3381.2</ele><time>2025-10-24T09:23:34Z</time></trkpt>
    <trkpt lat="28.576899" lon="84.678057"><ele>3381.4</ele><time>2025-10-24T09:24:04Z</time></trkpt>
    <trkpt lat="28.576903" lon="84.678101"><ele>3381.4</ele><time>2025-10-24T09:24:26Z</time></trkpt>
    <trkpt lat="28.576885" lon="84.678076"><ele>3381.4</ele><time>2025-10-24T09:24:36Z</time></trkpt>
    <trkpt lat="28.576861" lon="84.678104"><ele>3381.4</ele><time>2025-10-24T09:24:45Z</time></trkpt>
    <trkpt lat="28.576894" lon="84.678085"><ele>3381.6</ele><time>2025-10-24T09:24:56Z</time></trkpt>
    <trkpt lat="28.576944" lon="84.678128"><ele>3381.8</ele><time>2025-10-24T09:25:20Z</time></trkpt>
    <trkpt lat="28.576839" lon="84.678089"><ele>3382.4</ele><time>2025-10-24T09:25:46Z</time></trkpt>
    <trkpt lat="28.576812" lon="84.678020"><ele>3382.8</ele><time>2025-10-24T09:26:18Z</time></trkpt>
    <trkpt lat="28.576788" lon="84.677950"><ele>3384.4</ele><time>2025-10-24T09:26:30Z</time></trkpt>
    <trkpt lat="28.576615" lon="84.677719"><ele>3391.6</ele><time>2025-10-24T09:27:15Z</time></trkpt>
    <trkpt lat="28.576598" lon="84.677573"><ele>3394.8</ele><time>2025-10-24T09:27:38Z</time></trkpt>
    <trkpt lat="28.576284" lon="84.677253"><ele>3403.2</ele><time>2025-10-24T09:28:48Z</time></trkpt>
    <trkpt lat="28.576250" lon="84.677169"><ele>3404.4</ele><time>2025-10-24T09:28:57Z</time></trkpt>
    <trkpt lat="28.576154" lon="84.677107"><ele>3406.2</ele><time>2025-10-24T09:29:15Z</time></trkpt>
    <trkpt lat="28.576058" lon="84.676889"><ele>3410.0</ele><time>2025-10-24T09:29:45Z</time></trkpt>
    <trkpt lat="28.576046" lon="84.676888"><ele>3410.6</ele><time>2025-10-24T09:29:50Z</time></trkpt>
    <trkpt lat="28.575816" lon="84.676733"><ele>3412.6</ele><time>2025-10-24T09:30:27Z</time></trkpt>
    <trkpt lat="28.575722" lon="84.676623"><ele>3413.8</ele><time>2025-10-24T09:30:44Z</time></trkpt>
    <trkpt lat="28.575591" lon="84.676388"><ele>3419.0</ele><time>2025-10-24T09:31:25Z</time></trkpt>
    <trkpt lat="28.575475" lon="84.676278"><ele>3423.6</ele><time>2025-10-24T09:31:59Z</time></trkpt>
    <trkpt lat="28.575352" lon="84.676056"><ele>3426.8</ele><time>2025-10-24T09:32:28Z</time></trkpt>
    <trkpt lat="28.575302" lon="84.676053"><ele>3428.0</ele><time>2025-10-24T09:32:37Z</time></trkpt>
    <trkpt lat="28.575159" lon="84.675846"><ele>3429.6</ele><time>2025-10-24T09:33:08Z</time></trkpt>
    <trkpt lat="28.574883" lon="84.675618"><ele>3435.4</ele><time>2025-10-24T09:34:03Z</time></trkpt>
    <trkpt lat="28.574730" lon="84.675386"><ele>3440.6</ele><time>2025-10-24T09:34:44Z</time></trkpt>
    <trkpt lat="28.574734" lon="84.675232"><ele>3444.0</ele><time>2025-10-24T09:35:09Z</time></trkpt>
    <trkpt lat="28.574708" lon="84.675198"><ele>3444.8</ele><time>2025-10-24T09:35:13Z</time></trkpt>
    <trkpt lat="28.574696" lon="84.675181"><ele>3445.0</ele><time>2025-10-24T09:35:15Z</time></trkpt>
    <trkpt lat="28.574633" lon="84.675188"><ele>3445.6</ele><time>2025-10-24T09:35:41Z</time></trkpt>
    <trkpt lat="28.574543" lon="84.674979"><ele>3448.6</ele><time>2025-10-24T09:36:16Z</time></trkpt>
    <trkpt lat="28.574493" lon="84.674841"><ele>3451.2</ele><time>2025-10-24T09:36:34Z</time></trkpt>
    <trkpt lat="28.574462" lon="84.674789"><ele>3452.6</ele><time>2025-10-24T09:36:44Z</time></trkpt>
    <trkpt lat="28.574430" lon="84.674806"><ele>3454.2</ele><time>2025-10-24T09:36:54Z</time></trkpt>
    <trkpt lat="28.574459" lon="84.674731"><ele>3455.8</ele><time>2025-10-24T09:37:06Z</time></trkpt>
    <trkpt lat="28.574416" lon="84.674609"><ele>3457.8</ele><time>2025-10-24T09:37:20Z</time></trkpt>
    <trkpt lat="28.574328" lon="84.674555"><ele>3459.6</ele><time>2025-10-24T09:37:35Z</time></trkpt>
    <trkpt lat="28.574334" lon="84.674427"><ele>3463.6</ele><time>2025-10-24T09:38:03Z</time></trkpt>
    <trkpt lat="28.574185" lon="84.674260"><ele>3469.8</ele><time>2025-10-24T09:38:53Z</time></trkpt>
    <trkpt lat="28.574140" lon="84.674248"><ele>3470.2</ele><time>2025-10-24T09:39:10Z</time></trkpt>
    <trkpt lat="28.574166" lon="84.674252"><ele>3470.4</ele><time>2025-10-24T09:39:16Z</time></trkpt>
    <trkpt lat="28.574156" lon="84.674246"><ele>3470.6</ele><time>2025-10-24T09:39:29Z</time></trkpt>
    <trkpt lat="28.574051" lon="84.673981"><ele>3478.4</ele><time>2025-10-24T09:40:24Z</time></trkpt>
    <trkpt lat="28.573995" lon="84.673960"><ele>3480.2</ele><time>2025-10-24T09:40:37Z</time></trkpt>
    <trkpt lat="28.573958" lon="84.673862"><ele>3482.4</ele><time>2025-10-24T09:40:56Z</time></trkpt>
    <trkpt lat="28.573975" lon="84.673671"><ele>3488.0</ele><time>2025-10-24T09:41:47Z</time></trkpt>
    <trkpt lat="28.573920" lon="84.673545"><ele>3493.2</ele><time>2025-10-24T09:42:34Z</time></trkpt>
    <trkpt lat="28.573920" lon="84.673545"><ele>3493.2</ele><time>2025-10-24T09:42:35Z</time></trkpt>
    <trkpt lat="28.573940" lon="84.673478"><ele>3495.4</ele><time>2025-10-24T09:42:51Z</time></trkpt>
    <trkpt lat="28.574025" lon="84.673461"><ele>3497.6</ele><time>2025-10-24T09:43:07Z</time></trkpt>
    <trkpt lat="28.574043" lon="84.673338"><ele>3501.0</ele><time>2025-10-24T09:43:34Z</time></trkpt>
    <trkpt lat="28.574134" lon="84.673345"><ele>3503.6</ele><time>2025-10-24T09:43:53Z</time></trkpt>
    <trkpt lat="28.574130" lon="84.673310"><ele>3504.6</ele><time>2025-10-24T09:43:59Z</time></trkpt>
    <trkpt lat="28.574182" lon="84.673294"><ele>3506.2</ele><time>2025-10-24T09:44:12Z</time></trkpt>
    <trkpt lat="28.574242" lon="84.673113"><ele>3510.6</ele><time>2025-10-24T09:44:53Z</time></trkpt>
    <trkpt lat="28.574269" lon="84.673008"><ele>3510.6</ele><time>2025-10-24T09:45:09Z</time></trkpt>
    <trkpt lat="28.574329" lon="84.672943"><ele>3510.8</ele><time>2025-10-24T09:45:23Z</time></trkpt>
    <trkpt lat="28.574324" lon="84.672991"><ele>3510.8</ele><time>2025-10-24T09:45:48Z</time></trkpt>
    <trkpt lat="28.574374" lon="84.672852"><ele>3511.2</ele><time>2025-10-24T09:46:45Z</time></trkpt>
    <trkpt lat="28.574340" lon="84.672692"><ele>3511.4</ele><time>2025-10-24T09:47:19Z</time></trkpt>
    <trkpt lat="28.574255" lon="84.672713"><ele>3511.6</ele><time>2025-10-24T09:47:35Z</time></trkpt>
    <trkpt lat="28.574222" lon="84.672673"><ele>3511.6</ele><time>2025-10-24T09:47:40Z</time></trkpt>
    <trkpt lat="28.574237" lon="84.672588"><ele>3511.8</ele><time>2025-10-24T09:47:48Z</time></trkpt>
    <trkpt lat="28.574278" lon="84.672421"><ele>3513.4</ele><time>2025-10-24T09:48:10Z</time></trkpt>
    <trkpt lat="28.574162" lon="84.671799"><ele>3516.4</ele><time>2025-10-24T09:49:22Z</time></trkpt>
    <trkpt lat="28.574194" lon="84.671225"><ele>3518.6</ele><time>2025-10-24T09:50:24Z</time></trkpt>
    <trkpt lat="28.574151" lon="84.670881"><ele>3522.0</ele><time>2025-10-24T09:51:02Z</time></trkpt>
    <trkpt lat="28.574150" lon="84.670876"><ele>3522.0</ele><time>2025-10-24T09:51:03Z</time></trkpt>
    <trkpt lat="28.574162" lon="84.670817"><ele>3522.0</ele><time>2025-10-24T09:51:09Z</time></trkpt>
    <trkpt lat="28.574234" lon="84.670820"><ele>3522.0</ele><time>2025-10-24T09:51:20Z</time></trkpt>
    <trkpt lat="28.574315" lon="84.670622"><ele>3522.0</ele><time>2025-10-24T09:52:10Z</time></trkpt>
    <trkpt lat="28.574391" lon="84.670610"><ele>3522.0</ele><time>2025-10-24T09:52:35Z</time></trkpt>
    <trkpt lat="28.574393" lon="84.670579"><ele>3522.0</ele><time>2025-10-24T09:52:45Z</time></trkpt>
    <trkpt lat="28.574381" lon="84.670615"><ele>3522.0</ele><time>2025-10-24T09:53:05Z</time></trkpt>
    <trkpt lat="28.574425" lon="84.670637"><ele>3522.0</ele><time>2025-10-24T09:53:12Z</time></trkpt>
    <trkpt lat="28.574370" lon="84.670644"><ele>3522.0</ele><time>2025-10-24T09:53:23Z</time></trkpt>
    </trkseg>
  </trk>
</gpx>
