<?xml version="1.0" encoding="UTF-8"?>
<gpx version="1.1" creator="tripplanner (sketch line from researched control points)" xmlns="http://www.topografix.com/GPX/1/1">
  <metadata>
    <name>taurus-taseli — Ermenek → Mut</name>
    <desc>86.0 km, 1450 m. Sketch line through researched control points, calibrated to 86 km / 1450 m of road — drawn, not routed.</desc>
  </metadata>
  <trk>
    <name>taurus-taseli — Ermenek → Mut</name>
    <trkseg>
    <trkpt lat="36.639000" lon="32.890000"><ele>1250.0</ele></trkpt>
    <trkpt lat="36.638860" lon="32.890413"><ele>1247.6</ele></trkpt>
    <trkpt lat="36.638737" lon="32.890836"><ele>1245.4</ele></trkpt>
    <trkpt lat="36.638605" lon="32.891254"><ele>1243.3</ele></trkpt>
    <trkpt lat="36.638441" lon="32.891653"><ele>1241.2</ele></trkpt>
    <trkpt lat="36.638234" lon="32.892027"><ele>1238.9</ele></trkpt>
    <trkpt lat="36.638001" lon="32.892386"><ele>1236.3</ele></trkpt>
    <trkpt lat="36.637777" lon="32.892749"><ele>1233.4</ele></trkpt>
    <trkpt lat="36.637602" lon="32.893142"><ele>1230.2</ele></trkpt>
    <trkpt lat="36.637501" lon="32.893578"><ele>1226.8</ele></trkpt>
    <trkpt lat="36.637468" lon="32.894054"><ele>1223.3</ele></trkpt>
    <trkpt lat="36.637461" lon="32.894545"><ele>1220.0</ele></trkpt>
    <trkpt lat="36.637420" lon="32.895016"><ele>1217.0</ele></trkpt>
    <trkpt lat="36.637289" lon="32.895435"><ele>1214.5</ele></trkpt>
    <trkpt lat="36.637043" lon="32.895786"><ele>1212.6</ele></trkpt>
    <trkpt lat="36.636704" lon="32.896082"><ele>1211.3</ele></trkpt>
    <trkpt lat="36.636339" lon="32.896363"><ele>1210.3</ele></trkpt>
    <trkpt lat="36.636032" lon="32.896678"><ele>1209.6</ele></trkpt>
    <trkpt lat="36.635857" lon="32.897071"><ele>1208.8</ele></trkpt>
    <trkpt lat="36.635837" lon="32.897554"><ele>1207.7</ele></trkpt>
    <trkpt lat="36.635934" lon="32.898107"><ele>1205.8</ele></trkpt>
    <trkpt lat="36.636058" lon="32.898675"><ele>1203.2</ele></trkpt>
    <trkpt lat="36.636098" lon="32.899193"><ele>1199.7</ele></trkpt>
    <trkpt lat="36.635968" lon="32.899612"><ele>1195.4</ele></trkpt>
    <trkpt lat="36.635642" lon="32.899916"><ele>1190.6</ele></trkpt>
    <trkpt lat="36.635175" lon="32.900138"><ele>1185.5</ele></trkpt>
    <trkpt lat="36.634682" lon="32.900343"><ele>1180.7</ele></trkpt>
    <trkpt lat="36.634296" lon="32.900612"><ele>1176.5</ele></trkpt>
    <trkpt lat="36.634120" lon="32.901004"><ele>1173.2</ele></trkpt>
    <trkpt lat="36.634177" lon="32.901533"><ele>1171.0</ele></trkpt>
    <trkpt lat="36.634400" lon="32.902159"><ele>1170.0</ele></trkpt>
    <trkpt lat="36.634649" lon="32.902800"><ele>1170.0</ele></trkpt>
    <trkpt lat="36.634766" lon="32.903364"><ele>1170.7</ele></trkpt>
    <trkpt lat="36.634637" lon="32.903784"><ele>1171.5</ele></trkpt>
    <trkpt lat="36.634236" lon="32.904044"><ele>1172.0</ele></trkpt>
    <trkpt lat="36.633647" lon="32.904194"><ele>1171.8</ele></trkpt>
    <trkpt lat="36.633032" lon="32.904328"><ele>1170.2</ele></trkpt>
    <trkpt lat="36.632571" lon="32.904553"><ele>1167.3</ele></trkpt>
    <trkpt lat="36.632394" lon="32.904944"><ele>1162.9</ele></trkpt>
    <trkpt lat="36.632524" lon="32.905515"><ele>1157.3</ele></trkpt>
    <trkpt lat="36.632864" lon="32.906210"><ele>1151.0</ele></trkpt>
    <trkpt lat="36.633231" lon="32.906921"><ele>1144.4</ele></trkpt>
    <trkpt lat="36.633421" lon="32.907528"><ele>1138.4</ele></trkpt>
    <trkpt lat="36.633292" lon="32.907948"><ele>1133.3</ele></trkpt>
    <trkpt lat="36.632822" lon="32.908167"><ele>1129.7</ele></trkpt>
    <trkpt lat="36.632120" lon="32.908250"><ele>1127.9</ele></trkpt>
    <trkpt lat="36.631392" lon="32.908319"><ele>1127.7</ele></trkpt>
    <trkpt lat="36.630862" lon="32.908503"><ele>1128.9</ele></trkpt>
    <trkpt lat="36.630683" lon="32.908893"><ele>1131.0</ele></trkpt>
    <trkpt lat="36.630880" lon="32.909504"><ele>1133.2</ele></trkpt>
    <trkpt lat="36.631327" lon="32.910262"><ele>1134.9</ele></trkpt>
    <trkpt lat="36.631801" lon="32.911035"><ele>1135.4</ele></trkpt>
    <trkpt lat="36.632058" lon="32.911681"><ele>1134.1</ele></trkpt>
    <trkpt lat="36.631931" lon="32.912101"><ele>1130.9</ele></trkpt>
    <trkpt lat="36.631398" lon="32.912284"><ele>1125.8</ele></trkpt>
    <trkpt lat="36.630594" lon="32.912308"><ele>1119.1</ele></trkpt>
    <trkpt lat="36.629765" lon="32.912316"><ele>1111.4</ele></trkpt>
    <trkpt lat="36.629172" lon="32.912464"><ele>1103.6</ele></trkpt>
    <trkpt lat="36.628992" lon="32.912853"><ele>1096.4</ele></trkpt>
    <trkpt lat="36.629247" lon="32.913498"><ele>1090.7</ele></trkpt>
    <trkpt lat="36.629791" lon="32.914312"><ele>1086.8</ele></trkpt>
    <trkpt lat="36.630359" lon="32.915141"><ele>1085.2</ele></trkpt>
    <trkpt lat="36.630674" lon="32.915821"><ele>1085.8</ele></trkpt>
    <trkpt lat="36.630548" lon="32.916243"><ele>1088.0</ele></trkpt>
    <trkpt lat="36.629960" lon="32.916393"><ele>1091.3</ele></trkpt>
    <trkpt lat="36.629068" lon="32.916365"><ele>1094.7</ele></trkpt>
    <trkpt lat="36.628151" lon="32.916322"><ele>1097.3</ele></trkpt>
    <trkpt lat="36.627504" lon="32.916438"><ele>1098.4</ele></trkpt>
    <trkpt lat="36.627323" lon="32.916827"><ele>1097.4</ele></trkpt>
    <trkpt lat="36.627629" lon="32.917502"><ele>1093.9</ele></trkpt>
    <trkpt lat="36.628253" lon="32.918363"><ele>1088.1</ele></trkpt>
    <trkpt lat="36.628903" lon="32.919239"><ele>1080.5</ele></trkpt>
    <trkpt lat="36.629267" lon="32.919948"><ele>1071.8</ele></trkpt>
    <trkpt lat="36.629142" lon="32.920370"><ele>1063.0</ele></trkpt>
    <trkpt lat="36.628508" lon="32.920494"><ele>1055.0</ele></trkpt>
    <trkpt lat="36.627542" lon="32.920422"><ele>1048.7</ele></trkpt>
    <trkpt lat="36.626552" lon="32.920337"><ele>1044.7</ele></trkpt>
    <trkpt lat="36.625860" lon="32.920426"><ele>1043.3</ele></trkpt>
    <trkpt lat="36.625679" lon="32.920815"><ele>1044.4</ele></trkpt>
    <trkpt lat="36.626026" lon="32.921514"><ele>1047.4</ele></trkpt>
    <trkpt lat="36.626716" lon="32.922414"><ele>1051.6</ele></trkpt>
    <trkpt lat="36.627430" lon="32.923328"><ele>1055.8</ele></trkpt>
    <trkpt lat="36.627834" lon="32.924060"><ele>1059.2</ele></trkpt>
    <trkpt lat="36.627710" lon="32.924482"><ele>1060.7</ele></trkpt>
    <trkpt lat="36.627039" lon="32.924584"><ele>1059.8</ele></trkpt>
    <trkpt lat="36.626016" lon="32.924479"><ele>1056.2</ele></trkpt>
    <trkpt lat="36.624970" lon="32.924361"><ele>1049.9</ele></trkpt>
    <trkpt lat="36.624244" lon="32.924431"><ele>1041.7</ele></trkpt>
    <trkpt lat="36.624062" lon="32.924819"><ele>1032.2</ele></trkpt>
    <trkpt lat="36.624440" lon="32.925536"><ele>1022.7</ele></trkpt>
    <trkpt lat="36.625180" lon="32.926465"><ele>1014.2</ele></trkpt>
    <trkpt lat="36.625941" lon="32.927407"><ele>1007.5</ele></trkpt>
    <trkpt lat="36.626373" lon="32.928155"><ele>1003.4</ele></trkpt>
    <trkpt lat="36.626249" lon="32.928578"><ele>1002.2</ele></trkpt>
    <trkpt lat="36.625553" lon="32.928665"><ele>1003.6</ele></trkpt>
    <trkpt lat="36.624489" lon="32.928536"><ele>1007.2</ele></trkpt>
    <trkpt lat="36.623405" lon="32.928396"><ele>1011.9</ele></trkpt>
    <trkpt lat="36.622657" lon="32.928452"><ele>1016.7</ele></trkpt>
    <trkpt lat="36.622475" lon="32.928840"><ele>1020.4</ele></trkpt>
    <trkpt lat="36.622873" lon="32.929569"><ele>1022.2</ele></trkpt>
    <trkpt lat="36.623644" lon="32.930516"><ele>1021.3</ele></trkpt>
    <trkpt lat="36.624434" lon="32.931475"><ele>1017.6</ele></trkpt>
    <trkpt lat="36.624883" lon="32.932234"><ele>1011.1</ele></trkpt>
    <trkpt lat="36.624758" lon="32.932656"><ele>1002.5</ele></trkpt>
    <trkpt lat="36.624047" lon="32.932734"><ele>992.7</ele></trkpt>
    <trkpt lat="36.622962" lon="32.932593"><ele>982.8</ele></trkpt>
    <trkpt lat="36.621858" lon="32.932441"><ele>974.0</ele></trkpt>
    <trkpt lat="36.621099" lon="32.932491"><ele>967.2</ele></trkpt>
    <trkpt lat="36.620918" lon="32.932880"><ele>963.1</ele></trkpt>
    <trkpt lat="36.621325" lon="32.933614"><ele>962.0</ele></trkpt>
    <trkpt lat="36.622108" lon="32.934568"><ele>963.6</ele></trkpt>
    <trkpt lat="36.622909" lon="32.935533"><ele>967.3</ele></trkpt>
    <trkpt lat="36.623362" lon="32.936294"><ele>972.2</ele></trkpt>
    <trkpt lat="36.623237" lon="32.936716"><ele>977.1</ele></trkpt>
    <trkpt lat="36.622522" lon="32.936792"><ele>981.0</ele></trkpt>
    <trkpt lat="36.621434" lon="32.936649"><ele>982.8</ele></trkpt>
    <trkpt lat="36.620329" lon="32.936496"><ele>981.9</ele></trkpt>
    <trkpt lat="36.619572" lon="32.936547"><ele>978.1</ele></trkpt>
    <trkpt lat="36.619392" lon="32.936937"><ele>971.5</ele></trkpt>
    <trkpt lat="36.619797" lon="32.937670"><ele>962.9</ele></trkpt>
    <trkpt lat="36.620574" lon="32.938621"><ele>953.1</ele></trkpt>
    <trkpt lat="36.621366" lon="32.939580"><ele>943.2</ele></trkpt>
    <trkpt lat="36.621811" lon="32.940337"><ele>934.5</ele></trkpt>
    <trkpt lat="36.621684" lon="32.940758"><ele>927.8</ele></trkpt>
    <trkpt lat="36.620977" lon="32.940838"><ele>923.8</ele></trkpt>
    <trkpt lat="36.619904" lon="32.940704"><ele>922.7</ele></trkpt>
    <trkpt lat="36.618818" lon="32.940562"><ele>924.2</ele></trkpt>
    <trkpt lat="36.618074" lon="32.940621"><ele>927.8</ele></trkpt>
    <trkpt lat="36.617896" lon="32.941012"><ele>932.5</ele></trkpt>
    <trkpt lat="36.618289" lon="32.941738"><ele>937.2</ele></trkpt>
    <trkpt lat="36.619041" lon="32.942674"><ele>940.8</ele></trkpt>
    <trkpt lat="36.619805" lon="32.943617"><ele>942.4</ele></trkpt>
    <trkpt lat="36.620231" lon="32.944362"><ele>941.4</ele></trkpt>
    <trkpt lat="36.620102" lon="32.944782"><ele>937.6</ele></trkpt>
    <trkpt lat="36.619413" lon="32.944873"><ele>931.2</ele></trkpt>
    <trkpt lat="36.618374" lon="32.944759"><ele>922.9</ele></trkpt>
    <trkpt lat="36.617324" lon="32.944639"><ele>913.4</ele></trkpt>
    <trkpt lat="36.616606" lon="32.944713"><ele>904.0</ele></trkpt>
    <trkpt lat="36.616431" lon="32.945105"><ele>895.7</ele></trkpt>
    <trkpt lat="36.616800" lon="32.945817"><ele>889.3</ele></trkpt>
    <trkpt lat="36.617509" lon="32.946728"><ele>885.4</ele></trkpt>
    <trkpt lat="36.618227" lon="32.947644"><ele>884.3</ele></trkpt>
    <trkpt lat="36.618621" lon="32.948370"><ele>885.6</ele></trkpt>
    <trkpt lat="36.618489" lon="32.948788"><ele>888.7</ele></trkpt>
    <trkpt lat="36.617829" lon="32.948896"><ele>892.9</ele></trkpt>
    <trkpt lat="36.616841" lon="32.948812"><ele>897.0</ele></trkpt>
    <trkpt lat="36.615847" lon="32.948725"><ele>900.0</ele></trkpt>
    <trkpt lat="36.615166" lon="32.948821"><ele>901.3</ele></trkpt>
    <trkpt lat="36.614994" lon="32.949215"><ele>900.1</ele></trkpt>
    <trkpt lat="36.615330" lon="32.949907"><ele>896.3</ele></trkpt>
    <trkpt lat="36.615979" lon="32.950783"><ele>890.3</ele></trkpt>
    <trkpt lat="36.616633" lon="32.951661"><ele>882.5</ele></trkpt>
    <trkpt lat="36.616985" lon="32.952363"><ele>873.8</ele></trkpt>
    <trkpt lat="36.616849" lon="32.952778"><ele>865.1</ele></trkpt>
    <trkpt lat="36.616228" lon="32.952909"><ele>857.5</ele></trkpt>
    <trkpt lat="36.615308" lon="32.952865"><ele>851.6</ele></trkpt>
    <trkpt lat="36.614386" lon="32.952820"><ele>848.0</ele></trkpt>
    <trkpt lat="36.613753" lon="32.952944"><ele>846.7</ele></trkpt>
    <trkpt lat="36.613585" lon="32.953340"><ele>847.6</ele></trkpt>
    <trkpt lat="36.613877" lon="32.954007"><ele>850.0</ele></trkpt>
    <trkpt lat="36.614450" lon="32.954838"><ele>853.3</ele></trkpt>
    <trkpt lat="36.615024" lon="32.955670"><ele>856.4</ele></trkpt>
    <trkpt lat="36.615323" lon="32.956341"><ele>858.7</ele></trkpt>
    <trkpt lat="36.615183" lon="32.956754"><ele>859.3</ele></trkpt>
    <trkpt lat="36.614610" lon="32.956913"><ele>857.8</ele></trkpt>
    <trkpt lat="36.613773" lon="32.956917"><ele>854.2</ele></trkpt>
    <trkpt lat="36.612938" lon="32.956923"><ele>848.7</ele></trkpt>
    <trkpt lat="36.612363" lon="32.957081"><ele>841.7</ele></trkpt>
    <trkpt lat="36.612199" lon="32.957480"><ele>834.1</ele></trkpt>
    <trkpt lat="36.612440" lon="32.958116"><ele>826.6</ele></trkpt>
    <trkpt lat="36.612923" lon="32.958895"><ele>819.9</ele></trkpt>
    <trkpt lat="36.613402" lon="32.959671"><ele>814.7</ele></trkpt>
    <trkpt lat="36.613639" lon="32.960305"><ele>811.3</ele></trkpt>
    <trkpt lat="36.613494" lon="32.960715"><ele>809.9</ele></trkpt>
    <trkpt lat="36.612976" lon="32.960907"><ele>810.1</ele></trkpt>
    <trkpt lat="36.612236" lon="32.960968"><ele>811.6</ele></trkpt>
    <trkpt lat="36.611503" lon="32.961033"><ele>813.7</ele></trkpt>
    <trkpt lat="36.610994" lon="32.961230"><ele>815.6</ele></trkpt>
    <trkpt lat="36.610836" lon="32.961633"><ele>816.8</ele></trkpt>
    <trkpt lat="36.611016" lon="32.962234"><ele>816.6</ele></trkpt>
    <trkpt lat="36.611397" lon="32.962952"><ele>814.9</ele></trkpt>
    <trkpt lat="36.611769" lon="32.963666"><ele>811.5</ele></trkpt>
    <trkpt lat="36.611936" lon="32.964258"><ele>806.6</ele></trkpt>
    <trkpt lat="36.611785" lon="32.964665"><ele>800.7</ele></trkpt>
    <trkpt lat="36.611330" lon="32.964894"><ele>794.4</ele></trkpt>
    <trkpt lat="36.610699" lon="32.965019"><ele>788.2</ele></trkpt>
    <trkpt lat="36.610078" lon="32.965150"><ele>782.7</ele></trkpt>
    <trkpt lat="36.609643" lon="32.965390"><ele>778.3</ele></trkpt>
    <trkpt lat="36.609490" lon="32.965796"><ele>775.3</ele></trkpt>
    <trkpt lat="36.609605" lon="32.966358"><ele>773.6</ele></trkpt>
    <trkpt lat="36.609872" lon="32.967010"><ele>773.2</ele></trkpt>
    <trkpt lat="36.610127" lon="32.967655"><ele>773.5</ele></trkpt>
    <trkpt lat="36.610216" lon="32.968202"><ele>774.1</ele></trkpt>
    <trkpt lat="36.610059" lon="32.968606"><ele>774.6</ele></trkpt>
    <trkpt lat="36.609673" lon="32.968874"><ele>774.5</ele></trkpt>
    <trkpt lat="36.609160" lon="32.969068"><ele>773.5</ele></trkpt>
    <trkpt lat="36.608661" lon="32.969271"><ele>771.4</ele></trkpt>
    <trkpt lat="36.608306" lon="32.969558"><ele>768.2</ele></trkpt>
    <trkpt lat="36.608160" lon="32.969968"><ele>764.1</ele></trkpt>
    <trkpt lat="36.608203" lon="32.970488"><ele>759.5</ele></trkpt>
    <trkpt lat="36.608349" lon="32.971069"><ele>754.7</ele></trkpt>
    <trkpt lat="36.608477" lon="32.971639"><ele>750.0</ele></trkpt>
    <trkpt lat="36.608484" lon="32.972139"><ele>745.8</ele></trkpt>
    <trkpt lat="36.608322" lon="32.972539"><ele>742.4</ele></trkpt>
    <trkpt lat="36.608009" lon="32.972850"><ele>739.7</ele></trkpt>
    <trkpt lat="36.607620" lon="32.973118"><ele>737.8</ele></trkpt>
    <trkpt lat="36.607251" lon="32.973396"><ele>736.5</ele></trkpt>
    <trkpt lat="36.606980" lon="32.973733"><ele>735.5</ele></trkpt>
    <trkpt lat="36.606839" lon="32.974146"><ele>734.6</ele></trkpt>
    <trkpt lat="36.606808" lon="32.974622"><ele>733.5</ele></trkpt>
    <trkpt lat="36.606826" lon="32.975128"><ele>732.0</ele></trkpt>
    <trkpt lat="36.606823" lon="32.975621"><ele>730.0</ele></trkpt>
    <trkpt lat="36.606744" lon="32.976071"><ele>727.5</ele></trkpt>
    <trkpt lat="36.606575" lon="32.976467"><ele>724.6</ele></trkpt>
    <trkpt lat="36.606338" lon="32.976823"><ele>721.4</ele></trkpt>
    <trkpt lat="36.606079" lon="32.977166"><ele>718.1</ele></trkpt>
    <trkpt lat="36.605844" lon="32.977523"><ele>714.9</ele></trkpt>
    <trkpt lat="36.605659" lon="32.977911"><ele>711.9</ele></trkpt>
    <trkpt lat="36.605525" lon="32.978327"><ele>709.2</ele></trkpt>
    <trkpt lat="36.605417" lon="32.978759"><ele>706.7</ele></trkpt>
    <trkpt lat="36.605304" lon="32.979188"><ele>704.4</ele></trkpt>
    <trkpt lat="36.605166" lon="32.979602"><ele>702.2</ele></trkpt>
    <trkpt lat="36.605000" lon="32.980000"><ele>700.0</ele></trkpt>
    <trkpt lat="36.605002" lon="32.980450"><ele>698.5</ele></trkpt>
    <trkpt lat="36.604983" lon="32.980898"><ele>697.2</ele></trkpt>
    <trkpt lat="36.604920" lon="32.981341"><ele>696.2</ele></trkpt>
    <trkpt lat="36.604820" lon="32.981781"><ele>695.3</ele></trkpt>
    <trkpt lat="36.604715" lon="32.982221"><ele>694.6</ele></trkpt>
    <trkpt lat="36.604653" lon="32.982664"><ele>693.7</ele></trkpt>
    <trkpt lat="36.604670" lon="32.983115"><ele>692.4</ele></trkpt>
    <trkpt lat="36.604766" lon="32.983574"><ele>690.8</ele></trkpt>
    <trkpt lat="36.604903" lon="32.984037"><ele>688.7</ele></trkpt>
    <trkpt lat="36.605011" lon="32.984497"><ele>686.1</ele></trkpt>
    <trkpt lat="36.605020" lon="32.984948"><ele>683.3</ele></trkpt>
    <trkpt lat="36.604895" lon="32.985385"><ele>680.5</ele></trkpt>
    <trkpt lat="36.604653" lon="32.985812"><ele>677.8</ele></trkpt>
    <trkpt lat="36.604370" lon="32.986234"><ele>675.7</ele></trkpt>
    <trkpt lat="36.604148" lon="32.986662"><ele>674.4</ele></trkpt>
    <trkpt lat="36.604080" lon="32.987105"><ele>673.8</ele></trkpt>
    <trkpt lat="36.604202" lon="32.987566"><ele>674.0</ele></trkpt>
    <trkpt lat="36.604476" lon="32.988043"><ele>674.7</ele></trkpt>
    <trkpt lat="36.604792" lon="32.988523"><ele>675.7</ele></trkpt>
    <trkpt lat="36.605013" lon="32.988994"><ele>676.6</ele></trkpt>
    <trkpt lat="36.605028" lon="32.989445"><ele>677.0</ele></trkpt>
    <trkpt lat="36.604798" lon="32.989872"><ele>676.5</ele></trkpt>
    <trkpt lat="36.604384" lon="32.990282"><ele>675.0</ele></trkpt>
    <trkpt lat="36.603926" lon="32.990687"><ele>672.2</ele></trkpt>
    <trkpt lat="36.603595" lon="32.991105"><ele>668.4</ele></trkpt>
    <trkpt lat="36.603522" lon="32.991547"><ele>663.9</ele></trkpt>
    <trkpt lat="36.603746" lon="32.992019"><ele>659.1</ele></trkpt>
    <trkpt lat="36.604187" lon="32.992511"><ele>654.6</ele></trkpt>
    <trkpt lat="36.604672" lon="32.993008"><ele>650.9</ele></trkpt>
    <trkpt lat="36.604999" lon="32.993489"><ele>648.4</ele></trkpt>
    <trkpt lat="36.605016" lon="32.993940"><ele>647.4</ele></trkpt>
    <trkpt lat="36.604688" lon="32.994358"><ele>647.9</ele></trkpt>
    <trkpt lat="36.604113" lon="32.994752"><ele>649.6</ele></trkpt>
    <trkpt lat="36.603494" lon="32.995142"><ele>652.3</ele></trkpt>
    <trkpt lat="36.603062" lon="32.995549"><ele>655.2</ele></trkpt>
    <trkpt lat="36.602988" lon="32.995992"><ele>657.6</ele></trkpt>
    <trkpt lat="36.603307" lon="32.996472"><ele>659.0</ele></trkpt>
    <trkpt lat="36.603901" lon="32.996980"><ele>658.9</ele></trkpt>
    <trkpt lat="36.604538" lon="32.997491"><ele>656.9</ele></trkpt>
    <trkpt lat="36.604959" lon="32.997981"><ele>653.1</ele></trkpt>
    <trkpt lat="36.604977" lon="32.998433"><ele>647.9</ele></trkpt>
    <trkpt lat="36.604559" lon="32.998842"><ele>641.6</ele></trkpt>
    <trkpt lat="36.603839" lon="32.999222"><ele>635.1</ele></trkpt>
    <trkpt lat="36.603077" lon="32.999598"><ele>629.2</ele></trkpt>
    <trkpt lat="36.602559" lon="32.999997"><ele>624.6</ele></trkpt>
    <trkpt lat="36.602485" lon="33.000439"><ele>621.8</ele></trkpt>
    <trkpt lat="36.602888" lon="33.000928"><ele>621.1</ele></trkpt>
    <trkpt lat="36.603617" lon="33.001448"><ele>622.6</ele></trkpt>
    <trkpt lat="36.604386" lon="33.001973"><ele>625.7</ele></trkpt>
    <trkpt lat="36.604886" lon="33.002471"><ele>629.9</ele></trkpt>
    <trkpt lat="36.604904" lon="33.002922"><ele>634.3</ele></trkpt>
    <trkpt lat="36.604407" lon="33.003324"><ele>638.0</ele></trkpt>
    <trkpt lat="36.603563" lon="33.003691"><ele>640.2</ele></trkpt>
    <trkpt lat="36.602681" lon="33.004055"><ele>640.3</ele></trkpt>
    <trkpt lat="36.602092" lon="33.004448"><ele>638.0</ele></trkpt>
    <trkpt lat="36.602020" lon="33.004891"><ele>633.4</ele></trkpt>
    <trkpt lat="36.602495" lon="33.005386"><ele>626.9</ele></trkpt>
    <trkpt lat="36.603335" lon="33.005917"><ele>619.3</ele></trkpt>
    <trkpt lat="36.604212" lon="33.006452"><ele>611.5</ele></trkpt>
    <trkpt lat="36.604775" lon="33.006956"><ele>604.5</ele></trkpt>
    <trkpt lat="36.604789" lon="33.007407"><ele>599.3</ele></trkpt>
    <trkpt lat="36.604227" lon="33.007802"><ele>596.3</ele></trkpt>
    <trkpt lat="36.603285" lon="33.008161"><ele>595.9</ele></trkpt>
    <trkpt lat="36.602309" lon="33.008516"><ele>598.1</ele></trkpt>
    <trkpt lat="36.601666" lon="33.008903"><ele>602.2</ele></trkpt>
    <trkpt lat="36.601599" lon="33.009346"><ele>607.5</ele></trkpt>
    <trkpt lat="36.602131" lon="33.009847"><ele>613.0</ele></trkpt>
    <trkpt lat="36.603056" lon="33.010387"><ele>617.5</ele></trkpt>
    <trkpt lat="36.604012" lon="33.010929"><ele>620.2</ele></trkpt>
    <trkpt lat="36.604619" lon="33.011438"><ele>620.4</ele></trkpt>
    <trkpt lat="36.604628" lon="33.011888"><ele>617.9</ele></trkpt>
    <trkpt lat="36.604017" lon="33.012279"><ele>612.7</ele></trkpt>
    <trkpt lat="36.603005" lon="33.012630"><ele>605.4</ele></trkpt>
    <trkpt lat="36.601965" lon="33.012979"><ele>596.9</ele></trkpt>
    <trkpt lat="36.601287" lon="33.013363"><ele>588.4</ele></trkpt>
    <trkpt lat="36.601225" lon="33.013806"><ele>580.8</ele></trkpt>
    <trkpt lat="36.601798" lon="33.014311"><ele>575.1</ele></trkpt>
    <trkpt lat="36.602779" lon="33.014856"><ele>572.1</ele></trkpt>
    <trkpt lat="36.603783" lon="33.015403"><ele>572.0</ele></trkpt>
    <trkpt lat="36.604415" lon="33.015914"><ele>574.6</ele></trkpt>
    <trkpt lat="36.604417" lon="33.016364"><ele>579.3</ele></trkpt>
    <trkpt lat="36.603776" lon="33.016751"><ele>585.2</ele></trkpt>
    <trkpt lat="36.602722" lon="33.017099"><ele>591.2</ele></trkpt>
    <trkpt lat="36.601650" lon="33.017445"><ele>596.1</ele></trkpt>
    <trkpt lat="36.600958" lon="33.017827"><ele>599.0</ele></trkpt>
    <trkpt lat="36.600903" lon="33.018271"><ele>599.2</ele></trkpt>
    <trkpt lat="36.601497" lon="33.018779"><ele>596.4</ele></trkpt>
    <trkpt lat="36.602503" lon="33.019326"><ele>590.9</ele></trkpt>
    <trkpt lat="36.603525" lon="33.019875"><ele>583.3</ele></trkpt>
    <trkpt lat="36.604160" lon="33.020386"><ele>574.6</ele></trkpt>
    <trkpt lat="36.604155" lon="33.020835"><ele>565.7</ele></trkpt>
    <trkpt lat="36.603501" lon="33.021221"><ele>558.0</ele></trkpt>
    <trkpt lat="36.602439" lon="33.021568"><ele>552.4</ele></trkpt>
    <trkpt lat="36.601365" lon="33.021913"><ele>549.5</ele></trkpt>
    <trkpt lat="36.600680" lon="33.022296"><ele>549.5</ele></trkpt>
    <trkpt lat="36.600633" lon="33.022742"><ele>552.2</ele></trkpt>
    <trkpt lat="36.601230" lon="33.023249"><ele>557.0</ele></trkpt>
    <trkpt lat="36.602229" lon="33.023796"><ele>562.9</ele></trkpt>
    <trkpt lat="36.603235" lon="33.024343"><ele>568.8</ele></trkpt>
    <trkpt lat="36.603854" lon="33.024852"><ele>573.6</ele></trkpt>
    <trkpt lat="36.603840" lon="33.025301"><ele>576.3</ele></trkpt>
    <trkpt lat="36.603193" lon="33.025688"><ele>576.4</ele></trkpt>
    <trkpt lat="36.602154" lon="33.026037"><ele>573.6</ele></trkpt>
    <trkpt lat="36.601111" lon="33.026385"><ele>568.1</ele></trkpt>
    <trkpt lat="36.600453" lon="33.026771"><ele>560.7</ele></trkpt>
    <trkpt lat="36.600415" lon="33.027217"><ele>552.2</ele></trkpt>
    <trkpt lat="36.600995" lon="33.027723"><ele>543.7</ele></trkpt>
    <trkpt lat="36.601955" lon="33.028265"><ele>536.3</ele></trkpt>
    <trkpt lat="36.602914" lon="33.028808"><ele>531.0</ele></trkpt>
    <trkpt lat="36.603497" lon="33.029314"><ele>528.3</ele></trkpt>
    <trkpt lat="36.603475" lon="33.029762"><ele>528.3</ele></trkpt>
    <trkpt lat="36.602854" lon="33.030151"><ele>530.8</ele></trkpt>
    <trkpt lat="36.601869" lon="33.030505"><ele>535.2</ele></trkpt>
    <trkpt lat="36.600888" lon="33.030860"><ele>540.6</ele></trkpt>
    <trkpt lat="36.600275" lon="33.031250"><ele>545.9</ele></trkpt>
    <trkpt lat="36.600246" lon="33.031697"><ele>550.1</ele></trkpt>
    <trkpt lat="36.600791" lon="33.032199"><ele>552.3</ele></trkpt>
    <trkpt lat="36.601682" lon="33.032735"><ele>552.1</ele></trkpt>
    <trkpt lat="36.602564" lon="33.033270"><ele>549.4</ele></trkpt>
    <trkpt lat="36.603092" lon="33.033771"><ele>544.3</ele></trkpt>
    <trkpt lat="36.603061" lon="33.034218"><ele>537.4</ele></trkpt>
    <trkpt lat="36.602485" lon="33.034612"><ele>529.7</ele></trkpt>
    <trkpt lat="36.601583" lon="33.034974"><ele>522.2</ele></trkpt>
    <trkpt lat="36.600694" lon="33.035337"><ele>515.7</ele></trkpt>
    <trkpt lat="36.600145" lon="33.035734"><ele>511.0</ele></trkpt>
    <trkpt lat="36.600124" lon="33.036181"><ele>508.5</ele></trkpt>
    <trkpt lat="36.600615" lon="33.036679"><ele>508.5</ele></trkpt>
    <trkpt lat="36.601409" lon="33.037205"><ele>510.5</ele></trkpt>
    <trkpt lat="36.602186" lon="33.037730"><ele>514.0</ele></trkpt>
    <trkpt lat="36.602642" lon="33.038224"><ele>518.3</ele></trkpt>
    <trkpt lat="36.602603" lon="33.038670"><ele>522.5</ele></trkpt>
    <trkpt lat="36.602089" lon="33.039070"><ele>525.6</ele></trkpt>
    <trkpt lat="36.601298" lon="33.039443"><ele>527.1</ele></trkpt>
    <trkpt lat="36.600527" lon="33.039817"><ele>526.6</ele></trkpt>
    <trkpt lat="36.600056" lon="33.040221"><ele>523.9</ele></trkpt>
    <trkpt lat="36.600043" lon="33.040670"><ele>519.5</ele></trkpt>
    <trkpt lat="36.600464" lon="33.041160"><ele>513.7</ele></trkpt>
    <trkpt lat="36.601135" lon="33.041675"><ele>507.3</ele></trkpt>
    <trkpt lat="36.601782" lon="33.042187"><ele>501.2</ele></trkpt>
    <trkpt lat="36.602152" lon="33.042673"><ele>495.9</ele></trkpt>
    <trkpt lat="36.602107" lon="33.043118"><ele>492.1</ele></trkpt>
    <trkpt lat="36.601670" lon="33.043525"><ele>490.0</ele></trkpt>
    <trkpt lat="36.601013" lon="33.043911"><ele>489.7</ele></trkpt>
    <trkpt lat="36.600383" lon="33.044300"><ele>491.0</ele></trkpt>
    <trkpt lat="36.600004" lon="33.044713"><ele>493.3</ele></trkpt>
    <trkpt lat="36.599997" lon="33.045162"><ele>496.0</ele></trkpt>
    <trkpt lat="36.600334" lon="33.045644"><ele>498.6</ele></trkpt>
    <trkpt lat="36.600860" lon="33.046145"><ele>500.3</ele></trkpt>
    <trkpt lat="36.601357" lon="33.046643"><ele>500.9</ele></trkpt>
    <trkpt lat="36.601630" lon="33.047119"><ele>499.9</ele></trkpt>
    <trkpt lat="36.601579" lon="33.047563"><ele>497.5</ele></trkpt>
    <trkpt lat="36.601233" lon="33.047979"><ele>494.0</ele></trkpt>
    <trkpt lat="36.600730" lon="33.048380"><ele>489.6</ele></trkpt>
    <trkpt lat="36.600258" lon="33.048784"><ele>484.9</ele></trkpt>
    <trkpt lat="36.599982" lon="33.049207"><ele>480.5</ele></trkpt>
    <trkpt lat="36.599979" lon="33.049656"><ele>476.8</ele></trkpt>
    <trkpt lat="36.600220" lon="33.050129"><ele>474.0</ele></trkpt>
    <trkpt lat="36.600584" lon="33.050614"><ele>472.4</ele></trkpt>
    <trkpt lat="36.600915" lon="33.051096"><ele>471.8</ele></trkpt>
    <trkpt lat="36.601082" lon="33.051562"><ele>472.1</ele></trkpt>
    <trkpt lat="36.601027" lon="33.052006"><ele>472.8</ele></trkpt>
    <trkpt lat="36.600782" lon="33.052432"><ele>473.7</ele></trkpt>
    <trkpt lat="36.600448" lon="33.052849"><ele>474.4</ele></trkpt>
    <trkpt lat="36.600149" lon="33.053270"><ele>474.5</ele></trkpt>
    <trkpt lat="36.599981" lon="33.053703"><ele>473.9</ele></trkpt>
    <trkpt lat="36.599982" lon="33.054153"><ele>472.5</ele></trkpt>
    <trkpt lat="36.600117" lon="33.054616"><ele>470.5</ele></trkpt>
    <trkpt lat="36.600307" lon="33.055084"><ele>468.0</ele></trkpt>
    <trkpt lat="36.600461" lon="33.055548"><ele>465.3</ele></trkpt>
    <trkpt lat="36.600517" lon="33.056003"><ele>462.6</ele></trkpt>
    <trkpt lat="36.600459" lon="33.056447"><ele>460.1</ele></trkpt>
    <trkpt lat="36.600323" lon="33.056884"><ele>458.1</ele></trkpt>
    <trkpt lat="36.600167" lon="33.057318"><ele>456.5</ele></trkpt>
    <trkpt lat="36.600048" lon="33.057756"><ele>455.3</ele></trkpt>
    <trkpt lat="36.599993" lon="33.058201"><ele>454.3</ele></trkpt>
    <trkpt lat="36.599995" lon="33.058651"><ele>453.5</ele></trkpt>
    <trkpt lat="36.600019" lon="33.059103"><ele>452.5</ele></trkpt>
    <trkpt lat="36.600028" lon="33.059553"><ele>451.4</ele></trkpt>
    <trkpt lat="36.600000" lon="33.060000"><ele>450.0</ele></trkpt>
    <trkpt lat="36.600125" lon="33.060422"><ele>451.8</ele></trkpt>
    <trkpt lat="36.600250" lon="33.060843"><ele>453.6</ele></trkpt>
    <trkpt lat="36.600355" lon="33.061273"><ele>455.5</ele></trkpt>
    <trkpt lat="36.600428" lon="33.061714"><ele>457.2</ele></trkpt>
    <trkpt lat="36.600479" lon="33.062165"><ele>458.8</ele></trkpt>
    <trkpt lat="36.600534" lon="33.062614"><ele>460.1</ele></trkpt>
    <trkpt lat="36.600624" lon="33.063049"><ele>461.2</ele></trkpt>
    <trkpt lat="36.600769" lon="33.063463"><ele>462.2</ele></trkpt>
    <trkpt lat="36.600966" lon="33.063856"><ele>463.1</ele></trkpt>
    <trkpt lat="36.601185" lon="33.064242"><ele>464.1</ele></trkpt>
    <trkpt lat="36.601378" lon="33.064637"><ele>465.3</ele></trkpt>
    <trkpt lat="36.601501" lon="33.065059"><ele>466.9</ele></trkpt>
    <trkpt lat="36.601535" lon="33.065516"><ele>468.9</ele></trkpt>
    <trkpt lat="36.601495" lon="33.066002"><ele>471.4</ele></trkpt>
    <trkpt lat="36.601436" lon="33.066495"><ele>474.1</ele></trkpt>
    <trkpt lat="36.601424" lon="33.066970"><ele>477.1</ele></trkpt>
    <trkpt lat="36.601517" lon="33.067404"><ele>479.9</ele></trkpt>
    <trkpt lat="36.601735" lon="33.067790"><ele>482.5</ele></trkpt>
    <trkpt lat="36.602044" lon="33.068140"><ele>484.6</ele></trkpt>
    <trkpt lat="36.602372" lon="33.068482"><ele>486.1</ele></trkpt>
    <trkpt lat="36.602630" lon="33.068853"><ele>486.9</ele></trkpt>
    <trkpt lat="36.602748" lon="33.069277"><ele>487.1</ele></trkpt>
    <trkpt lat="36.602709" lon="33.069762"><ele>486.9</ele></trkpt>
    <trkpt lat="36.602559" lon="33.070291"><ele>486.5</ele></trkpt>
    <trkpt lat="36.602391" lon="33.070826"><ele>486.3</ele></trkpt>
    <trkpt lat="36.602317" lon="33.071325"><ele>486.6</ele></trkpt>
    <trkpt lat="36.602416" lon="33.071756"><ele>487.6</ele></trkpt>
    <trkpt lat="36.602706" lon="33.072114"><ele>489.5</ele></trkpt>
    <trkpt lat="36.603126" lon="33.072421"><ele>492.3</ele></trkpt>
    <trkpt lat="36.603560" lon="33.072723"><ele>495.9</ele></trkpt>
    <trkpt lat="36.603878" lon="33.073070"><ele>500.0</ele></trkpt>
    <trkpt lat="36.603989" lon="33.073497"><ele>504.2</ele></trkpt>
    <trkpt lat="36.603878" lon="33.074010"><ele>508.1</ele></trkpt>
    <trkpt lat="36.603618" lon="33.074581"><ele>511.4</ele></trkpt>
    <trkpt lat="36.603347" lon="33.075156"><ele>513.6</ele></trkpt>
    <trkpt lat="36.603215" lon="33.075678"><ele>514.8</ele></trkpt>
    <trkpt lat="36.603323" lon="33.076106"><ele>514.8</ele></trkpt>
    <trkpt lat="36.603684" lon="33.076436"><ele>513.9</ele></trkpt>
    <trkpt lat="36.604211" lon="33.076702"><ele>512.4</ele></trkpt>
    <trkpt lat="36.604746" lon="33.076964"><ele>510.9</ele></trkpt>
    <trkpt lat="36.605120" lon="33.077289"><ele>509.7</ele></trkpt>
    <trkpt lat="36.605221" lon="33.077720"><ele>509.3</ele></trkpt>
    <trkpt lat="36.605038" lon="33.078261"><ele>510.1</ele></trkpt>
    <trkpt lat="36.604674" lon="33.078873"><ele>512.4</ele></trkpt>
    <trkpt lat="36.604305" lon="33.079486"><ele>515.9</ele></trkpt>
    <trkpt lat="36.604119" lon="33.080028"><ele>520.6</ele></trkpt>
    <trkpt lat="36.604238" lon="33.080452"><ele>525.9</ele></trkpt>
    <trkpt lat="36.604670" lon="33.080755"><ele>531.2</ele></trkpt>
    <trkpt lat="36.605299" lon="33.080981"><ele>536.1</ele></trkpt>
    <trkpt lat="36.605928" lon="33.081207"><ele>540.0</ele></trkpt>
    <trkpt lat="36.606353" lon="33.081512"><ele>542.4</ele></trkpt>
    <trkpt lat="36.606442" lon="33.081948"><ele>543.2</ele></trkpt>
    <trkpt lat="36.606191" lon="33.082516"><ele>542.5</ele></trkpt>
    <trkpt lat="36.605727" lon="33.083166"><ele>540.6</ele></trkpt>
    <trkpt lat="36.605267" lon="33.083814"><ele>538.0</ele></trkpt>
    <trkpt lat="36.605033" lon="33.084375"><ele>535.2</ele></trkpt>
    <trkpt lat="36.605166" lon="33.084794"><ele>533.1</ele></trkpt>
    <trkpt lat="36.605665" lon="33.085070"><ele>532.2</ele></trkpt>
    <trkpt lat="36.606390" lon="33.085259"><ele>533.0</ele></trkpt>
    <trkpt lat="36.607107" lon="33.085451"><ele>535.5</ele></trkpt>
    <trkpt lat="36.607577" lon="33.085739"><ele>539.8</ele></trkpt>
    <trkpt lat="36.607652" lon="33.086180"><ele>545.4</ele></trkpt>
    <trkpt lat="36.607334" lon="33.086774"><ele>551.8</ele></trkpt>
    <trkpt lat="36.606778" lon="33.087459"><ele>558.2</ele></trkpt>
    <trkpt lat="36.606235" lon="33.088140"><ele>564.0</ele></trkpt>
    <trkpt lat="36.605959" lon="33.088717"><ele>568.3</ele></trkpt>
    <trkpt lat="36.606106" lon="33.089131"><ele>570.9</ele></trkpt>
    <trkpt lat="36.606670" lon="33.089382"><ele>571.4</ele></trkpt>
    <trkpt lat="36.607484" lon="33.089536"><ele>570.0</ele></trkpt>
    <trkpt lat="36.608279" lon="33.089698"><ele>567.1</ele></trkpt>
    <trkpt lat="36.608787" lon="33.089971"><ele>563.4</ele></trkpt>
    <trkpt lat="36.608847" lon="33.090418"><ele>559.7</ele></trkpt>
    <trkpt lat="36.608467" lon="33.091035"><ele>556.8</ele></trkpt>
    <trkpt lat="36.607826" lon="33.091754"><ele>555.5</ele></trkpt>
    <trkpt lat="36.607209" lon="33.092463"><ele>556.1</ele></trkpt>
    <trkpt lat="36.606898" lon="33.093054"><ele>559.0</ele></trkpt>
    <trkpt lat="36.607061" lon="33.093461"><ele>563.9</ele></trkpt>
    <trkpt lat="36.607685" lon="33.093690"><ele>570.4</ele></trkpt>
    <trkpt lat="36.608579" lon="33.093813"><ele>577.8</ele></trkpt>
    <trkpt lat="36.609443" lon="33.093948"><ele>585.1</ele></trkpt>
    <trkpt lat="36.609984" lon="33.094208"><ele>591.5</ele></trkpt>
    <trkpt lat="36.610027" lon="33.094661"><ele>596.3</ele></trkpt>
    <trkpt lat="36.609590" lon="33.095301"><ele>598.9</ele></trkpt>
    <trkpt lat="36.608873" lon="33.096049"><ele>599.1</ele></trkpt>
    <trkpt lat="36.608193" lon="33.096783"><ele>597.1</ele></trkpt>
    <trkpt lat="36.607852" lon="33.097386"><ele>593.4</ele></trkpt>
    <trkpt lat="36.608031" lon="33.097786"><ele>588.9</ele></trkpt>
    <trkpt lat="36.608710" lon="33.097993"><ele>584.4</ele></trkpt>
    <trkpt lat="36.609675" lon="33.098089"><ele>580.9</ele></trkpt>
    <trkpt lat="36.610598" lon="33.098201"><ele>579.2</ele></trkpt>
    <trkpt lat="36.611164" lon="33.098451"><ele>579.8</ele></trkpt>
    <trkpt lat="36.611191" lon="33.098911"><ele>583.0</ele></trkpt>
    <trkpt lat="36.610702" lon="33.099571"><ele>588.4</ele></trkpt>
    <trkpt lat="36.609920" lon="33.100344"><ele>595.6</ele></trkpt>
    <trkpt lat="36.609186" lon="33.101100"><ele>603.8</ele></trkpt>
    <trkpt lat="36.608823" lon="33.101710"><ele>611.8</ele></trkpt>
    <trkpt lat="36.609020" lon="33.102104"><ele>618.8</ele></trkpt>
    <trkpt lat="36.609746" lon="33.102292"><ele>623.8</ele></trkpt>
    <trkpt lat="36.610771" lon="33.102365"><ele>626.4</ele></trkpt>
    <trkpt lat="36.611742" lon="33.102458"><ele>626.3</ele></trkpt>
    <trkpt lat="36.612327" lon="33.102702"><ele>623.8</ele></trkpt>
    <trkpt lat="36.612337" lon="33.103168"><ele>619.5</ele></trkpt>
    <trkpt lat="36.611803" lon="33.103845"><ele>614.3</ele></trkpt>
    <trkpt lat="36.610967" lon="33.104640"><ele>609.2</ele></trkpt>
    <trkpt lat="36.610190" lon="33.105411"><ele>605.3</ele></trkpt>
    <trkpt lat="36.609813" lon="33.106028"><ele>603.3</ele></trkpt>
    <trkpt lat="36.610026" lon="33.106415"><ele>604.0</ele></trkpt>
    <trkpt lat="36.610794" lon="33.106588"><ele>607.4</ele></trkpt>
    <trkpt lat="36.611866" lon="33.106641"><ele>613.3</ele></trkpt>
    <trkpt lat="36.612875" lon="33.106720"><ele>621.1</ele></trkpt>
    <trkpt lat="36.613471" lon="33.106959"><ele>629.8</ele></trkpt>
    <trkpt lat="36.613464" lon="33.107432"><ele>638.3</ele></trkpt>
    <trkpt lat="36.612893" lon="33.108124"><ele>645.6</ele></trkpt>
    <trkpt lat="36.612015" lon="33.108935"><ele>650.8</ele></trkpt>
    <trkpt lat="36.611207" lon="33.109718"><ele>653.3</ele></trkpt>
    <trkpt lat="36.610821" lon="33.110338"><ele>653.0</ele></trkpt>
    <trkpt lat="36.611051" lon="33.110719"><ele>650.2</ele></trkpt>
    <trkpt lat="36.611852" lon="33.110878"><ele>645.4</ele></trkpt>
    <trkpt lat="36.612961" lon="33.110918"><ele>639.7</ele></trkpt>
    <trkpt lat="36.613994" lon="33.110987"><ele>634.3</ele></trkpt>
    <trkpt lat="36.614595" lon="33.111224"><ele>630.1</ele></trkpt>
    <trkpt lat="36.614572" lon="33.111703"><ele>628.0</ele></trkpt>
    <trkpt lat="36.613972" lon="33.112406"><ele>628.8</ele></trkpt>
    <trkpt lat="36.613064" lon="33.113229"><ele>632.4</ele></trkpt>
    <trkpt lat="36.612237" lon="33.114020"><ele>638.6</ele></trkpt>
    <trkpt lat="36.611850" lon="33.114640"><ele>646.7</ele></trkpt>
    <trkpt lat="36.612095" lon="33.115015"><ele>655.7</ele></trkpt>
    <trkpt lat="36.612921" lon="33.115165"><ele>664.5</ele></trkpt>
    <trkpt lat="36.614053" lon="33.115196"><ele>672.0</ele></trkpt>
    <trkpt lat="36.615100" lon="33.115260"><ele>677.2</ele></trkpt>
    <trkpt lat="36.615699" lon="33.115497"><ele>679.7</ele></trkpt>
    <trkpt lat="36.615661" lon="33.115982"><ele>679.2</ele></trkpt>
    <trkpt lat="36.615041" lon="33.116693"><ele>676.1</ele></trkpt>
    <trkpt lat="36.614116" lon="33.117522"><ele>671.1</ele></trkpt>
    <trkpt lat="36.613281" lon="33.118316"><ele>665.2</ele></trkpt>
    <trkpt lat="36.612900" lon="33.118934"><ele>659.6</ele></trkpt>
    <trkpt lat="36.613158" lon="33.119304"><ele>655.3</ele></trkpt>
    <trkpt lat="36.614000" lon="33.119448"><ele>653.3</ele></trkpt>
    <trkpt lat="36.615143" lon="33.119474"><ele>654.2</ele></trkpt>
    <trkpt lat="36.616191" lon="33.119538"><ele>657.9</ele></trkpt>
    <trkpt lat="36.616782" lon="33.119779"><ele>664.3</ele></trkpt>
    <trkpt lat="36.616731" lon="33.120269"><ele>672.5</ele></trkpt>
    <trkpt lat="36.616099" lon="33.120984"><ele>681.7</ele></trkpt>
    <trkpt lat="36.615170" lon="33.121815"><ele>690.5</ele></trkpt>
    <trkpt lat="36.614341" lon="33.122607"><ele>697.9</ele></trkpt>
    <trkpt lat="36.613970" lon="33.123220"><ele>703.1</ele></trkpt>
    <trkpt lat="36.614241" lon="33.123585"><ele>705.4</ele></trkpt>
    <trkpt lat="36.615089" lon="33.123726"><ele>704.8</ele></trkpt>
    <trkpt lat="36.616230" lon="33.123754"><ele>701.7</ele></trkpt>
    <trkpt lat="36.617267" lon="33.123822"><ele>696.6</ele></trkpt>
    <trkpt lat="36.617843" lon="33.124068"><ele>690.8</ele></trkpt>
    <trkpt lat="36.617782" lon="33.124562"><ele>685.2</ele></trkpt>
    <trkpt lat="36.617148" lon="33.125278"><ele>681.1</ele></trkpt>
    <trkpt lat="36.616228" lon="33.126106"><ele>679.2</ele></trkpt>
    <trkpt lat="36.615416" lon="33.126891"><ele>680.2</ele></trkpt>
    <trkpt lat="36.615063" lon="33.127498"><ele>684.0</ele></trkpt>
    <trkpt lat="36.615343" lon="33.127859"><ele>690.4</ele></trkpt>
    <trkpt lat="36.616188" lon="33.128002"><ele>698.5</ele></trkpt>
    <trkpt lat="36.617313" lon="33.128035"><ele>707.5</ele></trkpt>
    <trkpt lat="36.618327" lon="33.128112"><ele>716.1</ele></trkpt>
    <trkpt lat="36.618884" lon="33.128366"><ele>723.4</ele></trkpt>
    <trkpt lat="36.618814" lon="33.128863"><ele>728.3</ele></trkpt>
    <trkpt lat="36.618188" lon="33.129576"><ele>730.5</ele></trkpt>
    <trkpt lat="36.617290" lon="33.130395"><ele>729.9</ele></trkpt>
    <trkpt lat="36.616506" lon="33.131169"><ele>726.8</ele></trkpt>
    <trkpt lat="36.616176" lon="33.131768"><ele>722.0</ele></trkpt>
    <trkpt lat="36.616463" lon="33.132126"><ele>716.4</ele></trkpt>
    <trkpt lat="36.617295" lon="33.132274"><ele>711.1</ele></trkpt>
    <trkpt lat="36.618391" lon="33.132318"><ele>707.3</ele></trkpt>
    <trkpt lat="36.619371" lon="33.132408"><ele>705.7</ele></trkpt>
    <trkpt lat="36.619903" lon="33.132672"><ele>706.8</ele></trkpt>
    <trkpt lat="36.619827" lon="33.133171"><ele>710.6</ele></trkpt>
    <trkpt lat="36.619220" lon="33.133877"><ele>716.8</ele></trkpt>
    <trkpt lat="36.618357" lon="33.134682"><ele>724.7</ele></trkpt>
    <trkpt lat="36.617612" lon="33.135442"><ele>733.3</ele></trkpt>
    <trkpt lat="36.617309" lon="33.136029"><ele>741.5</ele></trkpt>
    <trkpt lat="36.617601" lon="33.136386"><ele>748.3</ele></trkpt>
    <trkpt lat="36.618410" lon="33.136542"><ele>753.0</ele></trkpt>
    <trkpt lat="36.619465" lon="33.136603"><ele>755.1</ele></trkpt>
    <trkpt lat="36.620400" lon="33.136710"><ele>754.5</ele></trkpt>
    <trkpt lat="36.620902" lon="33.136986"><ele>751.6</ele></trkpt>
    <trkpt lat="36.620824" lon="33.137486"><ele>747.2</ele></trkpt>
    <trkpt lat="36.620244" lon="33.138181"><ele>742.1</ele></trkpt>
    <trkpt lat="36.619429" lon="33.138968"><ele>737.4</ele></trkpt>
    <trkpt lat="36.618734" lon="33.139708"><ele>734.0</ele></trkpt>
    <trkpt lat="36.618463" lon="33.140283"><ele>732.7</ele></trkpt>
    <trkpt lat="36.618755" lon="33.140640"><ele>734.0</ele></trkpt>
    <trkpt lat="36.619532" lon="33.140808"><ele>737.7</ele></trkpt>
    <trkpt lat="36.620533" lon="33.140890"><ele>743.6</ele></trkpt>
    <trkpt lat="36.621414" lon="33.141018"><ele>751.0</ele></trkpt>
    <trkpt lat="36.621882" lon="33.141307"><ele>759.0</ele></trkpt>
    <trkpt lat="36.621805" lon="33.141807"><ele>766.5</ele></trkpt>
    <trkpt lat="36.621262" lon="33.142488"><ele>772.8</ele></trkpt>
    <trkpt lat="36.620506" lon="33.143251"><ele>777.1</ele></trkpt>
    <trkpt lat="36.619870" lon="33.143968"><ele>779.0</ele></trkpt>
    <trkpt lat="36.619635" lon="33.144530"><ele>778.6</ele></trkpt>
    <trkpt lat="36.619924" lon="33.144888"><ele>776.1</ele></trkpt>
    <trkpt lat="36.620660" lon="33.145072"><ele>772.2</ele></trkpt>
    <trkpt lat="36.621596" lon="33.145179"><ele>767.9</ele></trkpt>
    <trkpt lat="36.622413" lon="33.145332"><ele>763.9</ele></trkpt>
    <trkpt lat="36.622844" lon="33.145635"><ele>761.2</ele></trkpt>
    <trkpt lat="36.622772" lon="33.146133"><ele>760.3</ele></trkpt>
    <trkpt lat="36.622274" lon="33.146797"><ele>761.7</ele></trkpt>
    <trkpt lat="36.621589" lon="33.147532"><ele>765.3</ele></trkpt>
    <trkpt lat="36.621021" lon="33.148223"><ele>770.7</ele></trkpt>
    <trkpt lat="36.620825" lon="33.148770"><ele>777.4</ele></trkpt>
    <trkpt lat="36.621107" lon="33.149130"><ele>784.6</ele></trkpt>
    <trkpt lat="36.621793" lon="33.149334"><ele>791.3</ele></trkpt>
    <trkpt lat="36.622653" lon="33.149471"><ele>796.9</ele></trkpt>
    <trkpt lat="36.623398" lon="33.149652"><ele>800.7</ele></trkpt>
    <trkpt lat="36.623788" lon="33.149970"><ele>802.5</ele></trkpt>
    <trkpt lat="36.623725" lon="33.150465"><ele>802.2</ele></trkpt>
    <trkpt lat="36.623282" lon="33.151107"><ele>800.3</ele></trkpt>
    <trkpt lat="36.622678" lon="33.151811"><ele>797.2</ele></trkpt>
    <trkpt lat="36.622186" lon="33.152473"><ele>793.8</ele></trkpt>
    <trkpt lat="36.622031" lon="33.153003"><ele>790.7</ele></trkpt>
    <trkpt lat="36.622303" lon="33.153368"><ele>788.7</ele></trkpt>
    <trkpt lat="36.622929" lon="33.153595"><ele>788.4</ele></trkpt>
    <trkpt lat="36.623704" lon="33.153764"><ele>789.9</ele></trkpt>
    <trkpt lat="36.624370" lon="33.153976"><ele>793.2</ele></trkpt>
    <trkpt lat="36.624718" lon="33.154311"><ele>798.1</ele></trkpt>
    <trkpt lat="36.624667" lon="33.154801"><ele>803.9</ele></trkpt>
    <trkpt lat="36.624287" lon="33.155418"><ele>810.0</ele></trkpt>
    <trkpt lat="36.623773" lon="33.156088"><ele>815.8</ele></trkpt>
    <trkpt lat="36.623363" lon="33.156717"><ele>820.6</ele></trkpt>
    <trkpt lat="36.623251" lon="33.157231"><ele>823.9</ele></trkpt>
    <trkpt lat="36.623509" lon="33.157601"><ele>825.5</ele></trkpt>
    <trkpt lat="36.624069" lon="33.157854"><ele>825.6</ele></trkpt>
    <trkpt lat="36.624749" lon="33.158060"><ele>824.3</ele></trkpt>
    <trkpt lat="36.625329" lon="33.158305"><ele>822.1</ele></trkpt>
    <trkpt lat="36.625634" lon="33.158657"><ele>819.8</ele></trkpt>
    <trkpt lat="36.625599" lon="33.159141"><ele>817.8</ele></trkpt>
    <trkpt lat="36.625289" lon="33.159731"><ele>816.6</ele></trkpt>
    <trkpt lat="36.624873" lon="33.160363"><ele>816.8</ele></trkpt>
    <trkpt lat="36.624552" lon="33.160958"><ele>818.4</ele></trkpt>
    <trkpt lat="36.624483" lon="33.161454"><ele>821.4</ele></trkpt>
    <trkpt lat="36.624724" lon="33.161831"><ele>825.6</ele></trkpt>
    <trkpt lat="36.625210" lon="33.162113"><ele>830.4</ele></trkpt>
    <trkpt lat="36.625789" lon="33.162358"><ele>835.4</ele></trkpt>
    <trkpt lat="36.626279" lon="33.162638"><ele>840.1</ele></trkpt>
    <trkpt lat="36.626539" lon="33.163007"><ele>843.9</ele></trkpt>
    <trkpt lat="36.626523" lon="33.163483"><ele>846.7</ele></trkpt>
    <trkpt lat="36.626290" lon="33.164044"><ele>848.2</ele></trkpt>
    <trkpt lat="36.625979" lon="33.164635"><ele>848.6</ele></trkpt>
    <trkpt lat="36.625750" lon="33.165194"><ele>848.1</ele></trkpt>
    <trkpt lat="36.625726" lon="33.165673"><ele>847.0</ele></trkpt>
    <trkpt lat="36.625945" lon="33.166059"><ele>845.9</ele></trkpt>
    <trkpt lat="36.626352" lon="33.166371"><ele>845.0</ele></trkpt>
    <trkpt lat="36.626823" lon="33.166658"><ele>844.8</ele></trkpt>
    <trkpt lat="36.627219" lon="33.166975"><ele>845.6</ele></trkpt>
    <trkpt lat="36.627435" lon="33.167361"><ele>847.3</ele></trkpt>
    <trkpt lat="36.627442" lon="33.167829"><ele>849.9</ele></trkpt>
    <trkpt lat="36.627291" lon="33.168357"><ele>853.2</ele></trkpt>
    <trkpt lat="36.627090" lon="33.168905"><ele>856.9</ele></trkpt>
    <trkpt lat="36.626957" lon="33.169427"><ele>860.7</ele></trkpt>
    <trkpt lat="36.626978" lon="33.169889"><ele>864.1</ele></trkpt>
    <trkpt lat="36.627172" lon="33.170284"><ele>867.0</ele></trkpt>
    <trkpt lat="36.627494" lon="33.170629"><ele>869.2</ele></trkpt>
    <trkpt lat="36.627853" lon="33.170960"><ele>870.7</ele></trkpt>
    <trkpt lat="36.628151" lon="33.171315"><ele>871.5</ele></trkpt>
    <trkpt lat="36.628323" lon="33.171718"><ele>871.8</ele></trkpt>
    <trkpt lat="36.628357" lon="33.172175"><ele>871.9</ele></trkpt>
    <trkpt lat="36.628293" lon="33.172670"><ele>872.1</ele></trkpt>
    <trkpt lat="36.628206" lon="33.173174"><ele>872.5</ele></trkpt>
    <trkpt lat="36.628171" lon="33.173658"><ele>873.3</ele></trkpt>
    <trkpt lat="36.628235" lon="33.174103"><ele>874.6</ele></trkpt>
    <trkpt lat="36.628401" lon="33.174509"><ele>876.3</ele></trkpt>
    <trkpt lat="36.628634" lon="33.174888"><ele>878.5</ele></trkpt>
    <trkpt lat="36.628877" lon="33.175264"><ele>880.9</ele></trkpt>
    <trkpt lat="36.629077" lon="33.175657"><ele>883.5</ele></trkpt>
    <trkpt lat="36.629207" lon="33.176076"><ele>885.9</ele></trkpt>
    <trkpt lat="36.629270" lon="33.176522"><ele>888.1</ele></trkpt>
    <trkpt lat="36.629296" lon="33.176982"><ele>890.0</ele></trkpt>
    <trkpt lat="36.629326" lon="33.177441"><ele>891.6</ele></trkpt>
    <trkpt lat="36.629389" lon="33.177886"><ele>893.0</ele></trkpt>
    <trkpt lat="36.629495" lon="33.178315"><ele>894.3</ele></trkpt>
    <trkpt lat="36.629631" lon="33.178733"><ele>895.6</ele></trkpt>
    <trkpt lat="36.629773" lon="33.179148"><ele>896.9</ele></trkpt>
    <trkpt lat="36.629898" lon="33.179569"><ele>898.4</ele></trkpt>
    <trkpt lat="36.630000" lon="33.180000"><ele>900.0</ele></trkpt>
    <trkpt lat="36.630101" lon="33.180430"><ele>898.8</ele></trkpt>
    <trkpt lat="36.630195" lon="33.180863"><ele>897.5</ele></trkpt>
    <trkpt lat="36.630260" lon="33.181303"><ele>896.3</ele></trkpt>
    <trkpt lat="36.630294" lon="33.181753"><ele>895.2</ele></trkpt>
    <trkpt lat="36.630312" lon="33.182207"><ele>894.3</ele></trkpt>
    <trkpt lat="36.630347" lon="33.182656"><ele>893.7</ele></trkpt>
    <trkpt lat="36.630430" lon="33.183091"><ele>893.3</ele></trkpt>
    <trkpt lat="36.630575" lon="33.183509"><ele>893.1</ele></trkpt>
    <trkpt lat="36.630766" lon="33.183914"><ele>892.8</ele></trkpt>
    <trkpt lat="36.630962" lon="33.184317"><ele>892.4</ele></trkpt>
    <trkpt lat="36.631110" lon="33.184735"><ele>891.7</ele></trkpt>
    <trkpt lat="36.631168" lon="33.185177"><ele>890.5</ele></trkpt>
    <trkpt lat="36.631130" lon="33.185647"><ele>888.9</ele></trkpt>
    <trkpt lat="36.631032" lon="33.186134"><ele>886.9</ele></trkpt>
    <trkpt lat="36.630939" lon="33.186619"><ele>884.5</ele></trkpt>
    <trkpt lat="36.630927" lon="33.187081"><ele>882.1</ele></trkpt>
    <trkpt lat="36.631044" lon="33.187507"><ele>879.8</ele></trkpt>
    <trkpt lat="36.631291" lon="33.187896"><ele>878.0</ele></trkpt>
    <trkpt lat="36.631613" lon="33.188264"><ele>876.7</ele></trkpt>
    <trkpt lat="36.631920" lon="33.188636"><ele>876.1</ele></trkpt>
    <trkpt lat="36.632115" lon="33.189040"><ele>876.2</ele></trkpt>
    <trkpt lat="36.632141" lon="33.189492"><ele>877.0</ele></trkpt>
    <trkpt lat="36.632003" lon="33.189990"><ele>878.1</ele></trkpt>
    <trkpt lat="36.631775" lon="33.190513"><ele>879.2</ele></trkpt>
    <trkpt lat="36.631573" lon="33.191029"><ele>880.0</ele></trkpt>
    <trkpt lat="36.631512" lon="33.191505"><ele>880.2</ele></trkpt>
    <trkpt lat="36.631660" lon="33.191922"><ele>879.5</ele></trkpt>
    <trkpt lat="36.632005" lon="33.192284"><ele>877.9</ele></trkpt>
    <trkpt lat="36.632455" lon="33.192616"><ele>875.2</ele></trkpt>
    <trkpt lat="36.632869" lon="33.192957"><ele>871.9</ele></trkpt>
    <trkpt lat="36.633113" lon="33.193348"><ele>868.1</ele></trkpt>
    <trkpt lat="36.633109" lon="33.193807"><ele>864.3</ele></trkpt>
    <trkpt lat="36.632876" lon="33.194332"><ele>861.0</ele></trkpt>
    <trkpt lat="36.632524" lon="33.194891"><ele>858.5</ele></trkpt>
    <trkpt lat="36.632215" lon="33.195437"><ele>857.2</ele></trkpt>
    <trkpt lat="36.632107" lon="33.195926"><ele>857.1</ele></trkpt>
    <trkpt lat="36.632282" lon="33.196336"><ele>858.2</ele></trkpt>
    <trkpt lat="36.632719" lon="33.196671"><ele>860.2</ele></trkpt>
    <trkpt lat="36.633290" lon="33.196969"><ele>862.7</ele></trkpt>
    <trkpt lat="36.633808" lon="33.197281"><ele>865.1</ele></trkpt>
    <trkpt lat="36.634100" lon="33.197658"><ele>866.9</ele></trkpt>
    <trkpt lat="36.634071" lon="33.198125"><ele>867.7</ele></trkpt>
    <trkpt lat="36.633749" lon="33.198675"><ele>867.1</ele></trkpt>
    <trkpt lat="36.633279" lon="33.199266"><ele>865.0</ele></trkpt>
    <trkpt lat="36.632869" lon="33.199841"><ele>861.5</ele></trkpt>
    <trkpt lat="36.632713" lon="33.200344"><ele>856.9</ele></trkpt>
    <trkpt lat="36.632912" lon="33.200747"><ele>851.8</ele></trkpt>
    <trkpt lat="36.633434" lon="33.201058"><ele>846.8</ele></trkpt>
    <trkpt lat="36.634118" lon="33.201324"><ele>842.5</ele></trkpt>
    <trkpt lat="36.634735" lon="33.201609"><ele>839.5</ele></trkpt>
    <trkpt lat="36.635074" lon="33.201972"><ele>838.0</ele></trkpt>
    <trkpt lat="36.635023" lon="33.202445"><ele>838.4</ele></trkpt>
    <trkpt lat="36.634621" lon="33.203018"><ele>840.3</ele></trkpt>
    <trkpt lat="36.634042" lon="33.203640"><ele>843.4</ele></trkpt>
    <trkpt lat="36.633537" lon="33.204242"><ele>847.2</ele></trkpt>
    <trkpt lat="36.633334" lon="33.204758"><ele>850.8</ele></trkpt>
    <trkpt lat="36.633553" lon="33.205155"><ele>853.5</ele></trkpt>
    <trkpt lat="36.634151" lon="33.205445"><ele>854.8</ele></trkpt>
    <trkpt lat="36.634939" lon="33.205681"><ele>854.3</ele></trkpt>
    <trkpt lat="36.635648" lon="33.205940"><ele>851.8</ele></trkpt>
    <trkpt lat="36.636031" lon="33.206291"><ele>847.5</ele></trkpt>
    <trkpt lat="36.635963" lon="33.206769"><ele>841.9</ele></trkpt>
    <trkpt lat="36.635489" lon="33.207362"><ele>835.6</ele></trkpt>
    <trkpt lat="36.634811" lon="33.208012"><ele>829.5</ele></trkpt>
    <trkpt lat="36.634219" lon="33.208638"><ele>824.4</ele></trkpt>
    <trkpt lat="36.633973" lon="33.209167"><ele>820.8</ele></trkpt>
    <trkpt lat="36.634207" lon="33.209560"><ele>819.3</ele></trkpt>
    <trkpt lat="36.634873" lon="33.209831"><ele>820.0</ele></trkpt>
    <trkpt lat="36.635753" lon="33.210041"><ele>822.7</ele></trkpt>
    <trkpt lat="36.636545" lon="33.210276"><ele>826.7</ele></trkpt>
    <trkpt lat="36.636970" lon="33.210615"><ele>831.5</ele></trkpt>
    <trkpt lat="36.636888" lon="33.211097"><ele>836.1</ele></trkpt>
    <trkpt lat="36.636352" lon="33.211707"><ele>839.7</ele></trkpt>
    <trkpt lat="36.635588" lon="33.212382"><ele>841.5</ele></trkpt>
    <trkpt lat="36.634918" lon="33.213030"><ele>841.0</ele></trkpt>
    <trkpt lat="36.634632" lon="33.213570"><ele>838.2</ele></trkpt>
    <trkpt lat="36.634877" lon="33.213959"><ele>833.3</ele></trkpt>
    <trkpt lat="36.635600" lon="33.214214"><ele>826.8</ele></trkpt>
    <trkpt lat="36.636560" lon="33.214402"><ele>819.6</ele></trkpt>
    <trkpt lat="36.637424" lon="33.214617"><ele>812.6</ele></trkpt>
    <trkpt lat="36.637887" lon="33.214945"><ele>806.7</ele></trkpt>
    <trkpt lat="36.637797" lon="33.215430"><ele>802.8</ele></trkpt>
    <trkpt lat="36.637209" lon="33.216055"><ele>801.2</ele></trkpt>
    <trkpt lat="36.636372" lon="33.216750"><ele>802.1</ele></trkpt>
    <trkpt lat="36.635635" lon="33.217417"><ele>805.3</ele></trkpt>
    <trkpt lat="36.635313" lon="33.217967"><ele>810.1</ele></trkpt>
    <trkpt lat="36.635566" lon="33.218354"><ele>815.8</ele></trkpt>
    <trkpt lat="36.636334" lon="33.218596"><ele>821.1</ele></trkpt>
    <trkpt lat="36.637360" lon="33.218765"><ele>825.3</ele></trkpt>
    <trkpt lat="36.638285" lon="33.218963"><ele>827.5</ele></trkpt>
    <trkpt lat="36.638782" lon="33.219282"><ele>827.1</ele></trkpt>
    <trkpt lat="36.638686" lon="33.219768"><ele>824.1</ele></trkpt>
    <trkpt lat="36.638058" lon="33.220404"><ele>818.7</ele></trkpt>
    <trkpt lat="36.637163" lon="33.221116"><ele>811.6</ele></trkpt>
    <trkpt lat="36.636371" lon="33.221798"><ele>803.7</ele></trkpt>
    <trkpt lat="36.636018" lon="33.222357"><ele>796.0</ele></trkpt>
    <trkpt lat="36.636274" lon="33.222744"><ele>789.6</ele></trkpt>
    <trkpt lat="36.637076" lon="33.222976"><ele>785.3</ele></trkpt>
    <trkpt lat="36.638154" lon="33.223131"><ele>783.7</ele></trkpt>
    <trkpt lat="36.639126" lon="33.223315"><ele>784.8</ele></trkpt>
    <trkpt lat="36.639652" lon="33.223625"><ele>788.3</ele></trkpt>
    <trkpt lat="36.639555" lon="33.224112"><ele>793.7</ele></trkpt>
    <trkpt lat="36.638899" lon="33.224756"><ele>799.9</ele></trkpt>
    <trkpt lat="36.637960" lon="33.225480"><ele>805.8</ele></trkpt>
    <trkpt lat="36.637127" lon="33.226174"><ele>810.4</ele></trkpt>
    <trkpt lat="36.636748" lon="33.226740"><ele>812.8</ele></trkpt>
    <trkpt lat="36.637003" lon="33.227127"><ele>812.5</ele></trkpt>
    <trkpt lat="36.637828" lon="33.227353"><ele>809.4</ele></trkpt>
    <trkpt lat="36.638941" lon="33.227498"><ele>803.7</ele></trkpt>
    <trkpt lat="36.639948" lon="33.227672"><ele>796.2</ele></trkpt>
    <trkpt lat="36.640496" lon="33.227976"><ele>787.9</ele></trkpt>
    <trkpt lat="36.640401" lon="33.228462"><ele>779.8</ele></trkpt>
    <trkpt lat="36.639729" lon="33.229111"><ele>773.1</ele></trkpt>
    <trkpt lat="36.638763" lon="33.229842"><ele>768.6</ele></trkpt>
    <trkpt lat="36.637902" lon="33.230544"><ele>766.9</ele></trkpt>
    <trkpt lat="36.637505" lon="33.231115"><ele>768.1</ele></trkpt>
    <trkpt lat="36.637755" lon="33.231504"><ele>771.8</ele></trkpt>
    <trkpt lat="36.638590" lon="33.231727"><ele>777.4</ele></trkpt>
    <trkpt lat="36.639722" lon="33.231866"><ele>783.9</ele></trkpt>
    <trkpt lat="36.640751" lon="33.232034"><ele>790.1</ele></trkpt>
    <trkpt lat="36.641313" lon="33.232335"><ele>794.9</ele></trkpt>
    <trkpt lat="36.641225" lon="33.232818"><ele>797.4</ele></trkpt>
    <trkpt lat="36.640548" lon="33.233468"><ele>797.2</ele></trkpt>
    <trkpt lat="36.639571" lon="33.234203"><ele>794.0</ele></trkpt>
    <trkpt lat="36.638697" lon="33.234909"><ele>788.3</ele></trkpt>
    <trkpt lat="36.638288" lon="33.235483"><ele>780.6</ele></trkpt>
    <trkpt lat="36.638531" lon="33.235874"><ele>772.2</ele></trkpt>
    <trkpt lat="36.639364" lon="33.236097"><ele>764.0</ele></trkpt>
    <trkpt lat="36.640499" lon="33.236236"><ele>757.1</ele></trkpt>
    <trkpt lat="36.641534" lon="33.236403"><ele>752.6</ele></trkpt>
    <trkpt lat="36.642104" lon="33.236700"><ele>750.8</ele></trkpt>
    <trkpt lat="36.642024" lon="33.237182"><ele>752.0</ele></trkpt>
    <trkpt lat="36.641355" lon="33.237830"><ele>755.8</ele></trkpt>
    <trkpt lat="36.640384" lon="33.238563"><ele>761.4</ele></trkpt>
    <trkpt lat="36.639511" lon="33.239268"><ele>767.8</ele></trkpt>
    <trkpt lat="36.639098" lon="33.239844"><ele>774.0</ele></trkpt>
    <trkpt lat="36.639331" lon="33.240237"><ele>778.8</ele></trkpt>
    <trkpt lat="36.640151" lon="33.240465"><ele>781.3</ele></trkpt>
    <trkpt lat="36.641272" lon="33.240607"><ele>781.1</ele></trkpt>
    <trkpt lat="36.642297" lon="33.240776"><ele>778.0</ele></trkpt>
    <trkpt lat="36.642868" lon="33.241074"><ele>772.3</ele></trkpt>
    <trkpt lat="36.642799" lon="33.241552"><ele>764.8</ele></trkpt>
    <trkpt lat="36.642150" lon="33.242195"><ele>756.5</ele></trkpt>
    <trkpt lat="36.641200" lon="33.242922"><ele>748.5</ele></trkpt>
    <trkpt lat="36.640343" lon="33.243623"><ele>741.8</ele></trkpt>
    <trkpt lat="36.639934" lon="33.244197"><ele>737.3</ele></trkpt>
    <trkpt lat="36.640156" lon="33.244593"><ele>735.6</ele></trkpt>
    <trkpt lat="36.640950" lon="33.244828"><ele>736.6</ele></trkpt>
    <trkpt lat="36.642041" lon="33.244979"><ele>740.2</ele></trkpt>
    <trkpt lat="36.643043" lon="33.245155"><ele>745.5</ele></trkpt>
    <trkpt lat="36.643606" lon="33.245455"><ele>751.7</ele></trkpt>
    <trkpt lat="36.643550" lon="33.245929"><ele>757.5</ele></trkpt>
    <trkpt lat="36.642931" lon="33.246563"><ele>762.1</ele></trkpt>
    <trkpt lat="36.642019" lon="33.247280"><ele>764.5</ele></trkpt>
    <trkpt lat="36.641193" lon="33.247972"><ele>764.2</ele></trkpt>
    <trkpt lat="36.640796" lon="33.248543"><ele>761.3</ele></trkpt>
    <trkpt lat="36.641004" lon="33.248943"><ele>755.9</ele></trkpt>
    <trkpt lat="36.641763" lon="33.249188"><ele>748.8</ele></trkpt>
    <trkpt lat="36.642809" lon="33.249351"><ele>740.9</ele></trkpt>
    <trkpt lat="36.643772" lon="33.249538"><ele>733.3</ele></trkpt>
    <trkpt lat="36.644319" lon="33.249842"><ele>727.0</ele></trkpt>
    <trkpt lat="36.644277" lon="33.250313"><ele>722.8</ele></trkpt>
    <trkpt lat="36.643699" lon="33.250936"><ele>721.0</ele></trkpt>
    <trkpt lat="36.642840" lon="33.251637"><ele>721.9</ele></trkpt>
    <trkpt lat="36.642060" lon="33.252316"><ele>725.1</ele></trkpt>
    <trkpt lat="36.641683" lon="33.252882"><ele>729.9</ele></trkpt>
    <trkpt lat="36.641876" lon="33.253286"><ele>735.5</ele></trkpt>
    <trkpt lat="36.642589" lon="33.253543"><ele>740.8</ele></trkpt>
    <trkpt lat="36.643575" lon="33.253724"><ele>744.9</ele></trkpt>
    <trkpt lat="36.644486" lon="33.253926"><ele>747.0</ele></trkpt>
    <trkpt lat="36.645008" lon="33.254237"><ele>746.7</ele></trkpt>
    <trkpt lat="36.644981" lon="33.254704"><ele>743.9</ele></trkpt>
    <trkpt lat="36.644453" lon="33.255312"><ele>739.0</ele></trkpt>
    <trkpt lat="36.643661" lon="33.255994"><ele>732.5</ele></trkpt>
    <trkpt lat="36.642941" lon="33.256657"><ele>725.4</ele></trkpt>
    <trkpt lat="36.642592" lon="33.257214"><ele>718.5</ele></trkpt>
    <trkpt lat="36.642771" lon="33.257623"><ele>712.7</ele></trkpt>
    <trkpt lat="36.643429" lon="33.257895"><ele>708.8</ele></trkpt>
    <trkpt lat="36.644341" lon="33.258097"><ele>707.2</ele></trkpt>
    <trkpt lat="36.645185" lon="33.258317"><ele>707.8</ele></trkpt>
    <trkpt lat="36.645676" lon="33.258638"><ele>710.5</ele></trkpt>
    <trkpt lat="36.645663" lon="33.259100"><ele>714.6</ele></trkpt>
    <trkpt lat="36.645193" lon="33.259692"><ele>719.3</ele></trkpt>
    <trkpt lat="36.644483" lon="33.260352"><ele>723.8</ele></trkpt>
    <trkpt lat="36.643835" lon="33.260993"><ele>727.2</ele></trkpt>
    <trkpt lat="36.643522" lon="33.261541"><ele>728.8</ele></trkpt>
    <trkpt lat="36.643686" lon="33.261953"><ele>728.5</ele></trkpt>
    <trkpt lat="36.644283" lon="33.262244"><ele>726.0</ele></trkpt>
    <trkpt lat="36.645107" lon="33.262470"><ele>721.6</ele></trkpt>
    <trkpt lat="36.645873" lon="33.262712"><ele>716.0</ele></trkpt>
    <trkpt lat="36.646323" lon="33.263044"><ele>709.8</ele></trkpt>
    <trkpt lat="36.646325" lon="33.263502"><ele>703.9</ele></trkpt>
    <trkpt lat="36.645921" lon="33.264076"><ele>698.9</ele></trkpt>
    <trkpt lat="36.645303" lon="33.264709"><ele>695.5</ele></trkpt>
    <trkpt lat="36.644739" lon="33.265327"><ele>694.0</ele></trkpt>
    <trkpt lat="36.644471" lon="33.265862"><ele>694.3</ele></trkpt>
    <trkpt lat="36.644621" lon="33.266279"><ele>696.3</ele></trkpt>
    <trkpt lat="36.645149" lon="33.266588"><ele>699.5</ele></trkpt>
    <trkpt lat="36.645875" lon="33.266842"><ele>703.1</ele></trkpt>
    <trkpt lat="36.646551" lon="33.267110"><ele>706.6</ele></trkpt>
    <trkpt lat="36.646953" lon="33.267456"><ele>709.1</ele></trkpt>
    <trkpt lat="36.646969" lon="33.267910"><ele>710.2</ele></trkpt>
    <trkpt lat="36.646636" lon="33.268463"><ele>709.7</ele></trkpt>
    <trkpt lat="36.646121" lon="33.269067"><ele>707.5</ele></trkpt>
    <trkpt lat="36.645653" lon="33.269658"><ele>703.8</ele></trkpt>
    <trkpt lat="36.645436" lon="33.270178"><ele>699.2</ele></trkpt>
    <trkpt lat="36.645573" lon="33.270599"><ele>694.2</ele></trkpt>
    <trkpt lat="36.646027" lon="33.270930"><ele>689.4</ele></trkpt>
    <trkpt lat="36.646646" lon="33.271214"><ele>685.4</ele></trkpt>
    <trkpt lat="36.647221" lon="33.271510"><ele>682.6</ele></trkpt>
    <trkpt lat="36.647568" lon="33.271871"><ele>681.2</ele></trkpt>
    <trkpt lat="36.647597" lon="33.272322"><ele>681.3</ele></trkpt>
    <trkpt lat="36.647340" lon="33.272853"><ele>682.6</ele></trkpt>
    <trkpt lat="36.646936" lon="33.273426"><ele>684.6</ele></trkpt>
    <trkpt lat="36.646574" lon="33.273988"><ele>687.0</ele></trkpt>
    <trkpt lat="36.646415" lon="33.274491"><ele>689.2</ele></trkpt>
    <trkpt lat="36.646539" lon="33.274915"><ele>690.7</ele></trkpt>
    <trkpt lat="36.646915" lon="33.275268"><ele>691.2</ele></trkpt>
    <trkpt lat="36.647419" lon="33.275584"><ele>690.5</ele></trkpt>
    <trkpt lat="36.647885" lon="33.275912"><ele>688.6</ele></trkpt>
    <trkpt lat="36.648171" lon="33.276290"><ele>685.7</ele></trkpt>
    <trkpt lat="36.648211" lon="33.276738"><ele>682.3</ele></trkpt>
    <trkpt lat="36.648033" lon="33.277247"><ele>678.6</ele></trkpt>
    <trkpt lat="36.647748" lon="33.277786"><ele>675.1</ele></trkpt>
    <trkpt lat="36.647498" lon="33.278316"><ele>672.1</ele></trkpt>
    <trkpt lat="36.647404" lon="33.278801"><ele>670.0</ele></trkpt>
    <trkpt lat="36.647518" lon="33.279228"><ele>668.9</ele></trkpt>
    <trkpt lat="36.647814" lon="33.279603"><ele>668.6</ele></trkpt>
    <trkpt lat="36.648196" lon="33.279954"><ele>669.1</ele></trkpt>
    <trkpt lat="36.648546" lon="33.280314"><ele>670.0</ele></trkpt>
    <trkpt lat="36.648766" lon="33.280711"><ele>671.0</ele></trkpt>
    <trkpt lat="36.648814" lon="33.281157"><ele>671.8</ele></trkpt>
    <trkpt lat="36.648718" lon="33.281643"><ele>672.1</ele></trkpt>
    <trkpt lat="36.648557" lon="33.282147"><ele>671.9</ele></trkpt>
    <trkpt lat="36.648426" lon="33.282643"><ele>670.9</ele></trkpt>
    <trkpt lat="36.648400" lon="33.283109"><ele>669.4</ele></trkpt>
    <trkpt lat="36.648507" lon="33.283538"><ele>667.4</ele></trkpt>
    <trkpt lat="36.648720" lon="33.283937"><ele>665.1</ele></trkpt>
    <trkpt lat="36.648977" lon="33.284323"><ele>662.8</ele></trkpt>
    <trkpt lat="36.649206" lon="33.284717"><ele>660.8</ele></trkpt>
    <trkpt lat="36.649355" lon="33.285134"><ele>659.0</ele></trkpt>
    <trkpt lat="36.649409" lon="33.285578"><ele>657.7</ele></trkpt>
    <trkpt lat="36.649395" lon="33.286040"><ele>656.8</ele></trkpt>
    <trkpt lat="36.649360" lon="33.286509"><ele>656.2</ele></trkpt>
    <trkpt lat="36.649352" lon="33.286970"><ele>655.8</ele></trkpt>
    <trkpt lat="36.649400" lon="33.287416"><ele>655.4</ele></trkpt>
    <trkpt lat="36.649501" lon="33.287846"><ele>655.0</ele></trkpt>
    <trkpt lat="36.649633" lon="33.288268"><ele>654.3</ele></trkpt>
    <trkpt lat="36.649763" lon="33.288690"><ele>653.5</ele></trkpt>
    <trkpt lat="36.649867" lon="33.289120"><ele>652.4</ele></trkpt>
    <trkpt lat="36.649941" lon="33.289558"><ele>651.2</ele></trkpt>
    <trkpt lat="36.650000" lon="33.290000"><ele>650.0</ele></trkpt>
    <trkpt lat="36.649991" lon="33.290448"><ele>649.0</ele></trkpt>
    <trkpt lat="36.649963" lon="33.290894"><ele>647.9</ele></trkpt>
    <trkpt lat="36.649915" lon="33.291340"><ele>646.6</ele></trkpt>
    <trkpt lat="36.649863" lon="33.291785"><ele>645.2</ele></trkpt>
    <trkpt lat="36.649829" lon="33.292231"><ele>643.7</ele></trkpt>
    <trkpt lat="36.649832" lon="33.292679"><ele>642.2</ele></trkpt>
    <trkpt lat="36.649873" lon="33.293130"><ele>640.8</ele></trkpt>
    <trkpt lat="36.649933" lon="33.293582"><ele>639.6</ele></trkpt>
    <trkpt lat="36.649979" lon="33.294033"><ele>638.7</ele></trkpt>
    <trkpt lat="36.649975" lon="33.294482"><ele>638.1</ele></trkpt>
    <trkpt lat="36.649905" lon="33.294925"><ele>637.6</ele></trkpt>
    <trkpt lat="36.649779" lon="33.295366"><ele>637.3</ele></trkpt>
    <trkpt lat="36.649633" lon="33.295805"><ele>637.0</ele></trkpt>
    <trkpt lat="36.649521" lon="33.296246"><ele>636.6</ele></trkpt>
    <trkpt lat="36.649487" lon="33.296692"><ele>635.8</ele></trkpt>
    <trkpt lat="36.649551" lon="33.297144"><ele>634.7</ele></trkpt>
    <trkpt lat="36.649689" lon="33.297602"><ele>633.0</ele></trkpt>
    <trkpt lat="36.649847" lon="33.298060"><ele>631.0</ele></trkpt>
    <trkpt lat="36.649953" lon="33.298515"><ele>628.6</ele></trkpt>
    <trkpt lat="36.649950" lon="33.298963"><ele>626.1</ele></trkpt>
    <trkpt lat="36.649821" lon="33.299403"><ele>623.7</ele></trkpt>
    <trkpt lat="36.649598" lon="33.299837"><ele>621.5</ele></trkpt>
    <trkpt lat="36.649355" lon="33.300270"><ele>619.9</ele></trkpt>
    <trkpt lat="36.649182" lon="33.300707"><ele>619.0</ele></trkpt>
    <trkpt lat="36.649147" lon="33.301154"><ele>618.6</ele></trkpt>
    <trkpt lat="36.649269" lon="33.301610"><ele>618.9</ele></trkpt>
    <trkpt lat="36.649503" lon="33.302073"><ele>619.6</ele></trkpt>
    <trkpt lat="36.649757" lon="33.302537"><ele>620.4</ele></trkpt>
    <trkpt lat="36.649924" lon="33.302996"><ele>621.0</ele></trkpt>
    <trkpt lat="36.649923" lon="33.303445"><ele>621.2</ele></trkpt>
    <trkpt lat="36.649737" lon="33.303881"><ele>620.7</ele></trkpt>
    <trkpt lat="36.649419" lon="33.304309"><ele>619.3</ele></trkpt>
    <trkpt lat="36.649081" lon="33.304736"><ele>617.1</ele></trkpt>
    <trkpt lat="36.648847" lon="33.305169"><ele>614.1</ele></trkpt>
    <trkpt lat="36.648809" lon="33.305615"><ele>610.6</ele></trkpt>
    <trkpt lat="36.648986" lon="33.306075"><ele>607.0</ele></trkpt>
    <trkpt lat="36.649313" lon="33.306544"><ele>603.7</ele></trkpt>
    <trkpt lat="36.649662" lon="33.307014"><ele>601.0</ele></trkpt>
    <trkpt lat="36.649890" lon="33.307477"><ele>599.1</ele></trkpt>
    <trkpt lat="36.649893" lon="33.307926"><ele>598.3</ele></trkpt>
    <trkpt lat="36.649653" lon="33.308359"><ele>598.6</ele></trkpt>
    <trkpt lat="36.649244" lon="33.308781"><ele>599.8</ele></trkpt>
    <trkpt lat="36.648812" lon="33.309202"><ele>601.5</ele></trkpt>
    <trkpt lat="36.648518" lon="33.309631"><ele>603.3</ele></trkpt>
    <trkpt lat="36.648475" lon="33.310077"><ele>604.9</ele></trkpt>
    <trkpt lat="36.648705" lon="33.310540"><ele>605.7</ele></trkpt>
    <trkpt lat="36.649121" lon="33.311015"><ele>605.4</ele></trkpt>
    <trkpt lat="36.649562" lon="33.311491"><ele>603.8</ele></trkpt>
    <trkpt lat="36.649849" lon="33.311958"><ele>601.0</ele></trkpt>
    <trkpt lat="36.649858" lon="33.312407"><ele>597.2</ele></trkpt>
    <trkpt lat="36.649567" lon="33.312836"><ele>592.7</ele></trkpt>
    <trkpt lat="36.649071" lon="33.313253"><ele>588.1</ele></trkpt>
    <trkpt lat="36.648549" lon="33.313668"><ele>583.9</ele></trkpt>
    <trkpt lat="36.648196" lon="33.314094"><ele>580.6</ele></trkpt>
    <trkpt lat="36.648147" lon="33.314539"><ele>578.5</ele></trkpt>
    <trkpt lat="36.648425" lon="33.315005"><ele>577.9</ele></trkpt>
    <trkpt lat="36.648926" lon="33.315485"><ele>578.7</ele></trkpt>
    <trkpt lat="36.649455" lon="33.315967"><ele>580.6</ele></trkpt>
    <trkpt lat="36.649801" lon="33.316438"><ele>583.3</ele></trkpt>
    <trkpt lat="36.649817" lon="33.316887"><ele>586.2</ele></trkpt>
    <trkpt lat="36.649479" lon="33.317314"><ele>588.6</ele></trkpt>
    <trkpt lat="36.648901" lon="33.317725"><ele>589.9</ele></trkpt>
    <trkpt lat="36.648293" lon="33.318135"><ele>589.9</ele></trkpt>
    <trkpt lat="36.647882" lon="33.318557"><ele>588.2</ele></trkpt>
    <trkpt lat="36.647826" lon="33.319002"><ele>584.9</ele></trkpt>
    <trkpt lat="36.648149" lon="33.319471"><ele>580.3</ele></trkpt>
    <trkpt lat="36.648729" lon="33.319956"><ele>574.8</ele></trkpt>
    <trkpt lat="36.649342" lon="33.320443"><ele>569.3</ele></trkpt>
    <trkpt lat="36.649744" lon="33.320917"><ele>564.2</ele></trkpt>
    <trkpt lat="36.649768" lon="33.321367"><ele>560.4</ele></trkpt>
    <trkpt lat="36.649387" lon="33.321791"><ele>558.1</ele></trkpt>
    <trkpt lat="36.648733" lon="33.322198"><ele>557.6</ele></trkpt>
    <trkpt lat="36.648043" lon="33.322602"><ele>558.9</ele></trkpt>
    <trkpt lat="36.647577" lon="33.323021"><ele>561.6</ele></trkpt>
    <trkpt lat="36.647512" lon="33.323465"><ele>565.2</ele></trkpt>
    <trkpt lat="36.647876" lon="33.323937"><ele>568.9</ele></trkpt>
    <trkpt lat="36.648530" lon="33.324427"><ele>572.1</ele></trkpt>
    <trkpt lat="36.649221" lon="33.324919"><ele>574.0</ele></trkpt>
    <trkpt lat="36.649677" lon="33.325396"><ele>574.1</ele></trkpt>
    <trkpt lat="36.649710" lon="33.325847"><ele>572.3</ele></trkpt>
    <trkpt lat="36.649291" lon="33.326268"><ele>568.6</ele></trkpt>
    <trkpt lat="36.648566" lon="33.326670"><ele>563.3</ele></trkpt>
    <trkpt lat="36.647801" lon="33.327070"><ele>557.0</ele></trkpt>
    <trkpt lat="36.647283" lon="33.327485"><ele>550.6</ele></trkpt>
    <trkpt lat="36.647208" lon="33.327929"><ele>544.8</ele></trkpt>
    <trkpt lat="36.647608" lon="33.328403"><ele>540.4</ele></trkpt>
    <trkpt lat="36.648329" lon="33.328897"><ele>537.9</ele></trkpt>
    <trkpt lat="36.649093" lon="33.329394"><ele>537.5</ele></trkpt>
    <trkpt lat="36.649599" lon="33.329874"><ele>539.2</ele></trkpt>
    <trkpt lat="36.649642" lon="33.330325"><ele>542.6</ele></trkpt>
    <trkpt lat="36.649190" lon="33.330745"><ele>546.9</ele></trkpt>
    <trkpt lat="36.648401" lon="33.331143"><ele>551.5</ele></trkpt>
    <trkpt lat="36.647567" lon="33.331538"><ele>555.3</ele></trkpt>
    <trkpt lat="36.647000" lon="33.331950"><ele>557.7</ele></trkpt>
    <trkpt lat="36.646915" lon="33.332393"><ele>558.1</ele></trkpt>
    <trkpt lat="36.647346" lon="33.332869"><ele>556.2</ele></trkpt>
    <trkpt lat="36.648127" lon="33.333367"><ele>552.0</ele></trkpt>
    <trkpt lat="36.648957" lon="33.333868"><ele>546.2</ele></trkpt>
    <trkpt lat="36.649510" lon="33.334352"><ele>539.2</ele></trkpt>
    <trkpt lat="36.649564" lon="33.334804"><ele>532.0</ele></trkpt>
    <trkpt lat="36.649083" lon="33.335221"><ele>525.6</ele></trkpt>
    <trkpt lat="36.648238" lon="33.335616"><ele>520.8</ele></trkpt>
    <trkpt lat="36.647341" lon="33.336007"><ele>518.1</ele></trkpt>
    <trkpt lat="36.646729" lon="33.336416"><ele>517.8</ele></trkpt>
    <trkpt lat="36.646634" lon="33.336859"><ele>519.8</ele></trkpt>
    <trkpt lat="36.647090" lon="33.337336"><ele>523.7</ele></trkpt>
    <trkpt lat="36.647924" lon="33.337837"><ele>528.7</ele></trkpt>
    <trkpt lat="36.648812" lon="33.338342"><ele>533.9</ele></trkpt>
    <trkpt lat="36.649408" lon="33.338828"><ele>538.4</ele></trkpt>
    <trkpt lat="36.649473" lon="33.339281"><ele>541.2</ele></trkpt>
    <trkpt lat="36.648968" lon="33.339697"><ele>541.7</ele></trkpt>
    <trkpt lat="36.648075" lon="33.340089"><ele>539.7</ele></trkpt>
    <trkpt lat="36.647123" lon="33.340476"><ele>535.3</ele></trkpt>
    <trkpt lat="36.646471" lon="33.340883"><ele>528.9</ele></trkpt>
    <trkpt lat="36.646364" lon="33.341325"><ele>521.4</ele></trkpt>
    <trkpt lat="36.646842" lon="33.341803"><ele>513.7</ele></trkpt>
    <trkpt lat="36.647720" lon="33.342308"><ele>506.7</ele></trkpt>
    <trkpt lat="36.648659" lon="33.342816"><ele>501.5</ele></trkpt>
    <trkpt lat="36.649293" lon="33.343304"><ele>498.6</ele></trkpt>
    <trkpt lat="36.649369" lon="33.343757"><ele>498.4</ele></trkpt>
    <trkpt lat="36.648846" lon="33.344172"><ele>500.6</ele></trkpt>
    <trkpt lat="36.647912" lon="33.344561"><ele>504.9</ele></trkpt>
    <trkpt lat="36.646914" lon="33.344946"><ele>510.5</ele></trkpt>
    <trkpt lat="36.646227" lon="33.345351"><ele>516.2</ele></trkpt>
    <trkpt lat="36.646109" lon="33.345791"><ele>521.1</ele></trkpt>
    <trkpt lat="36.646602" lon="33.346271"><ele>524.2</ele></trkpt>
    <trkpt lat="36.647517" lon="33.346778"><ele>524.9</ele></trkpt>
    <trkpt lat="36.648498" lon="33.347288"><ele>522.9</ele></trkpt>
    <trkpt lat="36.649164" lon="33.347779"><ele>518.3</ele></trkpt>
    <trkpt lat="36.649251" lon="33.348233"><ele>511.6</ele></trkpt>
    <trkpt lat="36.648715" lon="33.348647"><ele>503.6</ele></trkpt>
    <trkpt lat="36.647749" lon="33.349034"><ele>495.4</ele></trkpt>
    <trkpt lat="36.646713" lon="33.349416"><ele>488.1</ele></trkpt>
    <trkpt lat="36.645996" lon="33.349819"><ele>482.6</ele></trkpt>
    <trkpt lat="36.645867" lon="33.350259"><ele>479.5</ele></trkpt>
    <trkpt lat="36.646372" lon="33.350740"><ele>479.3</ele></trkpt>
    <trkpt lat="36.647314" lon="33.351248"><ele>481.8</ele></trkpt>
    <trkpt lat="36.648328" lon="33.351761"><ele>486.4</ele></trkpt>
    <trkpt lat="36.649021" lon="33.352253"><ele>492.2</ele></trkpt>
    <trkpt lat="36.649119" lon="33.352708"><ele>498.3</ele></trkpt>
    <trkpt lat="36.648574" lon="33.353121"><ele>503.6</ele></trkpt>
    <trkpt lat="36.647585" lon="33.353507"><ele>506.9</ele></trkpt>
    <trkpt lat="36.646521" lon="33.353887"><ele>507.8</ele></trkpt>
    <trkpt lat="36.645780" lon="33.354289"><ele>505.7</ele></trkpt>
    <trkpt lat="36.645640" lon="33.354728"><ele>501.0</ele></trkpt>
    <trkpt lat="36.646150" lon="33.355209"><ele>494.0</ele></trkpt>
    <trkpt lat="36.647111" lon="33.355718"><ele>485.8</ele></trkpt>
    <trkpt lat="36.648150" lon="33.356233"><ele>477.3</ele></trkpt>
    <trkpt lat="36.648864" lon="33.356726"><ele>469.7</ele></trkpt>
    <trkpt lat="36.648972" lon="33.357182"><ele>464.0</ele></trkpt>
    <trkpt lat="36.648424" lon="33.357595"><ele>460.9</ele></trkpt>
    <trkpt lat="36.647421" lon="33.357979"><ele>460.7</ele></trkpt>
    <trkpt lat="36.646337" lon="33.358359"><ele>463.2</ele></trkpt>
    <trkpt lat="36.645578" lon="33.358759"><ele>467.9</ele></trkpt>
    <trkpt lat="36.645429" lon="33.359198"><ele>474.0</ele></trkpt>
    <trkpt lat="36.645939" lon="33.359678"><ele>480.3</ele></trkpt>
    <trkpt lat="36.646910" lon="33.360188"><ele>485.7</ele></trkpt>
    <trkpt lat="36.647964" lon="33.360704"><ele>489.3</ele></trkpt>
    <trkpt lat="36.648692" lon="33.361199"><ele>490.2</ele></trkpt>
    <trkpt lat="36.648810" lon="33.361654"><ele>488.2</ele></trkpt>
    <trkpt lat="36.648264" lon="33.362068"><ele>483.4</ele></trkpt>
    <trkpt lat="36.647255" lon="33.362452"><ele>476.3</ele></trkpt>
    <trkpt lat="36.646161" lon="33.362831"><ele>468.0</ele></trkpt>
    <trkpt lat="36.645391" lon="33.363230"><ele>459.4</ele></trkpt>
    <trkpt lat="36.645232" lon="33.363668"><ele>451.7</ele></trkpt>
    <trkpt lat="36.645739" lon="33.364149"><ele>445.9</ele></trkpt>
    <trkpt lat="36.646710" lon="33.364659"><ele>442.7</ele></trkpt>
    <trkpt lat="36.647770" lon="33.365175"><ele>442.4</ele></trkpt>
    <trkpt lat="36.648506" lon="33.365670"><ele>444.9</ele></trkpt>
    <trkpt lat="36.648632" lon="33.366126"><ele>449.7</ele></trkpt>
    <trkpt lat="36.648092" lon="33.366540"><ele>455.8</ele></trkpt>
    <trkpt lat="36.647087" lon="33.366924"><ele>462.2</ele></trkpt>
    <trkpt lat="36.645992" lon="33.367303"><ele>467.6</ele></trkpt>
    <trkpt lat="36.645218" lon="33.367702"><ele>471.2</ele></trkpt>
    <trkpt lat="36.645052" lon="33.368140"><ele>472.1</ele></trkpt>
    <trkpt lat="36.645549" lon="33.368620"><ele>470.1</ele></trkpt>
    <trkpt lat="36.646513" lon="33.369129"><ele>465.4</ele></trkpt>
    <trkpt lat="36.647568" lon="33.369645"><ele>458.4</ele></trkpt>
    <trkpt lat="36.648305" lon="33.370140"><ele>450.1</ele></trkpt>
    <trkpt lat="36.648438" lon="33.370597"><ele>441.6</ele></trkpt>
    <trkpt lat="36.647910" lon="33.371012"><ele>433.9</ele></trkpt>
    <trkpt lat="36.646917" lon="33.371397"><ele>428.1</ele></trkpt>
    <trkpt lat="36.645831" lon="33.371776"><ele>424.9</ele></trkpt>
    <trkpt lat="36.645059" lon="33.372175"><ele>424.6</ele></trkpt>
    <trkpt lat="36.644887" lon="33.372613"><ele>427.0</ele></trkpt>
    <trkpt lat="36.645371" lon="33.373092"><ele>431.7</ele></trkpt>
    <trkpt lat="36.646318" lon="33.373600"><ele>437.7</ele></trkpt>
    <trkpt lat="36.647359" lon="33.374115"><ele>443.9</ele></trkpt>
    <trkpt lat="36.648091" lon="33.374610"><ele>449.2</ele></trkpt>
    <trkpt lat="36.648229" lon="33.375067"><ele>452.7</ele></trkpt>
    <trkpt lat="36.647716" lon="33.375482"><ele>453.6</ele></trkpt>
    <trkpt lat="36.646744" lon="33.375869"><ele>451.7</ele></trkpt>
    <trkpt lat="36.645677" lon="33.376249"><ele>447.1</ele></trkpt>
    <trkpt lat="36.644914" lon="33.376649"><ele>440.3</ele></trkpt>
    <trkpt lat="36.644738" lon="33.377086"><ele>432.2</ele></trkpt>
    <trkpt lat="36.645204" lon="33.377564"><ele>423.9</ele></trkpt>
    <trkpt lat="36.646126" lon="33.378071"><ele>416.4</ele></trkpt>
    <trkpt lat="36.647143" lon="33.378584"><ele>410.7</ele></trkpt>
    <trkpt lat="36.647862" lon="33.379078"><ele>407.6</ele></trkpt>
    <trkpt lat="36.648004" lon="33.379536"><ele>407.2</ele></trkpt>
    <trkpt lat="36.647511" lon="33.379953"><ele>409.5</ele></trkpt>
    <trkpt lat="36.646568" lon="33.380341"><ele>413.9</ele></trkpt>
    <trkpt lat="36.645529" lon="33.380723"><ele>419.6</ele></trkpt>
    <trkpt lat="36.644783" lon="33.381124"><ele>425.5</ele></trkpt>
    <trkpt lat="36.644604" lon="33.381561"><ele>430.5</ele></trkpt>
    <trkpt lat="36.645049" lon="33.382037"><ele>433.9</ele></trkpt>
    <trkpt lat="36.645937" lon="33.382542"><ele>434.7</ele></trkpt>
    <trkpt lat="36.646922" lon="33.383053"><ele>432.9</ele></trkpt>
    <trkpt lat="36.647621" lon="33.383546"><ele>428.5</ele></trkpt>
    <trkpt lat="36.647764" lon="33.384003"><ele>422.0</ele></trkpt>
    <trkpt lat="36.647295" lon="33.384422"><ele>414.2</ele></trkpt>
    <trkpt lat="36.646389" lon="33.384813"><ele>406.3</ele></trkpt>
    <trkpt lat="36.645387" lon="33.385197"><ele>399.2</ele></trkpt>
    <trkpt lat="36.644664" lon="33.385599"><ele>393.7</ele></trkpt>
    <trkpt lat="36.644485" lon="33.386036"><ele>390.6</ele></trkpt>
    <trkpt lat="36.644904" lon="33.386511"><ele>390.2</ele></trkpt>
    <trkpt lat="36.645752" lon="33.387014"><ele>392.2</ele></trkpt>
    <trkpt lat="36.646695" lon="33.387522"><ele>396.3</ele></trkpt>
    <trkpt lat="36.647367" lon="33.388013"><ele>401.5</ele></trkpt>
    <trkpt lat="36.647510" lon="33.388470"><ele>407.0</ele></trkpt>
    <trkpt lat="36.647067" lon="33.388890"><ele>411.6</ele></trkpt>
    <trkpt lat="36.646206" lon="33.389284"><ele>414.7</ele></trkpt>
    <trkpt lat="36.645251" lon="33.389672"><ele>415.4</ele></trkpt>
    <trkpt lat="36.644558" lon="33.390076"><ele>413.7</ele></trkpt>
    <trkpt lat="36.644380" lon="33.390513"><ele>409.5</ele></trkpt>
    <trkpt lat="36.644771" lon="33.390986"><ele>403.4</ele></trkpt>
    <trkpt lat="36.645570" lon="33.391485"><ele>396.2</ele></trkpt>
    <trkpt lat="36.646463" lon="33.391990"><ele>388.8</ele></trkpt>
    <trkpt lat="36.647101" lon="33.392479"><ele>382.1</ele></trkpt>
    <trkpt lat="36.647241" lon="33.392936"><ele>377.1</ele></trkpt>
    <trkpt lat="36.646828" lon="33.393358"><ele>374.1</ele></trkpt>
    <trkpt lat="36.646019" lon="33.393755"><ele>373.6</ele></trkpt>
    <trkpt lat="36.645119" lon="33.394146"><ele>375.3</ele></trkpt>
    <trkpt lat="36.644462" lon="33.394553"><ele>378.9</ele></trkpt>
    <trkpt lat="36.644289" lon="33.394990"><ele>383.5</ele></trkpt>
    <trkpt lat="36.644649" lon="33.395461"><ele>388.4</ele></trkpt>
    <trkpt lat="36.645393" lon="33.395957"><ele>392.5</ele></trkpt>
    <trkpt lat="36.646226" lon="33.396458"><ele>395.1</ele></trkpt>
    <trkpt lat="36.646825" lon="33.396945"><ele>395.7</ele></trkpt>
    <trkpt lat="36.646959" lon="33.397402"><ele>394.0</ele></trkpt>
    <trkpt lat="36.646579" lon="33.397826"><ele>390.2</ele></trkpt>
    <trkpt lat="36.645828" lon="33.398226"><ele>384.7</ele></trkpt>
    <trkpt lat="36.644991" lon="33.398621"><ele>378.1</ele></trkpt>
    <trkpt lat="36.644378" lon="33.399031"><ele>371.4</ele></trkpt>
    <trkpt lat="36.644210" lon="33.399468"><ele>365.3</ele></trkpt>
    <trkpt lat="36.644537" lon="33.399937"><ele>360.7</ele></trkpt>
    <trkpt lat="36.645220" lon="33.400429"><ele>357.9</ele></trkpt>
    <trkpt lat="36.645986" lon="33.400926"><ele>357.3</ele></trkpt>
    <trkpt lat="36.646539" lon="33.401410"><ele>358.7</ele></trkpt>
    <trkpt lat="36.646665" lon="33.401866"><ele>361.7</ele></trkpt>
    <trkpt lat="36.646319" lon="33.402292"><ele>365.6</ele></trkpt>
    <trkpt lat="36.645633" lon="33.402697"><ele>369.7</ele></trkpt>
    <trkpt lat="36.644866" lon="33.403096"><ele>373.2</ele></trkpt>
    <trkpt lat="36.644302" lon="33.403509"><ele>375.3</ele></trkpt>
    <trkpt lat="36.644144" lon="33.403947"><ele>375.7</ele></trkpt>
    <trkpt lat="36.644435" lon="33.404414"><ele>374.1</ele></trkpt>
    <trkpt lat="36.645051" lon="33.404901"><ele>370.7</ele></trkpt>
    <trkpt lat="36.645743" lon="33.405394"><ele>365.7</ele></trkpt>
    <trkpt lat="36.646244" lon="33.405874"><ele>360.0</ele></trkpt>
    <trkpt lat="36.646360" lon="33.406330"><ele>354.0</ele></trkpt>
    <trkpt lat="36.646050" lon="33.406758"><ele>348.7</ele></trkpt>
    <trkpt lat="36.645433" lon="33.407167"><ele>344.6</ele></trkpt>
    <trkpt lat="36.644743" lon="33.407572"><ele>342.1</ele></trkpt>
    <trkpt lat="36.644235" lon="33.407988"><ele>341.4</ele></trkpt>
    <trkpt lat="36.644088" lon="33.408427"><ele>342.4</ele></trkpt>
    <trkpt lat="36.644343" lon="33.408891"><ele>344.7</ele></trkpt>
    <trkpt lat="36.644886" lon="33.409374"><ele>347.8</ele></trkpt>
    <trkpt lat="36.645498" lon="33.409861"><ele>351.0</ele></trkpt>
    <trkpt lat="36.645941" lon="33.410338"><ele>353.7</ele></trkpt>
    <trkpt lat="36.646044" lon="33.410793"><ele>355.3</ele></trkpt>
    <trkpt lat="36.645772" lon="33.411224"><ele>355.4</ele></trkpt>
    <trkpt lat="36.645230" lon="33.411638"><ele>353.9</ele></trkpt>
    <trkpt lat="36.644623" lon="33.412047"><ele>350.8</ele></trkpt>
    <trkpt lat="36.644175" lon="33.412467"><ele>346.6</ele></trkpt>
    <trkpt lat="36.644042" lon="33.412907"><ele>341.7</ele></trkpt>
    <trkpt lat="36.644259" lon="33.413369"><ele>336.7</ele></trkpt>
    <trkpt lat="36.644725" lon="33.413847"><ele>332.2</ele></trkpt>
    <trkpt lat="36.645252" lon="33.414329"><ele>328.7</ele></trkpt>
    <trkpt lat="36.645631" lon="33.414801"><ele>326.5</ele></trkpt>
    <trkpt lat="36.645719" lon="33.415255"><ele>325.7</ele></trkpt>
    <trkpt lat="36.645485" lon="33.415689"><ele>326.3</ele></trkpt>
    <trkpt lat="36.645022" lon="33.416107"><ele>327.9</ele></trkpt>
    <trkpt lat="36.644504" lon="33.416523"><ele>330.0</ele></trkpt>
    <trkpt lat="36.644121" lon="33.416947"><ele>332.3</ele></trkpt>
    <trkpt lat="36.644005" lon="33.417388"><ele>334.1</ele></trkpt>
    <trkpt lat="36.644183" lon="33.417847"><ele>335.0</ele></trkpt>
    <trkpt lat="36.644569" lon="33.418320"><ele>334.8</ele></trkpt>
    <trkpt lat="36.645004" lon="33.418796"><ele>333.4</ele></trkpt>
    <trkpt lat="36.645316" lon="33.419264"><ele>330.8</ele></trkpt>
    <trkpt lat="36.645386" lon="33.419717"><ele>327.3</ele></trkpt>
    <trkpt lat="36.645191" lon="33.420153"><ele>323.4</ele></trkpt>
    <trkpt lat="36.644809" lon="33.420577"><ele>319.4</ele></trkpt>
    <trkpt lat="36.644385" lon="33.420998"><ele>315.8</ele></trkpt>
    <trkpt lat="36.644071" lon="33.421427"><ele>313.0</ele></trkpt>
    <trkpt lat="36.643975" lon="33.421869"><ele>311.1</ele></trkpt>
    <trkpt lat="36.644113" lon="33.422326"><ele>310.2</ele></trkpt>
    <trkpt lat="36.644417" lon="33.422794"><ele>310.4</ele></trkpt>
    <trkpt lat="36.644757" lon="33.423264"><ele>311.2</ele></trkpt>
    <trkpt lat="36.644998" lon="33.423727"><ele>312.4</ele></trkpt>
    <trkpt lat="36.645047" lon="33.424179"><ele>313.6</ele></trkpt>
    <trkpt lat="36.644891" lon="33.424617"><ele>314.4</ele></trkpt>
    <trkpt lat="36.644593" lon="33.425046"><ele>314.7</ele></trkpt>
    <trkpt lat="36.644266" lon="33.425474"><ele>314.1</ele></trkpt>
    <trkpt lat="36.644026" lon="33.425907"><ele>312.7</ele></trkpt>
    <trkpt lat="36.643950" lon="33.426350"><ele>310.6</ele></trkpt>
    <trkpt lat="36.644050" lon="33.426805"><ele>307.9</ele></trkpt>
    <trkpt lat="36.644269" lon="33.427267"><ele>305.0</ele></trkpt>
    <trkpt lat="36.644510" lon="33.427731"><ele>302.1</ele></trkpt>
    <trkpt lat="36.644676" lon="33.428190"><ele>299.5</ele></trkpt>
    <trkpt lat="36.644703" lon="33.428640"><ele>297.4</ele></trkpt>
    <trkpt lat="36.644586" lon="33.429081"><ele>295.8</ele></trkpt>
    <trkpt lat="36.644373" lon="33.429516"><ele>294.9</ele></trkpt>
    <trkpt lat="36.644145" lon="33.429949"><ele>294.6</ele></trkpt>
    <trkpt lat="36.643982" lon="33.430387"><ele>294.6</ele></trkpt>
    <trkpt lat="36.643930" lon="33.430832"><ele>294.7</ele></trkpt>
    <trkpt lat="36.643991" lon="33.431285"><ele>294.8</ele></trkpt>
    <trkpt lat="36.644124" lon="33.431741"><ele>294.7</ele></trkpt>
    <trkpt lat="36.644265" lon="33.432199"><ele>294.2</ele></trkpt>
    <trkpt lat="36.644353" lon="33.432652"><ele>293.3</ele></trkpt>
    <trkpt lat="36.644355" lon="33.433101"><ele>291.9</ele></trkpt>
    <trkpt lat="36.644276" lon="33.433544"><ele>290.3</ele></trkpt>
    <trkpt lat="36.644150" lon="33.433984"><ele>288.4</ele></trkpt>
    <trkpt lat="36.644024" lon="33.434425"><ele>286.6</ele></trkpt>
    <trkpt lat="36.643939" lon="33.434868"><ele>284.8</ele></trkpt>
    <trkpt lat="36.643913" lon="33.435314"><ele>283.2</ele></trkpt>
    <trkpt lat="36.643937" lon="33.435764"><ele>281.8</ele></trkpt>
    <trkpt lat="36.643983" lon="33.436215"><ele>280.7</ele></trkpt>
    <trkpt lat="36.644021" lon="33.436666"><ele>279.7</ele></trkpt>
    <trkpt lat="36.644029" lon="33.437115"><ele>278.9</ele></trkpt>
    <trkpt lat="36.644005" lon="33.437562"><ele>278.1</ele></trkpt>
    <trkpt lat="36.643963" lon="33.438007"><ele>277.2</ele></trkpt>
    <trkpt lat="36.643923" lon="33.438453"><ele>276.2</ele></trkpt>
    <trkpt lat="36.643900" lon="33.438900"><ele>275.0</ele></trkpt>
    </trkseg>
  </trk>
</gpx>
