<?xml version="1.0" encoding="UTF-8"?>
<gpx version="1.1" creator="tripplanner (sketch line from researched control points)" xmlns="http://www.topografix.com/GPX/1/1">
  <metadata>
    <name>taurus-taseli — Taşkent → Sarıveliler → Ermenek</name>
    <desc>87.0 km, 1900 m. Sketch line through researched control points, calibrated to 87 km / 1900 m of road — drawn, not routed.</desc>
  </metadata>
  <trk>
    <name>taurus-taseli — Taşkent → Sarıveliler → Ermenek</name>
    <trkseg>
    <trkpt lat="36.924300" lon="32.491300"><ele>1450.0</ele></trkpt>
    <trkpt lat="36.923982" lon="32.491513"><ele>1451.4</ele></trkpt>
    <trkpt lat="36.923673" lon="32.491749"><ele>1453.0</ele></trkpt>
    <trkpt lat="36.923359" lon="32.491973"><ele>1454.7</ele></trkpt>
    <trkpt lat="36.923028" lon="32.492153"><ele>1456.4</ele></trkpt>
    <trkpt lat="36.922676" lon="32.492276"><ele>1457.8</ele></trkpt>
    <trkpt lat="36.922310" lon="32.492365"><ele>1459.0</ele></trkpt>
    <trkpt lat="36.921949" lon="32.492466"><ele>1459.7</ele></trkpt>
    <trkpt lat="36.921614" lon="32.492634"><ele>1460.1</ele></trkpt>
    <trkpt lat="36.921317" lon="32.492901"><ele>1460.2</ele></trkpt>
    <trkpt lat="36.921054" lon="32.493258"><ele>1460.3</ele></trkpt>
    <trkpt lat="36.920804" lon="32.493649"><ele>1460.6</ele></trkpt>
    <trkpt lat="36.920536" lon="32.493991"><ele>1461.2</ele></trkpt>
    <trkpt lat="36.920221" lon="32.494212"><ele>1462.5</ele></trkpt>
    <trkpt lat="36.919847" lon="32.494278"><ele>1464.5</ele></trkpt>
    <trkpt lat="36.919426" lon="32.494224"><ele>1467.1</ele></trkpt>
    <trkpt lat="36.918993" lon="32.494138"><ele>1470.3</ele></trkpt>
    <trkpt lat="36.918592" lon="32.494135"><ele>1473.6</ele></trkpt>
    <trkpt lat="36.918259" lon="32.494309"><ele>1476.9</ele></trkpt>
    <trkpt lat="36.918005" lon="32.494690"><ele>1479.7</ele></trkpt>
    <trkpt lat="36.917810" lon="32.495223"><ele>1481.7</ele></trkpt>
    <trkpt lat="36.917626" lon="32.495784"><ele>1482.7</ele></trkpt>
    <trkpt lat="36.917397" lon="32.496227"><ele>1482.7</ele></trkpt>
    <trkpt lat="36.917078" lon="32.496439"><ele>1481.7</ele></trkpt>
    <trkpt lat="36.916661" lon="32.496393"><ele>1480.2</ele></trkpt>
    <trkpt lat="36.916173" lon="32.496165"><ele>1478.4</ele></trkpt>
    <trkpt lat="36.915676" lon="32.495913"><ele>1476.9</ele></trkpt>
    <trkpt lat="36.915238" lon="32.495815"><ele>1476.1</ele></trkpt>
    <trkpt lat="36.914910" lon="32.496000"><ele>1476.5</ele></trkpt>
    <trkpt lat="36.914699" lon="32.496492"><ele>1478.2</ele></trkpt>
    <trkpt lat="36.914569" lon="32.497194"><ele>1481.3</ele></trkpt>
    <trkpt lat="36.914447" lon="32.497916"><ele>1485.6</ele></trkpt>
    <trkpt lat="36.914252" lon="32.498449"><ele>1490.6</ele></trkpt>
    <trkpt lat="36.913929" lon="32.498647"><ele>1495.8</ele></trkpt>
    <trkpt lat="36.913469" lon="32.498491"><ele>1500.6</ele></trkpt>
    <trkpt lat="36.912918" lon="32.498100"><ele>1504.4</ele></trkpt>
    <trkpt lat="36.912362" lon="32.497695"><ele>1506.6</ele></trkpt>
    <trkpt lat="36.911892" lon="32.497511"><ele>1507.2</ele></trkpt>
    <trkpt lat="36.911569" lon="32.497712"><ele>1506.0</ele></trkpt>
    <trkpt lat="36.911400" lon="32.498312"><ele>1503.5</ele></trkpt>
    <trkpt lat="36.911330" lon="32.499170"><ele>1500.2</ele></trkpt>
    <trkpt lat="36.911264" lon="32.500038"><ele>1496.6</ele></trkpt>
    <trkpt lat="36.911099" lon="32.500650"><ele>1493.7</ele></trkpt>
    <trkpt lat="36.910769" lon="32.500831"><ele>1492.1</ele></trkpt>
    <trkpt lat="36.910269" lon="32.500571"><ele>1492.3</ele></trkpt>
    <trkpt lat="36.909661" lon="32.500030"><ele>1494.5</ele></trkpt>
    <trkpt lat="36.909053" lon="32.499488"><ele>1498.7</ele></trkpt>
    <trkpt lat="36.908554" lon="32.499233"><ele>1504.4</ele></trkpt>
    <trkpt lat="36.908239" lon="32.499451"><ele>1511.1</ele></trkpt>
    <trkpt lat="36.908108" lon="32.500152"><ele>1517.9</ele></trkpt>
    <trkpt lat="36.908093" lon="32.501151"><ele>1523.9</ele></trkpt>
    <trkpt lat="36.908076" lon="32.502146"><ele>1528.4</ele></trkpt>
    <trkpt lat="36.907936" lon="32.502823"><ele>1530.8</ele></trkpt>
    <trkpt lat="36.907599" lon="32.502985"><ele>1530.9</ele></trkpt>
    <trkpt lat="36.907062" lon="32.502629"><ele>1528.8</ele></trkpt>
    <trkpt lat="36.906403" lon="32.501957"><ele>1524.9</ele></trkpt>
    <trkpt lat="36.905749" lon="32.501297"><ele>1520.1</ele></trkpt>
    <trkpt lat="36.905229" lon="32.500984"><ele>1515.1</ele></trkpt>
    <trkpt lat="36.904921" lon="32.501224"><ele>1511.1</ele></trkpt>
    <trkpt lat="36.904825" lon="32.502014"><ele>1508.9</ele></trkpt>
    <trkpt lat="36.904857" lon="32.503135"><ele>1508.9</ele></trkpt>
    <trkpt lat="36.904880" lon="32.504236"><ele>1511.6</ele></trkpt>
    <trkpt lat="36.904760" lon="32.504963"><ele>1516.7</ele></trkpt>
    <trkpt lat="36.904414" lon="32.505103"><ele>1523.6</ele></trkpt>
    <trkpt lat="36.903845" lon="32.504664"><ele>1531.6</ele></trkpt>
    <trkpt lat="36.903144" lon="32.503881"><ele>1539.6</ele></trkpt>
    <trkpt lat="36.902454" lon="32.503127"><ele>1546.6</ele></trkpt>
    <trkpt lat="36.901917" lon="32.502771"><ele>1551.6</ele></trkpt>
    <trkpt lat="36.901618" lon="32.503034"><ele>1554.0</ele></trkpt>
    <trkpt lat="36.901552" lon="32.503901"><ele>1553.7</ele></trkpt>
    <trkpt lat="36.901621" lon="32.505121"><ele>1550.8</ele></trkpt>
    <trkpt lat="36.901676" lon="32.506303"><ele>1545.9</ele></trkpt>
    <trkpt lat="36.901570" lon="32.507066"><ele>1539.9</ele></trkpt>
    <trkpt lat="36.901215" lon="32.507182"><ele>1534.0</ele></trkpt>
    <trkpt lat="36.900619" lon="32.506674"><ele>1529.3</ele></trkpt>
    <trkpt lat="36.899885" lon="32.505805"><ele>1526.6</ele></trkpt>
    <trkpt lat="36.899168" lon="32.504982"><ele>1526.7</ele></trkpt>
    <trkpt lat="36.898620" lon="32.504599"><ele>1529.7</ele></trkpt>
    <trkpt lat="36.898331" lon="32.504885"><ele>1535.5</ele></trkpt>
    <trkpt lat="36.898288" lon="32.505813"><ele>1543.3</ele></trkpt>
    <trkpt lat="36.898385" lon="32.507106"><ele>1552.2</ele></trkpt>
    <trkpt lat="36.898462" lon="32.508345"><ele>1560.9</ele></trkpt>
    <trkpt lat="36.898363" lon="32.509126"><ele>1568.4</ele></trkpt>
    <trkpt lat="36.897999" lon="32.509219"><ele>1573.7</ele></trkpt>
    <trkpt lat="36.897383" lon="32.508658"><ele>1576.1</ele></trkpt>
    <trkpt lat="36.896626" lon="32.507729"><ele>1575.4</ele></trkpt>
    <trkpt lat="36.895892" lon="32.506864"><ele>1572.0</ele></trkpt>
    <trkpt lat="36.895341" lon="32.506470"><ele>1566.4</ele></trkpt>
    <trkpt lat="36.895060" lon="32.506779"><ele>1559.8</ele></trkpt>
    <trkpt lat="36.895034" lon="32.507750"><ele>1553.4</ele></trkpt>
    <trkpt lat="36.895149" lon="32.509089"><ele>1548.3</ele></trkpt>
    <trkpt lat="36.895237" lon="32.510357"><ele>1545.5</ele></trkpt>
    <trkpt lat="36.895139" lon="32.511141"><ele>1545.7</ele></trkpt>
    <trkpt lat="36.894767" lon="32.511213"><ele>1549.0</ele></trkpt>
    <trkpt lat="36.894137" lon="32.510617"><ele>1555.2</ele></trkpt>
    <trkpt lat="36.893368" lon="32.509657"><ele>1563.4</ele></trkpt>
    <trkpt lat="36.892628" lon="32.508776"><ele>1572.7</ele></trkpt>
    <trkpt lat="36.892079" lon="32.508387"><ele>1581.7</ele></trkpt>
    <trkpt lat="36.891806" lon="32.508716"><ele>1589.3</ele></trkpt>
    <trkpt lat="36.891789" lon="32.509712"><ele>1594.6</ele></trkpt>
    <trkpt lat="36.891911" lon="32.511068"><ele>1596.9</ele></trkpt>
    <trkpt lat="36.892000" lon="32.512338"><ele>1596.0</ele></trkpt>
    <trkpt lat="36.891897" lon="32.513109"><ele>1592.2</ele></trkpt>
    <trkpt lat="36.891517" lon="32.513162"><ele>1586.5</ele></trkpt>
    <trkpt lat="36.890882" lon="32.512552"><ele>1579.8</ele></trkpt>
    <trkpt lat="36.890112" lon="32.511590"><ele>1573.3</ele></trkpt>
    <trkpt lat="36.889377" lon="32.510720"><ele>1568.2</ele></trkpt>
    <trkpt lat="36.888835" lon="32.510351"><ele>1565.6</ele></trkpt>
    <trkpt lat="36.888568" lon="32.510698"><ele>1566.0</ele></trkpt>
    <trkpt lat="36.888554" lon="32.511698"><ele>1569.5</ele></trkpt>
    <trkpt lat="36.888671" lon="32.513042"><ele>1575.7</ele></trkpt>
    <trkpt lat="36.888750" lon="32.514286"><ele>1583.9</ele></trkpt>
    <trkpt lat="36.888637" lon="32.515030"><ele>1593.1</ele></trkpt>
    <trkpt lat="36.888251" lon="32.515068"><ele>1601.9</ele></trkpt>
    <trkpt lat="36.887618" lon="32.514464"><ele>1609.3</ele></trkpt>
    <trkpt lat="36.886858" lon="32.513529"><ele>1614.2</ele></trkpt>
    <trkpt lat="36.886138" lon="32.512698"><ele>1616.3</ele></trkpt>
    <trkpt lat="36.885609" lon="32.512363"><ele>1615.3</ele></trkpt>
    <trkpt lat="36.885348" lon="32.512722"><ele>1611.7</ele></trkpt>
    <trkpt lat="36.885327" lon="32.513706"><ele>1606.2</ele></trkpt>
    <trkpt lat="36.885428" lon="32.515008"><ele>1599.8</ele></trkpt>
    <trkpt lat="36.885487" lon="32.516201"><ele>1593.8</ele></trkpt>
    <trkpt lat="36.885358" lon="32.516905"><ele>1589.2</ele></trkpt>
    <trkpt lat="36.884969" lon="32.516932"><ele>1587.0</ele></trkpt>
    <trkpt lat="36.884346" lon="32.516355"><ele>1587.6</ele></trkpt>
    <trkpt lat="36.883608" lon="32.515476"><ele>1591.1</ele></trkpt>
    <trkpt lat="36.882913" lon="32.514709"><ele>1597.1</ele></trkpt>
    <trkpt lat="36.882402" lon="32.514420"><ele>1604.9</ele></trkpt>
    <trkpt lat="36.882143" lon="32.514787"><ele>1613.4</ele></trkpt>
    <trkpt lat="36.882107" lon="32.515734"><ele>1621.5</ele></trkpt>
    <trkpt lat="36.882182" lon="32.516965"><ele>1628.2</ele></trkpt>
    <trkpt lat="36.882211" lon="32.518082"><ele>1632.7</ele></trkpt>
    <trkpt lat="36.882063" lon="32.518734"><ele>1634.5</ele></trkpt>
    <trkpt lat="36.881671" lon="32.518757"><ele>1633.6</ele></trkpt>
    <trkpt lat="36.881067" lon="32.518227"><ele>1630.3</ele></trkpt>
    <trkpt lat="36.880361" lon="32.517432"><ele>1625.5</ele></trkpt>
    <trkpt lat="36.879700" lon="32.516753"><ele>1620.0</ele></trkpt>
    <trkpt lat="36.879210" lon="32.516522"><ele>1614.9</ele></trkpt>
    <trkpt lat="36.878952" lon="32.516889"><ele>1611.2</ele></trkpt>
    <trkpt lat="36.878895" lon="32.517779"><ele>1609.6</ele></trkpt>
    <trkpt lat="36.878931" lon="32.518913"><ele>1610.4</ele></trkpt>
    <trkpt lat="36.878923" lon="32.519931"><ele>1613.8</ele></trkpt>
    <trkpt lat="36.878751" lon="32.520522"><ele>1619.2</ele></trkpt>
    <trkpt lat="36.878360" lon="32.520547"><ele>1626.1</ele></trkpt>
    <trkpt lat="36.877783" lon="32.520085"><ele>1633.5</ele></trkpt>
    <trkpt lat="36.877118" lon="32.519399"><ele>1640.5</ele></trkpt>
    <trkpt lat="36.876499" lon="32.518829"><ele>1646.2</ele></trkpt>
    <trkpt lat="36.876035" lon="32.518662"><ele>1650.0</ele></trkpt>
    <trkpt lat="36.875774" lon="32.519025"><ele>1651.5</ele></trkpt>
    <trkpt lat="36.875687" lon="32.519837"><ele>1650.8</ele></trkpt>
    <trkpt lat="36.875677" lon="32.520850"><ele>1648.3</ele></trkpt>
    <trkpt lat="36.875624" lon="32.521750"><ele>1644.5</ele></trkpt>
    <trkpt lat="36.875425" lon="32.522272"><ele>1640.4</ele></trkpt>
    <trkpt lat="36.875038" lon="32.522306"><ele>1636.6</ele></trkpt>
    <trkpt lat="36.874493" lon="32.521930"><ele>1634.1</ele></trkpt>
    <trkpt lat="36.873880" lon="32.521376"><ele>1633.2</ele></trkpt>
    <trkpt lat="36.873309" lon="32.520933"><ele>1634.3</ele></trkpt>
    <trkpt lat="36.872873" lon="32.520839"><ele>1637.3</ele></trkpt>
    <trkpt lat="36.872607" lon="32.521188"><ele>1641.9</ele></trkpt>
    <trkpt lat="36.872483" lon="32.521905"><ele>1647.5</ele></trkpt>
    <trkpt lat="36.872419" lon="32.522777"><ele>1653.4</ele></trkpt>
    <trkpt lat="36.872313" lon="32.523541"><ele>1658.9</ele></trkpt>
    <trkpt lat="36.872086" lon="32.523989"><ele>1663.3</ele></trkpt>
    <trkpt lat="36.871705" lon="32.524040"><ele>1666.3</ele></trkpt>
    <trkpt lat="36.871200" lon="32.523767"><ele>1667.6</ele></trkpt>
    <trkpt lat="36.870645" lon="32.523365"><ele>1667.3</ele></trkpt>
    <trkpt lat="36.870129" lon="32.523063"><ele>1665.8</ele></trkpt>
    <trkpt lat="36.869722" lon="32.523045"><ele>1663.5</ele></trkpt>
    <trkpt lat="36.869449" lon="32.523374"><ele>1660.9</ele></trkpt>
    <trkpt lat="36.869282" lon="32.523980"><ele>1658.8</ele></trkpt>
    <trkpt lat="36.869156" lon="32.524692"><ele>1657.6</ele></trkpt>
    <trkpt lat="36.868994" lon="32.525309"><ele>1657.6</ele></trkpt>
    <trkpt lat="36.868737" lon="32.525680"><ele>1659.0</ele></trkpt>
    <trkpt lat="36.868366" lon="32.525755"><ele>1661.5</ele></trkpt>
    <trkpt lat="36.867906" lon="32.525600"><ele>1665.0</ele></trkpt>
    <trkpt lat="36.867415" lon="32.525364"><ele>1669.0</ele></trkpt>
    <trkpt lat="36.866957" lon="32.525215"><ele>1673.1</ele></trkpt>
    <trkpt lat="36.866580" lon="32.525274"><ele>1676.9</ele></trkpt>
    <trkpt lat="36.866296" lon="32.525575"><ele>1679.9</ele></trkpt>
    <trkpt lat="36.866082" lon="32.526057"><ele>1681.9</ele></trkpt>
    <trkpt lat="36.865889" lon="32.526596"><ele>1683.0</ele></trkpt>
    <trkpt lat="36.865667" lon="32.527058"><ele>1683.3</ele></trkpt>
    <trkpt lat="36.865380" lon="32.527350"><ele>1682.9</ele></trkpt>
    <trkpt lat="36.865021" lon="32.527456"><ele>1682.3</ele></trkpt>
    <trkpt lat="36.864611" lon="32.527431"><ele>1681.7</ele></trkpt>
    <trkpt lat="36.864189" lon="32.527374"><ele>1681.4</ele></trkpt>
    <trkpt lat="36.863792" lon="32.527383"><ele>1681.7</ele></trkpt>
    <trkpt lat="36.863445" lon="32.527520"><ele>1682.6</ele></trkpt>
    <trkpt lat="36.863148" lon="32.527786"><ele>1684.1</ele></trkpt>
    <trkpt lat="36.862882" lon="32.528134"><ele>1686.1</ele></trkpt>
    <trkpt lat="36.862619" lon="32.528491"><ele>1688.3</ele></trkpt>
    <trkpt lat="36.862335" lon="32.528792"><ele>1690.6</ele></trkpt>
    <trkpt lat="36.862018" lon="32.529008"><ele>1692.7</ele></trkpt>
    <trkpt lat="36.861674" lon="32.529152"><ele>1694.5</ele></trkpt>
    <trkpt lat="36.861317" lon="32.529265"><ele>1696.0</ele></trkpt>
    <trkpt lat="36.860966" lon="32.529393"><ele>1697.2</ele></trkpt>
    <trkpt lat="36.860632" lon="32.529563"><ele>1698.1</ele></trkpt>
    <trkpt lat="36.860313" lon="32.529774"><ele>1699.0</ele></trkpt>
    <trkpt lat="36.860000" lon="32.530000"><ele>1700.0</ele></trkpt>
    <trkpt lat="36.859670" lon="32.530180"><ele>1701.1</ele></trkpt>
    <trkpt lat="36.859358" lon="32.530408"><ele>1701.8</ele></trkpt>
    <trkpt lat="36.859060" lon="32.530674"><ele>1702.3</ele></trkpt>
    <trkpt lat="36.858761" lon="32.530935"><ele>1702.5</ele></trkpt>
    <trkpt lat="36.858440" lon="32.531140"><ele>1702.8</ele></trkpt>
    <trkpt lat="36.858086" lon="32.531257"><ele>1703.4</ele></trkpt>
    <trkpt lat="36.857702" lon="32.531299"><ele>1704.3</ele></trkpt>
    <trkpt lat="36.857311" lon="32.531321"><ele>1705.8</ele></trkpt>
    <trkpt lat="36.856944" lon="32.531405"><ele>1707.9</ele></trkpt>
    <trkpt lat="36.856627" lon="32.531619"><ele>1710.4</ele></trkpt>
    <trkpt lat="36.856367" lon="32.531983"><ele>1713.1</ele></trkpt>
    <trkpt lat="36.856147" lon="32.532450"><ele>1715.7</ele></trkpt>
    <trkpt lat="36.855927" lon="32.532917"><ele>1717.9</ele></trkpt>
    <trkpt lat="36.855661" lon="32.533265"><ele>1719.4</ele></trkpt>
    <trkpt lat="36.855317" lon="32.533410"><ele>1719.9</ele></trkpt>
    <trkpt lat="36.854893" lon="32.533344"><ele>1719.5</ele></trkpt>
    <trkpt lat="36.854419" lon="32.533152"><ele>1718.2</ele></trkpt>
    <trkpt lat="36.853953" lon="32.532979"><ele>1716.4</ele></trkpt>
    <trkpt lat="36.853554" lon="32.532980"><ele>1714.4</ele></trkpt>
    <trkpt lat="36.853260" lon="32.533256"><ele>1712.9</ele></trkpt>
    <trkpt lat="36.853070" lon="32.533799"><ele>1712.1</ele></trkpt>
    <trkpt lat="36.852937" lon="32.534493"><ele>1712.6</ele></trkpt>
    <trkpt lat="36.852789" lon="32.535147"><ele>1714.4</ele></trkpt>
    <trkpt lat="36.852552" lon="32.535573"><ele>1717.7</ele></trkpt>
    <trkpt lat="36.852185" lon="32.535656"><ele>1722.0</ele></trkpt>
    <trkpt lat="36.851694" lon="32.535417"><ele>1727.0</ele></trkpt>
    <trkpt lat="36.851136" lon="32.535006"><ele>1732.0</ele></trkpt>
    <trkpt lat="36.850602" lon="32.534655"><ele>1736.3</ele></trkpt>
    <trkpt lat="36.850176" lon="32.534585"><ele>1739.5</ele></trkpt>
    <trkpt lat="36.849905" lon="32.534921"><ele>1740.9</ele></trkpt>
    <trkpt lat="36.849778" lon="32.535631"><ele>1740.6</ele></trkpt>
    <trkpt lat="36.849725" lon="32.536532"><ele>1738.5</ele></trkpt>
    <trkpt lat="36.849641" lon="32.537354"><ele>1735.1</ele></trkpt>
    <trkpt lat="36.849430" lon="32.537844"><ele>1731.0</ele></trkpt>
    <trkpt lat="36.849040" lon="32.537868"><ele>1726.9</ele></trkpt>
    <trkpt lat="36.848488" lon="32.537471"><ele>1723.8</ele></trkpt>
    <trkpt lat="36.847856" lon="32.536867"><ele>1722.3</ele></trkpt>
    <trkpt lat="36.847262" lon="32.536361"><ele>1722.8</ele></trkpt>
    <trkpt lat="36.846814" lon="32.536234"><ele>1725.5</ele></trkpt>
    <trkpt lat="36.846566" lon="32.536628"><ele>1730.2</ele></trkpt>
    <trkpt lat="36.846495" lon="32.537485"><ele>1736.5</ele></trkpt>
    <trkpt lat="36.846510" lon="32.538563"><ele>1743.5</ele></trkpt>
    <trkpt lat="36.846480" lon="32.539525"><ele>1750.3</ele></trkpt>
    <trkpt lat="36.846288" lon="32.540064"><ele>1756.0</ele></trkpt>
    <trkpt lat="36.845876" lon="32.540033"><ele>1759.8</ele></trkpt>
    <trkpt lat="36.845272" lon="32.539501"><ele>1761.2</ele></trkpt>
    <trkpt lat="36.844579" lon="32.538737"><ele>1760.1</ele></trkpt>
    <trkpt lat="36.843938" lon="32.538108"><ele>1756.7</ele></trkpt>
    <trkpt lat="36.843474" lon="32.537939"><ele>1751.6</ele></trkpt>
    <trkpt lat="36.843245" lon="32.538385"><ele>1745.7</ele></trkpt>
    <trkpt lat="36.843222" lon="32.539363"><ele>1740.2</ele></trkpt>
    <trkpt lat="36.843291" lon="32.540583"><ele>1735.9</ele></trkpt>
    <trkpt lat="36.843302" lon="32.541650"><ele>1733.8</ele></trkpt>
    <trkpt lat="36.843122" lon="32.542223"><ele>1734.5</ele></trkpt>
    <trkpt lat="36.842692" lon="32.542144"><ele>1737.9</ele></trkpt>
    <trkpt lat="36.842047" lon="32.541506"><ele>1743.8</ele></trkpt>
    <trkpt lat="36.841308" lon="32.540621"><ele>1751.4</ele></trkpt>
    <trkpt lat="36.840633" lon="32.539904"><ele>1759.8</ele></trkpt>
    <trkpt lat="36.840159" lon="32.539711"><ele>1767.8</ele></trkpt>
    <trkpt lat="36.839948" lon="32.540200"><ele>1774.4</ele></trkpt>
    <trkpt lat="36.839959" lon="32.541268"><ele>1778.5</ele></trkpt>
    <trkpt lat="36.840065" lon="32.542586"><ele>1779.8</ele></trkpt>
    <trkpt lat="36.840103" lon="32.543722"><ele>1778.0</ele></trkpt>
    <trkpt lat="36.839929" lon="32.544311"><ele>1773.7</ele></trkpt>
    <trkpt lat="36.839485" lon="32.544194"><ele>1767.6</ele></trkpt>
    <trkpt lat="36.838812" lon="32.543483"><ele>1760.7</ele></trkpt>
    <trkpt lat="36.838044" lon="32.542523"><ele>1754.3</ele></trkpt>
    <trkpt lat="36.837350" lon="32.541757"><ele>1749.5</ele></trkpt>
    <trkpt lat="36.836873" lon="32.541557"><ele>1747.3</ele></trkpt>
    <trkpt lat="36.836674" lon="32.542078"><ele>1748.1</ele></trkpt>
    <trkpt lat="36.836706" lon="32.543201"><ele>1751.9</ele></trkpt>
    <trkpt lat="36.836833" lon="32.544570"><ele>1758.5</ele></trkpt>
    <trkpt lat="36.836881" lon="32.545735"><ele>1766.8</ele></trkpt>
    <trkpt lat="36.836707" lon="32.546322"><ele>1775.8</ele></trkpt>
    <trkpt lat="36.836252" lon="32.546179"><ele>1784.3</ele></trkpt>
    <trkpt lat="36.835566" lon="32.545433"><ele>1791.0</ele></trkpt>
    <trkpt lat="36.834787" lon="32.544446"><ele>1795.2</ele></trkpt>
    <trkpt lat="36.834090" lon="32.543671"><ele>1796.3</ele></trkpt>
    <trkpt lat="36.833617" lon="32.543481"><ele>1794.2</ele></trkpt>
    <trkpt lat="36.833425" lon="32.544022"><ele>1789.6</ele></trkpt>
    <trkpt lat="36.833463" lon="32.545160"><ele>1783.1</ele></trkpt>
    <trkpt lat="36.833591" lon="32.546532"><ele>1776.1</ele></trkpt>
    <trkpt lat="36.833635" lon="32.547686"><ele>1769.6</ele></trkpt>
    <trkpt lat="36.833454" lon="32.548255"><ele>1764.9</ele></trkpt>
    <trkpt lat="36.832995" lon="32.548099"><ele>1762.8</ele></trkpt>
    <trkpt lat="36.832310" lon="32.547357"><ele>1763.8</ele></trkpt>
    <trkpt lat="36.831539" lon="32.546392"><ele>1767.8</ele></trkpt>
    <trkpt lat="36.830854" lon="32.545648"><ele>1774.4</ele></trkpt>
    <trkpt lat="36.830391" lon="32.545484"><ele>1782.6</ele></trkpt>
    <trkpt lat="36.830202" lon="32.546030"><ele>1791.4</ele></trkpt>
    <trkpt lat="36.830231" lon="32.547145"><ele>1799.6</ele></trkpt>
    <trkpt lat="36.830341" lon="32.548471"><ele>1805.9</ele></trkpt>
    <trkpt lat="36.830365" lon="32.549573"><ele>1809.8</ele></trkpt>
    <trkpt lat="36.830171" lon="32.550109"><ele>1810.6</ele></trkpt>
    <trkpt lat="36.829713" lon="32.549955"><ele>1808.6</ele></trkpt>
    <trkpt lat="36.829045" lon="32.549257"><ele>1804.2</ele></trkpt>
    <trkpt lat="36.828301" lon="32.548361"><ele>1798.2</ele></trkpt>
    <trkpt lat="36.827643" lon="32.547689"><ele>1791.8</ele></trkpt>
    <trkpt lat="36.827195" lon="32.547564"><ele>1786.1</ele></trkpt>
    <trkpt lat="36.827002" lon="32.548100"><ele>1782.1</ele></trkpt>
    <trkpt lat="36.827007" lon="32.549152"><ele>1780.5</ele></trkpt>
    <trkpt lat="36.827081" lon="32.550385"><ele>1781.7</ele></trkpt>
    <trkpt lat="36.827071" lon="32.551399"><ele>1785.5</ele></trkpt>
    <trkpt lat="36.826860" lon="32.551888"><ele>1791.5</ele></trkpt>
    <trkpt lat="36.826408" lon="32.551753"><ele>1798.9</ele></trkpt>
    <trkpt lat="36.825771" lon="32.551135"><ele>1806.6</ele></trkpt>
    <trkpt lat="36.825072" lon="32.550356"><ele>1813.6</ele></trkpt>
    <trkpt lat="36.824454" lon="32.549788"><ele>1819.1</ele></trkpt>
    <trkpt lat="36.824027" lon="32.549716"><ele>1822.3</ele></trkpt>
    <trkpt lat="36.823823" lon="32.550225"><ele>1823.0</ele></trkpt>
    <trkpt lat="36.823790" lon="32.551179"><ele>1821.3</ele></trkpt>
    <trkpt lat="36.823812" lon="32.552275"><ele>1817.7</ele></trkpt>
    <trkpt lat="36.823755" lon="32.553167"><ele>1813.0</ele></trkpt>
    <trkpt lat="36.823522" lon="32.553599"><ele>1808.0</ele></trkpt>
    <trkpt lat="36.823084" lon="32.553499"><ele>1803.7</ele></trkpt>
    <trkpt lat="36.822491" lon="32.552997"><ele>1800.9</ele></trkpt>
    <trkpt lat="36.821852" lon="32.552374"><ele>1800.1</ele></trkpt>
    <trkpt lat="36.821287" lon="32.551942"><ele>1801.4</ele></trkpt>
    <trkpt lat="36.820883" lon="32.551931"><ele>1804.7</ele></trkpt>
    <trkpt lat="36.820663" lon="32.552398"><ele>1809.6</ele></trkpt>
    <trkpt lat="36.820579" lon="32.553220"><ele>1815.5</ele></trkpt>
    <trkpt lat="36.820534" lon="32.554142"><ele>1821.4</ele></trkpt>
    <trkpt lat="36.820420" lon="32.554885"><ele>1826.7</ele></trkpt>
    <trkpt lat="36.820162" lon="32.555253"><ele>1830.7</ele></trkpt>
    <trkpt lat="36.819743" lon="32.555201"><ele>1833.1</ele></trkpt>
    <trkpt lat="36.819207" lon="32.554846"><ele>1833.7</ele></trkpt>
    <trkpt lat="36.818640" lon="32.554413"><ele>1832.6</ele></trkpt>
    <trkpt lat="36.818137" lon="32.554142"><ele>1830.4</ele></trkpt>
    <trkpt lat="36.817758" lon="32.554197"><ele>1827.5</ele></trkpt>
    <trkpt lat="36.817517" lon="32.554609"><ele>1824.6</ele></trkpt>
    <trkpt lat="36.817372" lon="32.555271"><ele>1822.3</ele></trkpt>
    <trkpt lat="36.817248" lon="32.555989"><ele>1821.0</ele></trkpt>
    <trkpt lat="36.817069" lon="32.556562"><ele>1821.1</ele></trkpt>
    <trkpt lat="36.816785" lon="32.556862"><ele>1822.5</ele></trkpt>
    <trkpt lat="36.816389" lon="32.556872"><ele>1825.1</ele></trkpt>
    <trkpt lat="36.815919" lon="32.556688"><ele>1828.5</ele></trkpt>
    <trkpt lat="36.815436" lon="32.556471"><ele>1832.2</ele></trkpt>
    <trkpt lat="36.815000" lon="32.556378"><ele>1835.8</ele></trkpt>
    <trkpt lat="36.814649" lon="32.556503"><ele>1838.9</ele></trkpt>
    <trkpt lat="36.814382" lon="32.556847"><ele>1841.3</ele></trkpt>
    <trkpt lat="36.814167" lon="32.557327"><ele>1842.7</ele></trkpt>
    <trkpt lat="36.813956" lon="32.557819"><ele>1843.2</ele></trkpt>
    <trkpt lat="36.813707" lon="32.558209"><ele>1843.1</ele></trkpt>
    <trkpt lat="36.813395" lon="32.558439"><ele>1842.5</ele></trkpt>
    <trkpt lat="36.813028" lon="32.558522"><ele>1841.9</ele></trkpt>
    <trkpt lat="36.812630" lon="32.558527"><ele>1841.5</ele></trkpt>
    <trkpt lat="36.812237" lon="32.558543"><ele>1841.5</ele></trkpt>
    <trkpt lat="36.811874" lon="32.558638"><ele>1842.0</ele></trkpt>
    <trkpt lat="36.811549" lon="32.558832"><ele>1843.1</ele></trkpt>
    <trkpt lat="36.811252" lon="32.559098"><ele>1844.5</ele></trkpt>
    <trkpt lat="36.810962" lon="32.559384"><ele>1846.0</ele></trkpt>
    <trkpt lat="36.810660" lon="32.559637"><ele>1847.6</ele></trkpt>
    <trkpt lat="36.810337" lon="32.559838"><ele>1849.0</ele></trkpt>
    <trkpt lat="36.810000" lon="32.560000"><ele>1850.0</ele></trkpt>
    <trkpt lat="36.809721" lon="32.560284"><ele>1849.5</ele></trkpt>
    <trkpt lat="36.809432" lon="32.560550"><ele>1849.0</ele></trkpt>
    <trkpt lat="36.809127" lon="32.560792"><ele>1848.6</ele></trkpt>
    <trkpt lat="36.808815" lon="32.561021"><ele>1848.2</ele></trkpt>
    <trkpt lat="36.808510" lon="32.561262"><ele>1847.5</ele></trkpt>
    <trkpt lat="36.808226" lon="32.561537"><ele>1846.6</ele></trkpt>
    <trkpt lat="36.807969" lon="32.561858"><ele>1845.5</ele></trkpt>
    <trkpt lat="36.807733" lon="32.562212"><ele>1844.2</ele></trkpt>
    <trkpt lat="36.807496" lon="32.562567"><ele>1842.8</ele></trkpt>
    <trkpt lat="36.807236" lon="32.562882"><ele>1841.4</ele></trkpt>
    <trkpt lat="36.806935" lon="32.563128"><ele>1840.2</ele></trkpt>
    <trkpt lat="36.806589" lon="32.563302"><ele>1839.3</ele></trkpt>
    <trkpt lat="36.806219" lon="32.563433"><ele>1838.9</ele></trkpt>
    <trkpt lat="36.805854" lon="32.563576"><ele>1838.9</ele></trkpt>
    <trkpt lat="36.805531" lon="32.563786"><ele>1839.3</ele></trkpt>
    <trkpt lat="36.805270" lon="32.564099"><ele>1839.9</ele></trkpt>
    <trkpt lat="36.805068" lon="32.564511"><ele>1840.6</ele></trkpt>
    <trkpt lat="36.804898" lon="32.564975"><ele>1841.1</ele></trkpt>
    <trkpt lat="36.804714" lon="32.565416"><ele>1841.2</ele></trkpt>
    <trkpt lat="36.804472" lon="32.565762"><ele>1840.7</ele></trkpt>
    <trkpt lat="36.804147" lon="32.565970"><ele>1839.6</ele></trkpt>
    <trkpt lat="36.803748" lon="32.566054"><ele>1837.7</ele></trkpt>
    <trkpt lat="36.803311" lon="32.566076"><ele>1835.3</ele></trkpt>
    <trkpt lat="36.802895" lon="32.566133"><ele>1832.7</ele></trkpt>
    <trkpt lat="36.802553" lon="32.566313"><ele>1830.0</ele></trkpt>
    <trkpt lat="36.802314" lon="32.566663"><ele>1827.7</ele></trkpt>
    <trkpt lat="36.802167" lon="32.567165"><ele>1826.0</ele></trkpt>
    <trkpt lat="36.802061" lon="32.567736"><ele>1825.2</ele></trkpt>
    <trkpt lat="36.801928" lon="32.568262"><ele>1825.3</ele></trkpt>
    <trkpt lat="36.801705" lon="32.568638"><ele>1826.2</ele></trkpt>
    <trkpt lat="36.801358" lon="32.568810"><ele>1827.9</ele></trkpt>
    <trkpt lat="36.800905" lon="32.568805"><ele>1829.9</ele></trkpt>
    <trkpt lat="36.800405" lon="32.568722"><ele>1831.8</ele></trkpt>
    <trkpt lat="36.799938" lon="32.568695"><ele>1833.2</ele></trkpt>
    <trkpt lat="36.799579" lon="32.568846"><ele>1833.7</ele></trkpt>
    <trkpt lat="36.799361" lon="32.569231"><ele>1833.2</ele></trkpt>
    <trkpt lat="36.799266" lon="32.569819"><ele>1831.5</ele></trkpt>
    <trkpt lat="36.799223" lon="32.570495"><ele>1828.7</ele></trkpt>
    <trkpt lat="36.799140" lon="32.571103"><ele>1825.1</ele></trkpt>
    <trkpt lat="36.798934" lon="32.571507"><ele>1821.2</ele></trkpt>
    <trkpt lat="36.798567" lon="32.571645"><ele>1817.3</ele></trkpt>
    <trkpt lat="36.798063" lon="32.571556"><ele>1814.1</ele></trkpt>
    <trkpt lat="36.797500" lon="32.571370"><ele>1812.0</ele></trkpt>
    <trkpt lat="36.796985" lon="32.571263"><ele>1811.2</ele></trkpt>
    <trkpt lat="36.796609" lon="32.571385"><ele>1811.8</ele></trkpt>
    <trkpt lat="36.796411" lon="32.571804"><ele>1813.7</ele></trkpt>
    <trkpt lat="36.796366" lon="32.572474"><ele>1816.5</ele></trkpt>
    <trkpt lat="36.796383" lon="32.573250"><ele>1819.7</ele></trkpt>
    <trkpt lat="36.796348" lon="32.573937"><ele>1822.7</ele></trkpt>
    <trkpt lat="36.796159" lon="32.574370"><ele>1825.0</ele></trkpt>
    <trkpt lat="36.795772" lon="32.574475"><ele>1826.0</ele></trkpt>
    <trkpt lat="36.795219" lon="32.574305"><ele>1825.4</ele></trkpt>
    <trkpt lat="36.794598" lon="32.574023"><ele>1823.2</ele></trkpt>
    <trkpt lat="36.794037" lon="32.573838"><ele>1819.6</ele></trkpt>
    <trkpt lat="36.793643" lon="32.573933"><ele>1814.9</ele></trkpt>
    <trkpt lat="36.793465" lon="32.574383"><ele>1809.7</ele></trkpt>
    <trkpt lat="36.793467" lon="32.575132"><ele>1804.8</ele></trkpt>
    <trkpt lat="36.793541" lon="32.576001"><ele>1800.8</ele></trkpt>
    <trkpt lat="36.793550" lon="32.576763"><ele>1798.2</ele></trkpt>
    <trkpt lat="36.793377" lon="32.577222"><ele>1797.5</ele></trkpt>
    <trkpt lat="36.792972" lon="32.577297"><ele>1798.5</ele></trkpt>
    <trkpt lat="36.792374" lon="32.577052"><ele>1801.3</ele></trkpt>
    <trkpt lat="36.791699" lon="32.576679"><ele>1805.1</ele></trkpt>
    <trkpt lat="36.791094" lon="32.576423"><ele>1809.5</ele></trkpt>
    <trkpt lat="36.790685" lon="32.576491"><ele>1813.5</ele></trkpt>
    <trkpt lat="36.790524" lon="32.576971"><ele>1816.6</ele></trkpt>
    <trkpt lat="36.790569" lon="32.577792"><ele>1818.0</ele></trkpt>
    <trkpt lat="36.790696" lon="32.578748"><ele>1817.4</ele></trkpt>
    <trkpt lat="36.790747" lon="32.579579"><ele>1814.7</ele></trkpt>
    <trkpt lat="36.790589" lon="32.580063"><ele>1810.3</ele></trkpt>
    <trkpt lat="36.790167" lon="32.580110"><ele>1804.6</ele></trkpt>
    <trkpt lat="36.789528" lon="32.579796"><ele>1798.4</ele></trkpt>
    <trkpt lat="36.788801" lon="32.579339"><ele>1792.5</ele></trkpt>
    <trkpt lat="36.788157" lon="32.579017"><ele>1787.7</ele></trkpt>
    <trkpt lat="36.787733" lon="32.579062"><ele>1784.8</ele></trkpt>
    <trkpt lat="36.787589" lon="32.579568"><ele>1784.1</ele></trkpt>
    <trkpt lat="36.787673" lon="32.580455"><ele>1785.6</ele></trkpt>
    <trkpt lat="36.787849" lon="32.581491"><ele>1789.0</ele></trkpt>
    <trkpt lat="36.787938" lon="32.582384"><ele>1793.8</ele></trkpt>
    <trkpt lat="36.787793" lon="32.582891"><ele>1799.2</ele></trkpt>
    <trkpt lat="36.787356" lon="32.582913"><ele>1804.1</ele></trkpt>
    <trkpt lat="36.786679" lon="32.582537"><ele>1807.8</ele></trkpt>
    <trkpt lat="36.785907" lon="32.582005"><ele>1809.6</ele></trkpt>
    <trkpt lat="36.785227" lon="32.581623"><ele>1809.0</ele></trkpt>
    <trkpt lat="36.784790" lon="32.581646"><ele>1805.9</ele></trkpt>
    <trkpt lat="36.784660" lon="32.582176"><ele>1800.8</ele></trkpt>
    <trkpt lat="36.784780" lon="32.583121"><ele>1794.2</ele></trkpt>
    <trkpt lat="36.784998" lon="32.584228"><ele>1787.1</ele></trkpt>
    <trkpt lat="36.785121" lon="32.585178"><ele>1780.4</ele></trkpt>
    <trkpt lat="36.784989" lon="32.585705"><ele>1775.1</ele></trkpt>
    <trkpt lat="36.784539" lon="32.585705"><ele>1771.8</ele></trkpt>
    <trkpt lat="36.783828" lon="32.585274"><ele>1771.1</ele></trkpt>
    <trkpt lat="36.783016" lon="32.584675"><ele>1772.9</ele></trkpt>
    <trkpt lat="36.782304" lon="32.584241"><ele>1777.0</ele></trkpt>
    <trkpt lat="36.781856" lon="32.584245"><ele>1782.6</ele></trkpt>
    <trkpt lat="36.781738" lon="32.584795"><ele>1788.8</ele></trkpt>
    <trkpt lat="36.781889" lon="32.585792"><ele>1794.4</ele></trkpt>
    <trkpt lat="36.782144" lon="32.586960"><ele>1798.7</ele></trkpt>
    <trkpt lat="36.782296" lon="32.587958"><ele>1800.7</ele></trkpt>
    <trkpt lat="36.782175" lon="32.588504"><ele>1800.1</ele></trkpt>
    <trkpt lat="36.781714" lon="32.588485"><ele>1796.7</ele></trkpt>
    <trkpt lat="36.780975" lon="32.588007"><ele>1791.1</ele></trkpt>
    <trkpt lat="36.780129" lon="32.587351"><ele>1783.8</ele></trkpt>
    <trkpt lat="36.779389" lon="32.586873"><ele>1776.0</ele></trkpt>
    <trkpt lat="36.778931" lon="32.586860"><ele>1768.6</ele></trkpt>
    <trkpt lat="36.778824" lon="32.587428"><ele>1762.8</ele></trkpt>
    <trkpt lat="36.779001" lon="32.588467"><ele>1759.3</ele></trkpt>
    <trkpt lat="36.779287" lon="32.589687"><ele>1758.6</ele></trkpt>
    <trkpt lat="36.779464" lon="32.590725"><ele>1760.7</ele></trkpt>
    <trkpt lat="36.779351" lon="32.591285"><ele>1765.3</ele></trkpt>
    <trkpt lat="36.778881" lon="32.591251"><ele>1771.4</ele></trkpt>
    <trkpt lat="36.778118" lon="32.590735"><ele>1778.2</ele></trkpt>
    <trkpt lat="36.777244" lon="32.590033"><ele>1784.5</ele></trkpt>
    <trkpt lat="36.776483" lon="32.589518"><ele>1789.1</ele></trkpt>
    <trkpt lat="36.776017" lon="32.589492"><ele>1791.4</ele></trkpt>
    <trkpt lat="36.775918" lon="32.590073"><ele>1790.7</ele></trkpt>
    <trkpt lat="36.776115" lon="32.591147"><ele>1787.1</ele></trkpt>
    <trkpt lat="36.776426" lon="32.592408"><ele>1781.0</ele></trkpt>
    <trkpt lat="36.776622" lon="32.593478"><ele>1773.3</ele></trkpt>
    <trkpt lat="36.776517" lon="32.594050"><ele>1764.9</ele></trkpt>
    <trkpt lat="36.776039" lon="32.594004"><ele>1757.1</ele></trkpt>
    <trkpt lat="36.775259" lon="32.593457"><ele>1751.0</ele></trkpt>
    <trkpt lat="36.774364" lon="32.592721"><ele>1747.3</ele></trkpt>
    <trkpt lat="36.773586" lon="32.592178"><ele>1746.6</ele></trkpt>
    <trkpt lat="36.773114" lon="32.592143"><ele>1749.0</ele></trkpt>
    <trkpt lat="36.773020" lon="32.592734"><ele>1753.8</ele></trkpt>
    <trkpt lat="36.773233" lon="32.593832"><ele>1760.4</ele></trkpt>
    <trkpt lat="36.773562" lon="32.595122"><ele>1767.6</ele></trkpt>
    <trkpt lat="36.773772" lon="32.596216"><ele>1774.2</ele></trkpt>
    <trkpt lat="36.773672" lon="32.596796"><ele>1779.1</ele></trkpt>
    <trkpt lat="36.773189" lon="32.596741"><ele>1781.4</ele></trkpt>
    <trkpt lat="36.772396" lon="32.596175"><ele>1780.8</ele></trkpt>
    <trkpt lat="36.771486" lon="32.595414"><ele>1777.0</ele></trkpt>
    <trkpt lat="36.770697" lon="32.594854"><ele>1770.7</ele></trkpt>
    <trkpt lat="36.770221" lon="32.594811"><ele>1762.7</ele></trkpt>
    <trkpt lat="36.770132" lon="32.595409"><ele>1754.0</ele></trkpt>
    <trkpt lat="36.770354" lon="32.596523"><ele>1745.9</ele></trkpt>
    <trkpt lat="36.770694" lon="32.597831"><ele>1739.6</ele></trkpt>
    <trkpt lat="36.770912" lon="32.598938"><ele>1735.9</ele></trkpt>
    <trkpt lat="36.770815" lon="32.599523"><ele>1735.2</ele></trkpt>
    <trkpt lat="36.770329" lon="32.599464"><ele>1737.7</ele></trkpt>
    <trkpt lat="36.769530" lon="32.598886"><ele>1742.7</ele></trkpt>
    <trkpt lat="36.768613" lon="32.598114"><ele>1749.5</ele></trkpt>
    <trkpt lat="36.767818" lon="32.597544"><ele>1756.8</ele></trkpt>
    <trkpt lat="36.767341" lon="32.597499"><ele>1763.6</ele></trkpt>
    <trkpt lat="36.767253" lon="32.598099"><ele>1768.6</ele></trkpt>
    <trkpt lat="36.767479" lon="32.599219"><ele>1771.0</ele></trkpt>
    <trkpt lat="36.767823" lon="32.600534"><ele>1770.2</ele></trkpt>
    <trkpt lat="36.768043" lon="32.601645"><ele>1766.4</ele></trkpt>
    <trkpt lat="36.767947" lon="32.602231"><ele>1760.0</ele></trkpt>
    <trkpt lat="36.767460" lon="32.602171"><ele>1751.9</ele></trkpt>
    <trkpt lat="36.766660" lon="32.601592"><ele>1743.2</ele></trkpt>
    <trkpt lat="36.765743" lon="32.600819"><ele>1735.1</ele></trkpt>
    <trkpt lat="36.764949" lon="32.600250"><ele>1728.8</ele></trkpt>
    <trkpt lat="36.764471" lon="32.600206"><ele>1725.1</ele></trkpt>
    <trkpt lat="36.764383" lon="32.600805"><ele>1724.4</ele></trkpt>
    <trkpt lat="36.764607" lon="32.601922"><ele>1726.9</ele></trkpt>
    <trkpt lat="36.764948" lon="32.603232"><ele>1731.9</ele></trkpt>
    <trkpt lat="36.765165" lon="32.604337"><ele>1738.6</ele></trkpt>
    <trkpt lat="36.765067" lon="32.604921"><ele>1746.0</ele></trkpt>
    <trkpt lat="36.764582" lon="32.604863"><ele>1752.6</ele></trkpt>
    <trkpt lat="36.763787" lon="32.604292"><ele>1757.6</ele></trkpt>
    <trkpt lat="36.762876" lon="32.603530"><ele>1759.9</ele></trkpt>
    <trkpt lat="36.762088" lon="32.602971"><ele>1759.1</ele></trkpt>
    <trkpt lat="36.761613" lon="32.602931"><ele>1755.4</ele></trkpt>
    <trkpt lat="36.761522" lon="32.603526"><ele>1749.1</ele></trkpt>
    <trkpt lat="36.761739" lon="32.604630"><ele>1741.1</ele></trkpt>
    <trkpt lat="36.762069" lon="32.605923"><ele>1732.5</ele></trkpt>
    <trkpt lat="36.762278" lon="32.607014"><ele>1724.6</ele></trkpt>
    <trkpt lat="36.762176" lon="32.607591"><ele>1718.4</ele></trkpt>
    <trkpt lat="36.761695" lon="32.607540"><ele>1714.8</ele></trkpt>
    <trkpt lat="36.760910" lon="32.606986"><ele>1714.2</ele></trkpt>
    <trkpt lat="36.760013" lon="32.606247"><ele>1716.6</ele></trkpt>
    <trkpt lat="36.759237" lon="32.605708"><ele>1721.4</ele></trkpt>
    <trkpt lat="36.758767" lon="32.605675"><ele>1727.9</ele></trkpt>
    <trkpt lat="36.758671" lon="32.606262"><ele>1735.0</ele></trkpt>
    <trkpt lat="36.758874" lon="32.607344"><ele>1741.4</ele></trkpt>
    <trkpt lat="36.759187" lon="32.608609"><ele>1746.1</ele></trkpt>
    <trkpt lat="36.759382" lon="32.609675"><ele>1748.2</ele></trkpt>
    <trkpt lat="36.759274" lon="32.610243"><ele>1747.5</ele></trkpt>
    <trkpt lat="36.758799" lon="32.610202"><ele>1743.8</ele></trkpt>
    <trkpt lat="36.758030" lon="32.609675"><ele>1737.7</ele></trkpt>
    <trkpt lat="36.757153" lon="32.608969"><ele>1730.1</ele></trkpt>
    <trkpt lat="36.756394" lon="32.608459"><ele>1721.9</ele></trkpt>
    <trkpt lat="36.755931" lon="32.608438"><ele>1714.4</ele></trkpt>
    <trkpt lat="36.755829" lon="32.609014"><ele>1708.5</ele></trkpt>
    <trkpt lat="36.756013" lon="32.610064"><ele>1705.1</ele></trkpt>
    <trkpt lat="36.756302" lon="32.611289"><ele>1704.5</ele></trkpt>
    <trkpt lat="36.756476" lon="32.612323"><ele>1706.7</ele></trkpt>
    <trkpt lat="36.756361" lon="32.612877"><ele>1711.3</ele></trkpt>
    <trkpt lat="36.755893" lon="32.612849"><ele>1717.3</ele></trkpt>
    <trkpt lat="36.755146" lon="32.612357"><ele>1723.9</ele></trkpt>
    <trkpt lat="36.754297" lon="32.611697"><ele>1729.8</ele></trkpt>
    <trkpt lat="36.753560" lon="32.611224"><ele>1734.1</ele></trkpt>
    <trkpt lat="36.753106" lon="32.611218"><ele>1736.0</ele></trkpt>
    <trkpt lat="36.752995" lon="32.611779"><ele>1735.3</ele></trkpt>
    <trkpt lat="36.753155" lon="32.612790"><ele>1731.8</ele></trkpt>
    <trkpt lat="36.753414" lon="32.613964"><ele>1726.1</ele></trkpt>
    <trkpt lat="36.753563" lon="32.614956"><ele>1719.0</ele></trkpt>
    <trkpt lat="36.753437" lon="32.615494"><ele>1711.4</ele></trkpt>
    <trkpt lat="36.752980" lon="32.615482"><ele>1704.5</ele></trkpt>
    <trkpt lat="36.752259" lon="32.615034"><ele>1699.1</ele></trkpt>
    <trkpt lat="36.751443" lon="32.614430"><ele>1695.9</ele></trkpt>
    <trkpt lat="36.750734" lon="32.614002"><ele>1695.4</ele></trkpt>
    <trkpt lat="36.750292" lon="32.614015"><ele>1697.4</ele></trkpt>
    <trkpt lat="36.750169" lon="32.614558"><ele>1701.4</ele></trkpt>
    <trkpt lat="36.750301" lon="32.615521"><ele>1706.9</ele></trkpt>
    <trkpt lat="36.750523" lon="32.616635"><ele>1712.7</ele></trkpt>
    <trkpt lat="36.750642" lon="32.617577"><ele>1717.9</ele></trkpt>
    <trkpt lat="36.750504" lon="32.618094"><ele>1721.7</ele></trkpt>
    <trkpt lat="36.750058" lon="32.618101"><ele>1723.3</ele></trkpt>
    <trkpt lat="36.749368" lon="32.617706"><ele>1722.5</ele></trkpt>
    <trkpt lat="36.748592" lon="32.617167"><ele>1719.3</ele></trkpt>
    <trkpt lat="36.747916" lon="32.616793"><ele>1714.2</ele></trkpt>
    <trkpt lat="36.747486" lon="32.616827"><ele>1707.8</ele></trkpt>
    <trkpt lat="36.747352" lon="32.617350"><ele>1701.0</ele></trkpt>
    <trkpt lat="36.747450" lon="32.618258"><ele>1694.9</ele></trkpt>
    <trkpt lat="36.747630" lon="32.619301"><ele>1690.1</ele></trkpt>
    <trkpt lat="36.747713" lon="32.620185"><ele>1687.3</ele></trkpt>
    <trkpt lat="36.747562" lon="32.620680"><ele>1686.7</ele></trkpt>
    <trkpt lat="36.747129" lon="32.620709"><ele>1688.4</ele></trkpt>
    <trkpt lat="36.746475" lon="32.620372"><ele>1691.9</ele></trkpt>
    <trkpt lat="36.745744" lon="32.619908"><ele>1696.5</ele></trkpt>
    <trkpt lat="36.745105" lon="32.619596"><ele>1701.4</ele></trkpt>
    <trkpt lat="36.744690" lon="32.619654"><ele>1705.8</ele></trkpt>
    <trkpt lat="36.744541" lon="32.620154"><ele>1708.9</ele></trkpt>
    <trkpt lat="36.744601" lon="32.620999"><ele>1710.2</ele></trkpt>
    <trkpt lat="36.744734" lon="32.621963"><ele>1709.3</ele></trkpt>
    <trkpt lat="36.744778" lon="32.622782"><ele>1706.5</ele></trkpt>
    <trkpt lat="36.744611" lon="32.623252"><ele>1702.0</ele></trkpt>
    <trkpt lat="36.744193" lon="32.623305"><ele>1696.5</ele></trkpt>
    <trkpt lat="36.743579" lon="32.623034"><ele>1690.7</ele></trkpt>
    <trkpt lat="36.742898" lon="32.622653"><ele>1685.5</ele></trkpt>
    <trkpt lat="36.742300" lon="32.622409"><ele>1681.4</ele></trkpt>
    <trkpt lat="36.741901" lon="32.622494"><ele>1679.0</ele></trkpt>
    <trkpt lat="36.741737" lon="32.622968"><ele>1678.5</ele></trkpt>
    <trkpt lat="36.741755" lon="32.623744"><ele>1679.8</ele></trkpt>
    <trkpt lat="36.741835" lon="32.624622"><ele>1682.5</ele></trkpt>
    <trkpt lat="36.741837" lon="32.625370"><ele>1686.2</ele></trkpt>
    <trkpt lat="36.741653" lon="32.625811"><ele>1690.1</ele></trkpt>
    <trkpt lat="36.741251" lon="32.625891"><ele>1693.5</ele></trkpt>
    <trkpt lat="36.740680" lon="32.625692"><ele>1695.8</ele></trkpt>
    <trkpt lat="36.740054" lon="32.625401"><ele>1696.6</ele></trkpt>
    <trkpt lat="36.739501" lon="32.625231"><ele>1695.8</ele></trkpt>
    <trkpt lat="36.739119" lon="32.625345"><ele>1693.3</ele></trkpt>
    <trkpt lat="36.738938" lon="32.625792"><ele>1689.6</ele></trkpt>
    <trkpt lat="36.738912" lon="32.626493"><ele>1685.1</ele></trkpt>
    <trkpt lat="36.738935" lon="32.627278"><ele>1680.5</ele></trkpt>
    <trkpt lat="36.738891" lon="32.627949"><ele>1676.3</ele></trkpt>
    <trkpt lat="36.738689" lon="32.628360"><ele>1673.0</ele></trkpt>
    <trkpt lat="36.738304" lon="32.628469"><ele>1671.1</ele></trkpt>
    <trkpt lat="36.737780" lon="32.628347"><ele>1670.6</ele></trkpt>
    <trkpt lat="36.737211" lon="32.628152"><ele>1671.5</ele></trkpt>
    <trkpt lat="36.736706" lon="32.628061"><ele>1673.4</ele></trkpt>
    <trkpt lat="36.736343" lon="32.628206"><ele>1676.0</ele></trkpt>
    <trkpt lat="36.736145" lon="32.628624"><ele>1678.7</ele></trkpt>
    <trkpt lat="36.736070" lon="32.629246"><ele>1680.9</ele></trkpt>
    <trkpt lat="36.736034" lon="32.629931"><ele>1682.4</ele></trkpt>
    <trkpt lat="36.735940" lon="32.630521"><ele>1682.7</ele></trkpt>
    <trkpt lat="36.735719" lon="32.630900"><ele>1681.9</ele></trkpt>
    <trkpt lat="36.735352" lon="32.631039"><ele>1679.9</ele></trkpt>
    <trkpt lat="36.734877" lon="32.630999"><ele>1677.0</ele></trkpt>
    <trkpt lat="36.734370" lon="32.630905"><ele>1673.7</ele></trkpt>
    <trkpt lat="36.733915" lon="32.630898"><ele>1670.3</ele></trkpt>
    <trkpt lat="36.733572" lon="32.631076"><ele>1667.3</ele></trkpt>
    <trkpt lat="36.733355" lon="32.631462"><ele>1664.9</ele></trkpt>
    <trkpt lat="36.733230" lon="32.632001"><ele>1663.5</ele></trkpt>
    <trkpt lat="36.733131" lon="32.632582"><ele>1663.0</ele></trkpt>
    <trkpt lat="36.732986" lon="32.633087"><ele>1663.4</ele></trkpt>
    <trkpt lat="36.732745" lon="32.633433"><ele>1664.4</ele></trkpt>
    <trkpt lat="36.732397" lon="32.633603"><ele>1665.8</ele></trkpt>
    <trkpt lat="36.731973" lon="32.633648"><ele>1667.2</ele></trkpt>
    <trkpt lat="36.731530" lon="32.633660"><ele>1668.3</ele></trkpt>
    <trkpt lat="36.731127" lon="32.633739"><ele>1668.8</ele></trkpt>
    <trkpt lat="36.730805" lon="32.633951"><ele>1668.7</ele></trkpt>
    <trkpt lat="36.730568" lon="32.634305"><ele>1667.8</ele></trkpt>
    <trkpt lat="36.730392" lon="32.634758"><ele>1666.3</ele></trkpt>
    <trkpt lat="36.730228" lon="32.635232"><ele>1664.4</ele></trkpt>
    <trkpt lat="36.730029" lon="32.635650"><ele>1662.2</ele></trkpt>
    <trkpt lat="36.729767" lon="32.635961"><ele>1660.1</ele></trkpt>
    <trkpt lat="36.729439" lon="32.636164"><ele>1658.3</ele></trkpt>
    <trkpt lat="36.729068" lon="32.636295"><ele>1656.9</ele></trkpt>
    <trkpt lat="36.728691" lon="32.636416"><ele>1656.0</ele></trkpt>
    <trkpt lat="36.728342" lon="32.636584"><ele>1655.5</ele></trkpt>
    <trkpt lat="36.728040" lon="32.636830"><ele>1655.4</ele></trkpt>
    <trkpt lat="36.727784" lon="32.637152"><ele>1655.5</ele></trkpt>
    <trkpt lat="36.727554" lon="32.637517"><ele>1655.7</ele></trkpt>
    <trkpt lat="36.727323" lon="32.637881"><ele>1655.7</ele></trkpt>
    <trkpt lat="36.727071" lon="32.638209"><ele>1655.6</ele></trkpt>
    <trkpt lat="36.726788" lon="32.638486"><ele>1655.1</ele></trkpt>
    <trkpt lat="36.726480" lon="32.638722"><ele>1654.5</ele></trkpt>
    <trkpt lat="36.726162" lon="32.638942"><ele>1653.6</ele></trkpt>
    <trkpt lat="36.725852" lon="32.639173"><ele>1652.6</ele></trkpt>
    <trkpt lat="36.725557" lon="32.639431"><ele>1651.6</ele></trkpt>
    <trkpt lat="36.725276" lon="32.639712"><ele>1650.7</ele></trkpt>
    <trkpt lat="36.725000" lon="32.640000"><ele>1650.0</ele></trkpt>
    <trkpt lat="36.725098" lon="32.640431"><ele>1649.0</ele></trkpt>
    <trkpt lat="36.725230" lon="32.640849"><ele>1647.8</ele></trkpt>
    <trkpt lat="36.725386" lon="32.641258"><ele>1646.6</ele></trkpt>
    <trkpt lat="36.725537" lon="32.641669"><ele>1645.4</ele></trkpt>
    <trkpt lat="36.725646" lon="32.642096"><ele>1644.5</ele></trkpt>
    <trkpt lat="36.725694" lon="32.642546"><ele>1644.0</ele></trkpt>
    <trkpt lat="36.725693" lon="32.643016"><ele>1643.9</ele></trkpt>
    <trkpt lat="36.725682" lon="32.643490"><ele>1644.1</ele></trkpt>
    <trkpt lat="36.725719" lon="32.643945"><ele>1644.5</ele></trkpt>
    <trkpt lat="36.725848" lon="32.644364"><ele>1644.8</ele></trkpt>
    <trkpt lat="36.726079" lon="32.644744"><ele>1644.9</ele></trkpt>
    <trkpt lat="36.726378" lon="32.645097"><ele>1644.4</ele></trkpt>
    <trkpt lat="36.726670" lon="32.645453"><ele>1643.3</ele></trkpt>
    <trkpt lat="36.726875" lon="32.645842"><ele>1641.5</ele></trkpt>
    <trkpt lat="36.726936" lon="32.646288"><ele>1639.0</ele></trkpt>
    <trkpt lat="36.726854" lon="32.646790"><ele>1636.2</ele></trkpt>
    <trkpt lat="36.726688" lon="32.647324"><ele>1633.2</ele></trkpt>
    <trkpt lat="36.726542" lon="32.647850"><ele>1630.5</ele></trkpt>
    <trkpt lat="36.726524" lon="32.648326"><ele>1628.4</ele></trkpt>
    <trkpt lat="36.726699" lon="32.648727"><ele>1627.3</ele></trkpt>
    <trkpt lat="36.727058" lon="32.649057"><ele>1627.2</ele></trkpt>
    <trkpt lat="36.727518" lon="32.649348"><ele>1628.1</ele></trkpt>
    <trkpt lat="36.727943" lon="32.649652"><ele>1629.9</ele></trkpt>
    <trkpt lat="36.728202" lon="32.650020"><ele>1632.2</ele></trkpt>
    <trkpt lat="36.728220" lon="32.650483"><ele>1634.5</ele></trkpt>
    <trkpt lat="36.728014" lon="32.651032"><ele>1636.3</ele></trkpt>
    <trkpt lat="36.727691" lon="32.651627"><ele>1637.2</ele></trkpt>
    <trkpt lat="36.727416" lon="32.652204"><ele>1636.8</ele></trkpt>
    <trkpt lat="36.727344" lon="32.652701"><ele>1634.9</ele></trkpt>
    <trkpt lat="36.727559" lon="32.653087"><ele>1631.7</ele></trkpt>
    <trkpt lat="36.728038" lon="32.653370"><ele>1627.4</ele></trkpt>
    <trkpt lat="36.728648" lon="32.653602"><ele>1622.5</ele></trkpt>
    <trkpt lat="36.729199" lon="32.653857"><ele>1617.7</ele></trkpt>
    <trkpt lat="36.729511" lon="32.654205"><ele>1613.6</ele></trkpt>
    <trkpt lat="36.729491" lon="32.654682"><ele>1610.8</ele></trkpt>
    <trkpt lat="36.729172" lon="32.655276"><ele>1609.5</ele></trkpt>
    <trkpt lat="36.728705" lon="32.655927"><ele>1610.1</ele></trkpt>
    <trkpt lat="36.728309" lon="32.656551"><ele>1612.4</ele></trkpt>
    <trkpt lat="36.728185" lon="32.657068"><ele>1615.9</ele></trkpt>
    <trkpt lat="36.728436" lon="32.657440"><ele>1620.1</ele></trkpt>
    <trkpt lat="36.729021" lon="32.657682"><ele>1624.1</ele></trkpt>
    <trkpt lat="36.729768" lon="32.657860"><ele>1627.2</ele></trkpt>
    <trkpt lat="36.730433" lon="32.658071"><ele>1628.8</ele></trkpt>
    <trkpt lat="36.730796" lon="32.658399"><ele>1628.4</ele></trkpt>
    <trkpt lat="36.730744" lon="32.658889"><ele>1625.9</ele></trkpt>
    <trkpt lat="36.730325" lon="32.659522"><ele>1621.5</ele></trkpt>
    <trkpt lat="36.729730" lon="32.660222"><ele>1615.6</ele></trkpt>
    <trkpt lat="36.729226" lon="32.660888"><ele>1609.1</ele></trkpt>
    <trkpt lat="36.729055" lon="32.661424"><ele>1602.7</ele></trkpt>
    <trkpt lat="36.729334" lon="32.661785"><ele>1597.4</ele></trkpt>
    <trkpt lat="36.730011" lon="32.661991"><ele>1593.9</ele></trkpt>
    <trkpt lat="36.730876" lon="32.662124"><ele>1592.7</ele></trkpt>
    <trkpt lat="36.731642" lon="32.662295"><ele>1593.8</ele></trkpt>
    <trkpt lat="36.732049" lon="32.662606"><ele>1597.1</ele></trkpt>
    <trkpt lat="36.731972" lon="32.663105"><ele>1602.1</ele></trkpt>
    <trkpt lat="36.731470" lon="32.663770"><ele>1607.7</ele></trkpt>
    <trkpt lat="36.730767" lon="32.664513"><ele>1613.1</ele></trkpt>
    <trkpt lat="36.730172" lon="32.665214"><ele>1617.3</ele></trkpt>
    <trkpt lat="36.729958" lon="32.665767"><ele>1619.5</ele></trkpt>
    <trkpt lat="36.730258" lon="32.666120"><ele>1619.1</ele></trkpt>
    <trkpt lat="36.731009" lon="32.666297"><ele>1616.1</ele></trkpt>
    <trkpt lat="36.731972" lon="32.666391"><ele>1610.8</ele></trkpt>
    <trkpt lat="36.732820" lon="32.666531"><ele>1603.7</ele></trkpt>
    <trkpt lat="36.733266" lon="32.666826"><ele>1595.9</ele></trkpt>
    <trkpt lat="36.733172" lon="32.667333"><ele>1588.4</ele></trkpt>
    <trkpt lat="36.732605" lon="32.668023"><ele>1582.2</ele></trkpt>
    <trkpt lat="36.731817" lon="32.668799"><ele>1578.2</ele></trkpt>
    <trkpt lat="36.731148" lon="32.669529"><ele>1576.9</ele></trkpt>
    <trkpt lat="36.730899" lon="32.670095"><ele>1578.4</ele></trkpt>
    <trkpt lat="36.731214" lon="32.670442"><ele>1582.5</ele></trkpt>
    <trkpt lat="36.732020" lon="32.670598"><ele>1588.4</ele></trkpt>
    <trkpt lat="36.733055" lon="32.670664"><ele>1595.1</ele></trkpt>
    <trkpt lat="36.733966" lon="32.670779"><ele>1601.4</ele></trkpt>
    <trkpt lat="36.734443" lon="32.671063"><ele>1606.3</ele></trkpt>
    <trkpt lat="36.734338" lon="32.671573"><ele>1608.9</ele></trkpt>
    <trkpt lat="36.733726" lon="32.672281"><ele>1608.6</ele></trkpt>
    <trkpt lat="36.732878" lon="32.673080"><ele>1605.3</ele></trkpt>
    <trkpt lat="36.732158" lon="32.673830"><ele>1599.4</ele></trkpt>
    <trkpt lat="36.731883" lon="32.674406"><ele>1591.6</ele></trkpt>
    <trkpt lat="36.732204" lon="32.674751"><ele>1583.0</ele></trkpt>
    <trkpt lat="36.733045" lon="32.674893"><ele>1574.7</ele></trkpt>
    <trkpt lat="36.734126" lon="32.674941"><ele>1568.0</ele></trkpt>
    <trkpt lat="36.735079" lon="32.675040"><ele>1563.7</ele></trkpt>
    <trkpt lat="36.735577" lon="32.675316"><ele>1562.4</ele></trkpt>
    <trkpt lat="36.735468" lon="32.675828"><ele>1564.2</ele></trkpt>
    <trkpt lat="36.734833" lon="32.676544"><ele>1568.7</ele></trkpt>
    <trkpt lat="36.733952" lon="32.677357"><ele>1575.0</ele></trkpt>
    <trkpt lat="36.733202" lon="32.678118"><ele>1582.2</ele></trkpt>
    <trkpt lat="36.732911" lon="32.678701"><ele>1589.0</ele></trkpt>
    <trkpt lat="36.733232" lon="32.679045"><ele>1594.2</ele></trkpt>
    <trkpt lat="36.734086" lon="32.679182"><ele>1597.0</ele></trkpt>
    <trkpt lat="36.735187" lon="32.679223"><ele>1596.7</ele></trkpt>
    <trkpt lat="36.736156" lon="32.679315"><ele>1593.3</ele></trkpt>
    <trkpt lat="36.736665" lon="32.679587"><ele>1587.1</ele></trkpt>
    <trkpt lat="36.736560" lon="32.680097"><ele>1579.1</ele></trkpt>
    <trkpt lat="36.735922" lon="32.680815"><ele>1570.3</ele></trkpt>
    <trkpt lat="36.735036" lon="32.681629"><ele>1561.9</ele></trkpt>
    <trkpt lat="36.734281" lon="32.682392"><ele>1555.0</ele></trkpt>
    <trkpt lat="36.733984" lon="32.682977"><ele>1550.7</ele></trkpt>
    <trkpt lat="36.734300" lon="32.683324"><ele>1549.4</ele></trkpt>
    <trkpt lat="36.735145" lon="32.683464"><ele>1551.2</ele></trkpt>
    <trkpt lat="36.736237" lon="32.683509"><ele>1555.7</ele></trkpt>
    <trkpt lat="36.737199" lon="32.683604"><ele>1562.0</ele></trkpt>
    <trkpt lat="36.737708" lon="32.683875"><ele>1569.2</ele></trkpt>
    <trkpt lat="36.737612" lon="32.684382"><ele>1575.8</ele></trkpt>
    <trkpt lat="36.736992" lon="32.685092"><ele>1580.9</ele></trkpt>
    <trkpt lat="36.736129" lon="32.685898"><ele>1583.6</ele></trkpt>
    <trkpt lat="36.735393" lon="32.686654"><ele>1583.3</ele></trkpt>
    <trkpt lat="36.735103" lon="32.687236"><ele>1579.9</ele></trkpt>
    <trkpt lat="36.735406" lon="32.687588"><ele>1574.0</ele></trkpt>
    <trkpt lat="36.736223" lon="32.687739"><ele>1566.2</ele></trkpt>
    <trkpt lat="36.737278" lon="32.687798"><ele>1557.8</ele></trkpt>
    <trkpt lat="36.738210" lon="32.687905"><ele>1549.7</ele></trkpt>
    <trkpt lat="36.738706" lon="32.688181"><ele>1543.3</ele></trkpt>
    <trkpt lat="36.738624" lon="32.688682"><ele>1539.1</ele></trkpt>
    <trkpt lat="36.738044" lon="32.689378"><ele>1537.9</ele></trkpt>
    <trkpt lat="36.737231" lon="32.690164"><ele>1539.5</ele></trkpt>
    <trkpt lat="36.736538" lon="32.690903"><ele>1543.6</ele></trkpt>
    <trkpt lat="36.736266" lon="32.691478"><ele>1549.4</ele></trkpt>
    <trkpt lat="36.736552" lon="32.691836"><ele>1555.9</ele></trkpt>
    <trkpt lat="36.737321" lon="32.692006"><ele>1562.0</ele></trkpt>
    <trkpt lat="36.738313" lon="32.692090"><ele>1566.5</ele></trkpt>
    <trkpt lat="36.739189" lon="32.692218"><ele>1568.8</ele></trkpt>
    <trkpt lat="36.739662" lon="32.692503"><ele>1568.4</ele></trkpt>
    <trkpt lat="36.739599" lon="32.692997"><ele>1565.3</ele></trkpt>
    <trkpt lat="36.739075" lon="32.693671"><ele>1559.9</ele></trkpt>
    <trkpt lat="36.738338" lon="32.694427"><ele>1553.0</ele></trkpt>
    <trkpt lat="36.737711" lon="32.695140"><ele>1545.4</ele></trkpt>
    <trkpt lat="36.737469" lon="32.695704"><ele>1538.3</ele></trkpt>
    <trkpt lat="36.737736" lon="32.696070"><ele>1532.5</ele></trkpt>
    <trkpt lat="36.738438" lon="32.696266"><ele>1528.9</ele></trkpt>
    <trkpt lat="36.739342" lon="32.696383"><ele>1527.7</ele></trkpt>
    <trkpt lat="36.740141" lon="32.696541"><ele>1529.0</ele></trkpt>
    <trkpt lat="36.740578" lon="32.696841"><ele>1532.4</ele></trkpt>
    <trkpt lat="36.740537" lon="32.697326"><ele>1537.3</ele></trkpt>
    <trkpt lat="36.740087" lon="32.697971"><ele>1542.6</ele></trkpt>
    <trkpt lat="36.739449" lon="32.698689"><ele>1547.5</ele></trkpt>
    <trkpt lat="36.738910" lon="32.699368"><ele>1551.1</ele></trkpt>
    <trkpt lat="36.738710" lon="32.699915"><ele>1552.8</ele></trkpt>
    <trkpt lat="36.738953" lon="32.700290"><ele>1552.3</ele></trkpt>
    <trkpt lat="36.739575" lon="32.700518"><ele>1549.6</ele></trkpt>
    <trkpt lat="36.740369" lon="32.700678"><ele>1545.0</ele></trkpt>
    <trkpt lat="36.741070" lon="32.700874"><ele>1539.3</ele></trkpt>
    <trkpt lat="36.741460" lon="32.701192"><ele>1533.1</ele></trkpt>
    <trkpt lat="36.741442" lon="32.701668"><ele>1527.3</ele></trkpt>
    <trkpt lat="36.741080" lon="32.702279"><ele>1522.7</ele></trkpt>
    <trkpt lat="36.740563" lon="32.702950"><ele>1519.8</ele></trkpt>
    <trkpt lat="36.740131" lon="32.703587"><ele>1518.8</ele></trkpt>
    <trkpt lat="36.739983" lon="32.704114"><ele>1519.6</ele></trkpt>
    <trkpt lat="36.740202" lon="32.704499"><ele>1522.0</ele></trkpt>
    <trkpt lat="36.740729" lon="32.704763"><ele>1525.4</ele></trkpt>
    <trkpt lat="36.741394" lon="32.704973"><ele>1529.2</ele></trkpt>
    <trkpt lat="36.741980" lon="32.705215"><ele>1532.5</ele></trkpt>
    <trkpt lat="36.742312" lon="32.705555"><ele>1534.8</ele></trkpt>
    <trkpt lat="36.742319" lon="32.706021"><ele>1535.8</ele></trkpt>
    <trkpt lat="36.742056" lon="32.706593"><ele>1535.1</ele></trkpt>
    <trkpt lat="36.741676" lon="32.707211"><ele>1532.9</ele></trkpt>
    <trkpt lat="36.741368" lon="32.707800"><ele>1529.4</ele></trkpt>
    <trkpt lat="36.741282" lon="32.708303"><ele>1525.2</ele></trkpt>
    <trkpt lat="36.741476" lon="32.708697"><ele>1520.8</ele></trkpt>
    <trkpt lat="36.741900" lon="32.709001"><ele>1516.8</ele></trkpt>
    <trkpt lat="36.742420" lon="32.709268"><ele>1513.6</ele></trkpt>
    <trkpt lat="36.742875" lon="32.709560"><ele>1511.5</ele></trkpt>
    <trkpt lat="36.743141" lon="32.709926"><ele>1510.7</ele></trkpt>
    <trkpt lat="36.743173" lon="32.710383"><ele>1511.0</ele></trkpt>
    <trkpt lat="36.743017" lon="32.710914"><ele>1512.3</ele></trkpt>
    <trkpt lat="36.742788" lon="32.711472"><ele>1514.0</ele></trkpt>
    <trkpt lat="36.742616" lon="32.712009"><ele>1515.8</ele></trkpt>
    <trkpt lat="36.742600" lon="32.712484"><ele>1517.3</ele></trkpt>
    <trkpt lat="36.742771" lon="32.712887"><ele>1518.1</ele></trkpt>
    <trkpt lat="36.743084" lon="32.713235"><ele>1518.1</ele></trkpt>
    <trkpt lat="36.743449" lon="32.713562"><ele>1517.2</ele></trkpt>
    <trkpt lat="36.743762" lon="32.713910"><ele>1515.5</ele></trkpt>
    <trkpt lat="36.743955" lon="32.714304"><ele>1513.3</ele></trkpt>
    <trkpt lat="36.744010" lon="32.714752"><ele>1510.9</ele></trkpt>
    <trkpt lat="36.743966" lon="32.715238"><ele>1508.5</ele></trkpt>
    <trkpt lat="36.743896" lon="32.715735"><ele>1506.5</ele></trkpt>
    <trkpt lat="36.743870" lon="32.716215"><ele>1504.9</ele></trkpt>
    <trkpt lat="36.743931" lon="32.716661"><ele>1503.8</ele></trkpt>
    <trkpt lat="36.744079" lon="32.717072"><ele>1503.2</ele></trkpt>
    <trkpt lat="36.744279" lon="32.717464"><ele>1503.0</ele></trkpt>
    <trkpt lat="36.744482" lon="32.717855"><ele>1502.9</ele></trkpt>
    <trkpt lat="36.744646" lon="32.718260"><ele>1502.8</ele></trkpt>
    <trkpt lat="36.744759" lon="32.718685"><ele>1502.5</ele></trkpt>
    <trkpt lat="36.744836" lon="32.719125"><ele>1501.9</ele></trkpt>
    <trkpt lat="36.744906" lon="32.719567"><ele>1501.1</ele></trkpt>
    <trkpt lat="36.745000" lon="32.720000"><ele>1500.0</ele></trkpt>
    <trkpt lat="36.744754" lon="32.720328"><ele>1499.8</ele></trkpt>
    <trkpt lat="36.744498" lon="32.720645"><ele>1499.6</ele></trkpt>
    <trkpt lat="36.744251" lon="32.720971"><ele>1499.3</ele></trkpt>
    <trkpt lat="36.744030" lon="32.721325"><ele>1498.6</ele></trkpt>
    <trkpt lat="36.743839" lon="32.721712"><ele>1497.8</ele></trkpt>
    <trkpt lat="36.743665" lon="32.722117"><ele>1496.7</ele></trkpt>
    <trkpt lat="36.743480" lon="32.722509"><ele>1495.6</ele></trkpt>
    <trkpt lat="36.743253" lon="32.722857"><ele>1494.5</ele></trkpt>
    <trkpt lat="36.742970" lon="32.723146"><ele>1493.7</ele></trkpt>
    <trkpt lat="36.742641" lon="32.723384"><ele>1493.3</ele></trkpt>
    <trkpt lat="36.742299" lon="32.723609"><ele>1493.3</ele></trkpt>
    <trkpt lat="36.741990" lon="32.723869"><ele>1493.8</ele></trkpt>
    <trkpt lat="36.741754" lon="32.724208"><ele>1494.7</ele></trkpt>
    <trkpt lat="36.741604" lon="32.724638"><ele>1495.7</ele></trkpt>
    <trkpt lat="36.741517" lon="32.725136"><ele>1496.7</ele></trkpt>
    <trkpt lat="36.741439" lon="32.725643"><ele>1497.3</ele></trkpt>
    <trkpt lat="36.741305" lon="32.726091"><ele>1497.4</ele></trkpt>
    <trkpt lat="36.741067" lon="32.726428"><ele>1496.8</ele></trkpt>
    <trkpt lat="36.740715" lon="32.726641"><ele>1495.3</ele></trkpt>
    <trkpt lat="36.740283" lon="32.726770"><ele>1493.2</ele></trkpt>
    <trkpt lat="36.739846" lon="32.726893"><ele>1490.7</ele></trkpt>
    <trkpt lat="36.739486" lon="32.727099"><ele>1488.0</ele></trkpt>
    <trkpt lat="36.739261" lon="32.727448"><ele>1485.5</ele></trkpt>
    <trkpt lat="36.739179" lon="32.727952"><ele>1483.6</ele></trkpt>
    <trkpt lat="36.739192" lon="32.728557"><ele>1482.6</ele></trkpt>
    <trkpt lat="36.739208" lon="32.729164"><ele>1482.6</ele></trkpt>
    <trkpt lat="36.739125" lon="32.729667"><ele>1483.7</ele></trkpt>
    <trkpt lat="36.738878" lon="32.729993"><ele>1485.6</ele></trkpt>
    <trkpt lat="36.738458" lon="32.730135"><ele>1488.2</ele></trkpt>
    <trkpt lat="36.737928" lon="32.730159"><ele>1490.8</ele></trkpt>
    <trkpt lat="36.737400" lon="32.730184"><ele>1493.0</ele></trkpt>
    <trkpt lat="36.736989" lon="32.730335"><ele>1494.5</ele></trkpt>
    <trkpt lat="36.736773" lon="32.730695"><ele>1494.8</ele></trkpt>
    <trkpt lat="36.736757" lon="32.731268"><ele>1493.7</ele></trkpt>
    <trkpt lat="36.736865" lon="32.731976"><ele>1491.3</ele></trkpt>
    <trkpt lat="36.736970" lon="32.732679"><ele>1487.8</ele></trkpt>
    <trkpt lat="36.736937" lon="32.733235"><ele>1483.7</ele></trkpt>
    <trkpt lat="36.736681" lon="32.733551"><ele>1479.4</ele></trkpt>
    <trkpt lat="36.736198" lon="32.733625"><ele>1475.7</ele></trkpt>
    <trkpt lat="36.735576" lon="32.733550"><ele>1473.0</ele></trkpt>
    <trkpt lat="36.734960" lon="32.733482"><ele>1471.8</ele></trkpt>
    <trkpt lat="36.734501" lon="32.733582"><ele>1472.2</ele></trkpt>
    <trkpt lat="36.734294" lon="32.733950"><ele>1474.2</ele></trkpt>
    <trkpt lat="36.734338" lon="32.734589"><ele>1477.5</ele></trkpt>
    <trkpt lat="36.734536" lon="32.735391"><ele>1481.5</ele></trkpt>
    <trkpt lat="36.734724" lon="32.736184"><ele>1485.6</ele></trkpt>
    <trkpt lat="36.734738" lon="32.736790"><ele>1489.1</ele></trkpt>
    <trkpt lat="36.734474" lon="32.737099"><ele>1491.2</ele></trkpt>
    <trkpt lat="36.733933" lon="32.737111"><ele>1491.7</ele></trkpt>
    <trkpt lat="36.733226" lon="32.736944"><ele>1490.3</ele></trkpt>
    <trkpt lat="36.732530" lon="32.736790"><ele>1487.0</ele></trkpt>
    <trkpt lat="36.732026" lon="32.736841"><ele>1482.2</ele></trkpt>
    <trkpt lat="36.731825" lon="32.737218"><ele>1476.7</ele></trkpt>
    <trkpt lat="36.731924" lon="32.737915"><ele>1471.1</ele></trkpt>
    <trkpt lat="36.732204" lon="32.738805"><ele>1466.3</ele></trkpt>
    <trkpt lat="36.732469" lon="32.739680"><ele>1462.9</ele></trkpt>
    <trkpt lat="36.732526" lon="32.740331"><ele>1461.5</ele></trkpt>
    <trkpt lat="36.732255" lon="32.740633"><ele>1462.3</ele></trkpt>
    <trkpt lat="36.731663" lon="32.740590"><ele>1465.1</ele></trkpt>
    <trkpt lat="36.730878" lon="32.740341"><ele>1469.5</ele></trkpt>
    <trkpt lat="36.730110" lon="32.740109"><ele>1474.8</ele></trkpt>
    <trkpt lat="36.729565" lon="32.740117"><ele>1480.2</ele></trkpt>
    <trkpt lat="36.729370" lon="32.740499"><ele>1484.6</ele></trkpt>
    <trkpt lat="36.729518" lon="32.741248"><ele>1487.5</ele></trkpt>
    <trkpt lat="36.729869" lon="32.742215"><ele>1488.1</ele></trkpt>
    <trkpt lat="36.730202" lon="32.743163"><ele>1486.3</ele></trkpt>
    <trkpt lat="36.730298" lon="32.743856"><ele>1482.3</ele></trkpt>
    <trkpt lat="36.730022" lon="32.744152"><ele>1476.5</ele></trkpt>
    <trkpt lat="36.729385" lon="32.744060"><ele>1469.8</ele></trkpt>
    <trkpt lat="36.728533" lon="32.743740"><ele>1463.1</ele></trkpt>
    <trkpt lat="36.727701" lon="32.743441"><ele>1457.3</ele></trkpt>
    <trkpt lat="36.727121" lon="32.743410"><ele>1453.4</ele></trkpt>
    <trkpt lat="36.726930" lon="32.743797"><ele>1451.9</ele></trkpt>
    <trkpt lat="36.727119" lon="32.744591"><ele>1452.9</ele></trkpt>
    <trkpt lat="36.727533" lon="32.745624"><ele>1456.4</ele></trkpt>
    <trkpt lat="36.727924" lon="32.746633"><ele>1461.7</ele></trkpt>
    <trkpt lat="36.728052" lon="32.747361"><ele>1468.1</ele></trkpt>
    <trkpt lat="36.727773" lon="32.747653"><ele>1474.4</ele></trkpt>
    <trkpt lat="36.727098" lon="32.747522"><ele>1479.7</ele></trkpt>
    <trkpt lat="36.726190" lon="32.747141"><ele>1483.0</ele></trkpt>
    <trkpt lat="36.725306" lon="32.746786"><ele>1483.8</ele></trkpt>
    <trkpt lat="36.724695" lon="32.746724"><ele>1481.7</ele></trkpt>
    <trkpt lat="36.724508" lon="32.747114"><ele>1477.1</ele></trkpt>
    <trkpt lat="36.724731" lon="32.747943"><ele>1470.6</ele></trkpt>
    <trkpt lat="36.725194" lon="32.749029"><ele>1463.0</ele></trkpt>
    <trkpt lat="36.725632" lon="32.750089"><ele>1455.4</ele></trkpt>
    <trkpt lat="36.725787" lon="32.750846"><ele>1449.0</ele></trkpt>
    <trkpt lat="36.725505" lon="32.751135"><ele>1444.6</ele></trkpt>
    <trkpt lat="36.724801" lon="32.750972"><ele>1443.0</ele></trkpt>
    <trkpt lat="36.723849" lon="32.750545"><ele>1444.2</ele></trkpt>
    <trkpt lat="36.722924" lon="32.750146"><ele>1448.2</ele></trkpt>
    <trkpt lat="36.722290" lon="32.750058"><ele>1454.2</ele></trkpt>
    <trkpt lat="36.722104" lon="32.750450"><ele>1461.3</ele></trkpt>
    <trkpt lat="36.722352" lon="32.751307"><ele>1468.3</ele></trkpt>
    <trkpt lat="36.722852" lon="32.752433"><ele>1474.1</ele></trkpt>
    <trkpt lat="36.723326" lon="32.753530"><ele>1477.8</ele></trkpt>
    <trkpt lat="36.723501" lon="32.754308"><ele>1478.6</ele></trkpt>
    <trkpt lat="36.723218" lon="32.754597"><ele>1476.4</ele></trkpt>
    <trkpt lat="36.722493" lon="32.754411"><ele>1471.4</ele></trkpt>
    <trkpt lat="36.721510" lon="32.753951"><ele>1464.3</ele></trkpt>
    <trkpt lat="36.720556" lon="32.753521"><ele>1456.2</ele></trkpt>
    <trkpt lat="36.719906" lon="32.753416"><ele>1448.1</ele></trkpt>
    <trkpt lat="36.719721" lon="32.753809"><ele>1441.3</ele></trkpt>
    <trkpt lat="36.719985" lon="32.754682"><ele>1436.7</ele></trkpt>
    <trkpt lat="36.720510" lon="32.755835"><ele>1435.0</ele></trkpt>
    <trkpt lat="36.721006" lon="32.756956"><ele>1436.4</ele></trkpt>
    <trkpt lat="36.721193" lon="32.757748"><ele>1440.6</ele></trkpt>
    <trkpt lat="36.720910" lon="32.758036"><ele>1447.0</ele></trkpt>
    <trkpt lat="36.720173" lon="32.757838"><ele>1454.4</ele></trkpt>
    <trkpt lat="36.719173" lon="32.757359"><ele>1461.8</ele></trkpt>
    <trkpt lat="36.718203" lon="32.756911"><ele>1467.9</ele></trkpt>
    <trkpt lat="36.717543" lon="32.756796"><ele>1471.7</ele></trkpt>
    <trkpt lat="36.717358" lon="32.757189"><ele>1472.5</ele></trkpt>
    <trkpt lat="36.717630" lon="32.758071"><ele>1470.2</ele></trkpt>
    <trkpt lat="36.718165" lon="32.759234"><ele>1465.1</ele></trkpt>
    <trkpt lat="36.718671" lon="32.760366"><ele>1457.8</ele></trkpt>
    <trkpt lat="36.718864" lon="32.761164"><ele>1449.4</ele></trkpt>
    <trkpt lat="36.718581" lon="32.761452"><ele>1441.2</ele></trkpt>
    <trkpt lat="36.717841" lon="32.761251"><ele>1434.2</ele></trkpt>
    <trkpt lat="36.716838" lon="32.760768"><ele>1429.6</ele></trkpt>
    <trkpt lat="36.715864" lon="32.760317"><ele>1427.9</ele></trkpt>
    <trkpt lat="36.715203" lon="32.760201"><ele>1429.3</ele></trkpt>
    <trkpt lat="36.715017" lon="32.760593"><ele>1433.6</ele></trkpt>
    <trkpt lat="36.715287" lon="32.761472"><ele>1440.1</ele></trkpt>
    <trkpt lat="36.715819" lon="32.762633"><ele>1447.6</ele></trkpt>
    <trkpt lat="36.716321" lon="32.763761"><ele>1454.9</ele></trkpt>
    <trkpt lat="36.716512" lon="32.764556"><ele>1461.0</ele></trkpt>
    <trkpt lat="36.716231" lon="32.764846"><ele>1464.7</ele></trkpt>
    <trkpt lat="36.715497" lon="32.764652"><ele>1465.5</ele></trkpt>
    <trkpt lat="36.714503" lon="32.764179"><ele>1463.2</ele></trkpt>
    <trkpt lat="36.713540" lon="32.763739"><ele>1458.1</ele></trkpt>
    <trkpt lat="36.712885" lon="32.763629"><ele>1450.9</ele></trkpt>
    <trkpt lat="36.712697" lon="32.764019"><ele>1442.7</ele></trkpt>
    <trkpt lat="36.712956" lon="32.764887"><ele>1434.6</ele></trkpt>
    <trkpt lat="36.713472" lon="32.766030"><ele>1427.9</ele></trkpt>
    <trkpt lat="36.713958" lon="32.767140"><ele>1423.4</ele></trkpt>
    <trkpt lat="36.714139" lon="32.767925"><ele>1421.8</ele></trkpt>
    <trkpt lat="36.713859" lon="32.768217"><ele>1423.2</ele></trkpt>
    <trkpt lat="36.713140" lon="32.768038"><ele>1427.3</ele></trkpt>
    <trkpt lat="36.712170" lon="32.767591"><ele>1433.5</ele></trkpt>
    <trkpt lat="36.711229" lon="32.767176"><ele>1440.6</ele></trkpt>
    <trkpt lat="36.710588" lon="32.767081"><ele>1447.6</ele></trkpt>
    <trkpt lat="36.710398" lon="32.767468"><ele>1453.3</ele></trkpt>
    <trkpt lat="36.710639" lon="32.768316"><ele>1456.8</ele></trkpt>
    <trkpt lat="36.711125" lon="32.769427"><ele>1457.6</ele></trkpt>
    <trkpt lat="36.711580" lon="32.770505"><ele>1455.3</ele></trkpt>
    <trkpt lat="36.711743" lon="32.771270"><ele>1450.5</ele></trkpt>
    <trkpt lat="36.711467" lon="32.771565"><ele>1443.7</ele></trkpt>
    <trkpt lat="36.710771" lon="32.771412"><ele>1436.0</ele></trkpt>
    <trkpt lat="36.709837" lon="32.771003"><ele>1428.5</ele></trkpt>
    <trkpt lat="36.708933" lon="32.770627"><ele>1422.2</ele></trkpt>
    <trkpt lat="36.708313" lon="32.770554"><ele>1418.0</ele></trkpt>
    <trkpt lat="36.708120" lon="32.770939"><ele>1416.5</ele></trkpt>
    <trkpt lat="36.708333" lon="32.771758"><ele>1417.8</ele></trkpt>
    <trkpt lat="36.708776" lon="32.772823"><ele>1421.6</ele></trkpt>
    <trkpt lat="36.709190" lon="32.773856"><ele>1427.2</ele></trkpt>
    <trkpt lat="36.709328" lon="32.774594"><ele>1433.7</ele></trkpt>
    <trkpt lat="36.709054" lon="32.774892"><ele>1440.0</ele></trkpt>
    <trkpt lat="36.708390" lon="32.774772"><ele>1445.1</ele></trkpt>
    <trkpt lat="36.707504" lon="32.774416"><ele>1448.2</ele></trkpt>
    <trkpt lat="36.706648" lon="32.774091"><ele>1448.7</ele></trkpt>
    <trkpt lat="36.706057" lon="32.774049"><ele>1446.7</ele></trkpt>
    <trkpt lat="36.705861" lon="32.774431"><ele>1442.3</ele></trkpt>
    <trkpt lat="36.706039" lon="32.775212"><ele>1436.2</ele></trkpt>
    <trkpt lat="36.706428" lon="32.776218"><ele>1429.3</ele></trkpt>
    <trkpt lat="36.706788" lon="32.777194"><ele>1422.7</ele></trkpt>
    <trkpt lat="36.706894" lon="32.777898"><ele>1417.1</ele></trkpt>
    <trkpt lat="36.706623" lon="32.778199"><ele>1413.5</ele></trkpt>
    <trkpt lat="36.705997" lon="32.778120"><ele>1412.1</ele></trkpt>
    <trkpt lat="36.705172" lon="32.777828"><ele>1413.3</ele></trkpt>
    <trkpt lat="36.704375" lon="32.777567"><ele>1416.5</ele></trkpt>
    <trkpt lat="36.703819" lon="32.777563"><ele>1421.3</ele></trkpt>
    <trkpt lat="36.703620" lon="32.777941"><ele>1426.8</ele></trkpt>
    <trkpt lat="36.703757" lon="32.778678"><ele>1432.1</ele></trkpt>
    <trkpt lat="36.704080" lon="32.779614"><ele>1436.3</ele></trkpt>
    <trkpt lat="36.704375" lon="32.780520"><ele>1438.8</ele></trkpt>
    <trkpt lat="36.704442" lon="32.781183"><ele>1439.1</ele></trkpt>
    <trkpt lat="36.704175" lon="32.781488"><ele>1437.3</ele></trkpt>
    <trkpt lat="36.703594" lon="32.781457"><ele>1433.5</ele></trkpt>
    <trkpt lat="36.702839" lon="32.781241"><ele>1428.4</ele></trkpt>
    <trkpt lat="36.702112" lon="32.781054"><ele>1422.7</ele></trkpt>
    <trkpt lat="36.701598" lon="32.781095"><ele>1417.1</ele></trkpt>
    <trkpt lat="36.701396" lon="32.781470"><ele>1412.6</ele></trkpt>
    <trkpt lat="36.701484" lon="32.782154"><ele>1409.6</ele></trkpt>
    <trkpt lat="36.701732" lon="32.783010"><ele>1408.5</ele></trkpt>
    <trkpt lat="36.701952" lon="32.783837"><ele>1409.3</ele></trkpt>
    <trkpt lat="36.701975" lon="32.784452"><ele>1411.9</ele></trkpt>
    <trkpt lat="36.701711" lon="32.784761"><ele>1415.6</ele></trkpt>
    <trkpt lat="36.701181" lon="32.784784"><ele>1419.8</ele></trkpt>
    <trkpt lat="36.700506" lon="32.784653"><ele>1423.9</ele></trkpt>
    <trkpt lat="36.699858" lon="32.784551"><ele>1427.0</ele></trkpt>
    <trkpt lat="36.699391" lon="32.784642"><ele>1428.8</ele></trkpt>
    <trkpt lat="36.699185" lon="32.785013"><ele>1428.9</ele></trkpt>
    <trkpt lat="36.699220" lon="32.785641"><ele>1427.3</ele></trkpt>
    <trkpt lat="36.699384" lon="32.786407"><ele>1424.3</ele></trkpt>
    <trkpt lat="36.699522" lon="32.787145"><ele>1420.3</ele></trkpt>
    <trkpt lat="36.699496" lon="32.787708"><ele>1416.0</ele></trkpt>
    <trkpt lat="36.699235" lon="32.788019"><ele>1411.8</ele></trkpt>
    <trkpt lat="36.698760" lon="32.788103"><ele>1408.4</ele></trkpt>
    <trkpt lat="36.698173" lon="32.788065"><ele>1406.2</ele></trkpt>
    <trkpt lat="36.697611" lon="32.788055"><ele>1405.4</ele></trkpt>
    <trkpt lat="36.697195" lon="32.788201"><ele>1406.0</ele></trkpt>
    <trkpt lat="36.696987" lon="32.788569"><ele>1407.7</ele></trkpt>
    <trkpt lat="36.696964" lon="32.789135"><ele>1410.2</ele></trkpt>
    <trkpt lat="36.697037" lon="32.789804"><ele>1412.9</ele></trkpt>
    <trkpt lat="36.697085" lon="32.790446"><ele>1415.5</ele></trkpt>
    <trkpt lat="36.697005" lon="32.790951"><ele>1417.4</ele></trkpt>
    <trkpt lat="36.696747" lon="32.791266"><ele>1418.3</ele></trkpt>
    <trkpt lat="36.696332" lon="32.791413"><ele>1418.1</ele></trkpt>
    <trkpt lat="36.695839" lon="32.791476"><ele>1416.8</ele></trkpt>
    <trkpt lat="36.695369" lon="32.791564"><ele>1414.7</ele></trkpt>
    <trkpt lat="36.695009" lon="32.791770"><ele>1412.1</ele></trkpt>
    <trkpt lat="36.694797" lon="32.792135"><ele>1409.3</ele></trkpt>
    <trkpt lat="36.694713" lon="32.792635"><ele>1406.7</ele></trkpt>
    <trkpt lat="36.694690" lon="32.793202"><ele>1404.6</ele></trkpt>
    <trkpt lat="36.694644" lon="32.793743"><ele>1403.3</ele></trkpt>
    <trkpt lat="36.694507" lon="32.794187"><ele>1402.7</ele></trkpt>
    <trkpt lat="36.694252" lon="32.794505"><ele>1403.0</ele></trkpt>
    <trkpt lat="36.693899" lon="32.794719"><ele>1403.8</ele></trkpt>
    <trkpt lat="36.693504" lon="32.794886"><ele>1404.9</ele></trkpt>
    <trkpt lat="36.693131" lon="32.795078"><ele>1406.0</ele></trkpt>
    <trkpt lat="36.692829" lon="32.795346"><ele>1407.0</ele></trkpt>
    <trkpt lat="36.692615" lon="32.795707"><ele>1407.5</ele></trkpt>
    <trkpt lat="36.692467" lon="32.796141"><ele>1407.5</ele></trkpt>
    <trkpt lat="36.692345" lon="32.796600"><ele>1407.0</ele></trkpt>
    <trkpt lat="36.692200" lon="32.797037"><ele>1406.1</ele></trkpt>
    <trkpt lat="36.692004" lon="32.797417"><ele>1404.9</ele></trkpt>
    <trkpt lat="36.691752" lon="32.797738"><ele>1403.7</ele></trkpt>
    <trkpt lat="36.691463" lon="32.798020"><ele>1402.5</ele></trkpt>
    <trkpt lat="36.691168" lon="32.798296"><ele>1401.6</ele></trkpt>
    <trkpt lat="36.690894" lon="32.798594"><ele>1400.9</ele></trkpt>
    <trkpt lat="36.690653" lon="32.798926"><ele>1400.5</ele></trkpt>
    <trkpt lat="36.690436" lon="32.799284"><ele>1400.3</ele></trkpt>
    <trkpt lat="36.690224" lon="32.799649"><ele>1400.2</ele></trkpt>
    <trkpt lat="36.690000" lon="32.800000"><ele>1400.0</ele></trkpt>
    <trkpt lat="36.689803" lon="32.800375"><ele>1399.3</ele></trkpt>
    <trkpt lat="36.689619" lon="32.800762"><ele>1398.8</ele></trkpt>
    <trkpt lat="36.689428" lon="32.801142"><ele>1398.5</ele></trkpt>
    <trkpt lat="36.689211" lon="32.801499"><ele>1398.3</ele></trkpt>
    <trkpt lat="36.688962" lon="32.801828"><ele>1398.2</ele></trkpt>
    <trkpt lat="36.688692" lon="32.802139"><ele>1397.9</ele></trkpt>
    <trkpt lat="36.688431" lon="32.802457"><ele>1397.4</ele></trkpt>
    <trkpt lat="36.688208" lon="32.802809"><ele>1396.6</ele></trkpt>
    <trkpt lat="36.688043" lon="32.803212"><ele>1395.4</ele></trkpt>
    <trkpt lat="36.687929" lon="32.803661"><ele>1393.9</ele></trkpt>
    <trkpt lat="36.687836" lon="32.804127"><ele>1392.2</ele></trkpt>
    <trkpt lat="36.687714" lon="32.804568"><ele>1390.4</ele></trkpt>
    <trkpt lat="36.687522" lon="32.804947"><ele>1388.9</ele></trkpt>
    <trkpt lat="36.687240" lon="32.805248"><ele>1387.8</ele></trkpt>
    <trkpt lat="36.686888" lon="32.805486"><ele>1387.2</ele></trkpt>
    <trkpt lat="36.686516" lon="32.805706"><ele>1387.3</ele></trkpt>
    <trkpt lat="36.686191" lon="32.805969"><ele>1388.0</ele></trkpt>
    <trkpt lat="36.685969" lon="32.806321"><ele>1389.0</ele></trkpt>
    <trkpt lat="36.685867" lon="32.806780"><ele>1390.3</ele></trkpt>
    <trkpt lat="36.685855" lon="32.807319"><ele>1391.5</ele></trkpt>
    <trkpt lat="36.685863" lon="32.807874"><ele>1392.3</ele></trkpt>
    <trkpt lat="36.685805" lon="32.808371"><ele>1392.3</ele></trkpt>
    <trkpt lat="36.685613" lon="32.808751"><ele>1391.5</ele></trkpt>
    <trkpt lat="36.685270" lon="32.808997"><ele>1389.8</ele></trkpt>
    <trkpt lat="36.684817" lon="32.809146"><ele>1387.2</ele></trkpt>
    <trkpt lat="36.684344" lon="32.809278"><ele>1384.1</ele></trkpt>
    <trkpt lat="36.683957" lon="32.809486"><ele>1380.9</ele></trkpt>
    <trkpt lat="36.683734" lon="32.809837"><ele>1377.8</ele></trkpt>
    <trkpt lat="36.683692" lon="32.810349"><ele>1375.4</ele></trkpt>
    <trkpt lat="36.683779" lon="32.810974"><ele>1374.0</ele></trkpt>
    <trkpt lat="36.683885" lon="32.811617"><ele>1373.7</ele></trkpt>
    <trkpt lat="36.683889" lon="32.812168"><ele>1374.7</ele></trkpt>
    <trkpt lat="36.683699" lon="32.812549"><ele>1376.6</ele></trkpt>
    <trkpt lat="36.683297" lon="32.812744"><ele>1379.2</ele></trkpt>
    <trkpt lat="36.682749" lon="32.812809"><ele>1382.0</ele></trkpt>
    <trkpt lat="36.682179" lon="32.812856"><ele>1384.5</ele></trkpt>
    <trkpt lat="36.681731" lon="32.813010"><ele>1386.1</ele></trkpt>
    <trkpt lat="36.681505" lon="32.813359"><ele>1386.5</ele></trkpt>
    <trkpt lat="36.681520" lon="32.813920"><ele>1385.4</ele></trkpt>
    <trkpt lat="36.681699" lon="32.814627"><ele>1382.8</ele></trkpt>
    <trkpt lat="36.681900" lon="32.815352"><ele>1379.0</ele></trkpt>
    <trkpt lat="36.681963" lon="32.815957"><ele>1374.5</ele></trkpt>
    <trkpt lat="36.681776" lon="32.816340"><ele>1369.7</ele></trkpt>
    <trkpt lat="36.681321" lon="32.816488"><ele>1365.5</ele></trkpt>
    <trkpt lat="36.680683" lon="32.816474"><ele>1362.2</ele></trkpt>
    <trkpt lat="36.680023" lon="32.816441"><ele>1360.5</ele></trkpt>
    <trkpt lat="36.679516" lon="32.816543"><ele>1360.5</ele></trkpt>
    <trkpt lat="36.679286" lon="32.816889"><ele>1362.2</ele></trkpt>
    <trkpt lat="36.679352" lon="32.817495"><ele>1365.4</ele></trkpt>
    <trkpt lat="36.679618" lon="32.818278"><ele>1369.4</ele></trkpt>
    <trkpt lat="36.679906" lon="32.819081"><ele>1373.5</ele></trkpt>
    <trkpt lat="36.680026" lon="32.819735"><ele>1377.2</ele></trkpt>
    <trkpt lat="36.679843" lon="32.820123"><ele>1379.6</ele></trkpt>
    <trkpt lat="36.679340" lon="32.820227"><ele>1380.2</ele></trkpt>
    <trkpt lat="36.678619" lon="32.820141"><ele>1378.9</ele></trkpt>
    <trkpt lat="36.677875" lon="32.820034"><ele>1375.6</ele></trkpt>
    <trkpt lat="36.677314" lon="32.820088"><ele>1370.7</ele></trkpt>
    <trkpt lat="36.677079" lon="32.820430"><ele>1364.9</ele></trkpt>
    <trkpt lat="36.677190" lon="32.821076"><ele>1358.8</ele></trkpt>
    <trkpt lat="36.677534" lon="32.821927"><ele>1353.5</ele></trkpt>
    <trkpt lat="36.677903" lon="32.822801"><ele>1349.5</ele></trkpt>
    <trkpt lat="36.678075" lon="32.823501"><ele>1347.5</ele></trkpt>
    <trkpt lat="36.677898" lon="32.823893"><ele>1347.7</ele></trkpt>
    <trkpt lat="36.677351" lon="32.823960"><ele>1350.1</ele></trkpt>
    <trkpt lat="36.676557" lon="32.823809"><ele>1354.3</ele></trkpt>
    <trkpt lat="36.675737" lon="32.823635"><ele>1359.4</ele></trkpt>
    <trkpt lat="36.675126" lon="32.823646"><ele>1364.8</ele></trkpt>
    <trkpt lat="36.674886" lon="32.823982"><ele>1369.4</ele></trkpt>
    <trkpt lat="36.675037" lon="32.824664"><ele>1372.5</ele></trkpt>
    <trkpt lat="36.675449" lon="32.825575"><ele>1373.4</ele></trkpt>
    <trkpt lat="36.675889" lon="32.826512"><ele>1371.9</ele></trkpt>
    <trkpt lat="36.676108" lon="32.827253"><ele>1368.0</ele></trkpt>
    <trkpt lat="36.675936" lon="32.827650"><ele>1362.2</ele></trkpt>
    <trkpt lat="36.675354" lon="32.827686"><ele>1355.3</ele></trkpt>
    <trkpt lat="36.674497" lon="32.827479"><ele>1348.2</ele></trkpt>
    <trkpt lat="36.673610" lon="32.827247"><ele>1341.9</ele></trkpt>
    <trkpt lat="36.672955" lon="32.827218"><ele>1337.3</ele></trkpt>
    <trkpt lat="36.672709" lon="32.827550"><ele>1335.1</ele></trkpt>
    <trkpt lat="36.672892" lon="32.828260"><ele>1335.5</ele></trkpt>
    <trkpt lat="36.673363" lon="32.829223"><ele>1338.4</ele></trkpt>
    <trkpt lat="36.673864" lon="32.830212"><ele>1343.4</ele></trkpt>
    <trkpt lat="36.674123" lon="32.830989"><ele>1349.5</ele></trkpt>
    <trkpt lat="36.673958" lon="32.831393"><ele>1355.8</ele></trkpt>
    <trkpt lat="36.673346" lon="32.831402"><ele>1361.2</ele></trkpt>
    <trkpt lat="36.672437" lon="32.831149"><ele>1364.8</ele></trkpt>
    <trkpt lat="36.671495" lon="32.830868"><ele>1365.9</ele></trkpt>
    <trkpt lat="36.670803" lon="32.830807"><ele>1364.3</ele></trkpt>
    <trkpt lat="36.670550" lon="32.831133"><ele>1359.9</ele></trkpt>
    <trkpt lat="36.670759" lon="32.831865"><ele>1353.4</ele></trkpt>
    <trkpt lat="36.671276" lon="32.832869"><ele>1345.7</ele></trkpt>
    <trkpt lat="36.671827" lon="32.833903"><ele>1337.8</ele></trkpt>
    <trkpt lat="36.672120" lon="32.834710"><ele>1330.9</ele></trkpt>
    <trkpt lat="36.671961" lon="32.835118"><ele>1325.9</ele></trkpt>
    <trkpt lat="36.671328" lon="32.835108"><ele>1323.4</ele></trkpt>
    <trkpt lat="36.670377" lon="32.834820"><ele>1324.0</ele></trkpt>
    <trkpt lat="36.669392" lon="32.834500"><ele>1327.2</ele></trkpt>
    <trkpt lat="36.668669" lon="32.834413"><ele>1332.7</ele></trkpt>
    <trkpt lat="36.668410" lon="32.834733"><ele>1339.5</ele></trkpt>
    <trkpt lat="36.668638" lon="32.835482"><ele>1346.5</ele></trkpt>
    <trkpt lat="36.669190" lon="32.836516"><ele>1352.5</ele></trkpt>
    <trkpt lat="36.669777" lon="32.837582"><ele>1356.5</ele></trkpt>
    <trkpt lat="36.670097" lon="32.838412"><ele>1357.7</ele></trkpt>
    <trkpt lat="36.669945" lon="32.838826"><ele>1355.9</ele></trkpt>
    <trkpt lat="36.669296" lon="32.838803"><ele>1351.3</ele></trkpt>
    <trkpt lat="36.668317" lon="32.838490"><ele>1344.4</ele></trkpt>
    <trkpt lat="36.667300" lon="32.838143"><ele>1336.2</ele></trkpt>
    <trkpt lat="36.666556" lon="32.838036"><ele>1327.8</ele></trkpt>
    <trkpt lat="36.666291" lon="32.838351"><ele>1320.4</ele></trkpt>
    <trkpt lat="36.666530" lon="32.839110"><ele>1315.1</ele></trkpt>
    <trkpt lat="36.667104" lon="32.840164"><ele>1312.6</ele></trkpt>
    <trkpt lat="36.667716" lon="32.841251"><ele>1313.1</ele></trkpt>
    <trkpt lat="36.668053" lon="32.842097"><ele>1316.6</ele></trkpt>
    <trkpt lat="36.667907" lon="32.842516"><ele>1322.4</ele></trkpt>
    <trkpt lat="36.667251" lon="32.842487"><ele>1329.6</ele></trkpt>
    <trkpt lat="36.666256" lon="32.842159"><ele>1336.9</ele></trkpt>
    <trkpt lat="36.665222" lon="32.841796"><ele>1343.2</ele></trkpt>
    <trkpt lat="36.664464" lon="32.841678"><ele>1347.3</ele></trkpt>
    <trkpt lat="36.664194" lon="32.841988"><ele>1348.6</ele></trkpt>
    <trkpt lat="36.664436" lon="32.842750"><ele>1346.8</ele></trkpt>
    <trkpt lat="36.665019" lon="32.843812"><ele>1342.1</ele></trkpt>
    <trkpt lat="36.665643" lon="32.844909"><ele>1335.0</ele></trkpt>
    <trkpt lat="36.665989" lon="32.845763"><ele>1326.6</ele></trkpt>
    <trkpt lat="36.665847" lon="32.846186"><ele>1318.0</ele></trkpt>
    <trkpt lat="36.665191" lon="32.846157"><ele>1310.5</ele></trkpt>
    <trkpt lat="36.664193" lon="32.845827"><ele>1305.1</ele></trkpt>
    <trkpt lat="36.663155" lon="32.845460"><ele>1302.6</ele></trkpt>
    <trkpt lat="36.662393" lon="32.845338"><ele>1303.1</ele></trkpt>
    <trkpt lat="36.662118" lon="32.845645"><ele>1306.7</ele></trkpt>
    <trkpt lat="36.662356" lon="32.846403"><ele>1312.5</ele></trkpt>
    <trkpt lat="36.662936" lon="32.847462"><ele>1319.7</ele></trkpt>
    <trkpt lat="36.663557" lon="32.848557"><ele>1327.0</ele></trkpt>
    <trkpt lat="36.663904" lon="32.849411"><ele>1333.2</ele></trkpt>
    <trkpt lat="36.663765" lon="32.849837"><ele>1337.4</ele></trkpt>
    <trkpt lat="36.663117" lon="32.849814"><ele>1338.7</ele></trkpt>
    <trkpt lat="36.662129" lon="32.849493"><ele>1336.9</ele></trkpt>
    <trkpt lat="36.661099" lon="32.849135"><ele>1332.2</ele></trkpt>
    <trkpt lat="36.660342" lon="32.849016"><ele>1325.2</ele></trkpt>
    <trkpt lat="36.660065" lon="32.849321"><ele>1317.0</ele></trkpt>
    <trkpt lat="36.660292" lon="32.850069"><ele>1308.5</ele></trkpt>
    <trkpt lat="36.660856" lon="32.851114"><ele>1301.2</ele></trkpt>
    <trkpt lat="36.661461" lon="32.852195"><ele>1295.9</ele></trkpt>
    <trkpt lat="36.661798" lon="32.853040"><ele>1293.4</ele></trkpt>
    <trkpt lat="36.661661" lon="32.853468"><ele>1293.9</ele></trkpt>
    <trkpt lat="36.661027" lon="32.853459"><ele>1297.3</ele></trkpt>
    <trkpt lat="36.660062" lon="32.853157"><ele>1302.9</ele></trkpt>
    <trkpt lat="36.659055" lon="32.852819"><ele>1309.8</ele></trkpt>
    <trkpt lat="36.658312" lon="32.852712"><ele>1316.8</ele></trkpt>
    <trkpt lat="36.658033" lon="32.853016"><ele>1322.8</ele></trkpt>
    <trkpt lat="36.658243" lon="32.853749"><ele>1326.7</ele></trkpt>
    <trkpt lat="36.658778" lon="32.854768"><ele>1327.9</ele></trkpt>
    <trkpt lat="36.659353" lon="32.855824"><ele>1326.2</ele></trkpt>
    <trkpt lat="36.659672" lon="32.856652"><ele>1321.7</ele></trkpt>
    <trkpt lat="36.659536" lon="32.857081"><ele>1315.1</ele></trkpt>
    <trkpt lat="36.658923" lon="32.857090"><ele>1307.3</ele></trkpt>
    <trkpt lat="36.657992" lon="32.856818"><ele>1299.3</ele></trkpt>
    <trkpt lat="36.657021" lon="32.856512"><ele>1292.4</ele></trkpt>
    <trkpt lat="36.656301" lon="32.856426"><ele>1287.4</ele></trkpt>
    <trkpt lat="36.656022" lon="32.856729"><ele>1285.1</ele></trkpt>
    <trkpt lat="36.656208" lon="32.857441"><ele>1285.5</ele></trkpt>
    <trkpt lat="36.656703" lon="32.858425"><ele>1288.6</ele></trkpt>
    <trkpt lat="36.657236" lon="32.859443"><ele>1293.8</ele></trkpt>
    <trkpt lat="36.657527" lon="32.860248"><ele>1300.0</ele></trkpt>
    <trkpt lat="36.657390" lon="32.860675"><ele>1306.4</ele></trkpt>
    <trkpt lat="36.656804" lon="32.860708"><ele>1311.8</ele></trkpt>
    <trkpt lat="36.655919" lon="32.860477"><ele>1315.3</ele></trkpt>
    <trkpt lat="36.654996" lon="32.860213"><ele>1316.4</ele></trkpt>
    <trkpt lat="36.654308" lon="32.860155"><ele>1314.7</ele></trkpt>
    <trkpt lat="36.654032" lon="32.860461"><ele>1310.6</ele></trkpt>
    <trkpt lat="36.654188" lon="32.861147"><ele>1304.6</ele></trkpt>
    <trkpt lat="36.654631" lon="32.862085"><ele>1297.5</ele></trkpt>
    <trkpt lat="36.655110" lon="32.863055"><ele>1290.4</ele></trkpt>
    <trkpt lat="36.655365" lon="32.863828"><ele>1284.1</ele></trkpt>
    <trkpt lat="36.655224" lon="32.864252"><ele>1279.7</ele></trkpt>
    <trkpt lat="36.654670" lon="32.864313"><ele>1277.5</ele></trkpt>
    <trkpt lat="36.653842" lon="32.864133"><ele>1277.9</ele></trkpt>
    <trkpt lat="36.652980" lon="32.863922"><ele>1280.5</ele></trkpt>
    <trkpt lat="36.652332" lon="32.863900"><ele>1284.9</ele></trkpt>
    <trkpt lat="36.652061" lon="32.864209"><ele>1290.3</ele></trkpt>
    <trkpt lat="36.652182" lon="32.864864"><ele>1295.8</ele></trkpt>
    <trkpt lat="36.652563" lon="32.865748"><ele>1300.3</ele></trkpt>
    <trkpt lat="36.652976" lon="32.866660"><ele>1303.3</ele></trkpt>
    <trkpt lat="36.653186" lon="32.867394"><ele>1304.0</ele></trkpt>
    <trkpt lat="36.653040" lon="32.867813"><ele>1302.5</ele></trkpt>
    <trkpt lat="36.652524" lon="32.867907"><ele>1298.9</ele></trkpt>
    <trkpt lat="36.651762" lon="32.867785"><ele>1293.7</ele></trkpt>
    <trkpt lat="36.650972" lon="32.867637"><ele>1287.7</ele></trkpt>
    <trkpt lat="36.650372" lon="32.867658"><ele>1281.6</ele></trkpt>
    <trkpt lat="36.650107" lon="32.867972"><ele>1276.3</ele></trkpt>
    <trkpt lat="36.650188" lon="32.868593"><ele>1272.5</ele></trkpt>
    <trkpt lat="36.650498" lon="32.869414"><ele>1270.6</ele></trkpt>
    <trkpt lat="36.650835" lon="32.870259"><ele>1270.9</ele></trkpt>
    <trkpt lat="36.650993" lon="32.870947"><ele>1272.9</ele></trkpt>
    <trkpt lat="36.650840" lon="32.871360"><ele>1276.5</ele></trkpt>
    <trkpt lat="36.650365" lon="32.871490"><ele>1280.7</ele></trkpt>
    <trkpt lat="36.649679" lon="32.871434"><ele>1285.0</ele></trkpt>
    <trkpt lat="36.648969" lon="32.871358"><ele>1288.5</ele></trkpt>
    <trkpt lat="36.648425" lon="32.871427"><ele>1290.7</ele></trkpt>
    <trkpt lat="36.648168" lon="32.871749"><ele>1291.1</ele></trkpt>
    <trkpt lat="36.648206" lon="32.872332"><ele>1289.8</ele></trkpt>
    <trkpt lat="36.648438" lon="32.873084"><ele>1286.8</ele></trkpt>
    <trkpt lat="36.648689" lon="32.873854"><ele>1282.6</ele></trkpt>
    <trkpt lat="36.648788" lon="32.874489"><ele>1277.7</ele></trkpt>
    <trkpt lat="36.648626" lon="32.874894"><ele>1272.9</ele></trkpt>
    <trkpt lat="36.648195" lon="32.875064"><ele>1268.8</ele></trkpt>
    <trkpt lat="36.647592" lon="32.875081"><ele>1265.8</ele></trkpt>
    <trkpt lat="36.646971" lon="32.875082"><ele>1264.3</ele></trkpt>
    <trkpt lat="36.646489" lon="32.875206"><ele>1264.4</ele></trkpt>
    <trkpt lat="36.646242" lon="32.875538"><ele>1265.8</ele></trkpt>
    <trkpt lat="36.646235" lon="32.876080"><ele>1268.2</ele></trkpt>
    <trkpt lat="36.646380" lon="32.876756"><ele>1271.2</ele></trkpt>
    <trkpt lat="36.646539" lon="32.877444"><ele>1274.0</ele></trkpt>
    <trkpt lat="36.646573" lon="32.878023"><ele>1276.3</ele></trkpt>
    <trkpt lat="36.646400" lon="32.878418"><ele>1277.6</ele></trkpt>
    <trkpt lat="36.646016" lon="32.878629"><ele>1277.7</ele></trkpt>
    <trkpt lat="36.645501" lon="32.878724"><ele>1276.5</ele></trkpt>
    <trkpt lat="36.644976" lon="32.878810"><ele>1274.2</ele></trkpt>
    <trkpt lat="36.644561" lon="32.878994"><ele>1271.1</ele></trkpt>
    <trkpt lat="36.644327" lon="32.879336"><ele>1267.7</ele></trkpt>
    <trkpt lat="36.644272" lon="32.879835"><ele>1264.4</ele></trkpt>
    <trkpt lat="36.644326" lon="32.880432"><ele>1261.5</ele></trkpt>
    <trkpt lat="36.644386" lon="32.881032"><ele>1259.5</ele></trkpt>
    <trkpt lat="36.644351" lon="32.881550"><ele>1258.4</ele></trkpt>
    <trkpt lat="36.644164" lon="32.881933"><ele>1258.3</ele></trkpt>
    <trkpt lat="36.643829" lon="32.882187"><ele>1259.0</ele></trkpt>
    <trkpt lat="36.643407" lon="32.882364"><ele>1260.3</ele></trkpt>
    <trkpt lat="36.642984" lon="32.882540"><ele>1261.7</ele></trkpt>
    <trkpt lat="36.642641" lon="32.882786"><ele>1263.1</ele></trkpt>
    <trkpt lat="36.642420" lon="32.883141"><ele>1264.0</ele></trkpt>
    <trkpt lat="36.642315" lon="32.883596"><ele>1264.3</ele></trkpt>
    <trkpt lat="36.642276" lon="32.884110"><ele>1263.9</ele></trkpt>
    <trkpt lat="36.642231" lon="32.884619"><ele>1262.9</ele></trkpt>
    <trkpt lat="36.642123" lon="32.885072"><ele>1261.4</ele></trkpt>
    <trkpt lat="36.641921" lon="32.885443"><ele>1259.5</ele></trkpt>
    <trkpt lat="36.641636" lon="32.885741"><ele>1257.6</ele></trkpt>
    <trkpt lat="36.641310" lon="32.886001"><ele>1255.9</ele></trkpt>
    <trkpt lat="36.640992" lon="32.886270"><ele>1254.4</ele></trkpt>
    <trkpt lat="36.640724" lon="32.886582"><ele>1253.4</ele></trkpt>
    <trkpt lat="36.640519" lon="32.886950"><ele>1252.8</ele></trkpt>
    <trkpt lat="36.640364" lon="32.887362"><ele>1252.5</ele></trkpt>
    <trkpt lat="36.640228" lon="32.887791"><ele>1252.4</ele></trkpt>
    <trkpt lat="36.640077" lon="32.888206"><ele>1252.4</ele></trkpt>
    <trkpt lat="36.639892" lon="32.888592"><ele>1252.3</ele></trkpt>
    <trkpt lat="36.639674" lon="32.888949"><ele>1252.1</ele></trkpt>
    <trkpt lat="36.639440" lon="32.889290"><ele>1251.6</ele></trkpt>
    <trkpt lat="36.639210" lon="32.889637"><ele>1250.8</ele></trkpt>
    <trkpt lat="36.639000" lon="32.890000"><ele>1250.0</ele></trkpt>
    </trkseg>
  </trk>
</gpx>
