<?xml version="1.0" encoding="UTF-8"?>
<gpx version="1.1" creator="tripplanner (sketch line from researched control points)" xmlns="http://www.topografix.com/GPX/1/1">
  <metadata>
    <name>taurus-taseli — Bozkır → Hadim → Taşkent</name>
    <desc>62.0 km, 1600 m. Sketch line through researched control points, calibrated to 62 km / 1600 m of road — drawn, not routed.</desc>
  </metadata>
  <trk>
    <name>taurus-taseli — Bozkır → Hadim → Taşkent</name>
    <trkseg>
    <trkpt lat="37.190000" lon="32.247000"><ele>1125.0</ele></trkpt>
    <trkpt lat="37.189730" lon="32.247298"><ele>1125.5</ele></trkpt>
    <trkpt lat="37.189469" lon="32.247609"><ele>1126.2</ele></trkpt>
    <trkpt lat="37.189204" lon="32.247913"><ele>1126.9</ele></trkpt>
    <trkpt lat="37.188921" lon="32.248192"><ele>1127.6</ele></trkpt>
    <trkpt lat="37.188616" lon="32.248436"><ele>1128.1</ele></trkpt>
    <trkpt lat="37.188297" lon="32.248660"><ele>1128.5</ele></trkpt>
    <trkpt lat="37.187983" lon="32.248890"><ele>1128.6</ele></trkpt>
    <trkpt lat="37.187695" lon="32.249160"><ele>1128.5</ele></trkpt>
    <trkpt lat="37.187445" lon="32.249488"><ele>1128.2</ele></trkpt>
    <trkpt lat="37.187231" lon="32.249870"><ele>1127.8</ele></trkpt>
    <trkpt lat="37.187031" lon="32.250274"><ele>1127.6</ele></trkpt>
    <trkpt lat="37.186813" lon="32.250652"><ele>1127.6</ele></trkpt>
    <trkpt lat="37.186549" lon="32.250958"><ele>1128.1</ele></trkpt>
    <trkpt lat="37.186224" lon="32.251172"><ele>1128.9</ele></trkpt>
    <trkpt lat="37.185851" lon="32.251312"><ele>1130.2</ele></trkpt>
    <trkpt lat="37.185462" lon="32.251430"><ele>1131.9</ele></trkpt>
    <trkpt lat="37.185104" lon="32.251593"><ele>1133.7</ele></trkpt>
    <trkpt lat="37.184813" lon="32.251860"><ele>1135.4</ele></trkpt>
    <trkpt lat="37.184605" lon="32.252251"><ele>1136.9</ele></trkpt>
    <trkpt lat="37.184459" lon="32.252736"><ele>1137.9</ele></trkpt>
    <trkpt lat="37.184328" lon="32.253246"><ele>1138.2</ele></trkpt>
    <trkpt lat="37.184155" lon="32.253691"><ele>1137.8</ele></trkpt>
    <trkpt lat="37.183893" lon="32.254000"><ele>1136.9</ele></trkpt>
    <trkpt lat="37.183528" lon="32.254154"><ele>1135.5</ele></trkpt>
    <trkpt lat="37.183087" lon="32.254192"><ele>1133.9</ele></trkpt>
    <trkpt lat="37.182630" lon="32.254204"><ele>1132.5</ele></trkpt>
    <trkpt lat="37.182227" lon="32.254300"><ele>1131.5</ele></trkpt>
    <trkpt lat="37.181934" lon="32.254562"><ele>1131.3</ele></trkpt>
    <trkpt lat="37.181764" lon="32.255013"><ele>1131.9</ele></trkpt>
    <trkpt lat="37.181685" lon="32.255599"><ele>1133.5</ele></trkpt>
    <trkpt lat="37.181622" lon="32.256212"><ele>1135.8</ele></trkpt>
    <trkpt lat="37.181494" lon="32.256724"><ele>1138.7</ele></trkpt>
    <trkpt lat="37.181235" lon="32.257040"><ele>1141.8</ele></trkpt>
    <trkpt lat="37.180832" lon="32.257135"><ele>1144.6</ele></trkpt>
    <trkpt lat="37.180326" lon="32.257074"><ele>1146.8</ele></trkpt>
    <trkpt lat="37.179801" lon="32.256985"><ele>1148.0</ele></trkpt>
    <trkpt lat="37.179355" lon="32.257014"><ele>1148.1</ele></trkpt>
    <trkpt lat="37.179057" lon="32.257270"><ele>1147.1</ele></trkpt>
    <trkpt lat="37.178924" lon="32.257776"><ele>1145.1</ele></trkpt>
    <trkpt lat="37.178908" lon="32.258459"><ele>1142.5</ele></trkpt>
    <trkpt lat="37.178912" lon="32.259172"><ele>1139.7</ele></trkpt>
    <trkpt lat="37.178827" lon="32.259750"><ele>1137.2</ele></trkpt>
    <trkpt lat="37.178573" lon="32.260073"><ele>1135.6</ele></trkpt>
    <trkpt lat="37.178135" lon="32.260115"><ele>1135.0</ele></trkpt>
    <trkpt lat="37.177567" lon="32.259960"><ele>1135.9</ele></trkpt>
    <trkpt lat="37.176978" lon="32.259773"><ele>1138.1</ele></trkpt>
    <trkpt lat="37.176488" lon="32.259737"><ele>1141.4</ele></trkpt>
    <trkpt lat="37.176185" lon="32.259984"><ele>1145.5</ele></trkpt>
    <trkpt lat="37.176086" lon="32.260542"><ele>1149.7</ele></trkpt>
    <trkpt lat="37.176130" lon="32.261316"><ele>1153.5</ele></trkpt>
    <trkpt lat="37.176197" lon="32.262125"><ele>1156.4</ele></trkpt>
    <trkpt lat="37.176154" lon="32.262767"><ele>1158.0</ele></trkpt>
    <trkpt lat="37.175906" lon="32.263098"><ele>1157.9</ele></trkpt>
    <trkpt lat="37.175436" lon="32.263091"><ele>1156.3</ele></trkpt>
    <trkpt lat="37.174810" lon="32.262849"><ele>1153.4</ele></trkpt>
    <trkpt lat="37.174159" lon="32.262568"><ele>1149.6</ele></trkpt>
    <trkpt lat="37.173628" lon="32.262469"><ele>1145.7</ele></trkpt>
    <trkpt lat="37.173319" lon="32.262707"><ele>1142.2</ele></trkpt>
    <trkpt lat="37.173251" lon="32.263311"><ele>1139.9</ele></trkpt>
    <trkpt lat="37.173350" lon="32.264170"><ele>1139.1</ele></trkpt>
    <trkpt lat="37.173476" lon="32.265069"><ele>1140.1</ele></trkpt>
    <trkpt lat="37.173474" lon="32.265773"><ele>1142.9</ele></trkpt>
    <trkpt lat="37.173233" lon="32.266114"><ele>1147.1</ele></trkpt>
    <trkpt lat="37.172733" lon="32.266063"><ele>1152.2</ele></trkpt>
    <trkpt lat="37.172054" lon="32.265739"><ele>1157.5</ele></trkpt>
    <trkpt lat="37.171346" lon="32.265372"><ele>1162.2</ele></trkpt>
    <trkpt lat="37.170776" lon="32.265214"><ele>1165.8</ele></trkpt>
    <trkpt lat="37.170459" lon="32.265441"><ele>1167.6</ele></trkpt>
    <trkpt lat="37.170419" lon="32.266086"><ele>1167.4</ele></trkpt>
    <trkpt lat="37.170569" lon="32.267022"><ele>1165.2</ele></trkpt>
    <trkpt lat="37.170750" lon="32.268004"><ele>1161.5</ele></trkpt>
    <trkpt lat="37.170786" lon="32.268766"><ele>1156.8</ele></trkpt>
    <trkpt lat="37.170552" lon="32.269119"><ele>1151.8</ele></trkpt>
    <trkpt lat="37.170027" lon="32.269029"><ele>1147.5</ele></trkpt>
    <trkpt lat="37.169299" lon="32.268632"><ele>1144.6</ele></trkpt>
    <trkpt lat="37.168539" lon="32.268185"><ele>1143.5</ele></trkpt>
    <trkpt lat="37.167932" lon="32.267971"><ele>1144.6</ele></trkpt>
    <trkpt lat="37.167608" lon="32.268187"><ele>1147.9</ele></trkpt>
    <trkpt lat="37.167591" lon="32.268868"><ele>1152.8</ele></trkpt>
    <trkpt lat="37.167787" lon="32.269873"><ele>1158.8</ele></trkpt>
    <trkpt lat="37.168017" lon="32.270930"><ele>1165.1</ele></trkpt>
    <trkpt lat="37.168088" lon="32.271745"><ele>1170.6</ele></trkpt>
    <trkpt lat="37.167863" lon="32.272110"><ele>1174.7</ele></trkpt>
    <trkpt lat="37.167316" lon="32.271987"><ele>1176.8</ele></trkpt>
    <trkpt lat="37.166546" lon="32.271526"><ele>1176.5</ele></trkpt>
    <trkpt lat="37.165739" lon="32.271008"><ele>1173.9</ele></trkpt>
    <trkpt lat="37.165098" lon="32.270743"><ele>1169.5</ele></trkpt>
    <trkpt lat="37.164766" lon="32.270947"><ele>1163.9</ele></trkpt>
    <trkpt lat="37.164769" lon="32.271658"><ele>1158.2</ele></trkpt>
    <trkpt lat="37.165004" lon="32.272723"><ele>1153.1</ele></trkpt>
    <trkpt lat="37.165279" lon="32.273847"><ele>1149.7</ele></trkpt>
    <trkpt lat="37.165381" lon="32.274709"><ele>1148.4</ele></trkpt>
    <trkpt lat="37.165163" lon="32.275086"><ele>1149.6</ele></trkpt>
    <trkpt lat="37.164598" lon="32.274936"><ele>1153.2</ele></trkpt>
    <trkpt lat="37.163792" lon="32.274420"><ele>1158.8</ele></trkpt>
    <trkpt lat="37.162945" lon="32.273841"><ele>1165.5</ele></trkpt>
    <trkpt lat="37.162274" lon="32.273531"><ele>1172.5</ele></trkpt>
    <trkpt lat="37.161934" lon="32.273722"><ele>1178.7</ele></trkpt>
    <trkpt lat="37.161953" lon="32.274458"><ele>1183.3</ele></trkpt>
    <trkpt lat="37.162221" lon="32.275572"><ele>1185.5</ele></trkpt>
    <trkpt lat="37.162533" lon="32.276753"><ele>1185.2</ele></trkpt>
    <trkpt lat="37.162663" lon="32.277658"><ele>1182.3</ele></trkpt>
    <trkpt lat="37.162453" lon="32.278047"><ele>1177.3</ele></trkpt>
    <trkpt lat="37.161875" lon="32.277876"><ele>1171.1</ele></trkpt>
    <trkpt lat="37.161039" lon="32.277314"><ele>1164.7</ele></trkpt>
    <trkpt lat="37.160157" lon="32.276684"><ele>1159.1</ele></trkpt>
    <trkpt lat="37.159461" lon="32.276335"><ele>1155.2</ele></trkpt>
    <trkpt lat="37.159113" lon="32.276514"><ele>1153.7</ele></trkpt>
    <trkpt lat="37.159144" lon="32.277268"><ele>1155.0</ele></trkpt>
    <trkpt lat="37.159438" lon="32.278422"><ele>1158.9</ele></trkpt>
    <trkpt lat="37.159781" lon="32.279649"><ele>1164.9</ele></trkpt>
    <trkpt lat="37.159934" lon="32.280589"><ele>1172.2</ele></trkpt>
    <trkpt lat="37.159732" lon="32.280990"><ele>1179.7</ele></trkpt>
    <trkpt lat="37.159144" lon="32.280804"><ele>1186.4</ele></trkpt>
    <trkpt lat="37.158285" lon="32.280208"><ele>1191.3</ele></trkpt>
    <trkpt lat="37.157376" lon="32.279537"><ele>1193.7</ele></trkpt>
    <trkpt lat="37.156659" lon="32.279156"><ele>1193.3</ele></trkpt>
    <trkpt lat="37.156304" lon="32.279324"><ele>1190.2</ele></trkpt>
    <trkpt lat="37.156342" lon="32.280089"><ele>1184.9</ele></trkpt>
    <trkpt lat="37.156656" lon="32.281273"><ele>1178.3</ele></trkpt>
    <trkpt lat="37.157022" lon="32.282535"><ele>1171.4</ele></trkpt>
    <trkpt lat="37.157194" lon="32.283503"><ele>1165.4</ele></trkpt>
    <trkpt lat="37.156999" lon="32.283915"><ele>1161.2</ele></trkpt>
    <trkpt lat="37.156405" lon="32.283721"><ele>1159.6</ele></trkpt>
    <trkpt lat="37.155530" lon="32.283101"><ele>1160.9</ele></trkpt>
    <trkpt lat="37.154602" lon="32.282400"><ele>1164.9</ele></trkpt>
    <trkpt lat="37.153869" lon="32.281995"><ele>1171.2</ele></trkpt>
    <trkpt lat="37.153507" lon="32.282152"><ele>1178.8</ele></trkpt>
    <trkpt lat="37.153549" lon="32.282923"><ele>1186.7</ele></trkpt>
    <trkpt lat="37.153875" lon="32.284125"><ele>1193.7</ele></trkpt>
    <trkpt lat="37.154256" lon="32.285411"><ele>1198.9</ele></trkpt>
    <trkpt lat="37.154442" lon="32.286399"><ele>1201.4</ele></trkpt>
    <trkpt lat="37.154254" lon="32.286822"><ele>1201.0</ele></trkpt>
    <trkpt lat="37.153658" lon="32.286625"><ele>1197.8</ele></trkpt>
    <trkpt lat="37.152775" lon="32.285991"><ele>1192.3</ele></trkpt>
    <trkpt lat="37.151835" lon="32.285272"><ele>1185.5</ele></trkpt>
    <trkpt lat="37.151091" lon="32.284851"><ele>1178.3</ele></trkpt>
    <trkpt lat="37.150722" lon="32.284999"><ele>1172.1</ele></trkpt>
    <trkpt lat="37.150764" lon="32.285769"><ele>1167.8</ele></trkpt>
    <trkpt lat="37.151095" lon="32.286979"><ele>1166.1</ele></trkpt>
    <trkpt lat="37.151485" lon="32.288277"><ele>1167.4</ele></trkpt>
    <trkpt lat="37.151678" lon="32.289278"><ele>1171.5</ele></trkpt>
    <trkpt lat="37.151496" lon="32.289709"><ele>1177.8</ele></trkpt>
    <trkpt lat="37.150902" lon="32.289515"><ele>1185.6</ele></trkpt>
    <trkpt lat="37.150017" lon="32.288880"><ele>1193.6</ele></trkpt>
    <trkpt lat="37.149073" lon="32.288155"><ele>1200.7</ele></trkpt>
    <trkpt lat="37.148324" lon="32.287725"><ele>1205.9</ele></trkpt>
    <trkpt lat="37.147950" lon="32.287865"><ele>1208.5</ele></trkpt>
    <trkpt lat="37.147988" lon="32.288630"><ele>1208.1</ele></trkpt>
    <trkpt lat="37.148317" lon="32.289836"><ele>1204.9</ele></trkpt>
    <trkpt lat="37.148707" lon="32.291134"><ele>1199.4</ele></trkpt>
    <trkpt lat="37.148903" lon="32.292139"><ele>1192.6</ele></trkpt>
    <trkpt lat="37.148725" lon="32.292577"><ele>1185.4</ele></trkpt>
    <trkpt lat="37.148137" lon="32.292392"><ele>1179.2</ele></trkpt>
    <trkpt lat="37.147258" lon="32.291765"><ele>1174.9</ele></trkpt>
    <trkpt lat="37.146318" lon="32.291046"><ele>1173.2</ele></trkpt>
    <trkpt lat="37.145569" lon="32.290617"><ele>1174.4</ele></trkpt>
    <trkpt lat="37.145191" lon="32.290751"><ele>1178.4</ele></trkpt>
    <trkpt lat="37.145221" lon="32.291504"><ele>1184.7</ele></trkpt>
    <trkpt lat="37.145541" lon="32.292697"><ele>1192.3</ele></trkpt>
    <trkpt lat="37.145923" lon="32.293983"><ele>1200.2</ele></trkpt>
    <trkpt lat="37.146116" lon="32.294982"><ele>1207.2</ele></trkpt>
    <trkpt lat="37.145941" lon="32.295425"><ele>1212.4</ele></trkpt>
    <trkpt lat="37.145363" lon="32.295254"><ele>1214.9</ele></trkpt>
    <trkpt lat="37.144496" lon="32.294647"><ele>1214.6</ele></trkpt>
    <trkpt lat="37.143568" lon="32.293946"><ele>1211.5</ele></trkpt>
    <trkpt lat="37.142825" lon="32.293527"><ele>1206.2</ele></trkpt>
    <trkpt lat="37.142445" lon="32.293657"><ele>1199.6</ele></trkpt>
    <trkpt lat="37.142464" lon="32.294393"><ele>1192.7</ele></trkpt>
    <trkpt lat="37.142768" lon="32.295561"><ele>1186.7</ele></trkpt>
    <trkpt lat="37.143134" lon="32.296823"><ele>1182.5</ele></trkpt>
    <trkpt lat="37.143317" lon="32.297808"><ele>1180.8</ele></trkpt>
    <trkpt lat="37.143145" lon="32.298254"><ele>1182.0</ele></trkpt>
    <trkpt lat="37.142579" lon="32.298102"><ele>1185.8</ele></trkpt>
    <trkpt lat="37.141732" lon="32.297525"><ele>1191.9</ele></trkpt>
    <trkpt lat="37.140823" lon="32.296853"><ele>1199.2</ele></trkpt>
    <trkpt lat="37.140093" lon="32.296452"><ele>1206.7</ele></trkpt>
    <trkpt lat="37.139711" lon="32.296581"><ele>1213.4</ele></trkpt>
    <trkpt lat="37.139716" lon="32.297296"><ele>1218.4</ele></trkpt>
    <trkpt lat="37.139997" lon="32.298429"><ele>1220.9</ele></trkpt>
    <trkpt lat="37.140340" lon="32.299656"><ele>1220.6</ele></trkpt>
    <trkpt lat="37.140509" lon="32.300619"><ele>1217.7</ele></trkpt>
    <trkpt lat="37.140336" lon="32.301064"><ele>1212.8</ele></trkpt>
    <trkpt lat="37.139785" lon="32.300936"><ele>1206.5</ele></trkpt>
    <trkpt lat="37.138965" lon="32.300398"><ele>1200.1</ele></trkpt>
    <trkpt lat="37.138083" lon="32.299768"><ele>1194.5</ele></trkpt>
    <trkpt lat="37.137370" lon="32.299394"><ele>1190.6</ele></trkpt>
    <trkpt lat="37.136990" lon="32.299524"><ele>1189.0</ele></trkpt>
    <trkpt lat="37.136978" lon="32.300213"><ele>1190.1</ele></trkpt>
    <trkpt lat="37.137230" lon="32.301302"><ele>1193.7</ele></trkpt>
    <trkpt lat="37.137541" lon="32.302482"><ele>1199.3</ele></trkpt>
    <trkpt lat="37.137690" lon="32.303413"><ele>1206.1</ele></trkpt>
    <trkpt lat="37.137515" lon="32.303856"><ele>1213.1</ele></trkpt>
    <trkpt lat="37.136983" lon="32.303756"><ele>1219.3</ele></trkpt>
    <trkpt lat="37.136195" lon="32.303267"><ele>1223.9</ele></trkpt>
    <trkpt lat="37.135347" lon="32.302689"><ele>1226.2</ele></trkpt>
    <trkpt lat="37.134658" lon="32.302350"><ele>1226.0</ele></trkpt>
    <trkpt lat="37.134280" lon="32.302485"><ele>1223.5</ele></trkpt>
    <trkpt lat="37.134249" lon="32.303144"><ele>1219.0</ele></trkpt>
    <trkpt lat="37.134465" lon="32.304179"><ele>1213.4</ele></trkpt>
    <trkpt lat="37.134739" lon="32.305302"><ele>1207.6</ele></trkpt>
    <trkpt lat="37.134861" lon="32.306194"><ele>1202.6</ele></trkpt>
    <trkpt lat="37.134683" lon="32.306630"><ele>1199.1</ele></trkpt>
    <trkpt lat="37.134172" lon="32.306562"><ele>1197.8</ele></trkpt>
    <trkpt lat="37.133421" lon="32.306131"><ele>1198.8</ele></trkpt>
    <trkpt lat="37.132615" lon="32.305616"><ele>1202.0</ele></trkpt>
    <trkpt lat="37.131954" lon="32.305321"><ele>1207.0</ele></trkpt>
    <trkpt lat="37.131582" lon="32.305462"><ele>1213.1</ele></trkpt>
    <trkpt lat="37.131528" lon="32.306088"><ele>1219.4</ele></trkpt>
    <trkpt lat="37.131704" lon="32.307061"><ele>1224.9</ele></trkpt>
    <trkpt lat="37.131933" lon="32.308116"><ele>1229.0</ele></trkpt>
    <trkpt lat="37.132024" lon="32.308961"><ele>1231.1</ele></trkpt>
    <trkpt lat="37.131840" lon="32.309389"><ele>1231.0</ele></trkpt>
    <trkpt lat="37.131352" lon="32.309355"><ele>1228.8</ele></trkpt>
    <trkpt lat="37.130645" lon="32.308990"><ele>1225.0</ele></trkpt>
    <trkpt lat="37.129886" lon="32.308547"><ele>1220.2</ele></trkpt>
    <trkpt lat="37.129259" lon="32.308303"><ele>1215.3</ele></trkpt>
    <trkpt lat="37.128893" lon="32.308455"><ele>1211.0</ele></trkpt>
    <trkpt lat="37.128816" lon="32.309045"><ele>1208.0</ele></trkpt>
    <trkpt lat="37.128946" lon="32.309949"><ele>1206.9</ele></trkpt>
    <trkpt lat="37.129125" lon="32.310927"><ele>1207.9</ele></trkpt>
    <trkpt lat="37.129179" lon="32.311717"><ele>1210.7</ele></trkpt>
    <trkpt lat="37.128988" lon="32.312133"><ele>1215.0</ele></trkpt>
    <trkpt lat="37.128524" lon="32.312137"><ele>1220.2</ele></trkpt>
    <trkpt lat="37.127865" lon="32.311844"><ele>1225.5</ele></trkpt>
    <trkpt lat="37.127159" lon="32.311482"><ele>1230.3</ele></trkpt>
    <trkpt lat="37.126571" lon="32.311297"><ele>1233.7</ele></trkpt>
    <trkpt lat="37.126213" lon="32.311462"><ele>1235.5</ele></trkpt>
    <trkpt lat="37.126111" lon="32.312013"><ele>1235.5</ele></trkpt>
    <trkpt lat="37.126191" lon="32.312841"><ele>1233.8</ele></trkpt>
    <trkpt lat="37.126314" lon="32.313734"><ele>1230.7</ele></trkpt>
    <trkpt lat="37.126328" lon="32.314462"><ele>1226.9</ele></trkpt>
    <trkpt lat="37.126127" lon="32.314864"><ele>1223.0</ele></trkpt>
    <trkpt lat="37.125688" lon="32.314907"><ele>1219.6</ele></trkpt>
    <trkpt lat="37.125081" lon="32.314693"><ele>1217.3</ele></trkpt>
    <trkpt lat="37.124435" lon="32.314420"><ele>1216.5</ele></trkpt>
    <trkpt lat="37.123889" lon="32.314300"><ele>1217.4</ele></trkpt>
    <trkpt lat="37.123542" lon="32.314481"><ele>1219.7</ele></trkpt>
    <trkpt lat="37.123413" lon="32.314992"><ele>1223.2</ele></trkpt>
    <trkpt lat="37.123440" lon="32.315739"><ele>1227.4</ele></trkpt>
    <trkpt lat="37.123502" lon="32.316540"><ele>1231.7</ele></trkpt>
    <trkpt lat="37.123471" lon="32.317199"><ele>1235.4</ele></trkpt>
    <trkpt lat="37.123258" lon="32.317584"><ele>1238.2</ele></trkpt>
    <trkpt lat="37.122846" lon="32.317667"><ele>1239.6</ele></trkpt>
    <trkpt lat="37.122295" lon="32.317537"><ele>1239.7</ele></trkpt>
    <trkpt lat="37.121711" lon="32.317360"><ele>1238.5</ele></trkpt>
    <trkpt lat="37.121212" lon="32.317310"><ele>1236.2</ele></trkpt>
    <trkpt lat="37.120878" lon="32.317510"><ele>1233.5</ele></trkpt>
    <trkpt lat="37.120722" lon="32.317981"><ele>1230.7</ele></trkpt>
    <trkpt lat="37.120692" lon="32.318641"><ele>1228.3</ele></trkpt>
    <trkpt lat="37.120688" lon="32.319343"><ele>1226.8</ele></trkpt>
    <trkpt lat="37.120609" lon="32.319929"><ele>1226.4</ele></trkpt>
    <trkpt lat="37.120383" lon="32.320294"><ele>1227.2</ele></trkpt>
    <trkpt lat="37.119999" lon="32.320418"><ele>1229.0</ele></trkpt>
    <trkpt lat="37.119505" lon="32.320377"><ele>1231.7</ele></trkpt>
    <trkpt lat="37.118988" lon="32.320300"><ele>1234.7</ele></trkpt>
    <trkpt lat="37.118540" lon="32.320327"><ele>1237.8</ele></trkpt>
    <trkpt lat="37.118219" lon="32.320548"><ele>1240.4</ele></trkpt>
    <trkpt lat="37.118036" lon="32.320977"><ele>1242.4</ele></trkpt>
    <trkpt lat="37.117946" lon="32.321548"><ele>1243.4</ele></trkpt>
    <trkpt lat="37.117875" lon="32.322146"><ele>1243.6</ele></trkpt>
    <trkpt lat="37.117744" lon="32.322654"><ele>1242.9</ele></trkpt>
    <trkpt lat="37.117503" lon="32.322996"><ele>1241.6</ele></trkpt>
    <trkpt lat="37.117146" lon="32.323162"><ele>1240.0</ele></trkpt>
    <trkpt lat="37.116712" lon="32.323211"><ele>1238.4</ele></trkpt>
    <trkpt lat="37.116265" lon="32.323241"><ele>1237.2</ele></trkpt>
    <trkpt lat="37.115870" lon="32.323348"><ele>1236.5</ele></trkpt>
    <trkpt lat="37.115565" lon="32.323593"><ele>1236.5</ele></trkpt>
    <trkpt lat="37.115354" lon="32.323980"><ele>1237.3</ele></trkpt>
    <trkpt lat="37.115204" lon="32.324459"><ele>1238.5</ele></trkpt>
    <trkpt lat="37.115062" lon="32.324950"><ele>1240.2</ele></trkpt>
    <trkpt lat="37.114876" lon="32.325376"><ele>1242.1</ele></trkpt>
    <trkpt lat="37.114619" lon="32.325692"><ele>1243.9</ele></trkpt>
    <trkpt lat="37.114290" lon="32.325900"><ele>1245.4</ele></trkpt>
    <trkpt lat="37.113917" lon="32.326042"><ele>1246.5</ele></trkpt>
    <trkpt lat="37.113542" lon="32.326181"><ele>1247.1</ele></trkpt>
    <trkpt lat="37.113202" lon="32.326371"><ele>1247.3</ele></trkpt>
    <trkpt lat="37.112914" lon="32.326643"><ele>1247.1</ele></trkpt>
    <trkpt lat="37.112676" lon="32.326988"><ele>1246.8</ele></trkpt>
    <trkpt lat="37.112464" lon="32.327374"><ele>1246.4</ele></trkpt>
    <trkpt lat="37.112249" lon="32.327755"><ele>1246.2</ele></trkpt>
    <trkpt lat="37.112008" lon="32.328096"><ele>1246.1</ele></trkpt>
    <trkpt lat="37.111732" lon="32.328385"><ele>1246.3</ele></trkpt>
    <trkpt lat="37.111430" lon="32.328634"><ele>1246.8</ele></trkpt>
    <trkpt lat="37.111120" lon="32.328870"><ele>1247.4</ele></trkpt>
    <trkpt lat="37.110818" lon="32.329119"><ele>1248.2</ele></trkpt>
    <trkpt lat="37.110534" lon="32.329395"><ele>1248.9</ele></trkpt>
    <trkpt lat="37.110265" lon="32.329695"><ele>1249.5</ele></trkpt>
    <trkpt lat="37.110000" lon="32.330000"><ele>1250.0</ele></trkpt>
    <trkpt lat="37.109692" lon="32.330233"><ele>1248.1</ele></trkpt>
    <trkpt lat="37.109406" lon="32.330509"><ele>1246.4</ele></trkpt>
    <trkpt lat="37.109135" lon="32.330814"><ele>1244.7</ele></trkpt>
    <trkpt lat="37.108858" lon="32.331108"><ele>1243.0</ele></trkpt>
    <trkpt lat="37.108554" lon="32.331347"><ele>1240.9</ele></trkpt>
    <trkpt lat="37.108210" lon="32.331509"><ele>1238.5</ele></trkpt>
    <trkpt lat="37.107835" lon="32.331612"><ele>1235.6</ele></trkpt>
    <trkpt lat="37.107458" lon="32.331709"><ele>1232.4</ele></trkpt>
    <trkpt lat="37.107115" lon="32.331872"><ele>1229.0</ele></trkpt>
    <trkpt lat="37.106833" lon="32.332155"><ele>1225.7</ele></trkpt>
    <trkpt lat="37.106615" lon="32.332566"><ele>1222.7</ele></trkpt>
    <trkpt lat="37.106437" lon="32.333054"><ele>1220.2</ele></trkpt>
    <trkpt lat="37.106250" lon="32.333523"><ele>1218.5</ele></trkpt>
    <trkpt lat="37.106001" lon="32.333873"><ele>1217.6</ele></trkpt>
    <trkpt lat="37.105659" lon="32.334038"><ele>1217.3</ele></trkpt>
    <trkpt lat="37.105226" lon="32.334025"><ele>1217.4</ele></trkpt>
    <trkpt lat="37.104746" lon="32.333919"><ele>1217.5</ele></trkpt>
    <trkpt lat="37.104286" lon="32.333854"><ele>1217.4</ele></trkpt>
    <trkpt lat="37.103915" lon="32.333962"><ele>1216.5</ele></trkpt>
    <trkpt lat="37.103669" lon="32.334318"><ele>1214.7</ele></trkpt>
    <trkpt lat="37.103539" lon="32.334899"><ele>1211.7</ele></trkpt>
    <trkpt lat="37.103464" lon="32.335590"><ele>1207.6</ele></trkpt>
    <trkpt lat="37.103357" lon="32.336217"><ele>1202.6</ele></trkpt>
    <trkpt lat="37.103136" lon="32.336621"><ele>1197.2</ele></trkpt>
    <trkpt lat="37.102758" lon="32.336716"><ele>1191.8</ele></trkpt>
    <trkpt lat="37.102241" lon="32.336539"><ele>1187.0</ele></trkpt>
    <trkpt lat="37.101662" lon="32.336238"><ele>1183.3</ele></trkpt>
    <trkpt lat="37.101124" lon="32.336020"><ele>1180.9</ele></trkpt>
    <trkpt lat="37.100727" lon="32.336076"><ele>1180.1</ele></trkpt>
    <trkpt lat="37.100515" lon="32.336498"><ele>1180.7</ele></trkpt>
    <trkpt lat="37.100464" lon="32.337236"><ele>1182.4</ele></trkpt>
    <trkpt lat="37.100484" lon="32.338114"><ele>1184.5</ele></trkpt>
    <trkpt lat="37.100451" lon="32.338887"><ele>1186.6</ele></trkpt>
    <trkpt lat="37.100255" lon="32.339339"><ele>1187.8</ele></trkpt>
    <trkpt lat="37.099846" lon="32.339373"><ele>1187.7</ele></trkpt>
    <trkpt lat="37.099254" lon="32.339047"><ele>1185.7</ele></trkpt>
    <trkpt lat="37.098584" lon="32.338569"><ele>1181.9</ele></trkpt>
    <trkpt lat="37.097978" lon="32.338215"><ele>1176.4</ele></trkpt>
    <trkpt lat="37.097556" lon="32.338224"><ele>1169.6</ele></trkpt>
    <trkpt lat="37.097374" lon="32.338704"><ele>1162.3</ele></trkpt>
    <trkpt lat="37.097393" lon="32.339581"><ele>1155.2</ele></trkpt>
    <trkpt lat="37.097497" lon="32.340622"><ele>1149.1</ele></trkpt>
    <trkpt lat="37.097528" lon="32.341522"><ele>1144.7</ele></trkpt>
    <trkpt lat="37.097355" lon="32.342019"><ele>1142.5</ele></trkpt>
    <trkpt lat="37.096918" lon="32.341998"><ele>1142.4</ele></trkpt>
    <trkpt lat="37.096261" lon="32.341546"><ele>1144.3</ele></trkpt>
    <trkpt lat="37.095515" lon="32.340918"><ele>1147.6</ele></trkpt>
    <trkpt lat="37.094850" lon="32.340448"><ele>1151.5</ele></trkpt>
    <trkpt lat="37.094408" lon="32.340417"><ele>1155.0</ele></trkpt>
    <trkpt lat="37.094250" lon="32.340945"><ele>1157.3</ele></trkpt>
    <trkpt lat="37.094328" lon="32.341937"><ele>1157.7</ele></trkpt>
    <trkpt lat="37.094500" lon="32.343113"><ele>1155.7</ele></trkpt>
    <trkpt lat="37.094585" lon="32.344117"><ele>1151.2</ele></trkpt>
    <trkpt lat="37.094429" lon="32.344649"><ele>1144.5</ele></trkpt>
    <trkpt lat="37.093971" lon="32.344586"><ele>1136.4</ele></trkpt>
    <trkpt lat="37.093263" lon="32.344032"><ele>1127.6</ele></trkpt>
    <trkpt lat="37.092456" lon="32.343285"><ele>1119.3</ele></trkpt>
    <trkpt lat="37.091744" lon="32.342724"><ele>1112.3</ele></trkpt>
    <trkpt lat="37.091286" lon="32.342663"><ele>1107.5</ele></trkpt>
    <trkpt lat="37.091147" lon="32.343228"><ele>1105.3</ele></trkpt>
    <trkpt lat="37.091270" lon="32.344306"><ele>1105.8</ele></trkpt>
    <trkpt lat="37.091494" lon="32.345584"><ele>1108.6</ele></trkpt>
    <trkpt lat="37.091618" lon="32.346665"><ele>1113.0</ele></trkpt>
    <trkpt lat="37.091475" lon="32.347223"><ele>1118.0</ele></trkpt>
    <trkpt lat="37.091001" lon="32.347129"><ele>1122.6</ele></trkpt>
    <trkpt lat="37.090256" lon="32.346503"><ele>1125.6</ele></trkpt>
    <trkpt lat="37.089407" lon="32.345673"><ele>1126.3</ele></trkpt>
    <trkpt lat="37.088663" lon="32.345050"><ele>1124.2</ele></trkpt>
    <trkpt lat="37.088195" lon="32.344968"><ele>1119.2</ele></trkpt>
    <trkpt lat="37.088069" lon="32.345557"><ele>1111.9</ele></trkpt>
    <trkpt lat="37.088220" lon="32.346692"><ele>1102.9</ele></trkpt>
    <trkpt lat="37.088477" lon="32.348034"><ele>1093.3</ele></trkpt>
    <trkpt lat="37.088625" lon="32.349162"><ele>1084.3</ele></trkpt>
    <trkpt lat="37.088490" lon="32.349735"><ele>1076.9</ele></trkpt>
    <trkpt lat="37.088006" lon="32.349623"><ele>1071.9</ele></trkpt>
    <trkpt lat="37.087241" lon="32.348957"><ele>1069.8</ele></trkpt>
    <trkpt lat="37.086369" lon="32.348083"><ele>1070.6</ele></trkpt>
    <trkpt lat="37.085609" lon="32.347428"><ele>1073.9</ele></trkpt>
    <trkpt lat="37.085136" lon="32.347336"><ele>1078.8</ele></trkpt>
    <trkpt lat="37.085016" lon="32.347938"><ele>1084.3</ele></trkpt>
    <trkpt lat="37.085180" lon="32.349096"><ele>1089.2</ele></trkpt>
    <trkpt lat="37.085449" lon="32.350462"><ele>1092.4</ele></trkpt>
    <trkpt lat="37.085604" lon="32.351606"><ele>1093.1</ele></trkpt>
    <trkpt lat="37.085471" lon="32.352182"><ele>1091.0</ele></trkpt>
    <trkpt lat="37.084985" lon="32.352065"><ele>1085.9</ele></trkpt>
    <trkpt lat="37.084216" lon="32.351391"><ele>1078.3</ele></trkpt>
    <trkpt lat="37.083342" lon="32.350513"><ele>1069.1</ele></trkpt>
    <trkpt lat="37.082583" lon="32.349859"><ele>1059.4</ele></trkpt>
    <trkpt lat="37.082111" lon="32.349770"><ele>1050.3</ele></trkpt>
    <trkpt lat="37.081990" lon="32.350371"><ele>1042.9</ele></trkpt>
    <trkpt lat="37.082149" lon="32.351520"><ele>1038.0</ele></trkpt>
    <trkpt lat="37.082410" lon="32.352870"><ele>1036.0</ele></trkpt>
    <trkpt lat="37.082557" lon="32.353996"><ele>1036.8</ele></trkpt>
    <trkpt lat="37.082419" lon="32.354564"><ele>1040.1</ele></trkpt>
    <trkpt lat="37.081937" lon="32.354454"><ele>1044.9</ele></trkpt>
    <trkpt lat="37.081181" lon="32.353806"><ele>1050.1</ele></trkpt>
    <trkpt lat="37.080326" lon="32.352964"><ele>1054.7</ele></trkpt>
    <trkpt lat="37.079583" lon="32.352344"><ele>1057.7</ele></trkpt>
    <trkpt lat="37.079119" lon="32.352270"><ele>1058.2</ele></trkpt>
    <trkpt lat="37.078991" lon="32.352856"><ele>1056.0</ele></trkpt>
    <trkpt lat="37.079129" lon="32.353964"><ele>1051.0</ele></trkpt>
    <trkpt lat="37.079361" lon="32.355257"><ele>1043.7</ele></trkpt>
    <trkpt lat="37.079483" lon="32.356334"><ele>1035.0</ele></trkpt>
    <trkpt lat="37.079335" lon="32.356881"><ele>1025.9</ele></trkpt>
    <trkpt lat="37.078862" lon="32.356791"><ele>1017.4</ele></trkpt>
    <trkpt lat="37.078135" lon="32.356200"><ele>1010.5</ele></trkpt>
    <trkpt lat="37.077319" lon="32.355435"><ele>1005.9</ele></trkpt>
    <trkpt lat="37.076609" lon="32.354879"><ele>1004.0</ele></trkpt>
    <trkpt lat="37.076159" lon="32.354832"><ele>1004.6</ele></trkpt>
    <trkpt lat="37.076018" lon="32.355392"><ele>1007.3</ele></trkpt>
    <trkpt lat="37.076119" lon="32.356428"><ele>1011.3</ele></trkpt>
    <trkpt lat="37.076303" lon="32.357627"><ele>1015.6</ele></trkpt>
    <trkpt lat="37.076384" lon="32.358624"><ele>1019.4</ele></trkpt>
    <trkpt lat="37.076219" lon="32.359138"><ele>1021.6</ele></trkpt>
    <trkpt lat="37.075763" lon="32.359079"><ele>1021.7</ele></trkpt>
    <trkpt lat="37.075080" lon="32.358576"><ele>1019.3</ele></trkpt>
    <trkpt lat="37.074320" lon="32.357922"><ele>1014.7</ele></trkpt>
    <trkpt lat="37.073659" lon="32.357460"><ele>1008.2</ele></trkpt>
    <trkpt lat="37.073228" lon="32.357451"><ele>1000.5</ele></trkpt>
    <trkpt lat="37.073068" lon="32.357976"><ele>992.6</ele></trkpt>
    <trkpt lat="37.073118" lon="32.358910"><ele>985.3</ele></trkpt>
    <trkpt lat="37.073237" lon="32.359981"><ele>979.4</ele></trkpt>
    <trkpt lat="37.073263" lon="32.360870"><ele>975.4</ele></trkpt>
    <trkpt lat="37.073076" lon="32.361341"><ele>973.5</ele></trkpt>
    <trkpt lat="37.072641" lon="32.361323"><ele>973.6</ele></trkpt>
    <trkpt lat="37.072015" lon="32.360933"><ele>975.3</ele></trkpt>
    <trkpt lat="37.071329" lon="32.360423"><ele>978.0</ele></trkpt>
    <trkpt lat="37.070729" lon="32.360082"><ele>980.9</ele></trkpt>
    <trkpt lat="37.070323" lon="32.360121"><ele>983.2</ele></trkpt>
    <trkpt lat="37.070140" lon="32.360600"><ele>984.3</ele></trkpt>
    <trkpt lat="37.070126" lon="32.361410"><ele>983.7</ele></trkpt>
    <trkpt lat="37.070164" lon="32.362322"><ele>981.3</ele></trkpt>
    <trkpt lat="37.070123" lon="32.363079"><ele>977.2</ele></trkpt>
    <trkpt lat="37.069910" lon="32.363497"><ele>971.9</ele></trkpt>
    <trkpt lat="37.069499" lon="32.363528"><ele>965.8</ele></trkpt>
    <trkpt lat="37.068943" lon="32.363274"><ele>959.6</ele></trkpt>
    <trkpt lat="37.068344" lon="32.362935"><ele>953.9</ele></trkpt>
    <trkpt lat="37.067816" lon="32.362737"><ele>949.3</ele></trkpt>
    <trkpt lat="37.067439" lon="32.362833"><ele>946.1</ele></trkpt>
    <trkpt lat="37.067229" lon="32.363259"><ele>944.2</ele></trkpt>
    <trkpt lat="37.067142" lon="32.363925"><ele>943.7</ele></trkpt>
    <trkpt lat="37.067087" lon="32.364654"><ele>944.1</ele></trkpt>
    <trkpt lat="37.066969" lon="32.365260"><ele>945.1</ele></trkpt>
    <trkpt lat="37.066724" lon="32.365617"><ele>946.0</ele></trkpt>
    <trkpt lat="37.066342" lon="32.365704"><ele>946.4</ele></trkpt>
    <trkpt lat="37.065863" lon="32.365601"><ele>946.0</ele></trkpt>
    <trkpt lat="37.065363" lon="32.365456"><ele>944.6</ele></trkpt>
    <trkpt lat="37.064916" lon="32.365416"><ele>942.2</ele></trkpt>
    <trkpt lat="37.064571" lon="32.365576"><ele>938.8</ele></trkpt>
    <trkpt lat="37.064332" lon="32.365944"><ele>934.9</ele></trkpt>
    <trkpt lat="37.064163" lon="32.366451"><ele>930.8</ele></trkpt>
    <trkpt lat="37.064006" lon="32.366979"><ele>926.7</ele></trkpt>
    <trkpt lat="37.063804" lon="32.367420"><ele>923.0</ele></trkpt>
    <trkpt lat="37.063526" lon="32.367711"><ele>920.0</ele></trkpt>
    <trkpt lat="37.063174" lon="32.367858"><ele>917.6</ele></trkpt>
    <trkpt lat="37.062779" lon="32.367919"><ele>915.8</ele></trkpt>
    <trkpt lat="37.062383" lon="32.367980"><ele>914.5</ele></trkpt>
    <trkpt lat="37.062023" lon="32.368110"><ele>913.4</ele></trkpt>
    <trkpt lat="37.061713" lon="32.368338"><ele>912.3</ele></trkpt>
    <trkpt lat="37.061443" lon="32.368646"><ele>910.9</ele></trkpt>
    <trkpt lat="37.061189" lon="32.368985"><ele>909.3</ele></trkpt>
    <trkpt lat="37.060924" lon="32.369303"><ele>907.3</ele></trkpt>
    <trkpt lat="37.060634" lon="32.369570"><ele>905.0</ele></trkpt>
    <trkpt lat="37.060321" lon="32.369792"><ele>902.5</ele></trkpt>
    <trkpt lat="37.060000" lon="32.370000"><ele>900.0</ele></trkpt>
    <trkpt lat="37.059794" lon="32.370369"><ele>902.0</ele></trkpt>
    <trkpt lat="37.059550" lon="32.370703"><ele>903.8</ele></trkpt>
    <trkpt lat="37.059278" lon="32.371009"><ele>905.2</ele></trkpt>
    <trkpt lat="37.059012" lon="32.371322"><ele>906.2</ele></trkpt>
    <trkpt lat="37.058793" lon="32.371678"><ele>907.2</ele></trkpt>
    <trkpt lat="37.058643" lon="32.372100"><ele>908.2</ele></trkpt>
    <trkpt lat="37.058550" lon="32.372576"><ele>909.6</ele></trkpt>
    <trkpt lat="37.058469" lon="32.373062"><ele>911.4</ele></trkpt>
    <trkpt lat="37.058335" lon="32.373499"><ele>913.9</ele></trkpt>
    <trkpt lat="37.058097" lon="32.373837"><ele>917.0</ele></trkpt>
    <trkpt lat="37.057741" lon="32.374065"><ele>920.6</ele></trkpt>
    <trkpt lat="37.057308" lon="32.374220"><ele>924.4</ele></trkpt>
    <trkpt lat="37.056880" lon="32.374380"><ele>928.0</ele></trkpt>
    <trkpt lat="37.056550" lon="32.374633"><ele>931.1</ele></trkpt>
    <trkpt lat="37.056383" lon="32.375038"><ele>933.4</ele></trkpt>
    <trkpt lat="37.056379" lon="32.375597"><ele>934.6</ele></trkpt>
    <trkpt lat="37.056471" lon="32.376248"><ele>934.8</ele></trkpt>
    <trkpt lat="37.056543" lon="32.376878"><ele>934.1</ele></trkpt>
    <trkpt lat="37.056472" lon="32.377374"><ele>932.8</ele></trkpt>
    <trkpt lat="37.056184" lon="32.377666"><ele>931.4</ele></trkpt>
    <trkpt lat="37.055687" lon="32.377761"><ele>930.5</ele></trkpt>
    <trkpt lat="37.055076" lon="32.377748"><ele>930.5</ele></trkpt>
    <trkpt lat="37.054501" lon="32.377770"><ele>931.8</ele></trkpt>
    <trkpt lat="37.054110" lon="32.377964"><ele>934.6</ele></trkpt>
    <trkpt lat="37.053989" lon="32.378413"><ele>938.9</ele></trkpt>
    <trkpt lat="37.054119" lon="32.379098"><ele>944.3</ele></trkpt>
    <trkpt lat="37.054380" lon="32.379907"><ele>950.4</ele></trkpt>
    <trkpt lat="37.054591" lon="32.380669"><ele>956.5</ele></trkpt>
    <trkpt lat="37.054579" lon="32.381221"><ele>961.9</ele></trkpt>
    <trkpt lat="37.054249" lon="32.381473"><ele>965.9</ele></trkpt>
    <trkpt lat="37.053627" lon="32.381451"><ele>968.2</ele></trkpt>
    <trkpt lat="37.052859" lon="32.381289"><ele>968.5</ele></trkpt>
    <trkpt lat="37.052153" lon="32.381188"><ele>967.1</ele></trkpt>
    <trkpt lat="37.051707" lon="32.381330"><ele>964.3</ele></trkpt>
    <trkpt lat="37.051623" lon="32.381815"><ele>960.7</ele></trkpt>
    <trkpt lat="37.051867" lon="32.382608"><ele>957.3</ele></trkpt>
    <trkpt lat="37.052273" lon="32.383553"><ele>954.8</ele></trkpt>
    <trkpt lat="37.052604" lon="32.384428"><ele>953.9</ele></trkpt>
    <trkpt lat="37.052643" lon="32.385027"><ele>955.3</ele></trkpt>
    <trkpt lat="37.052279" lon="32.385248"><ele>958.9</ele></trkpt>
    <trkpt lat="37.051556" lon="32.385129"><ele>964.6</ele></trkpt>
    <trkpt lat="37.050657" lon="32.384846"><ele>971.8</ele></trkpt>
    <trkpt lat="37.049844" lon="32.384643"><ele>979.8</ele></trkpt>
    <trkpt lat="37.049352" lon="32.384743"><ele>987.7</ele></trkpt>
    <trkpt lat="37.049297" lon="32.385254"><ele>994.4</ele></trkpt>
    <trkpt lat="37.049630" lon="32.386131"><ele>999.1</ele></trkpt>
    <trkpt lat="37.050149" lon="32.387182"><ele>1001.4</ele></trkpt>
    <trkpt lat="37.050573" lon="32.388145"><ele>1001.1</ele></trkpt>
    <trkpt lat="37.050653" lon="32.388783"><ele>998.5</ele></trkpt>
    <trkpt lat="37.050265" lon="32.388981"><ele>994.1</ele></trkpt>
    <trkpt lat="37.049467" lon="32.388792"><ele>989.0</ele></trkpt>
    <trkpt lat="37.048474" lon="32.388419"><ele>984.2</ele></trkpt>
    <trkpt lat="37.047583" lon="32.388143"><ele>980.7</ele></trkpt>
    <trkpt lat="37.047056" lon="32.388210"><ele>979.3</ele></trkpt>
    <trkpt lat="37.047020" lon="32.388739"><ele>980.6</ele></trkpt>
    <trkpt lat="37.047413" lon="32.389673"><ele>984.7</ele></trkpt>
    <trkpt lat="37.048007" lon="32.390795"><ele>991.3</ele></trkpt>
    <trkpt lat="37.048493" lon="32.391816"><ele>999.7</ele></trkpt>
    <trkpt lat="37.048600" lon="32.392479"><ele>1008.9</ele></trkpt>
    <trkpt lat="37.048199" lon="32.392664"><ele>1017.7</ele></trkpt>
    <trkpt lat="37.047356" lon="32.392433"><ele>1025.1</ele></trkpt>
    <trkpt lat="37.046307" lon="32.392009"><ele>1030.2</ele></trkpt>
    <trkpt lat="37.045372" lon="32.391691"><ele>1032.4</ele></trkpt>
    <trkpt lat="37.044826" lon="32.391740"><ele>1031.8</ele></trkpt>
    <trkpt lat="37.044799" lon="32.392277"><ele>1028.6</ele></trkpt>
    <trkpt lat="37.045220" lon="32.393237"><ele>1023.5</ele></trkpt>
    <trkpt lat="37.045848" lon="32.394392"><ele>1017.7</ele></trkpt>
    <trkpt lat="37.046361" lon="32.395437"><ele>1012.4</ele></trkpt>
    <trkpt lat="37.046479" lon="32.396111"><ele>1008.5</ele></trkpt>
    <trkpt lat="37.046074" lon="32.396293"><ele>1007.0</ele></trkpt>
    <trkpt lat="37.045219" lon="32.396051"><ele>1008.4</ele></trkpt>
    <trkpt lat="37.044158" lon="32.395614"><ele>1012.7</ele></trkpt>
    <trkpt lat="37.043214" lon="32.395289"><ele>1019.5</ele></trkpt>
    <trkpt lat="37.042665" lon="32.395335"><ele>1028.2</ele></trkpt>
    <trkpt lat="37.042637" lon="32.395871"><ele>1037.5</ele></trkpt>
    <trkpt lat="37.043054" lon="32.396827"><ele>1046.4</ele></trkpt>
    <trkpt lat="37.043674" lon="32.397973"><ele>1053.8</ele></trkpt>
    <trkpt lat="37.044176" lon="32.399009"><ele>1058.8</ele></trkpt>
    <trkpt lat="37.044288" lon="32.399678"><ele>1061.0</ele></trkpt>
    <trkpt lat="37.043889" lon="32.399865"><ele>1060.3</ele></trkpt>
    <trkpt lat="37.043054" lon="32.399642"><ele>1057.1</ele></trkpt>
    <trkpt lat="37.042023" lon="32.399234"><ele>1052.3</ele></trkpt>
    <trkpt lat="37.041109" lon="32.398935"><ele>1046.8</ele></trkpt>
    <trkpt lat="37.040574" lon="32.398995"><ele>1041.8</ele></trkpt>
    <trkpt lat="37.040535" lon="32.399521"><ele>1038.3</ele></trkpt>
    <trkpt lat="37.040917" lon="32.400444"><ele>1037.1</ele></trkpt>
    <trkpt lat="37.041485" lon="32.401542"><ele>1038.6</ele></trkpt>
    <trkpt lat="37.041940" lon="32.402533"><ele>1042.8</ele></trkpt>
    <trkpt lat="37.042029" lon="32.403180"><ele>1049.3</ele></trkpt>
    <trkpt lat="37.041645" lon="32.403381"><ele>1057.3</ele></trkpt>
    <trkpt lat="37.040861" lon="32.403206"><ele>1065.9</ele></trkpt>
    <trkpt lat="37.039901" lon="32.402865"><ele>1073.9</ele></trkpt>
    <trkpt lat="37.039052" lon="32.402628"><ele>1080.6</ele></trkpt>
    <trkpt lat="37.038549" lon="32.402717"><ele>1085.1</ele></trkpt>
    <trkpt lat="37.038492" lon="32.403227"><ele>1087.1</ele></trkpt>
    <trkpt lat="37.038808" lon="32.404087"><ele>1086.7</ele></trkpt>
    <trkpt lat="37.039286" lon="32.405100"><ele>1084.2</ele></trkpt>
    <trkpt lat="37.039658" lon="32.406014"><ele>1080.4</ele></trkpt>
    <trkpt lat="37.039707" lon="32.406623"><ele>1076.2</ele></trkpt>
    <trkpt lat="37.039344" lon="32.406844"><ele>1072.4</ele></trkpt>
    <trkpt lat="37.038639" lon="32.406743"><ele>1070.0</ele></trkpt>
    <trkpt lat="37.037789" lon="32.406505"><ele>1069.5</ele></trkpt>
    <trkpt lat="37.037037" lon="32.406361"><ele>1071.1</ele></trkpt>
    <trkpt lat="37.036582" lon="32.406495"><ele>1074.9</ele></trkpt>
    <trkpt lat="37.036501" lon="32.406982"><ele>1080.5</ele></trkpt>
    <trkpt lat="37.036726" lon="32.407756"><ele>1087.1</ele></trkpt>
    <trkpt lat="37.037078" lon="32.408651"><ele>1094.0</ele></trkpt>
    <trkpt lat="37.037338" lon="32.409458"><ele>1100.4</ele></trkpt>
    <trkpt lat="37.037331" lon="32.410015"><ele>1105.7</ele></trkpt>
    <trkpt lat="37.036995" lon="32.410261"><ele>1109.3</ele></trkpt>
    <trkpt lat="37.036392" lon="32.410256"><ele>1111.1</ele></trkpt>
    <trkpt lat="37.035682" lon="32.410151"><ele>1111.2</ele></trkpt>
    <trkpt lat="37.035058" lon="32.410126"><ele>1110.0</ele></trkpt>
    <trkpt lat="37.034665" lon="32.410319"><ele>1107.9</ele></trkpt>
    <trkpt lat="37.034555" lon="32.410779"><ele>1105.7</ele></trkpt>
    <trkpt lat="37.034668" lon="32.411448"><ele>1103.9</ele></trkpt>
    <trkpt lat="37.034866" lon="32.412197"><ele>1103.1</ele></trkpt>
    <trkpt lat="37.034987" lon="32.412874"><ele>1103.6</ele></trkpt>
    <trkpt lat="37.034912" lon="32.413367"><ele>1105.5</ele></trkpt>
    <trkpt lat="37.034606" lon="32.413641"><ele>1108.7</ele></trkpt>
    <trkpt lat="37.034123" lon="32.413749"><ele>1112.8</ele></trkpt>
    <trkpt lat="37.033579" lon="32.413800"><ele>1117.4</ele></trkpt>
    <trkpt lat="37.033103" lon="32.413915"><ele>1122.0</ele></trkpt>
    <trkpt lat="37.032784" lon="32.414178"><ele>1126.1</ele></trkpt>
    <trkpt lat="37.032643" lon="32.414608"><ele>1129.6</ele></trkpt>
    <trkpt lat="37.032630" lon="32.415158"><ele>1132.1</ele></trkpt>
    <trkpt lat="37.032653" lon="32.415743"><ele>1133.6</ele></trkpt>
    <trkpt lat="37.032617" lon="32.416272"><ele>1134.4</ele></trkpt>
    <trkpt lat="37.032464" lon="32.416690"><ele>1134.8</ele></trkpt>
    <trkpt lat="37.032189" lon="32.416994"><ele>1134.9</ele></trkpt>
    <trkpt lat="37.031837" lon="32.417226"><ele>1135.2</ele></trkpt>
    <trkpt lat="37.031475" lon="32.417448"><ele>1135.9</ele></trkpt>
    <trkpt lat="37.031162" lon="32.417717"><ele>1137.2</ele></trkpt>
    <trkpt lat="37.030926" lon="32.418057"><ele>1138.9</ele></trkpt>
    <trkpt lat="37.030753" lon="32.418457"><ele>1141.1</ele></trkpt>
    <trkpt lat="37.030606" lon="32.418882"><ele>1143.4</ele></trkpt>
    <trkpt lat="37.030442" lon="32.419290"><ele>1145.8</ele></trkpt>
    <trkpt lat="37.030238" lon="32.419661"><ele>1148.1</ele></trkpt>
    <trkpt lat="37.030000" lon="32.420000"><ele>1150.0</ele></trkpt>
    <trkpt lat="37.029730" lon="32.420302"><ele>1152.8</ele></trkpt>
    <trkpt lat="37.029441" lon="32.420572"><ele>1155.9</ele></trkpt>
    <trkpt lat="37.029120" lon="32.420788"><ele>1159.1</ele></trkpt>
    <trkpt lat="37.028778" lon="32.420969"><ele>1162.2</ele></trkpt>
    <trkpt lat="37.028442" lon="32.421159"><ele>1165.0</ele></trkpt>
    <trkpt lat="37.028144" lon="32.421415"><ele>1167.3</ele></trkpt>
    <trkpt lat="37.027904" lon="32.421767"><ele>1169.2</ele></trkpt>
    <trkpt lat="37.027713" lon="32.422203"><ele>1170.6</ele></trkpt>
    <trkpt lat="37.027536" lon="32.422662"><ele>1171.8</ele></trkpt>
    <trkpt lat="37.027322" lon="32.423059"><ele>1172.9</ele></trkpt>
    <trkpt lat="37.027027" lon="32.423319"><ele>1174.4</ele></trkpt>
    <trkpt lat="37.026639" lon="32.423421"><ele>1176.5</ele></trkpt>
    <trkpt lat="37.026183" lon="32.423410"><ele>1179.3</ele></trkpt>
    <trkpt lat="37.025723" lon="32.423391"><ele>1183.1</ele></trkpt>
    <trkpt lat="37.025331" lon="32.423486"><ele>1187.6</ele></trkpt>
    <trkpt lat="37.025059" lon="32.423786"><ele>1192.7</ele></trkpt>
    <trkpt lat="37.024918" lon="32.424305"><ele>1198.0</ele></trkpt>
    <trkpt lat="37.024859" lon="32.424964"><ele>1203.0</ele></trkpt>
    <trkpt lat="37.024796" lon="32.425616"><ele>1207.3</ele></trkpt>
    <trkpt lat="37.024634" lon="32.426101"><ele>1210.6</ele></trkpt>
    <trkpt lat="37.024311" lon="32.426314"><ele>1212.5</ele></trkpt>
    <trkpt lat="37.023826" lon="32.426252"><ele>1213.2</ele></trkpt>
    <trkpt lat="37.023243" lon="32.426026"><ele>1212.8</ele></trkpt>
    <trkpt lat="37.022674" lon="32.425823"><ele>1211.7</ele></trkpt>
    <trkpt lat="37.022233" lon="32.425837"><ele>1210.5</ele></trkpt>
    <trkpt lat="37.021992" lon="32.426187"><ele>1209.9</ele></trkpt>
    <trkpt lat="37.021944" lon="32.426865"><ele>1210.3</ele></trkpt>
    <trkpt lat="37.022007" lon="32.427729"><ele>1212.3</ele></trkpt>
    <trkpt lat="37.022046" lon="32.428553"><ele>1216.0</ele></trkpt>
    <trkpt lat="37.021927" lon="32.429111"><ele>1221.4</ele></trkpt>
    <trkpt lat="37.021574" lon="32.429273"><ele>1228.1</ele></trkpt>
    <trkpt lat="37.020999" lon="32.429059"><ele>1235.5</ele></trkpt>
    <trkpt lat="37.020302" lon="32.428640"><ele>1242.9</ele></trkpt>
    <trkpt lat="37.019639" lon="32.428279"><ele>1249.5</ele></trkpt>
    <trkpt lat="37.019160" lon="32.428228"><ele>1254.7</ele></trkpt>
    <trkpt lat="37.018949" lon="32.428630"><ele>1258.0</ele></trkpt>
    <trkpt lat="37.018987" lon="32.429452"><ele>1259.1</ele></trkpt>
    <trkpt lat="37.019155" lon="32.430494"><ele>1258.3</ele></trkpt>
    <trkpt lat="37.019278" lon="32.431460"><ele>1255.9</ele></trkpt>
    <trkpt lat="37.019192" lon="32.432073"><ele>1252.8</ele></trkpt>
    <trkpt lat="37.018809" lon="32.432184"><ele>1249.8</ele></trkpt>
    <trkpt lat="37.018154" lon="32.431836"><ele>1247.7</ele></trkpt>
    <trkpt lat="37.017362" lon="32.431256"><ele>1247.5</ele></trkpt>
    <trkpt lat="37.016625" lon="32.430769"><ele>1249.5</ele></trkpt>
    <trkpt lat="37.016120" lon="32.430675"><ele>1254.0</ele></trkpt>
    <trkpt lat="37.015939" lon="32.431127"><ele>1260.7</ele></trkpt>
    <trkpt lat="37.016048" lon="32.432070"><ele>1269.1</ele></trkpt>
    <trkpt lat="37.016300" lon="32.433254"><ele>1278.2</ele></trkpt>
    <trkpt lat="37.016487" lon="32.434327"><ele>1287.2</ele></trkpt>
    <trkpt lat="37.016421" lon="32.434974"><ele>1294.9</ele></trkpt>
    <trkpt lat="37.016009" lon="32.435036"><ele>1300.6</ele></trkpt>
    <trkpt lat="37.015290" lon="32.434582"><ele>1303.7</ele></trkpt>
    <trkpt lat="37.014427" lon="32.433881"><ele>1304.2</ele></trkpt>
    <trkpt lat="37.013637" lon="32.433306"><ele>1302.2</ele></trkpt>
    <trkpt lat="37.013119" lon="32.433188"><ele>1298.5</ele></trkpt>
    <trkpt lat="37.012964" lon="32.433685"><ele>1294.0</ele></trkpt>
    <trkpt lat="37.013128" lon="32.434720"><ele>1289.8</ele></trkpt>
    <trkpt lat="37.013438" lon="32.436003"><ele>1287.0</ele></trkpt>
    <trkpt lat="37.013665" lon="32.437144"><ele>1286.4</ele></trkpt>
    <trkpt lat="37.013607" lon="32.437804"><ele>1288.6</ele></trkpt>
    <trkpt lat="37.013170" lon="32.437824"><ele>1293.7</ele></trkpt>
    <trkpt lat="37.012408" lon="32.437295"><ele>1301.3</ele></trkpt>
    <trkpt lat="37.011499" lon="32.436518"><ele>1310.7</ele></trkpt>
    <trkpt lat="37.010682" lon="32.435897"><ele>1320.8</ele></trkpt>
    <trkpt lat="37.010162" lon="32.435776"><ele>1330.5</ele></trkpt>
    <trkpt lat="37.010029" lon="32.436311"><ele>1338.7</ele></trkpt>
    <trkpt lat="37.010227" lon="32.437402"><ele>1344.5</ele></trkpt>
    <trkpt lat="37.010568" lon="32.438736"><ele>1347.4</ele></trkpt>
    <trkpt lat="37.010810" lon="32.439903"><ele>1347.4</ele></trkpt>
    <trkpt lat="37.010747" lon="32.440555"><ele>1344.8</ele></trkpt>
    <trkpt lat="37.010292" lon="32.440544"><ele>1340.4</ele></trkpt>
    <trkpt lat="37.009506" lon="32.439976"><ele>1335.4</ele></trkpt>
    <trkpt lat="37.008582" lon="32.439173"><ele>1330.9</ele></trkpt>
    <trkpt lat="37.007763" lon="32.438548"><ele>1328.0</ele></trkpt>
    <trkpt lat="37.007253" lon="32.438444"><ele>1327.5</ele></trkpt>
    <trkpt lat="37.007135" lon="32.439004"><ele>1330.0</ele></trkpt>
    <trkpt lat="37.007344" lon="32.440115"><ele>1335.4</ele></trkpt>
    <trkpt lat="37.007685" lon="32.441450"><ele>1343.3</ele></trkpt>
    <trkpt lat="37.007917" lon="32.442599"><ele>1352.8</ele></trkpt>
    <trkpt lat="37.007839" lon="32.443226"><ele>1363.0</ele></trkpt>
    <trkpt lat="37.007373" lon="32.443196"><ele>1372.6</ele></trkpt>
    <trkpt lat="37.006588" lon="32.442629"><ele>1380.6</ele></trkpt>
    <trkpt lat="37.005678" lon="32.441850"><ele>1386.1</ele></trkpt>
    <trkpt lat="37.004881" lon="32.441263"><ele>1388.8</ele></trkpt>
    <trkpt lat="37.004391" lon="32.441194"><ele>1388.6</ele></trkpt>
    <trkpt lat="37.004281" lon="32.441765"><ele>1386.0</ele></trkpt>
    <trkpt lat="37.004477" lon="32.442855"><ele>1381.9</ele></trkpt>
    <trkpt lat="37.004789" lon="32.444140"><ele>1377.3</ele></trkpt>
    <trkpt lat="37.004986" lon="32.445231"><ele>1373.3</ele></trkpt>
    <trkpt lat="37.004884" lon="32.445816"><ele>1370.9</ele></trkpt>
    <trkpt lat="37.004415" lon="32.445782"><ele>1370.9</ele></trkpt>
    <trkpt lat="37.003655" lon="32.445256"><ele>1373.6</ele></trkpt>
    <trkpt lat="37.002788" lon="32.444552"><ele>1379.0</ele></trkpt>
    <trkpt lat="37.002038" lon="32.444042"><ele>1386.5</ele></trkpt>
    <trkpt lat="37.001577" lon="32.444022"><ele>1395.5</ele></trkpt>
    <trkpt lat="37.001464" lon="32.444589"><ele>1404.8</ele></trkpt>
    <trkpt lat="37.001623" lon="32.445617"><ele>1413.5</ele></trkpt>
    <trkpt lat="37.001878" lon="32.446805"><ele>1420.6</ele></trkpt>
    <trkpt lat="37.002018" lon="32.447800"><ele>1425.5</ele></trkpt>
    <trkpt lat="37.001883" lon="32.448330"><ele>1427.9</ele></trkpt>
    <trkpt lat="37.001422" lon="32.448309"><ele>1428.0</ele></trkpt>
    <trkpt lat="37.000710" lon="32.447864"><ele>1426.0</ele></trkpt>
    <trkpt lat="36.999914" lon="32.447279"><ele>1422.9</ele></trkpt>
    <trkpt lat="36.999231" lon="32.446883"><ele>1419.6</ele></trkpt>
    <trkpt lat="36.998804" lon="32.446921"><ele>1416.9</ele></trkpt>
    <trkpt lat="36.998679" lon="32.447467"><ele>1415.6</ele></trkpt>
    <trkpt lat="36.998780" lon="32.448396"><ele>1416.3</ele></trkpt>
    <trkpt lat="36.998951" lon="32.449443"><ele>1419.3</ele></trkpt>
    <trkpt lat="36.999016" lon="32.450310"><ele>1424.3</ele></trkpt>
    <trkpt lat="36.998843" lon="32.450777"><ele>1430.9</ele></trkpt>
    <trkpt lat="36.998400" lon="32.450787"><ele>1438.4</ele></trkpt>
    <trkpt lat="36.997757" lon="32.450459"><ele>1446.1</ele></trkpt>
    <trkpt lat="36.997056" lon="32.450034"><ele>1453.2</ele></trkpt>
    <trkpt lat="36.996456" lon="32.449779"><ele>1458.9</ele></trkpt>
    <trkpt lat="36.996069" lon="32.449883"><ele>1463.0</ele></trkpt>
    <trkpt lat="36.995920" lon="32.450389"><ele>1465.2</ele></trkpt>
    <trkpt lat="36.995942" lon="32.451185"><ele>1465.8</ele></trkpt>
    <trkpt lat="36.996009" lon="32.452056"><ele>1465.1</ele></trkpt>
    <trkpt lat="36.995982" lon="32.452769"><ele>1463.7</ele></trkpt>
    <trkpt lat="36.995770" lon="32.453168"><ele>1462.3</ele></trkpt>
    <trkpt lat="36.995355" lon="32.453226"><ele>1461.6</ele></trkpt>
    <trkpt lat="36.994799" lon="32.453045"><ele>1461.9</ele></trkpt>
    <trkpt lat="36.994213" lon="32.452813"><ele>1463.5</ele></trkpt>
    <trkpt lat="36.993709" lon="32.452721"><ele>1466.6</ele></trkpt>
    <trkpt lat="36.993363" lon="32.452894"><ele>1470.9</ele></trkpt>
    <trkpt lat="36.993181" lon="32.453345"><ele>1476.0</ele></trkpt>
    <trkpt lat="36.993108" lon="32.453979"><ele>1481.6</ele></trkpt>
    <trkpt lat="36.993052" lon="32.454644"><ele>1487.0</ele></trkpt>
    <trkpt lat="36.992925" lon="32.455187"><ele>1491.9</ele></trkpt>
    <trkpt lat="36.992672" lon="32.455518"><ele>1496.0</ele></trkpt>
    <trkpt lat="36.992295" lon="32.455639"><ele>1499.1</ele></trkpt>
    <trkpt lat="36.991841" lon="32.455631"><ele>1501.2</ele></trkpt>
    <trkpt lat="36.991382" lon="32.455615"><ele>1502.6</ele></trkpt>
    <trkpt lat="36.990983" lon="32.455699"><ele>1503.6</ele></trkpt>
    <trkpt lat="36.990676" lon="32.455939"><ele>1504.5</ele></trkpt>
    <trkpt lat="36.990452" lon="32.456319"><ele>1505.6</ele></trkpt>
    <trkpt lat="36.990272" lon="32.456772"><ele>1507.1</ele></trkpt>
    <trkpt lat="36.990084" lon="32.457212"><ele>1509.1</ele></trkpt>
    <trkpt lat="36.989850" lon="32.457575"><ele>1511.8</ele></trkpt>
    <trkpt lat="36.989559" lon="32.457842"><ele>1514.8</ele></trkpt>
    <trkpt lat="36.989227" lon="32.458040"><ele>1518.1</ele></trkpt>
    <trkpt lat="36.988886" lon="32.458221"><ele>1521.5</ele></trkpt>
    <trkpt lat="36.988563" lon="32.458434"><ele>1524.6</ele></trkpt>
    <trkpt lat="36.988271" lon="32.458699"><ele>1527.5</ele></trkpt>
    <trkpt lat="36.988000" lon="32.459000"><ele>1530.0</ele></trkpt>
    <trkpt lat="36.987646" lon="32.459100"><ele>1531.3</ele></trkpt>
    <trkpt lat="36.987308" lon="32.459261"><ele>1532.7</ele></trkpt>
    <trkpt lat="36.986991" lon="32.459498"><ele>1534.0</ele></trkpt>
    <trkpt lat="36.986683" lon="32.459773"><ele>1535.0</ele></trkpt>
    <trkpt lat="36.986365" lon="32.460008"><ele>1535.5</ele></trkpt>
    <trkpt lat="36.986016" lon="32.460127"><ele>1535.3</ele></trkpt>
    <trkpt lat="36.985628" lon="32.460101"><ele>1534.7</ele></trkpt>
    <trkpt lat="36.985213" lon="32.459974"><ele>1533.9</ele></trkpt>
    <trkpt lat="36.984800" lon="32.459855"><ele>1533.1</ele></trkpt>
    <trkpt lat="36.984424" lon="32.459873"><ele>1532.7</ele></trkpt>
    <trkpt lat="36.984108" lon="32.460116"><ele>1533.1</ele></trkpt>
    <trkpt lat="36.983853" lon="32.460583"><ele>1534.5</ele></trkpt>
    <trkpt lat="36.983629" lon="32.461170"><ele>1537.0</ele></trkpt>
    <trkpt lat="36.983390" lon="32.461700"><ele>1540.4</ele></trkpt>
    <trkpt lat="36.983090" lon="32.461999"><ele>1544.2</ele></trkpt>
    <trkpt lat="36.982701" lon="32.461969"><ele>1548.2</ele></trkpt>
    <trkpt lat="36.982232" lon="32.461642"><ele>1551.6</ele></trkpt>
    <trkpt lat="36.981727" lon="32.461182"><ele>1554.1</ele></trkpt>
    <trkpt lat="36.981251" lon="32.460827"><ele>1555.1</ele></trkpt>
    <trkpt lat="36.980861" lon="32.460795"><ele>1554.5</ele></trkpt>
    <trkpt lat="36.980586" lon="32.461189"><ele>1552.4</ele></trkpt>
    <trkpt lat="36.980408" lon="32.461945"><ele>1549.2</ele></trkpt>
    <trkpt lat="36.980268" lon="32.462842"><ele>1545.4</ele></trkpt>
    <trkpt lat="36.980086" lon="32.463586"><ele>1541.8</ele></trkpt>
    <trkpt lat="36.979795" lon="32.463920"><ele>1539.2</ele></trkpt>
    <trkpt lat="36.979366" lon="32.463740"><ele>1538.0</ele></trkpt>
    <trkpt lat="36.978824" lon="32.463143"><ele>1538.9</ele></trkpt>
    <trkpt lat="36.978244" lon="32.462400"><ele>1541.8</ele></trkpt>
    <trkpt lat="36.977717" lon="32.461860"><ele>1546.6</ele></trkpt>
    <trkpt lat="36.977322" lon="32.461806"><ele>1552.8</ele></trkpt>
    <trkpt lat="36.977085" lon="32.462345"><ele>1559.4</ele></trkpt>
    <trkpt lat="36.976974" lon="32.463347"><ele>1565.6</ele></trkpt>
    <trkpt lat="36.976901" lon="32.464493"><ele>1570.6</ele></trkpt>
    <trkpt lat="36.976761" lon="32.465392"><ele>1573.5</ele></trkpt>
    <trkpt lat="36.976472" lon="32.465733"><ele>1574.0</ele></trkpt>
    <trkpt lat="36.976006" lon="32.465417"><ele>1572.0</ele></trkpt>
    <trkpt lat="36.975406" lon="32.464603"><ele>1567.9</ele></trkpt>
    <trkpt lat="36.974769" lon="32.463651"><ele>1562.4</ele></trkpt>
    <trkpt lat="36.974210" lon="32.462989"><ele>1556.5</ele></trkpt>
    <trkpt lat="36.973816" lon="32.462943"><ele>1551.1</ele></trkpt>
    <trkpt lat="36.973613" lon="32.463604"><ele>1547.4</ele></trkpt>
    <trkpt lat="36.973550" lon="32.464789"><ele>1546.0</ele></trkpt>
    <trkpt lat="36.973522" lon="32.466101"><ele>1547.4</ele></trkpt>
    <trkpt lat="36.973406" lon="32.467086"><ele>1551.5</ele></trkpt>
    <trkpt lat="36.973111" lon="32.467408"><ele>1557.9</ele></trkpt>
    <trkpt lat="36.972616" lon="32.466985"><ele>1565.8</ele></trkpt>
    <trkpt lat="36.971978" lon="32.466027"><ele>1574.0</ele></trkpt>
    <trkpt lat="36.971309" lon="32.464955"><ele>1581.3</ele></trkpt>
    <trkpt lat="36.970736" lon="32.464243"><ele>1586.9</ele></trkpt>
    <trkpt lat="36.970351" lon="32.464227"><ele>1589.8</ele></trkpt>
    <trkpt lat="36.970171" lon="32.464977"><ele>1589.8</ele></trkpt>
    <trkpt lat="36.970136" lon="32.466263"><ele>1586.9</ele></trkpt>
    <trkpt lat="36.970126" lon="32.467645"><ele>1581.7</ele></trkpt>
    <trkpt lat="36.970014" lon="32.468644"><ele>1575.1</ele></trkpt>
    <trkpt lat="36.969708" lon="32.468927"><ele>1568.3</ele></trkpt>
    <trkpt lat="36.969196" lon="32.468438"><ele>1562.5</ele></trkpt>
    <trkpt lat="36.968542" lon="32.467424"><ele>1558.7</ele></trkpt>
    <trkpt lat="36.967868" lon="32.466332"><ele>1557.6</ele></trkpt>
    <trkpt lat="36.967301" lon="32.465641"><ele>1559.5</ele></trkpt>
    <trkpt lat="36.966928" lon="32.465671"><ele>1564.2</ele></trkpt>
    <trkpt lat="36.966759" lon="32.466462"><ele>1571.1</ele></trkpt>
    <trkpt lat="36.966727" lon="32.467758"><ele>1579.2</ele></trkpt>
    <trkpt lat="36.966709" lon="32.469111"><ele>1587.4</ele></trkpt>
    <trkpt lat="36.966582" lon="32.470054"><ele>1594.6</ele></trkpt>
    <trkpt lat="36.966263" lon="32.470286"><ele>1599.7</ele></trkpt>
    <trkpt lat="36.965746" lon="32.469782"><ele>1602.2</ele></trkpt>
    <trkpt lat="36.965103" lon="32.468805"><ele>1601.8</ele></trkpt>
    <trkpt lat="36.964449" lon="32.467793"><ele>1598.7</ele></trkpt>
    <trkpt lat="36.963906" lon="32.467189"><ele>1593.6</ele></trkpt>
    <trkpt lat="36.963548" lon="32.467273"><ele>1587.5</ele></trkpt>
    <trkpt lat="36.963376" lon="32.468051"><ele>1581.5</ele></trkpt>
    <trkpt lat="36.963320" lon="32.469263"><ele>1576.5</ele></trkpt>
    <trkpt lat="36.963269" lon="32.470489"><ele>1573.6</ele></trkpt>
    <trkpt lat="36.963110" lon="32.471314"><ele>1573.1</ele></trkpt>
    <trkpt lat="36.962776" lon="32.471492"><ele>1575.2</ele></trkpt>
    <trkpt lat="36.962271" lon="32.471031"><ele>1579.7</ele></trkpt>
    <trkpt lat="36.961662" lon="32.470184"><ele>1585.8</ele></trkpt>
    <trkpt lat="36.961055" lon="32.469343"><ele>1592.8</ele></trkpt>
    <trkpt lat="36.960551" lon="32.468883"><ele>1599.5</ele></trkpt>
    <trkpt lat="36.960206" lon="32.469018"><ele>1605.2</ele></trkpt>
    <trkpt lat="36.960015" lon="32.469725"><ele>1609.1</ele></trkpt>
    <trkpt lat="36.959913" lon="32.470763"><ele>1610.8</ele></trkpt>
    <trkpt lat="36.959804" lon="32.471777"><ele>1610.3</ele></trkpt>
    <trkpt lat="36.959601" lon="32.472437"><ele>1607.9</ele></trkpt>
    <trkpt lat="36.959255" lon="32.472568"><ele>1604.2</ele></trkpt>
    <trkpt lat="36.958776" lon="32.472206"><ele>1599.9</ele></trkpt>
    <trkpt lat="36.958225" lon="32.471572"><ele>1596.0</ele></trkpt>
    <trkpt lat="36.957684" lon="32.470980"><ele>1593.1</ele></trkpt>
    <trkpt lat="36.957229" lon="32.470703"><ele>1591.7</ele></trkpt>
    <trkpt lat="36.956895" lon="32.470879"><ele>1592.0</ele></trkpt>
    <trkpt lat="36.956670" lon="32.471460"><ele>1594.1</ele></trkpt>
    <trkpt lat="36.956501" lon="32.472249"><ele>1597.5</ele></trkpt>
    <trkpt lat="36.956318" lon="32.472983"><ele>1601.7</ele></trkpt>
    <trkpt lat="36.956061" lon="32.473446"><ele>1606.2</ele></trkpt>
    <trkpt lat="36.955706" lon="32.473545"><ele>1610.3</ele></trkpt>
    <trkpt lat="36.955268" lon="32.473334"><ele>1613.5</ele></trkpt>
    <trkpt lat="36.954793" lon="32.472981"><ele>1615.6</ele></trkpt>
    <trkpt lat="36.954334" lon="32.472692"><ele>1616.5</ele></trkpt>
    <trkpt lat="36.953934" lon="32.472622"><ele>1616.3</ele></trkpt>
    <trkpt lat="36.953606" lon="32.472821"><ele>1615.3</ele></trkpt>
    <trkpt lat="36.953335" lon="32.473228"><ele>1613.9</ele></trkpt>
    <trkpt lat="36.953083" lon="32.473710"><ele>1612.7</ele></trkpt>
    <trkpt lat="36.952813" lon="32.474122"><ele>1611.8</ele></trkpt>
    <trkpt lat="36.952500" lon="32.474376"><ele>1611.6</ele></trkpt>
    <trkpt lat="36.952142" lon="32.474461"><ele>1612.1</ele></trkpt>
    <trkpt lat="36.951756" lon="32.474443"><ele>1613.2</ele></trkpt>
    <trkpt lat="36.951368" lon="32.474417"><ele>1614.7</ele></trkpt>
    <trkpt lat="36.950999" lon="32.474462"><ele>1616.4</ele></trkpt>
    <trkpt lat="36.950655" lon="32.474601"><ele>1618.0</ele></trkpt>
    <trkpt lat="36.950328" lon="32.474802"><ele>1619.2</ele></trkpt>
    <trkpt lat="36.950000" lon="32.475000"><ele>1620.0</ele></trkpt>
    <trkpt lat="36.949680" lon="32.475207"><ele>1618.4</ele></trkpt>
    <trkpt lat="36.949395" lon="32.475501"><ele>1617.2</ele></trkpt>
    <trkpt lat="36.949124" lon="32.475829"><ele>1615.9</ele></trkpt>
    <trkpt lat="36.948829" lon="32.476097"><ele>1614.3</ele></trkpt>
    <trkpt lat="36.948478" lon="32.476227"><ele>1612.0</ele></trkpt>
    <trkpt lat="36.948065" lon="32.476204"><ele>1608.9</ele></trkpt>
    <trkpt lat="36.947620" lon="32.476102"><ele>1605.0</ele></trkpt>
    <trkpt lat="36.947198" lon="32.476058"><ele>1600.5</ele></trkpt>
    <trkpt lat="36.946856" lon="32.476211"><ele>1596.0</ele></trkpt>
    <trkpt lat="36.946623" lon="32.476632"><ele>1591.8</ele></trkpt>
    <trkpt lat="36.946481" lon="32.477278"><ele>1588.4</ele></trkpt>
    <trkpt lat="36.946366" lon="32.477990"><ele>1586.4</ele></trkpt>
    <trkpt lat="36.946191" lon="32.478554"><ele>1585.8</ele></trkpt>
    <trkpt lat="36.945883" lon="32.478792"><ele>1586.6</ele></trkpt>
    <trkpt lat="36.945418" lon="32.478641"><ele>1588.5</ele></trkpt>
    <trkpt lat="36.944838" lon="32.478205"><ele>1590.7</ele></trkpt>
    <trkpt lat="36.944236" lon="32.477717"><ele>1592.7</ele></trkpt>
    <trkpt lat="36.943729" lon="32.477463"><ele>1593.6</ele></trkpt>
    <trkpt lat="36.943403" lon="32.477653"><ele>1592.9</ele></trkpt>
    <trkpt lat="36.943275" lon="32.478334"><ele>1590.1</ele></trkpt>
    <trkpt lat="36.943284" lon="32.479353"><ele>1585.2</ele></trkpt>
    <trkpt lat="36.943306" lon="32.480403"><ele>1578.5</ele></trkpt>
    <trkpt lat="36.943202" lon="32.481145"><ele>1570.6</ele></trkpt>
    <trkpt lat="36.942877" lon="32.481340"><ele>1562.4</ele></trkpt>
    <trkpt lat="36.942319" lon="32.480959"><ele>1555.0</ele></trkpt>
    <trkpt lat="36.941610" lon="32.480205"><ele>1549.1</ele></trkpt>
    <trkpt lat="36.940896" lon="32.479440"><ele>1545.6</ele></trkpt>
    <trkpt lat="36.940334" lon="32.479049"><ele>1544.7</ele></trkpt>
    <trkpt lat="36.940025" lon="32.479284"><ele>1546.3</ele></trkpt>
    <trkpt lat="36.939975" lon="32.480156"><ele>1550.0</ele></trkpt>
    <trkpt lat="36.940085" lon="32.481425"><ele>1554.8</ele></trkpt>
    <trkpt lat="36.940191" lon="32.482683"><ele>1559.8</ele></trkpt>
    <trkpt lat="36.940124" lon="32.483515"><ele>1563.7</ele></trkpt>
    <trkpt lat="36.939781" lon="32.483665"><ele>1565.6</ele></trkpt>
    <trkpt lat="36.939165" lon="32.483140"><ele>1564.8</ele></trkpt>
    <trkpt lat="36.938386" lon="32.482213"><ele>1561.0</ele></trkpt>
    <trkpt lat="36.937620" lon="32.481319"><ele>1554.5</ele></trkpt>
    <trkpt lat="36.937040" lon="32.480886"><ele>1546.0</ele></trkpt>
    <trkpt lat="36.936749" lon="32.481164"><ele>1536.3</ele></trkpt>
    <trkpt lat="36.936736" lon="32.482128"><ele>1526.8</ele></trkpt>
    <trkpt lat="36.936882" lon="32.483485"><ele>1518.5</ele></trkpt>
    <trkpt lat="36.937006" lon="32.484788"><ele>1512.4</ele></trkpt>
    <trkpt lat="36.936937" lon="32.485613"><ele>1509.2</ele></trkpt>
    <trkpt lat="36.936578" lon="32.485724"><ele>1509.0</ele></trkpt>
    <trkpt lat="36.935948" lon="32.485165"><ele>1511.4</ele></trkpt>
    <trkpt lat="36.935168" lon="32.484238"><ele>1515.8</ele></trkpt>
    <trkpt lat="36.934418" lon="32.483383"><ele>1521.0</ele></trkpt>
    <trkpt lat="36.933861" lon="32.483005"><ele>1525.9</ele></trkpt>
    <trkpt lat="36.933583" lon="32.483315"><ele>1529.4</ele></trkpt>
    <trkpt lat="36.933560" lon="32.484255"><ele>1530.7</ele></trkpt>
    <trkpt lat="36.933670" lon="32.485524"><ele>1529.4</ele></trkpt>
    <trkpt lat="36.933745" lon="32.486705"><ele>1525.3</ele></trkpt>
    <trkpt lat="36.933634" lon="32.487428"><ele>1518.8</ele></trkpt>
    <trkpt lat="36.933266" lon="32.487516"><ele>1510.9</ele></trkpt>
    <trkpt lat="36.932669" lon="32.487040"><ele>1502.3</ele></trkpt>
    <trkpt lat="36.931960" lon="32.486286"><ele>1494.2</ele></trkpt>
    <trkpt lat="36.931291" lon="32.485631"><ele>1487.5</ele></trkpt>
    <trkpt lat="36.930791" lon="32.485396"><ele>1482.7</ele></trkpt>
    <trkpt lat="36.930519" lon="32.485720"><ele>1480.3</ele></trkpt>
    <trkpt lat="36.930439" lon="32.486520"><ele>1480.0</ele></trkpt>
    <trkpt lat="36.930448" lon="32.487538"><ele>1481.5</ele></trkpt>
    <trkpt lat="36.930413" lon="32.488449"><ele>1484.0</ele></trkpt>
    <trkpt lat="36.930231" lon="32.488995"><ele>1486.8</ele></trkpt>
    <trkpt lat="36.929862" lon="32.489080"><ele>1489.0</ele></trkpt>
    <trkpt lat="36.929342" lon="32.488794"><ele>1490.0</ele></trkpt>
    <trkpt lat="36.928762" lon="32.488360"><ele>1489.4</ele></trkpt>
    <trkpt lat="36.928226" lon="32.488034"><ele>1487.2</ele></trkpt>
    <trkpt lat="36.927810" lon="32.488005"><ele>1483.5</ele></trkpt>
    <trkpt lat="36.927534" lon="32.488319"><ele>1478.8</ele></trkpt>
    <trkpt lat="36.927360" lon="32.488886"><ele>1473.7</ele></trkpt>
    <trkpt lat="36.927216" lon="32.489527"><ele>1468.7</ele></trkpt>
    <trkpt lat="36.927029" lon="32.490062"><ele>1464.4</ele></trkpt>
    <trkpt lat="36.926755" lon="32.490383"><ele>1460.9</ele></trkpt>
    <trkpt lat="36.926394" lon="32.490489"><ele>1458.4</ele></trkpt>
    <trkpt lat="36.925984" lon="32.490472"><ele>1456.8</ele></trkpt>
    <trkpt lat="36.925573" lon="32.490456"><ele>1455.8</ele></trkpt>
    <trkpt lat="36.925203" lon="32.490539"><ele>1454.9</ele></trkpt>
    <trkpt lat="36.924883" lon="32.490745"><ele>1453.8</ele></trkpt>
    <trkpt lat="36.924593" lon="32.491027"><ele>1452.2</ele></trkpt>
    <trkpt lat="36.924300" lon="32.491300"><ele>1450.0</ele></trkpt>
    </trkseg>
  </trk>
</gpx>
