<?xml version="1.0" encoding="UTF-8"?>
<gpx version="1.1" creator="tripplanner (routed with BRouter, gravel profile)" xmlns="http://www.topografix.com/GPX/1/1">
  <metadata>
    <name>Ahansal &amp; Happy Valley loop — Day 1: Demnate → Azilal → Bin el Ouidane</name>
    <desc>111 km, 1944 m, ~78% paved. Routed with BRouter (gravel profile) over OSM ways — a plan, not a ridden track.</desc>
  </metadata>
  <trk>
    <name>Ahansal &amp; Happy Valley loop — Day 1: Demnate → Azilal → Bin el Ouidane</name>
    <trkseg>
    <trkpt lat="31.731995" lon="-7.002723"><ele>937.2</ele></trkpt>
    <trkpt lat="31.732118" lon="-7.003463"><ele>937.0</ele></trkpt>
    <trkpt lat="31.732251" lon="-7.003541"><ele>936.2</ele></trkpt>
    <trkpt lat="31.733219" lon="-7.003239"><ele>931.0</ele></trkpt>
    <trkpt lat="31.733172" lon="-7.002931"><ele>930.8</ele></trkpt>
    <trkpt lat="31.734094" lon="-7.005112"><ele>926.5</ele></trkpt>
    <trkpt lat="31.734612" lon="-7.005329"><ele>924.8</ele></trkpt>
    <trkpt lat="31.734749" lon="-7.005766"><ele>924.0</ele></trkpt>
    <trkpt lat="31.735393" lon="-7.006209"><ele>922.8</ele></trkpt>
    <trkpt lat="31.735573" lon="-7.006670"><ele>922.5</ele></trkpt>
    <trkpt lat="31.735573" lon="-7.007043"><ele>922.5</ele></trkpt>
    <trkpt lat="31.735849" lon="-7.007250"><ele>920.8</ele></trkpt>
    <trkpt lat="31.736297" lon="-7.008014"><ele>917.0</ele></trkpt>
    <trkpt lat="31.736734" lon="-7.008292"><ele>915.5</ele></trkpt>
    <trkpt lat="31.737107" lon="-7.008203"><ele>912.8</ele></trkpt>
    <trkpt lat="31.738404" lon="-7.007333"><ele>906.2</ele></trkpt>
    <trkpt lat="31.739189" lon="-7.007540"><ele>900.8</ele></trkpt>
    <trkpt lat="31.739934" lon="-7.007981"><ele>899.5</ele></trkpt>
    <trkpt lat="31.740840" lon="-7.007679"><ele>894.0</ele></trkpt>
    <trkpt lat="31.741393" lon="-7.008023"><ele>883.5</ele></trkpt>
    <trkpt lat="31.741935" lon="-7.008971"><ele>876.2</ele></trkpt>
    <trkpt lat="31.742485" lon="-7.009359"><ele>873.2</ele></trkpt>
    <trkpt lat="31.742596" lon="-7.009415"><ele>873.2</ele></trkpt>
    <trkpt lat="31.742841" lon="-7.009426"><ele>873.2</ele></trkpt>
    <trkpt lat="31.743103" lon="-7.008926"><ele>879.5</ele></trkpt>
    <trkpt lat="31.742894" lon="-7.007923"><ele>881.8</ele></trkpt>
    <trkpt lat="31.742921" lon="-7.007560"><ele>882.5</ele></trkpt>
    <trkpt lat="31.743045" lon="-7.007250"><ele>884.2</ele></trkpt>
    <trkpt lat="31.743161" lon="-7.007052"><ele>885.5</ele></trkpt>
    <trkpt lat="31.743561" lon="-7.006666"><ele>889.5</ele></trkpt>
    <trkpt lat="31.745051" lon="-7.006323"><ele>900.2</ele></trkpt>
    <trkpt lat="31.746520" lon="-7.006410"><ele>905.2</ele></trkpt>
    <trkpt lat="31.747676" lon="-7.005743"><ele>907.8</ele></trkpt>
    <trkpt lat="31.748127" lon="-7.005587"><ele>907.8</ele></trkpt>
    <trkpt lat="31.750259" lon="-7.005416"><ele>908.0</ele></trkpt>
    <trkpt lat="31.751012" lon="-7.005710"><ele>910.8</ele></trkpt>
    <trkpt lat="31.753000" lon="-7.007370"><ele>912.8</ele></trkpt>
    <trkpt lat="31.754223" lon="-7.007437"><ele>913.2</ele></trkpt>
    <trkpt lat="31.755241" lon="-7.007655"><ele>909.0</ele></trkpt>
    <trkpt lat="31.755962" lon="-7.007583"><ele>908.8</ele></trkpt>
    <trkpt lat="31.756240" lon="-7.007711"><ele>908.8</ele></trkpt>
    <trkpt lat="31.756334" lon="-7.007794"><ele>909.2</ele></trkpt>
    <trkpt lat="31.756463" lon="-7.008399"><ele>911.0</ele></trkpt>
    <trkpt lat="31.756800" lon="-7.007946"><ele>913.5</ele></trkpt>
    <trkpt lat="31.757190" lon="-7.007741"><ele>916.8</ele></trkpt>
    <trkpt lat="31.757289" lon="-7.007504"><ele>917.2</ele></trkpt>
    <trkpt lat="31.757507" lon="-7.005732"><ele>922.8</ele></trkpt>
    <trkpt lat="31.758061" lon="-7.004699"><ele>930.2</ele></trkpt>
    <trkpt lat="31.758632" lon="-7.004225"><ele>931.8</ele></trkpt>
    <trkpt lat="31.759652" lon="-7.003461"><ele>933.5</ele></trkpt>
    <trkpt lat="31.761038" lon="-7.002749"><ele>934.2</ele></trkpt>
    <trkpt lat="31.762178" lon="-7.002470"><ele>934.8</ele></trkpt>
    <trkpt lat="31.762182" lon="-7.001597"><ele>937.5</ele></trkpt>
    <trkpt lat="31.762275" lon="-7.001474"><ele>937.5</ele></trkpt>
    <trkpt lat="31.763513" lon="-7.001352"><ele>934.8</ele></trkpt>
    <trkpt lat="31.764017" lon="-7.001157"><ele>932.5</ele></trkpt>
    <trkpt lat="31.764480" lon="-7.000589"><ele>932.5</ele></trkpt>
    <trkpt lat="31.764845" lon="-6.999196"><ele>935.5</ele></trkpt>
    <trkpt lat="31.766029" lon="-6.999164"><ele>934.8</ele></trkpt>
    <trkpt lat="31.767012" lon="-6.998736"><ele>933.0</ele></trkpt>
    <trkpt lat="31.767561" lon="-6.997989"><ele>932.8</ele></trkpt>
    <trkpt lat="31.768112" lon="-6.997482"><ele>929.0</ele></trkpt>
    <trkpt lat="31.768573" lon="-6.996712"><ele>927.0</ele></trkpt>
    <trkpt lat="31.768722" lon="-6.996196"><ele>924.5</ele></trkpt>
    <trkpt lat="31.768590" lon="-6.995644"><ele>923.2</ele></trkpt>
    <trkpt lat="31.769159" lon="-6.995396"><ele>920.8</ele></trkpt>
    <trkpt lat="31.769631" lon="-6.994826"><ele>919.5</ele></trkpt>
    <trkpt lat="31.770818" lon="-6.994186"><ele>908.8</ele></trkpt>
    <trkpt lat="31.771349" lon="-6.993747"><ele>908.2</ele></trkpt>
    <trkpt lat="31.772132" lon="-6.992323"><ele>908.5</ele></trkpt>
    <trkpt lat="31.772709" lon="-6.989107"><ele>911.5</ele></trkpt>
    <trkpt lat="31.774335" lon="-6.987230"><ele>910.5</ele></trkpt>
    <trkpt lat="31.774451" lon="-6.987205"><ele>909.2</ele></trkpt>
    <trkpt lat="31.774650" lon="-6.987264"><ele>906.5</ele></trkpt>
    <trkpt lat="31.775664" lon="-6.988420"><ele>892.2</ele></trkpt>
    <trkpt lat="31.776269" lon="-6.988461"><ele>882.5</ele></trkpt>
    <trkpt lat="31.776700" lon="-6.988007"><ele>878.5</ele></trkpt>
    <trkpt lat="31.777119" lon="-6.987437"><ele>876.5</ele></trkpt>
    <trkpt lat="31.777097" lon="-6.987028"><ele>875.8</ele></trkpt>
    <trkpt lat="31.777224" lon="-6.986668"><ele>875.8</ele></trkpt>
    <trkpt lat="31.777142" lon="-6.985768"><ele>874.0</ele></trkpt>
    <trkpt lat="31.777648" lon="-6.985512"><ele>873.8</ele></trkpt>
    <trkpt lat="31.778022" lon="-6.985258"><ele>877.8</ele></trkpt>
    <trkpt lat="31.778635" lon="-6.984724"><ele>884.2</ele></trkpt>
    <trkpt lat="31.779128" lon="-6.984571"><ele>884.5</ele></trkpt>
    <trkpt lat="31.779953" lon="-6.983375"><ele>882.5</ele></trkpt>
    <trkpt lat="31.780143" lon="-6.983288"><ele>882.5</ele></trkpt>
    <trkpt lat="31.781226" lon="-6.983307"><ele>886.5</ele></trkpt>
    <trkpt lat="31.781704" lon="-6.983014"><ele>891.2</ele></trkpt>
    <trkpt lat="31.782496" lon="-6.982816"><ele>894.8</ele></trkpt>
    <trkpt lat="31.783368" lon="-6.982066"><ele>896.8</ele></trkpt>
    <trkpt lat="31.783626" lon="-6.981153"><ele>903.5</ele></trkpt>
    <trkpt lat="31.783772" lon="-6.981003"><ele>904.0</ele></trkpt>
    <trkpt lat="31.784374" lon="-6.980875"><ele>905.0</ele></trkpt>
    <trkpt lat="31.785535" lon="-6.980749"><ele>910.0</ele></trkpt>
    <trkpt lat="31.787148" lon="-6.980222"><ele>917.8</ele></trkpt>
    <trkpt lat="31.788431" lon="-6.979051"><ele>922.8</ele></trkpt>
    <trkpt lat="31.789179" lon="-6.978587"><ele>925.5</ele></trkpt>
    <trkpt lat="31.789305" lon="-6.977914"><ele>929.2</ele></trkpt>
    <trkpt lat="31.789185" lon="-6.977449"><ele>931.2</ele></trkpt>
    <trkpt lat="31.788892" lon="-6.976467"><ele>941.2</ele></trkpt>
    <trkpt lat="31.789172" lon="-6.975135"><ele>949.0</ele></trkpt>
    <trkpt lat="31.789542" lon="-6.974631"><ele>955.2</ele></trkpt>
    <trkpt lat="31.789811" lon="-6.973839"><ele>956.5</ele></trkpt>
    <trkpt lat="31.790144" lon="-6.973349"><ele>956.5</ele></trkpt>
    <trkpt lat="31.791058" lon="-6.972493"><ele>958.8</ele></trkpt>
    <trkpt lat="31.792057" lon="-6.972276"><ele>962.5</ele></trkpt>
    <trkpt lat="31.792263" lon="-6.971968"><ele>963.0</ele></trkpt>
    <trkpt lat="31.792281" lon="-6.971791"><ele>963.2</ele></trkpt>
    <trkpt lat="31.792235" lon="-6.971126"><ele>964.8</ele></trkpt>
    <trkpt lat="31.791629" lon="-6.968763"><ele>972.2</ele></trkpt>
    <trkpt lat="31.791488" lon="-6.968419"><ele>972.2</ele></trkpt>
    <trkpt lat="31.791900" lon="-6.968154"><ele>969.0</ele></trkpt>
    <trkpt lat="31.791914" lon="-6.967977"><ele>969.0</ele></trkpt>
    <trkpt lat="31.791171" lon="-6.966995"><ele>971.2</ele></trkpt>
    <trkpt lat="31.791928" lon="-6.966552"><ele>967.5</ele></trkpt>
    <trkpt lat="31.792172" lon="-6.966133"><ele>967.5</ele></trkpt>
    <trkpt lat="31.792417" lon="-6.966240"><ele>968.0</ele></trkpt>
    <trkpt lat="31.792991" lon="-6.966151"><ele>968.0</ele></trkpt>
    <trkpt lat="31.795183" lon="-6.965168"><ele>967.2</ele></trkpt>
    <trkpt lat="31.795840" lon="-6.964978"><ele>964.8</ele></trkpt>
    <trkpt lat="31.797401" lon="-6.964144"><ele>953.2</ele></trkpt>
    <trkpt lat="31.797378" lon="-6.963462"><ele>951.5</ele></trkpt>
    <trkpt lat="31.796906" lon="-6.963375"><ele>951.2</ele></trkpt>
    <trkpt lat="31.796780" lon="-6.963202"><ele>951.2</ele></trkpt>
    <trkpt lat="31.796814" lon="-6.963095"><ele>950.8</ele></trkpt>
    <trkpt lat="31.797151" lon="-6.962274"><ele>946.5</ele></trkpt>
    <trkpt lat="31.797249" lon="-6.961657"><ele>942.5</ele></trkpt>
    <trkpt lat="31.797563" lon="-6.961219"><ele>939.8</ele></trkpt>
    <trkpt lat="31.797675" lon="-6.960303"><ele>936.8</ele></trkpt>
    <trkpt lat="31.797746" lon="-6.960119"><ele>935.2</ele></trkpt>
    <trkpt lat="31.798189" lon="-6.959327"><ele>925.5</ele></trkpt>
    <trkpt lat="31.799365" lon="-6.958761"><ele>916.2</ele></trkpt>
    <trkpt lat="31.800319" lon="-6.958295"><ele>900.8</ele></trkpt>
    <trkpt lat="31.801037" lon="-6.958243"><ele>895.0</ele></trkpt>
    <trkpt lat="31.801282" lon="-6.958000"><ele>893.8</ele></trkpt>
    <trkpt lat="31.801961" lon="-6.957446"><ele>882.5</ele></trkpt>
    <trkpt lat="31.802393" lon="-6.957027"><ele>876.0</ele></trkpt>
    <trkpt lat="31.803659" lon="-6.957206"><ele>864.5</ele></trkpt>
    <trkpt lat="31.803794" lon="-6.957218"><ele>863.5</ele></trkpt>
    <trkpt lat="31.805630" lon="-6.956447"><ele>850.8</ele></trkpt>
    <trkpt lat="31.805514" lon="-6.955730"><ele>844.5</ele></trkpt>
    <trkpt lat="31.805570" lon="-6.955227"><ele>837.2</ele></trkpt>
    <trkpt lat="31.805539" lon="-6.955136"><ele>836.2</ele></trkpt>
    <trkpt lat="31.805356" lon="-6.954886"><ele>836.2</ele></trkpt>
    <trkpt lat="31.805039" lon="-6.954878"><ele>838.2</ele></trkpt>
    <trkpt lat="31.804821" lon="-6.955211"><ele>841.2</ele></trkpt>
    <trkpt lat="31.804345" lon="-6.955557"><ele>843.0</ele></trkpt>
    <trkpt lat="31.804065" lon="-6.955392"><ele>843.0</ele></trkpt>
    <trkpt lat="31.803982" lon="-6.955252"><ele>842.5</ele></trkpt>
    <trkpt lat="31.804018" lon="-6.955059"><ele>841.8</ele></trkpt>
    <trkpt lat="31.805854" lon="-6.953538"><ele>834.0</ele></trkpt>
    <trkpt lat="31.805929" lon="-6.953250"><ele>834.8</ele></trkpt>
    <trkpt lat="31.805498" lon="-6.952272"><ele>834.8</ele></trkpt>
    <trkpt lat="31.805146" lon="-6.951374"><ele>828.0</ele></trkpt>
    <trkpt lat="31.804478" lon="-6.950924"><ele>820.8</ele></trkpt>
    <trkpt lat="31.804333" lon="-6.950918"><ele>819.5</ele></trkpt>
    <trkpt lat="31.804021" lon="-6.950906"><ele>817.8</ele></trkpt>
    <trkpt lat="31.803855" lon="-6.950356"><ele>813.2</ele></trkpt>
    <trkpt lat="31.804104" lon="-6.949928"><ele>812.0</ele></trkpt>
    <trkpt lat="31.804445" lon="-6.949688"><ele>811.0</ele></trkpt>
    <trkpt lat="31.804987" lon="-6.949750"><ele>810.2</ele></trkpt>
    <trkpt lat="31.804994" lon="-6.949641"><ele>810.2</ele></trkpt>
    <trkpt lat="31.805401" lon="-6.947996"><ele>801.8</ele></trkpt>
    <trkpt lat="31.805736" lon="-6.947078"><ele>792.8</ele></trkpt>
    <trkpt lat="31.805907" lon="-6.946801"><ele>792.2</ele></trkpt>
    <trkpt lat="31.806694" lon="-6.946241"><ele>791.8</ele></trkpt>
    <trkpt lat="31.807398" lon="-6.945103"><ele>782.8</ele></trkpt>
    <trkpt lat="31.807842" lon="-6.944978"><ele>782.8</ele></trkpt>
    <trkpt lat="31.807955" lon="-6.944713"><ele>782.8</ele></trkpt>
    <trkpt lat="31.808339" lon="-6.944305"><ele>775.5</ele></trkpt>
    <trkpt lat="31.808374" lon="-6.944282"><ele>775.0</ele></trkpt>
    <trkpt lat="31.808870" lon="-6.944077"><ele>774.8</ele></trkpt>
    <trkpt lat="31.808525" lon="-6.943683"><ele>775.5</ele></trkpt>
    <trkpt lat="31.808775" lon="-6.943362"><ele>775.5</ele></trkpt>
    <trkpt lat="31.809443" lon="-6.943126"><ele>768.2</ele></trkpt>
    <trkpt lat="31.810198" lon="-6.942650"><ele>759.2</ele></trkpt>
    <trkpt lat="31.810343" lon="-6.942467"><ele>759.2</ele></trkpt>
    <trkpt lat="31.810395" lon="-6.942052"><ele>759.2</ele></trkpt>
    <trkpt lat="31.810232" lon="-6.941291"><ele>761.2</ele></trkpt>
    <trkpt lat="31.809581" lon="-6.941171"><ele>762.5</ele></trkpt>
    <trkpt lat="31.809763" lon="-6.941037"><ele>762.2</ele></trkpt>
    <trkpt lat="31.810098" lon="-6.940779"><ele>756.2</ele></trkpt>
    <trkpt lat="31.810763" lon="-6.939813"><ele>743.5</ele></trkpt>
    <trkpt lat="31.810966" lon="-6.939459"><ele>742.8</ele></trkpt>
    <trkpt lat="31.810920" lon="-6.938860"><ele>741.8</ele></trkpt>
    <trkpt lat="31.811299" lon="-6.938374"><ele>738.5</ele></trkpt>
    <trkpt lat="31.812492" lon="-6.937322"><ele>731.8</ele></trkpt>
    <trkpt lat="31.813113" lon="-6.937538"><ele>731.5</ele></trkpt>
    <trkpt lat="31.812896" lon="-6.938173"><ele>731.2</ele></trkpt>
    <trkpt lat="31.812944" lon="-6.938378"><ele>731.2</ele></trkpt>
    <trkpt lat="31.812977" lon="-6.938451"><ele>731.5</ele></trkpt>
    <trkpt lat="31.813251" lon="-6.938628"><ele>734.0</ele></trkpt>
    <trkpt lat="31.813580" lon="-6.938641"><ele>737.2</ele></trkpt>
    <trkpt lat="31.813663" lon="-6.938522"><ele>738.2</ele></trkpt>
    <trkpt lat="31.814282" lon="-6.938769"><ele>743.0</ele></trkpt>
    <trkpt lat="31.814940" lon="-6.938209"><ele>745.5</ele></trkpt>
    <trkpt lat="31.814829" lon="-6.937571"><ele>748.2</ele></trkpt>
    <trkpt lat="31.815165" lon="-6.937110"><ele>757.8</ele></trkpt>
    <trkpt lat="31.815252" lon="-6.936804"><ele>763.0</ele></trkpt>
    <trkpt lat="31.815273" lon="-6.936627"><ele>763.0</ele></trkpt>
    <trkpt lat="31.814947" lon="-6.936300"><ele>764.8</ele></trkpt>
    <trkpt lat="31.815043" lon="-6.936166"><ele>766.2</ele></trkpt>
    <trkpt lat="31.815267" lon="-6.935871"><ele>772.8</ele></trkpt>
    <trkpt lat="31.815363" lon="-6.935007"><ele>782.2</ele></trkpt>
    <trkpt lat="31.815254" lon="-6.934692"><ele>784.5</ele></trkpt>
    <trkpt lat="31.815051" lon="-6.934015"><ele>784.5</ele></trkpt>
    <trkpt lat="31.814524" lon="-6.933835"><ele>773.5</ele></trkpt>
    <trkpt lat="31.814164" lon="-6.933108"><ele>774.2</ele></trkpt>
    <trkpt lat="31.814120" lon="-6.932604"><ele>780.8</ele></trkpt>
    <trkpt lat="31.814221" lon="-6.931940"><ele>787.0</ele></trkpt>
    <trkpt lat="31.814472" lon="-6.930394"><ele>806.8</ele></trkpt>
    <trkpt lat="31.814451" lon="-6.930324"><ele>806.8</ele></trkpt>
    <trkpt lat="31.814317" lon="-6.930227"><ele>806.8</ele></trkpt>
    <trkpt lat="31.813735" lon="-6.930286"><ele>796.8</ele></trkpt>
    <trkpt lat="31.813651" lon="-6.930278"><ele>796.8</ele></trkpt>
    <trkpt lat="31.813374" lon="-6.929974"><ele>797.5</ele></trkpt>
    <trkpt lat="31.813392" lon="-6.929689"><ele>798.5</ele></trkpt>
    <trkpt lat="31.813458" lon="-6.929418"><ele>801.2</ele></trkpt>
    <trkpt lat="31.814188" lon="-6.928164"><ele>820.0</ele></trkpt>
    <trkpt lat="31.814679" lon="-6.927988"><ele>828.2</ele></trkpt>
    <trkpt lat="31.815225" lon="-6.928020"><ele>836.5</ele></trkpt>
    <trkpt lat="31.815484" lon="-6.928033"><ele>838.8</ele></trkpt>
    <trkpt lat="31.816129" lon="-6.927312"><ele>842.5</ele></trkpt>
    <trkpt lat="31.816615" lon="-6.927379"><ele>847.5</ele></trkpt>
    <trkpt lat="31.817182" lon="-6.928143"><ele>848.0</ele></trkpt>
    <trkpt lat="31.817662" lon="-6.928401"><ele>847.0</ele></trkpt>
    <trkpt lat="31.817614" lon="-6.928854"><ele>842.8</ele></trkpt>
    <trkpt lat="31.817724" lon="-6.929165"><ele>841.8</ele></trkpt>
    <trkpt lat="31.817776" lon="-6.929213"><ele>841.8</ele></trkpt>
    <trkpt lat="31.818160" lon="-6.929373"><ele>845.5</ele></trkpt>
    <trkpt lat="31.818911" lon="-6.930037"><ele>848.5</ele></trkpt>
    <trkpt lat="31.818933" lon="-6.929926"><ele>849.8</ele></trkpt>
    <trkpt lat="31.818757" lon="-6.928711"><ele>863.2</ele></trkpt>
    <trkpt lat="31.818802" lon="-6.928705"><ele>864.2</ele></trkpt>
    <trkpt lat="31.819245" lon="-6.928983"><ele>866.5</ele></trkpt>
    <trkpt lat="31.819911" lon="-6.928845"><ele>869.2</ele></trkpt>
    <trkpt lat="31.820903" lon="-6.927986"><ele>873.0</ele></trkpt>
    <trkpt lat="31.820949" lon="-6.927709"><ele>873.2</ele></trkpt>
    <trkpt lat="31.820917" lon="-6.927652"><ele>875.0</ele></trkpt>
    <trkpt lat="31.820399" lon="-6.927096"><ele>887.5</ele></trkpt>
    <trkpt lat="31.820162" lon="-6.926808"><ele>891.5</ele></trkpt>
    <trkpt lat="31.820158" lon="-6.926760"><ele>891.8</ele></trkpt>
    <trkpt lat="31.820793" lon="-6.926178"><ele>891.2</ele></trkpt>
    <trkpt lat="31.822652" lon="-6.925717"><ele>886.8</ele></trkpt>
    <trkpt lat="31.823381" lon="-6.925745"><ele>886.2</ele></trkpt>
    <trkpt lat="31.824672" lon="-6.926306"><ele>886.0</ele></trkpt>
    <trkpt lat="31.825503" lon="-6.926496"><ele>885.2</ele></trkpt>
    <trkpt lat="31.825962" lon="-6.926479"><ele>885.2</ele></trkpt>
    <trkpt lat="31.826884" lon="-6.926086"><ele>879.8</ele></trkpt>
    <trkpt lat="31.827215" lon="-6.925515"><ele>875.2</ele></trkpt>
    <trkpt lat="31.827556" lon="-6.924684"><ele>868.8</ele></trkpt>
    <trkpt lat="31.827915" lon="-6.923650"><ele>863.8</ele></trkpt>
    <trkpt lat="31.827992" lon="-6.923362"><ele>863.0</ele></trkpt>
    <trkpt lat="31.827666" lon="-6.922323"><ele>862.0</ele></trkpt>
    <trkpt lat="31.827728" lon="-6.921926"><ele>862.0</ele></trkpt>
    <trkpt lat="31.828940" lon="-6.921839"><ele>857.8</ele></trkpt>
    <trkpt lat="31.829110" lon="-6.921751"><ele>857.8</ele></trkpt>
    <trkpt lat="31.829207" lon="-6.921474"><ele>857.5</ele></trkpt>
    <trkpt lat="31.831276" lon="-6.921584"><ele>852.8</ele></trkpt>
    <trkpt lat="31.831782" lon="-6.921632"><ele>852.8</ele></trkpt>
    <trkpt lat="31.832674" lon="-6.921938"><ele>852.8</ele></trkpt>
    <trkpt lat="31.832994" lon="-6.922114"><ele>852.8</ele></trkpt>
    <trkpt lat="31.834978" lon="-6.923444"><ele>861.2</ele></trkpt>
    <trkpt lat="31.835698" lon="-6.923870"><ele>861.2</ele></trkpt>
    <trkpt lat="31.839116" lon="-6.924721"><ele>859.5</ele></trkpt>
    <trkpt lat="31.842972" lon="-6.926853"><ele>857.8</ele></trkpt>
    <trkpt lat="31.843869" lon="-6.927229"><ele>857.0</ele></trkpt>
    <trkpt lat="31.844808" lon="-6.927363"><ele>857.0</ele></trkpt>
    <trkpt lat="31.851452" lon="-6.927210"><ele>849.2</ele></trkpt>
    <trkpt lat="31.852061" lon="-6.927636"><ele>845.8</ele></trkpt>
    <trkpt lat="31.852605" lon="-6.928910"><ele>836.5</ele></trkpt>
    <trkpt lat="31.853007" lon="-6.929435"><ele>833.8</ele></trkpt>
    <trkpt lat="31.854027" lon="-6.930085"><ele>832.5</ele></trkpt>
    <trkpt lat="31.853982" lon="-6.929845"><ele>832.5</ele></trkpt>
    <trkpt lat="31.853956" lon="-6.929809"><ele>833.2</ele></trkpt>
    <trkpt lat="31.853431" lon="-6.929378"><ele>835.2</ele></trkpt>
    <trkpt lat="31.853347" lon="-6.928917"><ele>836.2</ele></trkpt>
    <trkpt lat="31.853800" lon="-6.928228"><ele>843.5</ele></trkpt>
    <trkpt lat="31.854520" lon="-6.927722"><ele>849.0</ele></trkpt>
    <trkpt lat="31.855407" lon="-6.927117"><ele>849.0</ele></trkpt>
    <trkpt lat="31.855459" lon="-6.926573"><ele>848.5</ele></trkpt>
    <trkpt lat="31.855295" lon="-6.925587"><ele>846.5</ele></trkpt>
    <trkpt lat="31.855394" lon="-6.925494"><ele>846.2</ele></trkpt>
    <trkpt lat="31.858248" lon="-6.924377"><ele>844.0</ele></trkpt>
    <trkpt lat="31.858804" lon="-6.923805"><ele>843.8</ele></trkpt>
    <trkpt lat="31.859888" lon="-6.923429"><ele>843.0</ele></trkpt>
    <trkpt lat="31.860462" lon="-6.923281"><ele>842.5</ele></trkpt>
    <trkpt lat="31.861241" lon="-6.923311"><ele>842.5</ele></trkpt>
    <trkpt lat="31.864021" lon="-6.922578"><ele>842.5</ele></trkpt>
    <trkpt lat="31.864564" lon="-6.922580"><ele>842.2</ele></trkpt>
    <trkpt lat="31.864288" lon="-6.921942"><ele>842.8</ele></trkpt>
    <trkpt lat="31.864219" lon="-6.921861"><ele>842.8</ele></trkpt>
    <trkpt lat="31.862757" lon="-6.920271"><ele>853.8</ele></trkpt>
    <trkpt lat="31.862355" lon="-6.919903"><ele>854.8</ele></trkpt>
    <trkpt lat="31.862162" lon="-6.919112"><ele>858.0</ele></trkpt>
    <trkpt lat="31.862097" lon="-6.918198"><ele>859.0</ele></trkpt>
    <trkpt lat="31.862217" lon="-6.917475"><ele>860.0</ele></trkpt>
    <trkpt lat="31.862268" lon="-6.916520"><ele>867.5</ele></trkpt>
    <trkpt lat="31.862295" lon="-6.916317"><ele>868.8</ele></trkpt>
    <trkpt lat="31.862725" lon="-6.915582"><ele>873.5</ele></trkpt>
    <trkpt lat="31.863438" lon="-6.914054"><ele>874.5</ele></trkpt>
    <trkpt lat="31.862934" lon="-6.911567"><ele>880.2</ele></trkpt>
    <trkpt lat="31.860951" lon="-6.910911"><ele>884.5</ele></trkpt>
    <trkpt lat="31.860525" lon="-6.910443"><ele>885.5</ele></trkpt>
    <trkpt lat="31.860042" lon="-6.910223"><ele>886.2</ele></trkpt>
    <trkpt lat="31.859619" lon="-6.909959"><ele>890.0</ele></trkpt>
    <trkpt lat="31.858691" lon="-6.909700"><ele>897.0</ele></trkpt>
    <trkpt lat="31.857657" lon="-6.908900"><ele>902.5</ele></trkpt>
    <trkpt lat="31.857602" lon="-6.908870"><ele>902.5</ele></trkpt>
    <trkpt lat="31.857036" lon="-6.908897"><ele>902.5</ele></trkpt>
    <trkpt lat="31.856510" lon="-6.908516"><ele>904.5</ele></trkpt>
    <trkpt lat="31.855974" lon="-6.908621"><ele>904.2</ele></trkpt>
    <trkpt lat="31.855784" lon="-6.908456"><ele>904.2</ele></trkpt>
    <trkpt lat="31.855310" lon="-6.907509"><ele>909.8</ele></trkpt>
    <trkpt lat="31.854877" lon="-6.906956"><ele>910.2</ele></trkpt>
    <trkpt lat="31.854745" lon="-6.906266"><ele>910.2</ele></trkpt>
    <trkpt lat="31.854808" lon="-6.905517"><ele>910.8</ele></trkpt>
    <trkpt lat="31.854651" lon="-6.904887"><ele>910.8</ele></trkpt>
    <trkpt lat="31.853919" lon="-6.903900"><ele>911.0</ele></trkpt>
    <trkpt lat="31.853588" lon="-6.903027"><ele>914.0</ele></trkpt>
    <trkpt lat="31.853483" lon="-6.902308"><ele>917.8</ele></trkpt>
    <trkpt lat="31.852869" lon="-6.901237"><ele>919.8</ele></trkpt>
    <trkpt lat="31.852720" lon="-6.899225"><ele>923.0</ele></trkpt>
    <trkpt lat="31.852226" lon="-6.898371"><ele>922.0</ele></trkpt>
    <trkpt lat="31.852052" lon="-6.897751"><ele>921.5</ele></trkpt>
    <trkpt lat="31.852046" lon="-6.897370"><ele>921.5</ele></trkpt>
    <trkpt lat="31.851828" lon="-6.894034"><ele>930.8</ele></trkpt>
    <trkpt lat="31.851397" lon="-6.892535"><ele>942.0</ele></trkpt>
    <trkpt lat="31.850755" lon="-6.891370"><ele>953.2</ele></trkpt>
    <trkpt lat="31.849906" lon="-6.890918"><ele>959.2</ele></trkpt>
    <trkpt lat="31.849660" lon="-6.890650"><ele>962.2</ele></trkpt>
    <trkpt lat="31.848951" lon="-6.888878"><ele>984.5</ele></trkpt>
    <trkpt lat="31.848884" lon="-6.888733"><ele>985.8</ele></trkpt>
    <trkpt lat="31.847818" lon="-6.887002"><ele>997.2</ele></trkpt>
    <trkpt lat="31.847309" lon="-6.886104"><ele>1011.2</ele></trkpt>
    <trkpt lat="31.846542" lon="-6.884969"><ele>1017.8</ele></trkpt>
    <trkpt lat="31.845654" lon="-6.883852"><ele>1025.5</ele></trkpt>
    <trkpt lat="31.845331" lon="-6.883487"><ele>1026.5</ele></trkpt>
    <trkpt lat="31.844752" lon="-6.882252"><ele>1033.5</ele></trkpt>
    <trkpt lat="31.844998" lon="-6.881384"><ele>1041.8</ele></trkpt>
    <trkpt lat="31.845009" lon="-6.880212"><ele>1044.8</ele></trkpt>
    <trkpt lat="31.845653" lon="-6.879421"><ele>1052.8</ele></trkpt>
    <trkpt lat="31.845523" lon="-6.879047"><ele>1053.2</ele></trkpt>
    <trkpt lat="31.845490" lon="-6.877925"><ele>1057.2</ele></trkpt>
    <trkpt lat="31.844991" lon="-6.877133"><ele>1061.8</ele></trkpt>
    <trkpt lat="31.845010" lon="-6.877048"><ele>1062.8</ele></trkpt>
    <trkpt lat="31.845488" lon="-6.875497"><ele>1079.5</ele></trkpt>
    <trkpt lat="31.845945" lon="-6.874156"><ele>1083.2</ele></trkpt>
    <trkpt lat="31.845001" lon="-6.870857"><ele>1093.0</ele></trkpt>
    <trkpt lat="31.845468" lon="-6.867694"><ele>1102.5</ele></trkpt>
    <trkpt lat="31.845536" lon="-6.866922"><ele>1103.2</ele></trkpt>
    <trkpt lat="31.845046" lon="-6.863489"><ele>1104.8</ele></trkpt>
    <trkpt lat="31.845211" lon="-6.862055"><ele>1100.2</ele></trkpt>
    <trkpt lat="31.845250" lon="-6.860328"><ele>1100.2</ele></trkpt>
    <trkpt lat="31.845394" lon="-6.859709"><ele>1100.2</ele></trkpt>
    <trkpt lat="31.845825" lon="-6.859033"><ele>1100.5</ele></trkpt>
    <trkpt lat="31.846097" lon="-6.858325"><ele>1103.5</ele></trkpt>
    <trkpt lat="31.846262" lon="-6.855536"><ele>1121.5</ele></trkpt>
    <trkpt lat="31.846419" lon="-6.850528"><ele>1117.8</ele></trkpt>
    <trkpt lat="31.846957" lon="-6.848903"><ele>1117.0</ele></trkpt>
    <trkpt lat="31.847091" lon="-6.847398"><ele>1115.5</ele></trkpt>
    <trkpt lat="31.847125" lon="-6.846014"><ele>1115.2</ele></trkpt>
    <trkpt lat="31.846843" lon="-6.845102"><ele>1111.0</ele></trkpt>
    <trkpt lat="31.847820" lon="-6.842578"><ele>1102.2</ele></trkpt>
    <trkpt lat="31.848075" lon="-6.841717"><ele>1102.2</ele></trkpt>
    <trkpt lat="31.847984" lon="-6.838823"><ele>1108.5</ele></trkpt>
    <trkpt lat="31.848845" lon="-6.838501"><ele>1109.8</ele></trkpt>
    <trkpt lat="31.848891" lon="-6.838332"><ele>1109.8</ele></trkpt>
    <trkpt lat="31.848784" lon="-6.837071"><ele>1106.2</ele></trkpt>
    <trkpt lat="31.848356" lon="-6.835666"><ele>1103.0</ele></trkpt>
    <trkpt lat="31.848039" lon="-6.833560"><ele>1099.5</ele></trkpt>
    <trkpt lat="31.846929" lon="-6.829655"><ele>1097.8</ele></trkpt>
    <trkpt lat="31.846360" lon="-6.827407"><ele>1112.5</ele></trkpt>
    <trkpt lat="31.846269" lon="-6.826922"><ele>1113.0</ele></trkpt>
    <trkpt lat="31.846230" lon="-6.825715"><ele>1113.0</ele></trkpt>
    <trkpt lat="31.846346" lon="-6.824736"><ele>1113.0</ele></trkpt>
    <trkpt lat="31.846513" lon="-6.824075"><ele>1113.0</ele></trkpt>
    <trkpt lat="31.850243" lon="-6.822716"><ele>1113.8</ele></trkpt>
    <trkpt lat="31.849920" lon="-6.820053"><ele>1125.8</ele></trkpt>
    <trkpt lat="31.849867" lon="-6.819699"><ele>1128.0</ele></trkpt>
    <trkpt lat="31.848942" lon="-6.817963"><ele>1138.8</ele></trkpt>
    <trkpt lat="31.848579" lon="-6.816512"><ele>1145.5</ele></trkpt>
    <trkpt lat="31.848261" lon="-6.815913"><ele>1147.2</ele></trkpt>
    <trkpt lat="31.848646" lon="-6.815403"><ele>1148.8</ele></trkpt>
    <trkpt lat="31.849054" lon="-6.814527"><ele>1148.8</ele></trkpt>
    <trkpt lat="31.849170" lon="-6.814383"><ele>1148.8</ele></trkpt>
    <trkpt lat="31.849679" lon="-6.813944"><ele>1147.8</ele></trkpt>
    <trkpt lat="31.850045" lon="-6.812883"><ele>1141.8</ele></trkpt>
    <trkpt lat="31.851052" lon="-6.811574"><ele>1131.2</ele></trkpt>
    <trkpt lat="31.851493" lon="-6.811196"><ele>1129.8</ele></trkpt>
    <trkpt lat="31.851567" lon="-6.810538"><ele>1126.8</ele></trkpt>
    <trkpt lat="31.851920" lon="-6.809891"><ele>1122.2</ele></trkpt>
    <trkpt lat="31.852175" lon="-6.808769"><ele>1119.5</ele></trkpt>
    <trkpt lat="31.852206" lon="-6.808531"><ele>1119.5</ele></trkpt>
    <trkpt lat="31.852050" lon="-6.805673"><ele>1125.2</ele></trkpt>
    <trkpt lat="31.852266" lon="-6.804621"><ele>1129.8</ele></trkpt>
    <trkpt lat="31.852265" lon="-6.804016"><ele>1131.2</ele></trkpt>
    <trkpt lat="31.852839" lon="-6.803221"><ele>1137.5</ele></trkpt>
    <trkpt lat="31.853214" lon="-6.802762"><ele>1137.5</ele></trkpt>
    <trkpt lat="31.853173" lon="-6.801752"><ele>1131.2</ele></trkpt>
    <trkpt lat="31.854154" lon="-6.802130"><ele>1124.0</ele></trkpt>
    <trkpt lat="31.855072" lon="-6.801816"><ele>1120.0</ele></trkpt>
    <trkpt lat="31.855151" lon="-6.801558"><ele>1120.5</ele></trkpt>
    <trkpt lat="31.855093" lon="-6.799637"><ele>1121.8</ele></trkpt>
    <trkpt lat="31.855331" lon="-6.798473"><ele>1120.0</ele></trkpt>
    <trkpt lat="31.855954" lon="-6.797784"><ele>1115.8</ele></trkpt>
    <trkpt lat="31.856450" lon="-6.796893"><ele>1113.5</ele></trkpt>
    <trkpt lat="31.856729" lon="-6.796543"><ele>1113.5</ele></trkpt>
    <trkpt lat="31.857464" lon="-6.796239"><ele>1116.2</ele></trkpt>
    <trkpt lat="31.857435" lon="-6.795697"><ele>1118.5</ele></trkpt>
    <trkpt lat="31.856846" lon="-6.794992"><ele>1122.8</ele></trkpt>
    <trkpt lat="31.857065" lon="-6.792964"><ele>1130.8</ele></trkpt>
    <trkpt lat="31.857397" lon="-6.791929"><ele>1130.8</ele></trkpt>
    <trkpt lat="31.857420" lon="-6.791847"><ele>1130.2</ele></trkpt>
    <trkpt lat="31.857798" lon="-6.789992"><ele>1117.2</ele></trkpt>
    <trkpt lat="31.857823" lon="-6.789907"><ele>1117.0</ele></trkpt>
    <trkpt lat="31.858251" lon="-6.788982"><ele>1116.5</ele></trkpt>
    <trkpt lat="31.858502" lon="-6.786586"><ele>1113.8</ele></trkpt>
    <trkpt lat="31.858530" lon="-6.786451"><ele>1113.2</ele></trkpt>
    <trkpt lat="31.859141" lon="-6.784280"><ele>1098.8</ele></trkpt>
    <trkpt lat="31.859268" lon="-6.782868"><ele>1092.5</ele></trkpt>
    <trkpt lat="31.859297" lon="-6.782664"><ele>1092.5</ele></trkpt>
    <trkpt lat="31.859717" lon="-6.781075"><ele>1092.8</ele></trkpt>
    <trkpt lat="31.859707" lon="-6.780878"><ele>1093.0</ele></trkpt>
    <trkpt lat="31.859594" lon="-6.780061"><ele>1095.8</ele></trkpt>
    <trkpt lat="31.859865" lon="-6.777942"><ele>1099.0</ele></trkpt>
    <trkpt lat="31.859912" lon="-6.777772"><ele>1099.8</ele></trkpt>
    <trkpt lat="31.860819" lon="-6.775390"><ele>1112.5</ele></trkpt>
    <trkpt lat="31.860847" lon="-6.775301"><ele>1113.0</ele></trkpt>
    <trkpt lat="31.860903" lon="-6.774599"><ele>1118.5</ele></trkpt>
    <trkpt lat="31.861691" lon="-6.774290"><ele>1123.2</ele></trkpt>
    <trkpt lat="31.862425" lon="-6.773757"><ele>1128.2</ele></trkpt>
    <trkpt lat="31.862820" lon="-6.772709"><ele>1139.2</ele></trkpt>
    <trkpt lat="31.864156" lon="-6.773082"><ele>1146.5</ele></trkpt>
    <trkpt lat="31.864367" lon="-6.772965"><ele>1149.2</ele></trkpt>
    <trkpt lat="31.864354" lon="-6.772803"><ele>1151.2</ele></trkpt>
    <trkpt lat="31.864159" lon="-6.772064"><ele>1156.5</ele></trkpt>
    <trkpt lat="31.864125" lon="-6.771182"><ele>1163.5</ele></trkpt>
    <trkpt lat="31.864285" lon="-6.770771"><ele>1169.2</ele></trkpt>
    <trkpt lat="31.864770" lon="-6.769814"><ele>1183.8</ele></trkpt>
    <trkpt lat="31.864912" lon="-6.769263"><ele>1189.5</ele></trkpt>
    <trkpt lat="31.865209" lon="-6.767887"><ele>1191.5</ele></trkpt>
    <trkpt lat="31.865193" lon="-6.767523"><ele>1191.0</ele></trkpt>
    <trkpt lat="31.865103" lon="-6.766445"><ele>1181.2</ele></trkpt>
    <trkpt lat="31.865050" lon="-6.765334"><ele>1180.2</ele></trkpt>
    <trkpt lat="31.865202" lon="-6.764595"><ele>1180.2</ele></trkpt>
    <trkpt lat="31.865215" lon="-6.764475"><ele>1181.0</ele></trkpt>
    <trkpt lat="31.865149" lon="-6.763462"><ele>1189.8</ele></trkpt>
    <trkpt lat="31.864574" lon="-6.761664"><ele>1202.8</ele></trkpt>
    <trkpt lat="31.864253" lon="-6.760132"><ele>1202.8</ele></trkpt>
    <trkpt lat="31.863630" lon="-6.758383"><ele>1197.8</ele></trkpt>
    <trkpt lat="31.863863" lon="-6.756742"><ele>1187.2</ele></trkpt>
    <trkpt lat="31.863829" lon="-6.756234"><ele>1186.2</ele></trkpt>
    <trkpt lat="31.863628" lon="-6.755499"><ele>1186.2</ele></trkpt>
    <trkpt lat="31.863974" lon="-6.755094"><ele>1186.2</ele></trkpt>
    <trkpt lat="31.863449" lon="-6.754345"><ele>1189.0</ele></trkpt>
    <trkpt lat="31.861381" lon="-6.750547"><ele>1193.0</ele></trkpt>
    <trkpt lat="31.859180" lon="-6.748031"><ele>1191.5</ele></trkpt>
    <trkpt lat="31.858723" lon="-6.746428"><ele>1193.2</ele></trkpt>
    <trkpt lat="31.858546" lon="-6.745215"><ele>1193.8</ele></trkpt>
    <trkpt lat="31.858070" lon="-6.744273"><ele>1194.0</ele></trkpt>
    <trkpt lat="31.857585" lon="-6.743638"><ele>1194.2</ele></trkpt>
    <trkpt lat="31.856208" lon="-6.743995"><ele>1194.8</ele></trkpt>
    <trkpt lat="31.855525" lon="-6.743643"><ele>1195.8</ele></trkpt>
    <trkpt lat="31.855385" lon="-6.743503"><ele>1194.8</ele></trkpt>
    <trkpt lat="31.854927" lon="-6.742823"><ele>1190.5</ele></trkpt>
    <trkpt lat="31.853308" lon="-6.739499"><ele>1185.5</ele></trkpt>
    <trkpt lat="31.852683" lon="-6.738355"><ele>1185.8</ele></trkpt>
    <trkpt lat="31.851650" lon="-6.736684"><ele>1187.0</ele></trkpt>
    <trkpt lat="31.851014" lon="-6.734195"><ele>1189.8</ele></trkpt>
    <trkpt lat="31.850603" lon="-6.733462"><ele>1190.5</ele></trkpt>
    <trkpt lat="31.849795" lon="-6.732426"><ele>1192.0</ele></trkpt>
    <trkpt lat="31.849017" lon="-6.731064"><ele>1193.0</ele></trkpt>
    <trkpt lat="31.848252" lon="-6.729180"><ele>1198.8</ele></trkpt>
    <trkpt lat="31.847957" lon="-6.727808"><ele>1199.5</ele></trkpt>
    <trkpt lat="31.848034" lon="-6.727362"><ele>1200.5</ele></trkpt>
    <trkpt lat="31.848419" lon="-6.725661"><ele>1206.2</ele></trkpt>
    <trkpt lat="31.847254" lon="-6.724043"><ele>1210.0</ele></trkpt>
    <trkpt lat="31.846469" lon="-6.722308"><ele>1214.2</ele></trkpt>
    <trkpt lat="31.846003" lon="-6.720394"><ele>1221.0</ele></trkpt>
    <trkpt lat="31.845554" lon="-6.719125"><ele>1222.5</ele></trkpt>
    <trkpt lat="31.842897" lon="-6.712467"><ele>1238.5</ele></trkpt>
    <trkpt lat="31.842119" lon="-6.710770"><ele>1238.5</ele></trkpt>
    <trkpt lat="31.840637" lon="-6.708638"><ele>1238.2</ele></trkpt>
    <trkpt lat="31.839521" lon="-6.706575"><ele>1236.8</ele></trkpt>
    <trkpt lat="31.838217" lon="-6.702223"><ele>1230.5</ele></trkpt>
    <trkpt lat="31.837554" lon="-6.701529"><ele>1228.8</ele></trkpt>
    <trkpt lat="31.836476" lon="-6.699530"><ele>1227.0</ele></trkpt>
    <trkpt lat="31.835322" lon="-6.698385"><ele>1223.5</ele></trkpt>
    <trkpt lat="31.834804" lon="-6.697261"><ele>1223.8</ele></trkpt>
    <trkpt lat="31.834027" lon="-6.696103"><ele>1224.0</ele></trkpt>
    <trkpt lat="31.833733" lon="-6.695381"><ele>1224.2</ele></trkpt>
    <trkpt lat="31.832701" lon="-6.693106"><ele>1230.0</ele></trkpt>
    <trkpt lat="31.831987" lon="-6.691800"><ele>1232.2</ele></trkpt>
    <trkpt lat="31.831541" lon="-6.691246"><ele>1234.2</ele></trkpt>
    <trkpt lat="31.830323" lon="-6.690223"><ele>1241.0</ele></trkpt>
    <trkpt lat="31.830675" lon="-6.689814"><ele>1241.8</ele></trkpt>
    <trkpt lat="31.832744" lon="-6.687971"><ele>1264.2</ele></trkpt>
    <trkpt lat="31.833056" lon="-6.687596"><ele>1268.5</ele></trkpt>
    <trkpt lat="31.833146" lon="-6.686633"><ele>1277.0</ele></trkpt>
    <trkpt lat="31.833691" lon="-6.685339"><ele>1291.8</ele></trkpt>
    <trkpt lat="31.833920" lon="-6.683991"><ele>1305.5</ele></trkpt>
    <trkpt lat="31.834210" lon="-6.683265"><ele>1311.0</ele></trkpt>
    <trkpt lat="31.835106" lon="-6.682069"><ele>1331.8</ele></trkpt>
    <trkpt lat="31.835257" lon="-6.681909"><ele>1335.0</ele></trkpt>
    <trkpt lat="31.835734" lon="-6.681636"><ele>1341.0</ele></trkpt>
    <trkpt lat="31.837458" lon="-6.681989"><ele>1352.0</ele></trkpt>
    <trkpt lat="31.839031" lon="-6.681877"><ele>1359.2</ele></trkpt>
    <trkpt lat="31.840421" lon="-6.682255"><ele>1372.5</ele></trkpt>
    <trkpt lat="31.841690" lon="-6.682034"><ele>1382.2</ele></trkpt>
    <trkpt lat="31.842502" lon="-6.682060"><ele>1387.2</ele></trkpt>
    <trkpt lat="31.843664" lon="-6.681646"><ele>1398.2</ele></trkpt>
    <trkpt lat="31.844496" lon="-6.680854"><ele>1412.2</ele></trkpt>
    <trkpt lat="31.845260" lon="-6.680543"><ele>1419.5</ele></trkpt>
    <trkpt lat="31.845876" lon="-6.680721"><ele>1423.8</ele></trkpt>
    <trkpt lat="31.846450" lon="-6.681114"><ele>1426.5</ele></trkpt>
    <trkpt lat="31.847377" lon="-6.681586"><ele>1436.0</ele></trkpt>
    <trkpt lat="31.848415" lon="-6.681398"><ele>1448.0</ele></trkpt>
    <trkpt lat="31.848898" lon="-6.681474"><ele>1451.8</ele></trkpt>
    <trkpt lat="31.849957" lon="-6.682329"><ele>1459.5</ele></trkpt>
    <trkpt lat="31.850557" lon="-6.682604"><ele>1462.0</ele></trkpt>
    <trkpt lat="31.850650" lon="-6.682641"><ele>1462.0</ele></trkpt>
    <trkpt lat="31.851562" lon="-6.682284"><ele>1462.8</ele></trkpt>
    <trkpt lat="31.853056" lon="-6.681325"><ele>1461.5</ele></trkpt>
    <trkpt lat="31.854206" lon="-6.681364"><ele>1460.5</ele></trkpt>
    <trkpt lat="31.855892" lon="-6.681779"><ele>1455.8</ele></trkpt>
    <trkpt lat="31.856871" lon="-6.681962"><ele>1449.5</ele></trkpt>
    <trkpt lat="31.857404" lon="-6.681959"><ele>1444.5</ele></trkpt>
    <trkpt lat="31.857780" lon="-6.681724"><ele>1442.2</ele></trkpt>
    <trkpt lat="31.858269" lon="-6.680724"><ele>1431.0</ele></trkpt>
    <trkpt lat="31.858419" lon="-6.680592"><ele>1429.8</ele></trkpt>
    <trkpt lat="31.860885" lon="-6.678291"><ele>1403.5</ele></trkpt>
    <trkpt lat="31.861234" lon="-6.678015"><ele>1402.0</ele></trkpt>
    <trkpt lat="31.861904" lon="-6.678047"><ele>1399.8</ele></trkpt>
    <trkpt lat="31.862872" lon="-6.677822"><ele>1396.0</ele></trkpt>
    <trkpt lat="31.864052" lon="-6.678167"><ele>1392.5</ele></trkpt>
    <trkpt lat="31.865983" lon="-6.677752"><ele>1377.5</ele></trkpt>
    <trkpt lat="31.868925" lon="-6.675444"><ele>1371.8</ele></trkpt>
    <trkpt lat="31.871567" lon="-6.674508"><ele>1365.0</ele></trkpt>
    <trkpt lat="31.873549" lon="-6.674320"><ele>1364.0</ele></trkpt>
    <trkpt lat="31.874360" lon="-6.674218"><ele>1362.5</ele></trkpt>
    <trkpt lat="31.876366" lon="-6.673824"><ele>1353.5</ele></trkpt>
    <trkpt lat="31.876806" lon="-6.673902"><ele>1350.8</ele></trkpt>
    <trkpt lat="31.877649" lon="-6.674182"><ele>1341.0</ele></trkpt>
    <trkpt lat="31.877733" lon="-6.674164"><ele>1340.0</ele></trkpt>
    <trkpt lat="31.878142" lon="-6.672936"><ele>1333.2</ele></trkpt>
    <trkpt lat="31.878213" lon="-6.671932"><ele>1331.0</ele></trkpt>
    <trkpt lat="31.878392" lon="-6.669354"><ele>1319.2</ele></trkpt>
    <trkpt lat="31.878670" lon="-6.667825"><ele>1313.8</ele></trkpt>
    <trkpt lat="31.878827" lon="-6.667015"><ele>1313.0</ele></trkpt>
    <trkpt lat="31.879023" lon="-6.666532"><ele>1312.5</ele></trkpt>
    <trkpt lat="31.879401" lon="-6.666023"><ele>1312.5</ele></trkpt>
    <trkpt lat="31.880031" lon="-6.665436"><ele>1302.8</ele></trkpt>
    <trkpt lat="31.880618" lon="-6.664509"><ele>1281.5</ele></trkpt>
    <trkpt lat="31.880645" lon="-6.664376"><ele>1280.8</ele></trkpt>
    <trkpt lat="31.880632" lon="-6.663454"><ele>1279.8</ele></trkpt>
    <trkpt lat="31.880144" lon="-6.662588"><ele>1279.0</ele></trkpt>
    <trkpt lat="31.880018" lon="-6.662236"><ele>1279.0</ele></trkpt>
    <trkpt lat="31.879967" lon="-6.662014"><ele>1278.0</ele></trkpt>
    <trkpt lat="31.879782" lon="-6.659930"><ele>1267.8</ele></trkpt>
    <trkpt lat="31.880031" lon="-6.659721"><ele>1262.5</ele></trkpt>
    <trkpt lat="31.880446" lon="-6.659877"><ele>1257.0</ele></trkpt>
    <trkpt lat="31.880503" lon="-6.659840"><ele>1257.0</ele></trkpt>
    <trkpt lat="31.881218" lon="-6.658902"><ele>1257.2</ele></trkpt>
    <trkpt lat="31.881755" lon="-6.657468"><ele>1266.8</ele></trkpt>
    <trkpt lat="31.881841" lon="-6.655806"><ele>1271.0</ele></trkpt>
    <trkpt lat="31.882240" lon="-6.655094"><ele>1274.8</ele></trkpt>
    <trkpt lat="31.883247" lon="-6.654051"><ele>1282.2</ele></trkpt>
    <trkpt lat="31.883826" lon="-6.653965"><ele>1289.2</ele></trkpt>
    <trkpt lat="31.884171" lon="-6.653907"><ele>1290.0</ele></trkpt>
    <trkpt lat="31.884755" lon="-6.653525"><ele>1290.2</ele></trkpt>
    <trkpt lat="31.885638" lon="-6.652121"><ele>1291.0</ele></trkpt>
    <trkpt lat="31.886007" lon="-6.651900"><ele>1291.0</ele></trkpt>
    <trkpt lat="31.886745" lon="-6.651642"><ele>1293.8</ele></trkpt>
    <trkpt lat="31.887228" lon="-6.651166"><ele>1298.8</ele></trkpt>
    <trkpt lat="31.887852" lon="-6.651057"><ele>1303.0</ele></trkpt>
    <trkpt lat="31.888285" lon="-6.650564"><ele>1305.2</ele></trkpt>
    <trkpt lat="31.888580" lon="-6.650324"><ele>1309.0</ele></trkpt>
    <trkpt lat="31.890512" lon="-6.649464"><ele>1323.8</ele></trkpt>
    <trkpt lat="31.890936" lon="-6.649351"><ele>1326.2</ele></trkpt>
    <trkpt lat="31.891749" lon="-6.649370"><ele>1328.5</ele></trkpt>
    <trkpt lat="31.892566" lon="-6.648788"><ele>1332.0</ele></trkpt>
    <trkpt lat="31.892755" lon="-6.648622"><ele>1332.0</ele></trkpt>
    <trkpt lat="31.893522" lon="-6.647331"><ele>1331.8</ele></trkpt>
    <trkpt lat="31.894768" lon="-6.645669"><ele>1327.8</ele></trkpt>
    <trkpt lat="31.895654" lon="-6.643252"><ele>1327.8</ele></trkpt>
    <trkpt lat="31.896488" lon="-6.641595"><ele>1332.2</ele></trkpt>
    <trkpt lat="31.897053" lon="-6.640162"><ele>1332.2</ele></trkpt>
    <trkpt lat="31.897853" lon="-6.640263"><ele>1332.2</ele></trkpt>
    <trkpt lat="31.900088" lon="-6.640519"><ele>1326.5</ele></trkpt>
    <trkpt lat="31.900143" lon="-6.639886"><ele>1326.2</ele></trkpt>
    <trkpt lat="31.899761" lon="-6.638687"><ele>1324.5</ele></trkpt>
    <trkpt lat="31.899733" lon="-6.638139"><ele>1322.0</ele></trkpt>
    <trkpt lat="31.899704" lon="-6.638029"><ele>1321.5</ele></trkpt>
    <trkpt lat="31.899526" lon="-6.637424"><ele>1321.5</ele></trkpt>
    <trkpt lat="31.899970" lon="-6.635471"><ele>1329.2</ele></trkpt>
    <trkpt lat="31.899815" lon="-6.633406"><ele>1331.5</ele></trkpt>
    <trkpt lat="31.899749" lon="-6.633055"><ele>1329.8</ele></trkpt>
    <trkpt lat="31.899979" lon="-6.632483"><ele>1325.0</ele></trkpt>
    <trkpt lat="31.900798" lon="-6.631402"><ele>1320.0</ele></trkpt>
    <trkpt lat="31.900912" lon="-6.630523"><ele>1320.0</ele></trkpt>
    <trkpt lat="31.901035" lon="-6.629790"><ele>1324.5</ele></trkpt>
    <trkpt lat="31.900714" lon="-6.629395"><ele>1328.2</ele></trkpt>
    <trkpt lat="31.900695" lon="-6.628711"><ele>1331.0</ele></trkpt>
    <trkpt lat="31.900929" lon="-6.628351"><ele>1331.2</ele></trkpt>
    <trkpt lat="31.901709" lon="-6.625949"><ele>1332.8</ele></trkpt>
    <trkpt lat="31.903098" lon="-6.626086"><ele>1326.5</ele></trkpt>
    <trkpt lat="31.903695" lon="-6.626271"><ele>1322.5</ele></trkpt>
    <trkpt lat="31.904002" lon="-6.626405"><ele>1320.2</ele></trkpt>
    <trkpt lat="31.904744" lon="-6.627197"><ele>1319.0</ele></trkpt>
    <trkpt lat="31.904988" lon="-6.627274"><ele>1318.5</ele></trkpt>
    <trkpt lat="31.905749" lon="-6.627288"><ele>1314.5</ele></trkpt>
    <trkpt lat="31.907634" lon="-6.626730"><ele>1303.0</ele></trkpt>
    <trkpt lat="31.907987" lon="-6.627046"><ele>1301.0</ele></trkpt>
    <trkpt lat="31.909462" lon="-6.627714"><ele>1288.5</ele></trkpt>
    <trkpt lat="31.910093" lon="-6.628243"><ele>1281.2</ele></trkpt>
    <trkpt lat="31.911814" lon="-6.629749"><ele>1279.0</ele></trkpt>
    <trkpt lat="31.911971" lon="-6.629721"><ele>1278.0</ele></trkpt>
    <trkpt lat="31.912668" lon="-6.629224"><ele>1273.2</ele></trkpt>
    <trkpt lat="31.914564" lon="-6.628543"><ele>1263.8</ele></trkpt>
    <trkpt lat="31.915521" lon="-6.629157"><ele>1259.0</ele></trkpt>
    <trkpt lat="31.918408" lon="-6.630337"><ele>1249.5</ele></trkpt>
    <trkpt lat="31.921370" lon="-6.632025"><ele>1238.8</ele></trkpt>
    <trkpt lat="31.922508" lon="-6.632489"><ele>1236.8</ele></trkpt>
    <trkpt lat="31.923046" lon="-6.632466"><ele>1233.5</ele></trkpt>
    <trkpt lat="31.923061" lon="-6.630647"><ele>1222.5</ele></trkpt>
    <trkpt lat="31.923038" lon="-6.630458"><ele>1222.5</ele></trkpt>
    <trkpt lat="31.922811" lon="-6.629892"><ele>1222.5</ele></trkpt>
    <trkpt lat="31.921732" lon="-6.628177"><ele>1227.5</ele></trkpt>
    <trkpt lat="31.921663" lon="-6.627639"><ele>1232.5</ele></trkpt>
    <trkpt lat="31.922378" lon="-6.626235"><ele>1240.8</ele></trkpt>
    <trkpt lat="31.922574" lon="-6.625489"><ele>1241.0</ele></trkpt>
    <trkpt lat="31.924489" lon="-6.617594"><ele>1254.8</ele></trkpt>
    <trkpt lat="31.924807" lon="-6.616531"><ele>1254.8</ele></trkpt>
    <trkpt lat="31.924849" lon="-6.616472"><ele>1254.8</ele></trkpt>
    <trkpt lat="31.925239" lon="-6.616204"><ele>1251.0</ele></trkpt>
    <trkpt lat="31.926293" lon="-6.615831"><ele>1243.8</ele></trkpt>
    <trkpt lat="31.926660" lon="-6.615907"><ele>1242.5</ele></trkpt>
    <trkpt lat="31.929576" lon="-6.616881"><ele>1221.0</ele></trkpt>
    <trkpt lat="31.930312" lon="-6.616933"><ele>1215.0</ele></trkpt>
    <trkpt lat="31.931083" lon="-6.616967"><ele>1214.2</ele></trkpt>
    <trkpt lat="31.931653" lon="-6.616814"><ele>1214.2</ele></trkpt>
    <trkpt lat="31.932028" lon="-6.616528"><ele>1214.2</ele></trkpt>
    <trkpt lat="31.939945" lon="-6.609856"><ele>1255.8</ele></trkpt>
    <trkpt lat="31.943629" lon="-6.606088"><ele>1259.0</ele></trkpt>
    <trkpt lat="31.941395" lon="-6.603835"><ele>1260.5</ele></trkpt>
    <trkpt lat="31.939709" lon="-6.600495"><ele>1256.0</ele></trkpt>
    <trkpt lat="31.939572" lon="-6.599760"><ele>1256.0</ele></trkpt>
    <trkpt lat="31.939692" lon="-6.598977"><ele>1256.8</ele></trkpt>
    <trkpt lat="31.940550" lon="-6.597215"><ele>1260.5</ele></trkpt>
    <trkpt lat="31.941325" lon="-6.594535"><ele>1265.8</ele></trkpt>
    <trkpt lat="31.941989" lon="-6.593450"><ele>1267.8</ele></trkpt>
    <trkpt lat="31.942245" lon="-6.591923"><ele>1269.0</ele></trkpt>
    <trkpt lat="31.942360" lon="-6.591506"><ele>1270.0</ele></trkpt>
    <trkpt lat="31.943147" lon="-6.589042"><ele>1279.0</ele></trkpt>
    <trkpt lat="31.943332" lon="-6.588531"><ele>1279.2</ele></trkpt>
    <trkpt lat="31.943861" lon="-6.587457"><ele>1284.2</ele></trkpt>
    <trkpt lat="31.944687" lon="-6.586230"><ele>1287.0</ele></trkpt>
    <trkpt lat="31.946367" lon="-6.583286"><ele>1293.5</ele></trkpt>
    <trkpt lat="31.946552" lon="-6.583028"><ele>1294.5</ele></trkpt>
    <trkpt lat="31.947778" lon="-6.581690"><ele>1298.0</ele></trkpt>
    <trkpt lat="31.947876" lon="-6.581437"><ele>1298.0</ele></trkpt>
    <trkpt lat="31.948422" lon="-6.579961"><ele>1299.5</ele></trkpt>
    <trkpt lat="31.950748" lon="-6.578511"><ele>1314.2</ele></trkpt>
    <trkpt lat="31.950836" lon="-6.578440"><ele>1315.0</ele></trkpt>
    <trkpt lat="31.951910" lon="-6.577096"><ele>1321.5</ele></trkpt>
    <trkpt lat="31.952853" lon="-6.576736"><ele>1323.2</ele></trkpt>
    <trkpt lat="31.953189" lon="-6.576051"><ele>1325.2</ele></trkpt>
    <trkpt lat="31.953260" lon="-6.575977"><ele>1325.5</ele></trkpt>
    <trkpt lat="31.954625" lon="-6.574654"><ele>1337.8</ele></trkpt>
    <trkpt lat="31.956091" lon="-6.573287"><ele>1355.0</ele></trkpt>
    <trkpt lat="31.956925" lon="-6.572952"><ele>1358.0</ele></trkpt>
    <trkpt lat="31.957262" lon="-6.572740"><ele>1358.5</ele></trkpt>
    <trkpt lat="31.958459" lon="-6.571318"><ele>1354.5</ele></trkpt>
    <trkpt lat="31.958929" lon="-6.571185"><ele>1354.5</ele></trkpt>
    <trkpt lat="31.958695" lon="-6.571937"><ele>1356.0</ele></trkpt>
    <trkpt lat="31.959050" lon="-6.572253"><ele>1356.0</ele></trkpt>
    <trkpt lat="31.959651" lon="-6.571896"><ele>1356.0</ele></trkpt>
    <trkpt lat="31.959401" lon="-6.571512"><ele>1355.5</ele></trkpt>
    <trkpt lat="31.959662" lon="-6.571241"><ele>1354.8</ele></trkpt>
    <trkpt lat="31.959314" lon="-6.570957"><ele>1354.5</ele></trkpt>
    <trkpt lat="31.959662" lon="-6.571241"><ele>1354.5</ele></trkpt>
    <trkpt lat="31.959777" lon="-6.571118"><ele>1354.8</ele></trkpt>
    <trkpt lat="31.960193" lon="-6.571803"><ele>1355.8</ele></trkpt>
    <trkpt lat="31.959887" lon="-6.572125"><ele>1356.0</ele></trkpt>
    <trkpt lat="31.960077" lon="-6.572399"><ele>1356.0</ele></trkpt>
    <trkpt lat="31.960406" lon="-6.572353"><ele>1356.0</ele></trkpt>
    <trkpt lat="31.960890" lon="-6.572515"><ele>1356.0</ele></trkpt>
    <trkpt lat="31.961707" lon="-6.572302"><ele>1355.2</ele></trkpt>
    <trkpt lat="31.962993" lon="-6.572305"><ele>1349.5</ele></trkpt>
    <trkpt lat="31.964098" lon="-6.572839"><ele>1348.0</ele></trkpt>
    <trkpt lat="31.964774" lon="-6.573358"><ele>1348.0</ele></trkpt>
    <trkpt lat="31.966137" lon="-6.573866"><ele>1349.2</ele></trkpt>
    <trkpt lat="31.966844" lon="-6.573920"><ele>1349.0</ele></trkpt>
    <trkpt lat="31.968333" lon="-6.574022"><ele>1343.0</ele></trkpt>
    <trkpt lat="31.968700" lon="-6.574927"><ele>1335.5</ele></trkpt>
    <trkpt lat="31.968896" lon="-6.575022"><ele>1335.0</ele></trkpt>
    <trkpt lat="31.969762" lon="-6.573783"><ele>1335.0</ele></trkpt>
    <trkpt lat="31.971154" lon="-6.571692"><ele>1342.2</ele></trkpt>
    <trkpt lat="31.971996" lon="-6.569938"><ele>1350.0</ele></trkpt>
    <trkpt lat="31.971909" lon="-6.569828"><ele>1350.2</ele></trkpt>
    <trkpt lat="31.971977" lon="-6.569632"><ele>1351.0</ele></trkpt>
    <trkpt lat="31.972194" lon="-6.569594"><ele>1352.0</ele></trkpt>
    <trkpt lat="31.973758" lon="-6.567770"><ele>1354.2</ele></trkpt>
    <trkpt lat="31.975190" lon="-6.564822"><ele>1355.8</ele></trkpt>
    <trkpt lat="31.975357" lon="-6.563673"><ele>1358.5</ele></trkpt>
    <trkpt lat="31.975803" lon="-6.563605"><ele>1359.0</ele></trkpt>
    <trkpt lat="31.976621" lon="-6.563842"><ele>1363.5</ele></trkpt>
    <trkpt lat="31.977252" lon="-6.564442"><ele>1368.5</ele></trkpt>
    <trkpt lat="31.977306" lon="-6.564371"><ele>1368.5</ele></trkpt>
    <trkpt lat="31.977843" lon="-6.564875"><ele>1368.5</ele></trkpt>
    <trkpt lat="31.979267" lon="-6.565921"><ele>1359.2</ele></trkpt>
    <trkpt lat="31.979478" lon="-6.566068"><ele>1359.2</ele></trkpt>
    <trkpt lat="31.980943" lon="-6.566748"><ele>1359.2</ele></trkpt>
    <trkpt lat="31.981665" lon="-6.567222"><ele>1359.0</ele></trkpt>
    <trkpt lat="31.982794" lon="-6.568081"><ele>1350.0</ele></trkpt>
    <trkpt lat="31.983245" lon="-6.568599"><ele>1346.2</ele></trkpt>
    <trkpt lat="31.983780" lon="-6.569495"><ele>1344.0</ele></trkpt>
    <trkpt lat="31.984523" lon="-6.570707"><ele>1343.5</ele></trkpt>
    <trkpt lat="31.984898" lon="-6.571042"><ele>1344.5</ele></trkpt>
    <trkpt lat="31.985395" lon="-6.571226"><ele>1345.2</ele></trkpt>
    <trkpt lat="31.986293" lon="-6.571096"><ele>1347.5</ele></trkpt>
    <trkpt lat="31.988207" lon="-6.570149"><ele>1353.2</ele></trkpt>
    <trkpt lat="31.988824" lon="-6.570041"><ele>1353.2</ele></trkpt>
    <trkpt lat="31.989239" lon="-6.570056"><ele>1353.0</ele></trkpt>
    <trkpt lat="31.992306" lon="-6.570533"><ele>1343.0</ele></trkpt>
    <trkpt lat="31.992792" lon="-6.570570"><ele>1341.8</ele></trkpt>
    <trkpt lat="31.994690" lon="-6.570433"><ele>1338.8</ele></trkpt>
    <trkpt lat="31.996892" lon="-6.570808"><ele>1331.5</ele></trkpt>
    <trkpt lat="31.997763" lon="-6.570637"><ele>1330.0</ele></trkpt>
    <trkpt lat="31.998850" lon="-6.570638"><ele>1330.0</ele></trkpt>
    <trkpt lat="31.999739" lon="-6.570547"><ele>1331.2</ele></trkpt>
    <trkpt lat="32.002913" lon="-6.570060"><ele>1339.2</ele></trkpt>
    <trkpt lat="32.008047" lon="-6.570231"><ele>1351.8</ele></trkpt>
    <trkpt lat="32.008526" lon="-6.570112"><ele>1353.5</ele></trkpt>
    <trkpt lat="32.009098" lon="-6.569752"><ele>1357.0</ele></trkpt>
    <trkpt lat="32.010250" lon="-6.568612"><ele>1362.0</ele></trkpt>
    <trkpt lat="32.010855" lon="-6.567638"><ele>1372.2</ele></trkpt>
    <trkpt lat="32.010939" lon="-6.567524"><ele>1373.2</ele></trkpt>
    <trkpt lat="32.012096" lon="-6.566031"><ele>1384.0</ele></trkpt>
    <trkpt lat="32.013616" lon="-6.564210"><ele>1385.0</ele></trkpt>
    <trkpt lat="32.016024" lon="-6.562685"><ele>1383.8</ele></trkpt>
    <trkpt lat="32.016129" lon="-6.562496"><ele>1384.0</ele></trkpt>
    <trkpt lat="32.016212" lon="-6.562179"><ele>1385.2</ele></trkpt>
    <trkpt lat="32.016284" lon="-6.561309"><ele>1386.8</ele></trkpt>
    <trkpt lat="32.021014" lon="-6.557976"><ele>1395.5</ele></trkpt>
    <trkpt lat="32.025573" lon="-6.555390"><ele>1409.5</ele></trkpt>
    <trkpt lat="32.026742" lon="-6.555075"><ele>1410.8</ele></trkpt>
    <trkpt lat="32.029615" lon="-6.554828"><ele>1417.0</ele></trkpt>
    <trkpt lat="32.030506" lon="-6.554625"><ele>1419.8</ele></trkpt>
    <trkpt lat="32.031645" lon="-6.554294"><ele>1422.8</ele></trkpt>
    <trkpt lat="32.035956" lon="-6.552944"><ele>1444.5</ele></trkpt>
    <trkpt lat="32.037196" lon="-6.552541"><ele>1453.2</ele></trkpt>
    <trkpt lat="32.039055" lon="-6.551659"><ele>1458.5</ele></trkpt>
    <trkpt lat="32.039690" lon="-6.551451"><ele>1458.8</ele></trkpt>
    <trkpt lat="32.040332" lon="-6.551506"><ele>1456.5</ele></trkpt>
    <trkpt lat="32.041632" lon="-6.552224"><ele>1447.8</ele></trkpt>
    <trkpt lat="32.042296" lon="-6.552395"><ele>1447.8</ele></trkpt>
    <trkpt lat="32.042592" lon="-6.552366"><ele>1447.8</ele></trkpt>
    <trkpt lat="32.043049" lon="-6.552181"><ele>1451.5</ele></trkpt>
    <trkpt lat="32.044509" lon="-6.551304"><ele>1462.2</ele></trkpt>
    <trkpt lat="32.045623" lon="-6.551522"><ele>1469.8</ele></trkpt>
    <trkpt lat="32.046159" lon="-6.551525"><ele>1472.2</ele></trkpt>
    <trkpt lat="32.046629" lon="-6.551229"><ele>1475.5</ele></trkpt>
    <trkpt lat="32.047115" lon="-6.550644"><ele>1480.0</ele></trkpt>
    <trkpt lat="32.048125" lon="-6.548619"><ele>1482.0</ele></trkpt>
    <trkpt lat="32.048307" lon="-6.548356"><ele>1482.8</ele></trkpt>
    <trkpt lat="32.048988" lon="-6.547491"><ele>1492.8</ele></trkpt>
    <trkpt lat="32.049325" lon="-6.547249"><ele>1494.2</ele></trkpt>
    <trkpt lat="32.049899" lon="-6.547168"><ele>1500.0</ele></trkpt>
    <trkpt lat="32.050539" lon="-6.547336"><ele>1506.5</ele></trkpt>
    <trkpt lat="32.051561" lon="-6.548088"><ele>1516.8</ele></trkpt>
    <trkpt lat="32.051663" lon="-6.548161"><ele>1517.5</ele></trkpt>
    <trkpt lat="32.052283" lon="-6.548350"><ele>1522.8</ele></trkpt>
    <trkpt lat="32.053609" lon="-6.548187"><ele>1527.2</ele></trkpt>
    <trkpt lat="32.054285" lon="-6.547805"><ele>1527.2</ele></trkpt>
    <trkpt lat="32.054727" lon="-6.547468"><ele>1522.2</ele></trkpt>
    <trkpt lat="32.055094" lon="-6.546981"><ele>1518.2</ele></trkpt>
    <trkpt lat="32.055298" lon="-6.546294"><ele>1513.5</ele></trkpt>
    <trkpt lat="32.055249" lon="-6.544801"><ele>1504.8</ele></trkpt>
    <trkpt lat="32.055259" lon="-6.544522"><ele>1504.0</ele></trkpt>
    <trkpt lat="32.055522" lon="-6.543765"><ele>1502.0</ele></trkpt>
    <trkpt lat="32.056669" lon="-6.542718"><ele>1493.2</ele></trkpt>
    <trkpt lat="32.056815" lon="-6.542555"><ele>1492.8</ele></trkpt>
    <trkpt lat="32.058035" lon="-6.541115"><ele>1481.8</ele></trkpt>
    <trkpt lat="32.058622" lon="-6.540306"><ele>1478.2</ele></trkpt>
    <trkpt lat="32.059008" lon="-6.539462"><ele>1475.0</ele></trkpt>
    <trkpt lat="32.060137" lon="-6.536494"><ele>1459.0</ele></trkpt>
    <trkpt lat="32.061330" lon="-6.533309"><ele>1453.2</ele></trkpt>
    <trkpt lat="32.061980" lon="-6.530744"><ele>1449.8</ele></trkpt>
    <trkpt lat="32.062339" lon="-6.529642"><ele>1441.8</ele></trkpt>
    <trkpt lat="32.062490" lon="-6.527901"><ele>1437.2</ele></trkpt>
    <trkpt lat="32.062878" lon="-6.527276"><ele>1431.0</ele></trkpt>
    <trkpt lat="32.063153" lon="-6.526331"><ele>1429.5</ele></trkpt>
    <trkpt lat="32.063881" lon="-6.525570"><ele>1424.0</ele></trkpt>
    <trkpt lat="32.064260" lon="-6.523350"><ele>1421.5</ele></trkpt>
    <trkpt lat="32.064306" lon="-6.522041"><ele>1419.5</ele></trkpt>
    <trkpt lat="32.064217" lon="-6.519474"><ele>1402.8</ele></trkpt>
    <trkpt lat="32.064222" lon="-6.519058"><ele>1399.2</ele></trkpt>
    <trkpt lat="32.064451" lon="-6.517658"><ele>1392.5</ele></trkpt>
    <trkpt lat="32.064140" lon="-6.516665"><ele>1384.0</ele></trkpt>
    <trkpt lat="32.064124" lon="-6.516384"><ele>1384.0</ele></trkpt>
    <trkpt lat="32.065072" lon="-6.515401"><ele>1384.0</ele></trkpt>
    <trkpt lat="32.065061" lon="-6.515291"><ele>1384.0</ele></trkpt>
    <trkpt lat="32.064824" lon="-6.514741"><ele>1379.0</ele></trkpt>
    <trkpt lat="32.064861" lon="-6.513849"><ele>1376.8</ele></trkpt>
    <trkpt lat="32.064684" lon="-6.513315"><ele>1372.5</ele></trkpt>
    <trkpt lat="32.064642" lon="-6.512554"><ele>1370.0</ele></trkpt>
    <trkpt lat="32.064542" lon="-6.512123"><ele>1367.0</ele></trkpt>
    <trkpt lat="32.064341" lon="-6.511123"><ele>1366.2</ele></trkpt>
    <trkpt lat="32.064498" lon="-6.510370"><ele>1366.8</ele></trkpt>
    <trkpt lat="32.064425" lon="-6.509704"><ele>1366.8</ele></trkpt>
    <trkpt lat="32.064542" lon="-6.509461"><ele>1366.8</ele></trkpt>
    <trkpt lat="32.064863" lon="-6.509006"><ele>1360.0</ele></trkpt>
    <trkpt lat="32.064926" lon="-6.508678"><ele>1360.0</ele></trkpt>
    <trkpt lat="32.064606" lon="-6.508270"><ele>1366.8</ele></trkpt>
    <trkpt lat="32.064571" lon="-6.508204"><ele>1366.8</ele></trkpt>
    <trkpt lat="32.064477" lon="-6.506535"><ele>1362.0</ele></trkpt>
    <trkpt lat="32.063657" lon="-6.506060"><ele>1362.5</ele></trkpt>
    <trkpt lat="32.063592" lon="-6.505847"><ele>1362.5</ele></trkpt>
    <trkpt lat="32.063165" lon="-6.503871"><ele>1354.5</ele></trkpt>
    <trkpt lat="32.063291" lon="-6.503422"><ele>1348.5</ele></trkpt>
    <trkpt lat="32.064225" lon="-6.500843"><ele>1327.0</ele></trkpt>
    <trkpt lat="32.064201" lon="-6.500594"><ele>1326.8</ele></trkpt>
    <trkpt lat="32.063662" lon="-6.500164"><ele>1325.5</ele></trkpt>
    <trkpt lat="32.063590" lon="-6.499674"><ele>1325.0</ele></trkpt>
    <trkpt lat="32.063619" lon="-6.499574"><ele>1324.2</ele></trkpt>
    <trkpt lat="32.063752" lon="-6.499289"><ele>1320.5</ele></trkpt>
    <trkpt lat="32.064677" lon="-6.497450"><ele>1300.2</ele></trkpt>
    <trkpt lat="32.064927" lon="-6.497005"><ele>1297.2</ele></trkpt>
    <trkpt lat="32.065512" lon="-6.496515"><ele>1288.5</ele></trkpt>
    <trkpt lat="32.065777" lon="-6.496137"><ele>1284.2</ele></trkpt>
    <trkpt lat="32.065806" lon="-6.494991"><ele>1279.5</ele></trkpt>
    <trkpt lat="32.065968" lon="-6.494509"><ele>1278.2</ele></trkpt>
    <trkpt lat="32.067012" lon="-6.493790"><ele>1263.0</ele></trkpt>
    <trkpt lat="32.067306" lon="-6.493259"><ele>1260.5</ele></trkpt>
    <trkpt lat="32.067391" lon="-6.492408"><ele>1253.0</ele></trkpt>
    <trkpt lat="32.066788" lon="-6.491172"><ele>1246.0</ele></trkpt>
    <trkpt lat="32.066815" lon="-6.491075"><ele>1245.0</ele></trkpt>
    <trkpt lat="32.068136" lon="-6.488543"><ele>1210.5</ele></trkpt>
    <trkpt lat="32.068408" lon="-6.487437"><ele>1202.8</ele></trkpt>
    <trkpt lat="32.068581" lon="-6.486410"><ele>1188.8</ele></trkpt>
    <trkpt lat="32.069246" lon="-6.484972"><ele>1186.5</ele></trkpt>
    <trkpt lat="32.069334" lon="-6.483031"><ele>1179.5</ele></trkpt>
    <trkpt lat="32.069257" lon="-6.482033"><ele>1173.0</ele></trkpt>
    <trkpt lat="32.069511" lon="-6.481942"><ele>1169.5</ele></trkpt>
    <trkpt lat="32.069926" lon="-6.482396"><ele>1165.8</ele></trkpt>
    <trkpt lat="32.070447" lon="-6.484474"><ele>1164.2</ele></trkpt>
    <trkpt lat="32.070563" lon="-6.484629"><ele>1163.8</ele></trkpt>
    <trkpt lat="32.070698" lon="-6.484551"><ele>1161.8</ele></trkpt>
    <trkpt lat="32.070592" lon="-6.483477"><ele>1153.0</ele></trkpt>
    <trkpt lat="32.070915" lon="-6.481838"><ele>1138.2</ele></trkpt>
    <trkpt lat="32.071471" lon="-6.480536"><ele>1126.5</ele></trkpt>
    <trkpt lat="32.071653" lon="-6.480112"><ele>1124.2</ele></trkpt>
    <trkpt lat="32.072259" lon="-6.479426"><ele>1113.8</ele></trkpt>
    <trkpt lat="32.072433" lon="-6.478966"><ele>1111.5</ele></trkpt>
    <trkpt lat="32.072246" lon="-6.477332"><ele>1102.5</ele></trkpt>
    <trkpt lat="32.071993" lon="-6.476831"><ele>1097.0</ele></trkpt>
    <trkpt lat="32.071882" lon="-6.476723"><ele>1095.2</ele></trkpt>
    <trkpt lat="32.071886" lon="-6.476452"><ele>1091.2</ele></trkpt>
    <trkpt lat="32.072135" lon="-6.476425"><ele>1090.5</ele></trkpt>
    <trkpt lat="32.072436" lon="-6.476591"><ele>1090.5</ele></trkpt>
    <trkpt lat="32.073888" lon="-6.477520"><ele>1081.8</ele></trkpt>
    <trkpt lat="32.073958" lon="-6.477646"><ele>1080.5</ele></trkpt>
    <trkpt lat="32.074018" lon="-6.477985"><ele>1080.5</ele></trkpt>
    <trkpt lat="32.073823" lon="-6.478846"><ele>1082.8</ele></trkpt>
    <trkpt lat="32.073673" lon="-6.479059"><ele>1085.0</ele></trkpt>
    <trkpt lat="32.073829" lon="-6.479229"><ele>1082.5</ele></trkpt>
    <trkpt lat="32.073889" lon="-6.479163"><ele>1081.2</ele></trkpt>
    <trkpt lat="32.074525" lon="-6.477657"><ele>1066.8</ele></trkpt>
    <trkpt lat="32.074744" lon="-6.476485"><ele>1056.0</ele></trkpt>
    <trkpt lat="32.075021" lon="-6.475991"><ele>1051.0</ele></trkpt>
    <trkpt lat="32.075499" lon="-6.475038"><ele>1041.5</ele></trkpt>
    <trkpt lat="32.075627" lon="-6.474699"><ele>1041.2</ele></trkpt>
    <trkpt lat="32.075179" lon="-6.473806"><ele>1038.8</ele></trkpt>
    <trkpt lat="32.075104" lon="-6.473530"><ele>1037.2</ele></trkpt>
    <trkpt lat="32.074488" lon="-6.471685"><ele>1019.8</ele></trkpt>
    <trkpt lat="32.074522" lon="-6.471500"><ele>1016.8</ele></trkpt>
    <trkpt lat="32.074709" lon="-6.471463"><ele>1016.0</ele></trkpt>
    <trkpt lat="32.076301" lon="-6.472359"><ele>1010.8</ele></trkpt>
    <trkpt lat="32.077131" lon="-6.472644"><ele>1001.8</ele></trkpt>
    <trkpt lat="32.077334" lon="-6.472520"><ele>999.0</ele></trkpt>
    <trkpt lat="32.077295" lon="-6.472333"><ele>998.2</ele></trkpt>
    <trkpt lat="32.076654" lon="-6.471602"><ele>996.5</ele></trkpt>
    <trkpt lat="32.076616" lon="-6.471486"><ele>996.0</ele></trkpt>
    <trkpt lat="32.076141" lon="-6.469786"><ele>984.5</ele></trkpt>
    <trkpt lat="32.075862" lon="-6.469174"><ele>979.8</ele></trkpt>
    <trkpt lat="32.075599" lon="-6.468936"><ele>969.8</ele></trkpt>
    <trkpt lat="32.075573" lon="-6.468816"><ele>965.2</ele></trkpt>
    <trkpt lat="32.075598" lon="-6.468726"><ele>965.2</ele></trkpt>
    <trkpt lat="32.075841" lon="-6.468732"><ele>966.2</ele></trkpt>
    <trkpt lat="32.077371" lon="-6.469618"><ele>966.2</ele></trkpt>
    <trkpt lat="32.077690" lon="-6.469780"><ele>964.2</ele></trkpt>
    <trkpt lat="32.078337" lon="-6.469880"><ele>959.0</ele></trkpt>
    <trkpt lat="32.078774" lon="-6.470165"><ele>952.0</ele></trkpt>
    <trkpt lat="32.078915" lon="-6.470093"><ele>947.8</ele></trkpt>
    <trkpt lat="32.078937" lon="-6.470042"><ele>947.8</ele></trkpt>
    <trkpt lat="32.078054" lon="-6.468782"><ele>947.8</ele></trkpt>
    <trkpt lat="32.078008" lon="-6.468674"><ele>947.0</ele></trkpt>
    <trkpt lat="32.077536" lon="-6.467340"><ele>939.8</ele></trkpt>
    <trkpt lat="32.076999" lon="-6.466182"><ele>927.0</ele></trkpt>
    <trkpt lat="32.077004" lon="-6.465996"><ele>923.0</ele></trkpt>
    <trkpt lat="32.077206" lon="-6.465941"><ele>922.5</ele></trkpt>
    <trkpt lat="32.078673" lon="-6.467018"><ele>922.5</ele></trkpt>
    <trkpt lat="32.079016" lon="-6.467069"><ele>920.8</ele></trkpt>
    <trkpt lat="32.079566" lon="-6.465910"><ele>904.8</ele></trkpt>
    <trkpt lat="32.080183" lon="-6.465892"><ele>900.8</ele></trkpt>
    <trkpt lat="32.080301" lon="-6.465785"><ele>898.2</ele></trkpt>
    <trkpt lat="32.080134" lon="-6.465182"><ele>894.2</ele></trkpt>
    <trkpt lat="32.079582" lon="-6.465075"><ele>894.0</ele></trkpt>
    <trkpt lat="32.079500" lon="-6.464932"><ele>893.5</ele></trkpt>
    <trkpt lat="32.080047" lon="-6.464273"><ele>883.2</ele></trkpt>
    <trkpt lat="32.080620" lon="-6.463868"><ele>878.8</ele></trkpt>
    <trkpt lat="32.080669" lon="-6.463456"><ele>875.0</ele></trkpt>
    <trkpt lat="32.080441" lon="-6.462473"><ele>860.2</ele></trkpt>
    <trkpt lat="32.080443" lon="-6.462371"><ele>858.2</ele></trkpt>
    <trkpt lat="32.080583" lon="-6.462095"><ele>856.8</ele></trkpt>
    <trkpt lat="32.080990" lon="-6.462015"><ele>856.0</ele></trkpt>
    <trkpt lat="32.081250" lon="-6.462119"><ele>856.2</ele></trkpt>
    <trkpt lat="32.081529" lon="-6.463050"><ele>859.0</ele></trkpt>
    <trkpt lat="32.081836" lon="-6.463548"><ele>859.5</ele></trkpt>
    <trkpt lat="32.081815" lon="-6.464252"><ele>864.2</ele></trkpt>
    <trkpt lat="32.081999" lon="-6.464341"><ele>864.2</ele></trkpt>
    <trkpt lat="32.082058" lon="-6.464299"><ele>863.5</ele></trkpt>
    <trkpt lat="32.082713" lon="-6.463381"><ele>852.8</ele></trkpt>
    <trkpt lat="32.082816" lon="-6.463198"><ele>852.2</ele></trkpt>
    <trkpt lat="32.083088" lon="-6.461954"><ele>839.0</ele></trkpt>
    <trkpt lat="32.083141" lon="-6.461845"><ele>838.0</ele></trkpt>
    <trkpt lat="32.083438" lon="-6.461540"><ele>833.8</ele></trkpt>
    <trkpt lat="32.083764" lon="-6.461504"><ele>833.5</ele></trkpt>
    <trkpt lat="32.084747" lon="-6.461777"><ele>830.0</ele></trkpt>
    <trkpt lat="32.085569" lon="-6.462531"><ele>828.2</ele></trkpt>
    <trkpt lat="32.086250" lon="-6.462766"><ele>821.0</ele></trkpt>
    <trkpt lat="32.086739" lon="-6.463257"><ele>819.5</ele></trkpt>
    <trkpt lat="32.087186" lon="-6.464285"><ele>818.2</ele></trkpt>
    <trkpt lat="32.087397" lon="-6.464492"><ele>818.2</ele></trkpt>
    <trkpt lat="32.089061" lon="-6.464957"><ele>820.2</ele></trkpt>
    <trkpt lat="32.090737" lon="-6.465801"><ele>820.0</ele></trkpt>
    <trkpt lat="32.091907" lon="-6.466187"><ele>821.2</ele></trkpt>
    <trkpt lat="32.092049" lon="-6.466269"><ele>822.0</ele></trkpt>
    <trkpt lat="32.093373" lon="-6.467104"><ele>827.8</ele></trkpt>
    <trkpt lat="32.094661" lon="-6.468264"><ele>841.2</ele></trkpt>
    <trkpt lat="32.094728" lon="-6.468308"><ele>842.0</ele></trkpt>
    <trkpt lat="32.094909" lon="-6.468343"><ele>842.2</ele></trkpt>
    <trkpt lat="32.095200" lon="-6.468145"><ele>840.8</ele></trkpt>
    <trkpt lat="32.095466" lon="-6.467501"><ele>831.0</ele></trkpt>
    <trkpt lat="32.096077" lon="-6.467021"><ele>830.8</ele></trkpt>
    <trkpt lat="32.096286" lon="-6.466967"><ele>830.8</ele></trkpt>
    <trkpt lat="32.097438" lon="-6.466862"><ele>837.5</ele></trkpt>
    <trkpt lat="32.098302" lon="-6.466446"><ele>839.5</ele></trkpt>
    <trkpt lat="32.099232" lon="-6.465354"><ele>839.5</ele></trkpt>
    <trkpt lat="32.100162" lon="-6.464668"><ele>845.0</ele></trkpt>
    <trkpt lat="32.101197" lon="-6.463405"><ele>847.0</ele></trkpt>
    <trkpt lat="32.101404" lon="-6.463063"><ele>847.5</ele></trkpt>
    <trkpt lat="32.101624" lon="-6.462998"><ele>847.5</ele></trkpt>
    <trkpt lat="32.102046" lon="-6.461792"><ele>844.5</ele></trkpt>
    <trkpt lat="32.102222" lon="-6.461588"><ele>844.5</ele></trkpt>
    <trkpt lat="32.102509" lon="-6.461515"><ele>847.2</ele></trkpt>
    <trkpt lat="32.102664" lon="-6.461583"><ele>847.2</ele></trkpt>
    <trkpt lat="32.104056" lon="-6.462718"><ele>830.8</ele></trkpt>
    <trkpt lat="32.104163" lon="-6.462857"><ele>828.5</ele></trkpt>
    <trkpt lat="32.105076" lon="-6.464207"><ele>823.2</ele></trkpt>
    <trkpt lat="32.105395" lon="-6.464421"><ele>821.0</ele></trkpt>
    <trkpt lat="32.105878" lon="-6.464535"><ele>813.2</ele></trkpt>
    <trkpt lat="32.106404" lon="-6.463843"><ele>809.2</ele></trkpt>
    <trkpt lat="32.106894" lon="-6.463633"><ele>806.8</ele></trkpt>
    <trkpt lat="32.107245" lon="-6.463664"><ele>805.2</ele></trkpt>
    <trkpt lat="32.107840" lon="-6.464030"><ele>804.8</ele></trkpt>
    <trkpt lat="32.108127" lon="-6.465852"><ele>804.5</ele></trkpt>
    <trkpt lat="32.108390" lon="-6.466264"><ele>804.5</ele></trkpt>
    <trkpt lat="32.108781" lon="-6.466818"><ele>815.8</ele></trkpt>
    <trkpt lat="32.108984" lon="-6.467180"><ele>815.8</ele></trkpt>
    <trkpt lat="32.109187" lon="-6.468160"><ele>815.8</ele></trkpt>
    <trkpt lat="32.109426" lon="-6.468925"><ele>812.8</ele></trkpt>
    <trkpt lat="32.109234" lon="-6.470685"><ele>810.0</ele></trkpt>
    <trkpt lat="32.108911" lon="-6.471700"><ele>806.8</ele></trkpt>
    <trkpt lat="32.108425" lon="-6.472480"><ele>800.2</ele></trkpt>
    <trkpt lat="32.108347" lon="-6.472713"><ele>800.2</ele></trkpt>
    <trkpt lat="32.108448" lon="-6.472682"><ele>800.2</ele></trkpt>
    <trkpt lat="32.109083" lon="-6.471658"><ele>813.2</ele></trkpt>
    <trkpt lat="32.109664" lon="-6.470061"><ele>827.0</ele></trkpt>
    <trkpt lat="32.109910" lon="-6.468354"><ele>843.5</ele></trkpt>
    <trkpt lat="32.109904" lon="-6.468252"><ele>846.2</ele></trkpt>
    <trkpt lat="32.109804" lon="-6.467603"><ele>862.8</ele></trkpt>
    <trkpt lat="32.109857" lon="-6.467253"><ele>888.0</ele></trkpt>
    <trkpt lat="32.109809" lon="-6.467042"><ele>888.0</ele></trkpt>
    <trkpt lat="32.109591" lon="-6.466830"><ele>888.0</ele></trkpt>
    <trkpt lat="32.109300" lon="-6.466658"><ele>874.5</ele></trkpt>
    <trkpt lat="32.109047" lon="-6.466343"><ele>860.8</ele></trkpt>
    <trkpt lat="32.108526" lon="-6.465736"><ele>860.8</ele></trkpt>
    <trkpt lat="32.108441" lon="-6.465414"><ele>852.8</ele></trkpt>
    <trkpt lat="32.108463" lon="-6.465187"><ele>852.0</ele></trkpt>
    <trkpt lat="32.108584" lon="-6.464326"><ele>857.0</ele></trkpt>
    <trkpt lat="32.108755" lon="-6.464141"><ele>858.2</ele></trkpt>
    <trkpt lat="32.109000" lon="-6.463996"><ele>876.0</ele></trkpt>
    <trkpt lat="32.109060" lon="-6.463943"><ele>879.8</ele></trkpt>
    <trkpt lat="32.109110" lon="-6.463874"><ele>881.2</ele></trkpt>
    <trkpt lat="32.109183" lon="-6.463692"><ele>881.2</ele></trkpt>
    <trkpt lat="32.108878" lon="-6.463004"><ele>872.8</ele></trkpt>
    <trkpt lat="32.108906" lon="-6.462923"><ele>872.8</ele></trkpt>
    <trkpt lat="32.109188" lon="-6.462384"><ele>886.2</ele></trkpt>
    <trkpt lat="32.109337" lon="-6.462026"><ele>886.2</ele></trkpt>
    <trkpt lat="32.109364" lon="-6.461731"><ele>886.2</ele></trkpt>
    <trkpt lat="32.109303" lon="-6.461437"><ele>885.5</ele></trkpt>
    <trkpt lat="32.109246" lon="-6.461328"><ele>884.0</ele></trkpt>
    <trkpt lat="32.108655" lon="-6.460572"><ele>875.0</ele></trkpt>
    <trkpt lat="32.108197" lon="-6.460027"><ele>864.0</ele></trkpt>
    <trkpt lat="32.107558" lon="-6.458956"><ele>856.0</ele></trkpt>
    <trkpt lat="32.107240" lon="-6.458631"><ele>853.2</ele></trkpt>
    <trkpt lat="32.106262" lon="-6.457820"><ele>833.0</ele></trkpt>
    <trkpt lat="32.105256" lon="-6.454932"><ele>827.8</ele></trkpt>
    <trkpt lat="32.105201" lon="-6.454820"><ele>827.5</ele></trkpt>
    <trkpt lat="32.104994" lon="-6.454610"><ele>817.8</ele></trkpt>
    <trkpt lat="32.104917" lon="-6.454469"><ele>817.8</ele></trkpt>
    <trkpt lat="32.105120" lon="-6.453879"><ele>819.5</ele></trkpt>
    <trkpt lat="32.105941" lon="-6.452408"><ele>824.8</ele></trkpt>
    <trkpt lat="32.106235" lon="-6.451913"><ele>823.5</ele></trkpt>
    <trkpt lat="32.106731" lon="-6.449109"><ele>821.2</ele></trkpt>
    <trkpt lat="32.106509" lon="-6.447651"><ele>818.8</ele></trkpt>
    <trkpt lat="32.106582" lon="-6.447455"><ele>818.8</ele></trkpt>
    <trkpt lat="32.106952" lon="-6.447271"><ele>824.5</ele></trkpt>
    <trkpt lat="32.107048" lon="-6.447183"><ele>826.2</ele></trkpt>
    <trkpt lat="32.107104" lon="-6.447025"><ele>826.2</ele></trkpt>
    <trkpt lat="32.106984" lon="-6.446757"><ele>826.2</ele></trkpt>
    <trkpt lat="32.106205" lon="-6.446207"><ele>823.2</ele></trkpt>
    <trkpt lat="32.106147" lon="-6.446080"><ele>823.2</ele></trkpt>
    <trkpt lat="32.105899" lon="-6.445399"><ele>828.0</ele></trkpt>
    <trkpt lat="32.105904" lon="-6.444821"><ele>831.0</ele></trkpt>
    <trkpt lat="32.106072" lon="-6.444354"><ele>832.2</ele></trkpt>
    <trkpt lat="32.106572" lon="-6.443122"><ele>845.0</ele></trkpt>
    <trkpt lat="32.106688" lon="-6.442805"><ele>845.8</ele></trkpt>
    <trkpt lat="32.106914" lon="-6.441863"><ele>847.2</ele></trkpt>
    <trkpt lat="32.106985" lon="-6.441755"><ele>847.8</ele></trkpt>
    <trkpt lat="32.108240" lon="-6.440059"><ele>865.2</ele></trkpt>
    <trkpt lat="32.108922" lon="-6.439544"><ele>876.2</ele></trkpt>
    <trkpt lat="32.109126" lon="-6.439340"><ele>879.0</ele></trkpt>
    <trkpt lat="32.109806" lon="-6.438067"><ele>887.2</ele></trkpt>
    <trkpt lat="32.109864" lon="-6.437347"><ele>887.8</ele></trkpt>
    <trkpt lat="32.109737" lon="-6.436769"><ele>887.5</ele></trkpt>
    <trkpt lat="32.109298" lon="-6.435893"><ele>886.2</ele></trkpt>
    <trkpt lat="32.109227" lon="-6.435809"><ele>884.8</ele></trkpt>
    <trkpt lat="32.108549" lon="-6.435107"><ele>873.8</ele></trkpt>
    <trkpt lat="32.108455" lon="-6.434646"><ele>869.0</ele></trkpt>
    <trkpt lat="32.109123" lon="-6.433273"><ele>866.2</ele></trkpt>
    <trkpt lat="32.109151" lon="-6.433062"><ele>865.0</ele></trkpt>
    <trkpt lat="32.109520" lon="-6.430183"><ele>847.8</ele></trkpt>
    <trkpt lat="32.109446" lon="-6.428796"><ele>841.5</ele></trkpt>
    <trkpt lat="32.109451" lon="-6.428688"><ele>841.0</ele></trkpt>
    <trkpt lat="32.109945" lon="-6.427575"><ele>837.0</ele></trkpt>
    <trkpt lat="32.110094" lon="-6.426353"><ele>830.2</ele></trkpt>
    <trkpt lat="32.110682" lon="-6.425623"><ele>829.0</ele></trkpt>
    <trkpt lat="32.110913" lon="-6.424731"><ele>829.2</ele></trkpt>
    <trkpt lat="32.110986" lon="-6.424619"><ele>829.5</ele></trkpt>
    <trkpt lat="32.111649" lon="-6.423895"><ele>837.0</ele></trkpt>
    <trkpt lat="32.111697" lon="-6.423369"><ele>838.2</ele></trkpt>
    <trkpt lat="32.111524" lon="-6.422849"><ele>841.5</ele></trkpt>
    <trkpt lat="32.111525" lon="-6.422696"><ele>842.8</ele></trkpt>
    <trkpt lat="32.111585" lon="-6.422465"><ele>842.8</ele></trkpt>
    <trkpt lat="32.112685" lon="-6.421612"><ele>842.2</ele></trkpt>
    <trkpt lat="32.112845" lon="-6.421337"><ele>841.5</ele></trkpt>
    <trkpt lat="32.112868" lon="-6.421200"><ele>841.5</ele></trkpt>
    <trkpt lat="32.112839" lon="-6.420374"><ele>835.2</ele></trkpt>
    <trkpt lat="32.112724" lon="-6.419855"><ele>832.2</ele></trkpt>
    <trkpt lat="32.112708" lon="-6.419743"><ele>832.2</ele></trkpt>
    <trkpt lat="32.112844" lon="-6.419080"><ele>832.2</ele></trkpt>
    <trkpt lat="32.113030" lon="-6.419262"><ele>833.5</ele></trkpt>
    <trkpt lat="32.112951" lon="-6.419692"><ele>834.5</ele></trkpt>
    <trkpt lat="32.113037" lon="-6.420361"><ele>840.0</ele></trkpt>
    <trkpt lat="32.113411" lon="-6.421243"><ele>855.8</ele></trkpt>
    <trkpt lat="32.113603" lon="-6.422284"><ele>861.2</ele></trkpt>
    <trkpt lat="32.114116" lon="-6.422674"><ele>862.5</ele></trkpt>
    <trkpt lat="32.114473" lon="-6.423298"><ele>866.0</ele></trkpt>
    <trkpt lat="32.114524" lon="-6.423357"><ele>866.8</ele></trkpt>
    <trkpt lat="32.115014" lon="-6.423798"><ele>876.2</ele></trkpt>
    <trkpt lat="32.115467" lon="-6.424485"><ele>886.2</ele></trkpt>
    <trkpt lat="32.115672" lon="-6.425153"><ele>894.8</ele></trkpt>
    <trkpt lat="32.115453" lon="-6.425600"><ele>895.8</ele></trkpt>
    <trkpt lat="32.115973" lon="-6.426030"><ele>900.8</ele></trkpt>
    <trkpt lat="32.116590" lon="-6.426230"><ele>909.8</ele></trkpt>
    <trkpt lat="32.116969" lon="-6.426724"><ele>916.8</ele></trkpt>
    </trkseg>
  </trk>
</gpx>
