<?xml version="1.0" encoding="UTF-8"?>
<gpx version="1.1" creator="tripplanner (routed with BRouter, gravel profile)" xmlns="http://www.topografix.com/GPX/1/1">
  <metadata>
    <name>Ahansal &amp; Happy Valley loop — Day 2: Bin el Ouidane → Zaouiat Ahansal</name>
    <desc>110 km, 3324 m. Routed with BRouter (gravel profile) over OSM ways — a plan, not a ridden track.</desc>
  </metadata>
  <trk>
    <name>Ahansal &amp; Happy Valley loop — Day 2: Bin el Ouidane → Zaouiat Ahansal</name>
    <trkseg>
    <trkpt lat="32.116969" lon="-6.426724"><ele>916.8</ele></trkpt>
    <trkpt lat="32.116590" lon="-6.426230"><ele>909.8</ele></trkpt>
    <trkpt lat="32.115973" lon="-6.426030"><ele>900.8</ele></trkpt>
    <trkpt lat="32.115453" lon="-6.425600"><ele>895.8</ele></trkpt>
    <trkpt lat="32.115672" lon="-6.425153"><ele>894.8</ele></trkpt>
    <trkpt lat="32.115467" lon="-6.424485"><ele>886.2</ele></trkpt>
    <trkpt lat="32.115014" lon="-6.423798"><ele>876.2</ele></trkpt>
    <trkpt lat="32.114524" lon="-6.423357"><ele>866.8</ele></trkpt>
    <trkpt lat="32.114473" lon="-6.423298"><ele>866.0</ele></trkpt>
    <trkpt lat="32.114116" lon="-6.422674"><ele>862.5</ele></trkpt>
    <trkpt lat="32.113603" lon="-6.422284"><ele>861.2</ele></trkpt>
    <trkpt lat="32.113411" lon="-6.421243"><ele>855.8</ele></trkpt>
    <trkpt lat="32.113037" lon="-6.420361"><ele>840.0</ele></trkpt>
    <trkpt lat="32.112951" lon="-6.419692"><ele>834.5</ele></trkpt>
    <trkpt lat="32.113030" lon="-6.419262"><ele>833.5</ele></trkpt>
    <trkpt lat="32.112844" lon="-6.419080"><ele>830.0</ele></trkpt>
    <trkpt lat="32.112941" lon="-6.418426"><ele>827.5</ele></trkpt>
    <trkpt lat="32.112657" lon="-6.417227"><ele>818.8</ele></trkpt>
    <trkpt lat="32.112670" lon="-6.417144"><ele>818.5</ele></trkpt>
    <trkpt lat="32.112940" lon="-6.416301"><ele>819.0</ele></trkpt>
    <trkpt lat="32.114590" lon="-6.413222"><ele>824.8</ele></trkpt>
    <trkpt lat="32.118146" lon="-6.408475"><ele>835.0</ele></trkpt>
    <trkpt lat="32.119800" lon="-6.405521"><ele>839.5</ele></trkpt>
    <trkpt lat="32.120172" lon="-6.404834"><ele>839.5</ele></trkpt>
    <trkpt lat="32.121407" lon="-6.404242"><ele>834.5</ele></trkpt>
    <trkpt lat="32.122121" lon="-6.403685"><ele>833.8</ele></trkpt>
    <trkpt lat="32.122878" lon="-6.402882"><ele>833.2</ele></trkpt>
    <trkpt lat="32.123737" lon="-6.401604"><ele>834.5</ele></trkpt>
    <trkpt lat="32.123950" lon="-6.401404"><ele>836.2</ele></trkpt>
    <trkpt lat="32.126391" lon="-6.399686"><ele>846.5</ele></trkpt>
    <trkpt lat="32.126951" lon="-6.399545"><ele>850.5</ele></trkpt>
    <trkpt lat="32.127949" lon="-6.398933"><ele>860.0</ele></trkpt>
    <trkpt lat="32.128140" lon="-6.398895"><ele>861.2</ele></trkpt>
    <trkpt lat="32.129074" lon="-6.398825"><ele>868.2</ele></trkpt>
    <trkpt lat="32.130531" lon="-6.398282"><ele>880.2</ele></trkpt>
    <trkpt lat="32.130669" lon="-6.398177"><ele>881.5</ele></trkpt>
    <trkpt lat="32.132792" lon="-6.396308"><ele>897.2</ele></trkpt>
    <trkpt lat="32.133192" lon="-6.395934"><ele>899.2</ele></trkpt>
    <trkpt lat="32.134932" lon="-6.394162"><ele>910.2</ele></trkpt>
    <trkpt lat="32.134997" lon="-6.394115"><ele>910.5</ele></trkpt>
    <trkpt lat="32.135637" lon="-6.394107"><ele>912.5</ele></trkpt>
    <trkpt lat="32.135713" lon="-6.394086"><ele>912.8</ele></trkpt>
    <trkpt lat="32.136616" lon="-6.393642"><ele>921.0</ele></trkpt>
    <trkpt lat="32.138518" lon="-6.393218"><ele>938.2</ele></trkpt>
    <trkpt lat="32.139206" lon="-6.392863"><ele>943.8</ele></trkpt>
    <trkpt lat="32.140139" lon="-6.392313"><ele>955.5</ele></trkpt>
    <trkpt lat="32.141366" lon="-6.391563"><ele>972.2</ele></trkpt>
    <trkpt lat="32.141710" lon="-6.390992"><ele>976.2</ele></trkpt>
    <trkpt lat="32.142044" lon="-6.390274"><ele>976.2</ele></trkpt>
    <trkpt lat="32.143603" lon="-6.388426"><ele>959.0</ele></trkpt>
    <trkpt lat="32.144071" lon="-6.387863"><ele>956.5</ele></trkpt>
    <trkpt lat="32.145743" lon="-6.385898"><ele>941.2</ele></trkpt>
    <trkpt lat="32.149034" lon="-6.381913"><ele>942.5</ele></trkpt>
    <trkpt lat="32.149367" lon="-6.381629"><ele>943.0</ele></trkpt>
    <trkpt lat="32.149817" lon="-6.381524"><ele>943.5</ele></trkpt>
    <trkpt lat="32.150999" lon="-6.381813"><ele>945.0</ele></trkpt>
    <trkpt lat="32.151100" lon="-6.381821"><ele>944.8</ele></trkpt>
    <trkpt lat="32.151429" lon="-6.381698"><ele>939.5</ele></trkpt>
    <trkpt lat="32.151501" lon="-6.381630"><ele>937.8</ele></trkpt>
    <trkpt lat="32.152639" lon="-6.380255"><ele>926.0</ele></trkpt>
    <trkpt lat="32.153277" lon="-6.379632"><ele>924.0</ele></trkpt>
    <trkpt lat="32.153871" lon="-6.378642"><ele>919.2</ele></trkpt>
    <trkpt lat="32.154154" lon="-6.378056"><ele>916.8</ele></trkpt>
    <trkpt lat="32.154208" lon="-6.377536"><ele>914.0</ele></trkpt>
    <trkpt lat="32.154084" lon="-6.377319"><ele>913.5</ele></trkpt>
    <trkpt lat="32.153697" lon="-6.377163"><ele>911.8</ele></trkpt>
    <trkpt lat="32.153529" lon="-6.376993"><ele>911.2</ele></trkpt>
    <trkpt lat="32.153355" lon="-6.375877"><ele>911.5</ele></trkpt>
    <trkpt lat="32.153657" lon="-6.375499"><ele>914.0</ele></trkpt>
    <trkpt lat="32.155462" lon="-6.374281"><ele>916.5</ele></trkpt>
    <trkpt lat="32.155753" lon="-6.373883"><ele>916.5</ele></trkpt>
    <trkpt lat="32.156193" lon="-6.373000"><ele>916.0</ele></trkpt>
    <trkpt lat="32.156266" lon="-6.371707"><ele>913.5</ele></trkpt>
    <trkpt lat="32.157016" lon="-6.370450"><ele>919.5</ele></trkpt>
    <trkpt lat="32.157035" lon="-6.370299"><ele>919.5</ele></trkpt>
    <trkpt lat="32.156997" lon="-6.369749"><ele>917.2</ele></trkpt>
    <trkpt lat="32.156214" lon="-6.365900"><ele>911.2</ele></trkpt>
    <trkpt lat="32.156120" lon="-6.364701"><ele>900.8</ele></trkpt>
    <trkpt lat="32.156215" lon="-6.364058"><ele>898.0</ele></trkpt>
    <trkpt lat="32.156393" lon="-6.363750"><ele>896.0</ele></trkpt>
    <trkpt lat="32.156909" lon="-6.363332"><ele>891.8</ele></trkpt>
    <trkpt lat="32.157601" lon="-6.362563"><ele>880.0</ele></trkpt>
    <trkpt lat="32.157744" lon="-6.362459"><ele>878.5</ele></trkpt>
    <trkpt lat="32.158706" lon="-6.362114"><ele>872.8</ele></trkpt>
    <trkpt lat="32.158920" lon="-6.362100"><ele>872.8</ele></trkpt>
    <trkpt lat="32.160021" lon="-6.362572"><ele>873.2</ele></trkpt>
    <trkpt lat="32.160266" lon="-6.362396"><ele>876.5</ele></trkpt>
    <trkpt lat="32.160341" lon="-6.362144"><ele>876.5</ele></trkpt>
    <trkpt lat="32.159574" lon="-6.361046"><ele>868.2</ele></trkpt>
    <trkpt lat="32.159272" lon="-6.360810"><ele>868.2</ele></trkpt>
    <trkpt lat="32.158936" lon="-6.360698"><ele>868.2</ele></trkpt>
    <trkpt lat="32.157736" lon="-6.360174"><ele>873.8</ele></trkpt>
    <trkpt lat="32.157258" lon="-6.359643"><ele>876.0</ele></trkpt>
    <trkpt lat="32.157107" lon="-6.359258"><ele>878.0</ele></trkpt>
    <trkpt lat="32.157964" lon="-6.357788"><ele>890.0</ele></trkpt>
    <trkpt lat="32.158658" lon="-6.357592"><ele>893.8</ele></trkpt>
    <trkpt lat="32.158567" lon="-6.356775"><ele>898.2</ele></trkpt>
    <trkpt lat="32.158275" lon="-6.356355"><ele>902.0</ele></trkpt>
    <trkpt lat="32.158272" lon="-6.355852"><ele>905.5</ele></trkpt>
    <trkpt lat="32.158006" lon="-6.355816"><ele>905.5</ele></trkpt>
    <trkpt lat="32.157699" lon="-6.355230"><ele>904.5</ele></trkpt>
    <trkpt lat="32.156686" lon="-6.354374"><ele>902.2</ele></trkpt>
    <trkpt lat="32.156847" lon="-6.354054"><ele>902.2</ele></trkpt>
    <trkpt lat="32.157341" lon="-6.353319"><ele>906.0</ele></trkpt>
    <trkpt lat="32.158332" lon="-6.352261"><ele>913.5</ele></trkpt>
    <trkpt lat="32.158580" lon="-6.352120"><ele>913.5</ele></trkpt>
    <trkpt lat="32.158144" lon="-6.351867"><ele>908.0</ele></trkpt>
    <trkpt lat="32.158100" lon="-6.351707"><ele>905.8</ele></trkpt>
    <trkpt lat="32.158352" lon="-6.350064"><ele>892.0</ele></trkpt>
    <trkpt lat="32.158513" lon="-6.349365"><ele>892.0</ele></trkpt>
    <trkpt lat="32.157883" lon="-6.348952"><ele>893.2</ele></trkpt>
    <trkpt lat="32.156955" lon="-6.349770"><ele>897.8</ele></trkpt>
    <trkpt lat="32.156545" lon="-6.349792"><ele>902.5</ele></trkpt>
    <trkpt lat="32.155971" lon="-6.350070"><ele>902.5</ele></trkpt>
    <trkpt lat="32.155330" lon="-6.349159"><ele>897.0</ele></trkpt>
    <trkpt lat="32.154627" lon="-6.348636"><ele>889.5</ele></trkpt>
    <trkpt lat="32.154600" lon="-6.348616"><ele>889.2</ele></trkpt>
    <trkpt lat="32.153603" lon="-6.348099"><ele>888.5</ele></trkpt>
    <trkpt lat="32.152975" lon="-6.348252"><ele>887.0</ele></trkpt>
    <trkpt lat="32.152628" lon="-6.348126"><ele>886.8</ele></trkpt>
    <trkpt lat="32.152121" lon="-6.347547"><ele>886.8</ele></trkpt>
    <trkpt lat="32.150161" lon="-6.344991"><ele>892.2</ele></trkpt>
    <trkpt lat="32.148948" lon="-6.344082"><ele>898.0</ele></trkpt>
    <trkpt lat="32.148823" lon="-6.344964"><ele>898.8</ele></trkpt>
    <trkpt lat="32.148576" lon="-6.344545"><ele>898.8</ele></trkpt>
    <trkpt lat="32.146643" lon="-6.341903"><ele>909.8</ele></trkpt>
    <trkpt lat="32.146254" lon="-6.341449"><ele>914.2</ele></trkpt>
    <trkpt lat="32.143937" lon="-6.339530"><ele>925.0</ele></trkpt>
    <trkpt lat="32.143412" lon="-6.339119"><ele>925.0</ele></trkpt>
    <trkpt lat="32.141551" lon="-6.338115"><ele>925.0</ele></trkpt>
    <trkpt lat="32.140514" lon="-6.337746"><ele>925.0</ele></trkpt>
    <trkpt lat="32.140064" lon="-6.337644"><ele>924.2</ele></trkpt>
    <trkpt lat="32.138534" lon="-6.337411"><ele>907.8</ele></trkpt>
    <trkpt lat="32.138229" lon="-6.337349"><ele>904.8</ele></trkpt>
    <trkpt lat="32.136978" lon="-6.336700"><ele>904.0</ele></trkpt>
    <trkpt lat="32.134709" lon="-6.335029"><ele>899.2</ele></trkpt>
    <trkpt lat="32.133573" lon="-6.333726"><ele>899.2</ele></trkpt>
    <trkpt lat="32.133428" lon="-6.333440"><ele>896.0</ele></trkpt>
    <trkpt lat="32.133212" lon="-6.332754"><ele>890.2</ele></trkpt>
    <trkpt lat="32.133210" lon="-6.332191"><ele>885.8</ele></trkpt>
    <trkpt lat="32.134205" lon="-6.329034"><ele>868.2</ele></trkpt>
    <trkpt lat="32.135406" lon="-6.326733"><ele>868.2</ele></trkpt>
    <trkpt lat="32.135274" lon="-6.323147"><ele>878.8</ele></trkpt>
    <trkpt lat="32.135551" lon="-6.322516"><ele>878.8</ele></trkpt>
    <trkpt lat="32.135736" lon="-6.322315"><ele>878.8</ele></trkpt>
    <trkpt lat="32.136158" lon="-6.321913"><ele>878.0</ele></trkpt>
    <trkpt lat="32.136664" lon="-6.320931"><ele>874.5</ele></trkpt>
    <trkpt lat="32.136848" lon="-6.319992"><ele>874.5</ele></trkpt>
    <trkpt lat="32.136646" lon="-6.318262"><ele>875.0</ele></trkpt>
    <trkpt lat="32.137355" lon="-6.315870"><ele>873.8</ele></trkpt>
    <trkpt lat="32.137146" lon="-6.314644"><ele>867.2</ele></trkpt>
    <trkpt lat="32.137300" lon="-6.313612"><ele>866.8</ele></trkpt>
    <trkpt lat="32.137126" lon="-6.313147"><ele>867.0</ele></trkpt>
    <trkpt lat="32.136651" lon="-6.312839"><ele>867.0</ele></trkpt>
    <trkpt lat="32.136301" lon="-6.312775"><ele>866.5</ele></trkpt>
    <trkpt lat="32.135949" lon="-6.313056"><ele>865.8</ele></trkpt>
    <trkpt lat="32.135549" lon="-6.313410"><ele>854.2</ele></trkpt>
    <trkpt lat="32.135245" lon="-6.313416"><ele>851.2</ele></trkpt>
    <trkpt lat="32.134109" lon="-6.312367"><ele>845.0</ele></trkpt>
    <trkpt lat="32.133848" lon="-6.311833"><ele>840.2</ele></trkpt>
    <trkpt lat="32.133780" lon="-6.311436"><ele>840.2</ele></trkpt>
    <trkpt lat="32.134171" lon="-6.310599"><ele>840.2</ele></trkpt>
    <trkpt lat="32.136251" lon="-6.307987"><ele>849.5</ele></trkpt>
    <trkpt lat="32.137132" lon="-6.306182"><ele>856.5</ele></trkpt>
    <trkpt lat="32.137216" lon="-6.305538"><ele>857.2</ele></trkpt>
    <trkpt lat="32.137076" lon="-6.304559"><ele>857.2</ele></trkpt>
    <trkpt lat="32.136823" lon="-6.303859"><ele>856.5</ele></trkpt>
    <trkpt lat="32.136412" lon="-6.303127"><ele>853.5</ele></trkpt>
    <trkpt lat="32.135883" lon="-6.301888"><ele>842.2</ele></trkpt>
    <trkpt lat="32.134972" lon="-6.300380"><ele>827.0</ele></trkpt>
    <trkpt lat="32.134711" lon="-6.300013"><ele>826.0</ele></trkpt>
    <trkpt lat="32.134520" lon="-6.299895"><ele>825.2</ele></trkpt>
    <trkpt lat="32.134225" lon="-6.299806"><ele>824.5</ele></trkpt>
    <trkpt lat="32.131484" lon="-6.300862"><ele>823.2</ele></trkpt>
    <trkpt lat="32.130804" lon="-6.302011"><ele>825.5</ele></trkpt>
    <trkpt lat="32.130809" lon="-6.302279"><ele>826.8</ele></trkpt>
    <trkpt lat="32.131286" lon="-6.302888"><ele>828.5</ele></trkpt>
    <trkpt lat="32.131309" lon="-6.303321"><ele>826.8</ele></trkpt>
    <trkpt lat="32.131223" lon="-6.303617"><ele>826.8</ele></trkpt>
    <trkpt lat="32.131048" lon="-6.304183"><ele>829.2</ele></trkpt>
    <trkpt lat="32.130209" lon="-6.305326"><ele>835.2</ele></trkpt>
    <trkpt lat="32.130273" lon="-6.305471"><ele>835.2</ele></trkpt>
    <trkpt lat="32.130773" lon="-6.305769"><ele>836.5</ele></trkpt>
    <trkpt lat="32.131338" lon="-6.306085"><ele>835.2</ele></trkpt>
    <trkpt lat="32.131543" lon="-6.306614"><ele>832.5</ele></trkpt>
    <trkpt lat="32.131413" lon="-6.307217"><ele>831.5</ele></trkpt>
    <trkpt lat="32.130993" lon="-6.307923"><ele>831.5</ele></trkpt>
    <trkpt lat="32.130623" lon="-6.308438"><ele>831.0</ele></trkpt>
    <trkpt lat="32.129791" lon="-6.309119"><ele>826.8</ele></trkpt>
    <trkpt lat="32.129578" lon="-6.309068"><ele>826.8</ele></trkpt>
    <trkpt lat="32.129094" lon="-6.308558"><ele>825.2</ele></trkpt>
    <trkpt lat="32.128476" lon="-6.308413"><ele>825.2</ele></trkpt>
    <trkpt lat="32.128149" lon="-6.308646"><ele>822.0</ele></trkpt>
    <trkpt lat="32.127935" lon="-6.309745"><ele>824.0</ele></trkpt>
    <trkpt lat="32.127983" lon="-6.309956"><ele>824.0</ele></trkpt>
    <trkpt lat="32.129278" lon="-6.310720"><ele>823.5</ele></trkpt>
    <trkpt lat="32.129362" lon="-6.310881"><ele>823.5</ele></trkpt>
    <trkpt lat="32.129317" lon="-6.311299"><ele>823.8</ele></trkpt>
    <trkpt lat="32.128762" lon="-6.312091"><ele>827.8</ele></trkpt>
    <trkpt lat="32.128553" lon="-6.312689"><ele>827.8</ele></trkpt>
    <trkpt lat="32.128958" lon="-6.313826"><ele>827.8</ele></trkpt>
    <trkpt lat="32.129755" lon="-6.315680"><ele>824.5</ele></trkpt>
    <trkpt lat="32.129953" lon="-6.316637"><ele>823.0</ele></trkpt>
    <trkpt lat="32.129537" lon="-6.317951"><ele>820.8</ele></trkpt>
    <trkpt lat="32.129274" lon="-6.318246"><ele>820.8</ele></trkpt>
    <trkpt lat="32.128560" lon="-6.318694"><ele>823.5</ele></trkpt>
    <trkpt lat="32.127227" lon="-6.320473"><ele>825.2</ele></trkpt>
    <trkpt lat="32.126361" lon="-6.321382"><ele>826.2</ele></trkpt>
    <trkpt lat="32.126343" lon="-6.322160"><ele>828.5</ele></trkpt>
    <trkpt lat="32.126259" lon="-6.322586"><ele>829.8</ele></trkpt>
    <trkpt lat="32.125787" lon="-6.324002"><ele>829.8</ele></trkpt>
    <trkpt lat="32.125644" lon="-6.325370"><ele>830.2</ele></trkpt>
    <trkpt lat="32.125162" lon="-6.326263"><ele>829.8</ele></trkpt>
    <trkpt lat="32.125223" lon="-6.327366"><ele>829.2</ele></trkpt>
    <trkpt lat="32.125083" lon="-6.328012"><ele>829.2</ele></trkpt>
    <trkpt lat="32.124935" lon="-6.328286"><ele>829.2</ele></trkpt>
    <trkpt lat="32.124235" lon="-6.328798"><ele>834.8</ele></trkpt>
    <trkpt lat="32.123606" lon="-6.329131"><ele>839.2</ele></trkpt>
    <trkpt lat="32.120978" lon="-6.330504"><ele>865.0</ele></trkpt>
    <trkpt lat="32.120823" lon="-6.330850"><ele>865.2</ele></trkpt>
    <trkpt lat="32.120639" lon="-6.332044"><ele>866.0</ele></trkpt>
    <trkpt lat="32.120192" lon="-6.332508"><ele>868.5</ele></trkpt>
    <trkpt lat="32.119492" lon="-6.332543"><ele>871.0</ele></trkpt>
    <trkpt lat="32.118711" lon="-6.331757"><ele>872.8</ele></trkpt>
    <trkpt lat="32.117579" lon="-6.331209"><ele>875.5</ele></trkpt>
    <trkpt lat="32.117305" lon="-6.331244"><ele>875.8</ele></trkpt>
    <trkpt lat="32.117214" lon="-6.331397"><ele>876.5</ele></trkpt>
    <trkpt lat="32.117121" lon="-6.331786"><ele>876.5</ele></trkpt>
    <trkpt lat="32.117186" lon="-6.332269"><ele>876.5</ele></trkpt>
    <trkpt lat="32.117700" lon="-6.333055"><ele>874.8</ele></trkpt>
    <trkpt lat="32.118390" lon="-6.335016"><ele>872.2</ele></trkpt>
    <trkpt lat="32.118731" lon="-6.335431"><ele>872.2</ele></trkpt>
    <trkpt lat="32.118672" lon="-6.335930"><ele>873.0</ele></trkpt>
    <trkpt lat="32.118504" lon="-6.337086"><ele>881.0</ele></trkpt>
    <trkpt lat="32.118506" lon="-6.337159"><ele>881.0</ele></trkpt>
    <trkpt lat="32.118947" lon="-6.337604"><ele>881.2</ele></trkpt>
    <trkpt lat="32.118970" lon="-6.337902"><ele>881.2</ele></trkpt>
    <trkpt lat="32.118897" lon="-6.338333"><ele>882.5</ele></trkpt>
    <trkpt lat="32.118238" lon="-6.338544"><ele>889.8</ele></trkpt>
    <trkpt lat="32.118270" lon="-6.339873"><ele>891.5</ele></trkpt>
    <trkpt lat="32.117895" lon="-6.340240"><ele>896.0</ele></trkpt>
    <trkpt lat="32.117482" lon="-6.340404"><ele>900.8</ele></trkpt>
    <trkpt lat="32.115801" lon="-6.341611"><ele>912.8</ele></trkpt>
    <trkpt lat="32.115283" lon="-6.341453"><ele>916.2</ele></trkpt>
    <trkpt lat="32.114758" lon="-6.340946"><ele>921.0</ele></trkpt>
    <trkpt lat="32.114358" lon="-6.340101"><ele>927.2</ele></trkpt>
    <trkpt lat="32.114363" lon="-6.338818"><ele>935.8</ele></trkpt>
    <trkpt lat="32.114285" lon="-6.338317"><ele>938.2</ele></trkpt>
    <trkpt lat="32.114237" lon="-6.338210"><ele>938.2</ele></trkpt>
    <trkpt lat="32.113122" lon="-6.337896"><ele>941.2</ele></trkpt>
    <trkpt lat="32.112720" lon="-6.337776"><ele>944.8</ele></trkpt>
    <trkpt lat="32.111555" lon="-6.337157"><ele>956.2</ele></trkpt>
    <trkpt lat="32.111431" lon="-6.337028"><ele>958.0</ele></trkpt>
    <trkpt lat="32.111614" lon="-6.336577"><ele>965.0</ele></trkpt>
    <trkpt lat="32.112039" lon="-6.336265"><ele>965.8</ele></trkpt>
    <trkpt lat="32.112295" lon="-6.335767"><ele>966.5</ele></trkpt>
    <trkpt lat="32.112482" lon="-6.335123"><ele>970.8</ele></trkpt>
    <trkpt lat="32.112688" lon="-6.333696"><ele>979.0</ele></trkpt>
    <trkpt lat="32.112784" lon="-6.332854"><ele>984.2</ele></trkpt>
    <trkpt lat="32.113131" lon="-6.332140"><ele>985.0</ele></trkpt>
    <trkpt lat="32.113165" lon="-6.331564"><ele>986.8</ele></trkpt>
    <trkpt lat="32.113036" lon="-6.331051"><ele>987.8</ele></trkpt>
    <trkpt lat="32.112813" lon="-6.330743"><ele>991.5</ele></trkpt>
    <trkpt lat="32.111416" lon="-6.329737"><ele>1010.2</ele></trkpt>
    <trkpt lat="32.110369" lon="-6.328490"><ele>1022.8</ele></trkpt>
    <trkpt lat="32.109903" lon="-6.328187"><ele>1024.2</ele></trkpt>
    <trkpt lat="32.107935" lon="-6.327527"><ele>1025.5</ele></trkpt>
    <trkpt lat="32.107690" lon="-6.327484"><ele>1025.8</ele></trkpt>
    <trkpt lat="32.107427" lon="-6.327642"><ele>1034.0</ele></trkpt>
    <trkpt lat="32.107274" lon="-6.327704"><ele>1034.0</ele></trkpt>
    <trkpt lat="32.106779" lon="-6.327181"><ele>1035.8</ele></trkpt>
    <trkpt lat="32.106391" lon="-6.327017"><ele>1035.8</ele></trkpt>
    <trkpt lat="32.105945" lon="-6.327194"><ele>1041.5</ele></trkpt>
    <trkpt lat="32.105443" lon="-6.327154"><ele>1043.8</ele></trkpt>
    <trkpt lat="32.105198" lon="-6.327409"><ele>1044.8</ele></trkpt>
    <trkpt lat="32.104946" lon="-6.327433"><ele>1045.5</ele></trkpt>
    <trkpt lat="32.104362" lon="-6.327162"><ele>1045.5</ele></trkpt>
    <trkpt lat="32.103830" lon="-6.326978"><ele>1047.2</ele></trkpt>
    <trkpt lat="32.102305" lon="-6.326639"><ele>1056.2</ele></trkpt>
    <trkpt lat="32.102012" lon="-6.326234"><ele>1065.2</ele></trkpt>
    <trkpt lat="32.101583" lon="-6.326285"><ele>1069.5</ele></trkpt>
    <trkpt lat="32.101192" lon="-6.326441"><ele>1073.5</ele></trkpt>
    <trkpt lat="32.100826" lon="-6.326626"><ele>1074.0</ele></trkpt>
    <trkpt lat="32.100504" lon="-6.327401"><ele>1075.8</ele></trkpt>
    <trkpt lat="32.099738" lon="-6.328366"><ele>1078.8</ele></trkpt>
    <trkpt lat="32.099229" lon="-6.329404"><ele>1079.5</ele></trkpt>
    <trkpt lat="32.098997" lon="-6.329702"><ele>1080.0</ele></trkpt>
    <trkpt lat="32.098793" lon="-6.329933"><ele>1081.8</ele></trkpt>
    <trkpt lat="32.098254" lon="-6.330115"><ele>1091.0</ele></trkpt>
    <trkpt lat="32.097916" lon="-6.330161"><ele>1092.0</ele></trkpt>
    <trkpt lat="32.097643" lon="-6.330008"><ele>1094.2</ele></trkpt>
    <trkpt lat="32.097536" lon="-6.329522"><ele>1101.2</ele></trkpt>
    <trkpt lat="32.097500" lon="-6.329391"><ele>1101.8</ele></trkpt>
    <trkpt lat="32.097354" lon="-6.329222"><ele>1101.8</ele></trkpt>
    <trkpt lat="32.096982" lon="-6.329514"><ele>1101.2</ele></trkpt>
    <trkpt lat="32.096150" lon="-6.329088"><ele>1099.5</ele></trkpt>
    <trkpt lat="32.095916" lon="-6.328439"><ele>1099.5</ele></trkpt>
    <trkpt lat="32.095487" lon="-6.327506"><ele>1108.0</ele></trkpt>
    <trkpt lat="32.095209" lon="-6.327422"><ele>1107.2</ele></trkpt>
    <trkpt lat="32.095132" lon="-6.328109"><ele>1102.0</ele></trkpt>
    <trkpt lat="32.094616" lon="-6.329337"><ele>1102.0</ele></trkpt>
    <trkpt lat="32.094509" lon="-6.329918"><ele>1102.8</ele></trkpt>
    <trkpt lat="32.094415" lon="-6.329982"><ele>1102.8</ele></trkpt>
    <trkpt lat="32.094264" lon="-6.329972"><ele>1105.2</ele></trkpt>
    <trkpt lat="32.093816" lon="-6.329681"><ele>1111.5</ele></trkpt>
    <trkpt lat="32.093317" lon="-6.330043"><ele>1113.5</ele></trkpt>
    <trkpt lat="32.092594" lon="-6.330037"><ele>1119.8</ele></trkpt>
    <trkpt lat="32.092333" lon="-6.330622"><ele>1120.8</ele></trkpt>
    <trkpt lat="32.091961" lon="-6.330947"><ele>1123.0</ele></trkpt>
    <trkpt lat="32.091845" lon="-6.331289"><ele>1124.0</ele></trkpt>
    <trkpt lat="32.091485" lon="-6.331447"><ele>1128.0</ele></trkpt>
    <trkpt lat="32.091349" lon="-6.331346"><ele>1130.5</ele></trkpt>
    <trkpt lat="32.091360" lon="-6.331109"><ele>1131.5</ele></trkpt>
    <trkpt lat="32.091910" lon="-6.330343"><ele>1133.0</ele></trkpt>
    <trkpt lat="32.091930" lon="-6.330190"><ele>1133.2</ele></trkpt>
    <trkpt lat="32.091835" lon="-6.329622"><ele>1140.0</ele></trkpt>
    <trkpt lat="32.092369" lon="-6.328889"><ele>1141.2</ele></trkpt>
    <trkpt lat="32.092626" lon="-6.327811"><ele>1153.8</ele></trkpt>
    <trkpt lat="32.093021" lon="-6.327350"><ele>1154.2</ele></trkpt>
    <trkpt lat="32.093660" lon="-6.326207"><ele>1156.0</ele></trkpt>
    <trkpt lat="32.093628" lon="-6.325970"><ele>1157.2</ele></trkpt>
    <trkpt lat="32.093584" lon="-6.325940"><ele>1159.0</ele></trkpt>
    <trkpt lat="32.093035" lon="-6.326089"><ele>1172.5</ele></trkpt>
    <trkpt lat="32.092076" lon="-6.327178"><ele>1176.5</ele></trkpt>
    <trkpt lat="32.091087" lon="-6.327363"><ele>1188.5</ele></trkpt>
    <trkpt lat="32.090926" lon="-6.327495"><ele>1188.8</ele></trkpt>
    <trkpt lat="32.090776" lon="-6.327961"><ele>1190.2</ele></trkpt>
    <trkpt lat="32.089910" lon="-6.328498"><ele>1195.5</ele></trkpt>
    <trkpt lat="32.089465" lon="-6.328989"><ele>1198.8</ele></trkpt>
    <trkpt lat="32.089142" lon="-6.329163"><ele>1201.2</ele></trkpt>
    <trkpt lat="32.089044" lon="-6.329576"><ele>1203.2</ele></trkpt>
    <trkpt lat="32.088635" lon="-6.330255"><ele>1206.2</ele></trkpt>
    <trkpt lat="32.088526" lon="-6.330810"><ele>1208.2</ele></trkpt>
    <trkpt lat="32.088081" lon="-6.331172"><ele>1214.2</ele></trkpt>
    <trkpt lat="32.087331" lon="-6.332328"><ele>1216.0</ele></trkpt>
    <trkpt lat="32.087138" lon="-6.332403"><ele>1216.2</ele></trkpt>
    <trkpt lat="32.085933" lon="-6.332478"><ele>1231.0</ele></trkpt>
    <trkpt lat="32.085627" lon="-6.332712"><ele>1231.2</ele></trkpt>
    <trkpt lat="32.085045" lon="-6.333674"><ele>1234.2</ele></trkpt>
    <trkpt lat="32.084918" lon="-6.333704"><ele>1234.5</ele></trkpt>
    <trkpt lat="32.084406" lon="-6.333353"><ele>1241.5</ele></trkpt>
    <trkpt lat="32.084056" lon="-6.333511"><ele>1242.0</ele></trkpt>
    <trkpt lat="32.083631" lon="-6.333857"><ele>1242.8</ele></trkpt>
    <trkpt lat="32.083009" lon="-6.334329"><ele>1251.0</ele></trkpt>
    <trkpt lat="32.082316" lon="-6.335925"><ele>1251.0</ele></trkpt>
    <trkpt lat="32.081968" lon="-6.336099"><ele>1252.5</ele></trkpt>
    <trkpt lat="32.081783" lon="-6.336016"><ele>1256.0</ele></trkpt>
    <trkpt lat="32.081774" lon="-6.335889"><ele>1258.2</ele></trkpt>
    <trkpt lat="32.082050" lon="-6.335278"><ele>1263.8</ele></trkpt>
    <trkpt lat="32.082200" lon="-6.334069"><ele>1276.2</ele></trkpt>
    <trkpt lat="32.082218" lon="-6.333902"><ele>1278.0</ele></trkpt>
    <trkpt lat="32.082861" lon="-6.332540"><ele>1283.2</ele></trkpt>
    <trkpt lat="32.084427" lon="-6.330536"><ele>1301.0</ele></trkpt>
    <trkpt lat="32.086374" lon="-6.328584"><ele>1310.2</ele></trkpt>
    <trkpt lat="32.087324" lon="-6.326969"><ele>1324.0</ele></trkpt>
    <trkpt lat="32.087658" lon="-6.325681"><ele>1336.8</ele></trkpt>
    <trkpt lat="32.087895" lon="-6.324944"><ele>1342.5</ele></trkpt>
    <trkpt lat="32.088665" lon="-6.324185"><ele>1344.5</ele></trkpt>
    <trkpt lat="32.089769" lon="-6.322696"><ele>1358.5</ele></trkpt>
    <trkpt lat="32.090110" lon="-6.322409"><ele>1359.2</ele></trkpt>
    <trkpt lat="32.090806" lon="-6.322125"><ele>1360.8</ele></trkpt>
    <trkpt lat="32.090967" lon="-6.321832"><ele>1361.0</ele></trkpt>
    <trkpt lat="32.091492" lon="-6.320642"><ele>1370.2</ele></trkpt>
    <trkpt lat="32.091503" lon="-6.318807"><ele>1392.8</ele></trkpt>
    <trkpt lat="32.091696" lon="-6.318171"><ele>1398.0</ele></trkpt>
    <trkpt lat="32.091996" lon="-6.317603"><ele>1398.8</ele></trkpt>
    <trkpt lat="32.092419" lon="-6.315953"><ele>1413.5</ele></trkpt>
    <trkpt lat="32.092435" lon="-6.315352"><ele>1414.2</ele></trkpt>
    <trkpt lat="32.092357" lon="-6.315210"><ele>1418.5</ele></trkpt>
    <trkpt lat="32.091815" lon="-6.314651"><ele>1439.8</ele></trkpt>
    <trkpt lat="32.091628" lon="-6.314392"><ele>1439.8</ele></trkpt>
    <trkpt lat="32.091451" lon="-6.313923"><ele>1439.8</ele></trkpt>
    <trkpt lat="32.091612" lon="-6.312485"><ele>1450.8</ele></trkpt>
    <trkpt lat="32.091044" lon="-6.312158"><ele>1450.8</ele></trkpt>
    <trkpt lat="32.090022" lon="-6.311383"><ele>1459.0</ele></trkpt>
    <trkpt lat="32.089683" lon="-6.311358"><ele>1472.0</ele></trkpt>
    <trkpt lat="32.089560" lon="-6.311310"><ele>1472.8</ele></trkpt>
    <trkpt lat="32.088667" lon="-6.308797"><ele>1476.2</ele></trkpt>
    <trkpt lat="32.088401" lon="-6.308486"><ele>1481.8</ele></trkpt>
    <trkpt lat="32.088306" lon="-6.307635"><ele>1482.5</ele></trkpt>
    <trkpt lat="32.088006" lon="-6.305875"><ele>1498.8</ele></trkpt>
    <trkpt lat="32.087788" lon="-6.305382"><ele>1506.8</ele></trkpt>
    <trkpt lat="32.087834" lon="-6.305049"><ele>1512.5</ele></trkpt>
    <trkpt lat="32.088458" lon="-6.304256"><ele>1516.2</ele></trkpt>
    <trkpt lat="32.088535" lon="-6.303720"><ele>1516.2</ele></trkpt>
    <trkpt lat="32.088551" lon="-6.302888"><ele>1519.0</ele></trkpt>
    <trkpt lat="32.088133" lon="-6.301981"><ele>1521.8</ele></trkpt>
    <trkpt lat="32.087549" lon="-6.301697"><ele>1523.2</ele></trkpt>
    <trkpt lat="32.086222" lon="-6.301255"><ele>1537.2</ele></trkpt>
    <trkpt lat="32.085465" lon="-6.300715"><ele>1551.0</ele></trkpt>
    <trkpt lat="32.085152" lon="-6.300276"><ele>1557.8</ele></trkpt>
    <trkpt lat="32.084284" lon="-6.300120"><ele>1565.8</ele></trkpt>
    <trkpt lat="32.083724" lon="-6.300320"><ele>1571.5</ele></trkpt>
    <trkpt lat="32.083651" lon="-6.300406"><ele>1573.0</ele></trkpt>
    <trkpt lat="32.083672" lon="-6.300622"><ele>1573.0</ele></trkpt>
    <trkpt lat="32.084206" lon="-6.300951"><ele>1572.2</ele></trkpt>
    <trkpt lat="32.084122" lon="-6.301198"><ele>1572.2</ele></trkpt>
    <trkpt lat="32.083636" lon="-6.301619"><ele>1581.8</ele></trkpt>
    <trkpt lat="32.083525" lon="-6.301684"><ele>1584.2</ele></trkpt>
    <trkpt lat="32.082177" lon="-6.301115"><ele>1598.2</ele></trkpt>
    <trkpt lat="32.081918" lon="-6.301142"><ele>1601.8</ele></trkpt>
    <trkpt lat="32.081534" lon="-6.301228"><ele>1608.5</ele></trkpt>
    <trkpt lat="32.080609" lon="-6.301796"><ele>1625.0</ele></trkpt>
    <trkpt lat="32.080347" lon="-6.301866"><ele>1629.2</ele></trkpt>
    <trkpt lat="32.079707" lon="-6.301928"><ele>1640.5</ele></trkpt>
    <trkpt lat="32.079532" lon="-6.301817"><ele>1642.2</ele></trkpt>
    <trkpt lat="32.079636" lon="-6.301477"><ele>1642.2</ele></trkpt>
    <trkpt lat="32.080116" lon="-6.301016"><ele>1642.5</ele></trkpt>
    <trkpt lat="32.080854" lon="-6.299863"><ele>1643.8</ele></trkpt>
    <trkpt lat="32.081514" lon="-6.298703"><ele>1649.8</ele></trkpt>
    <trkpt lat="32.081759" lon="-6.297966"><ele>1659.2</ele></trkpt>
    <trkpt lat="32.081879" lon="-6.297731"><ele>1659.2</ele></trkpt>
    <trkpt lat="32.082613" lon="-6.297263"><ele>1662.8</ele></trkpt>
    <trkpt lat="32.082861" lon="-6.296925"><ele>1664.5</ele></trkpt>
    <trkpt lat="32.083018" lon="-6.296507"><ele>1664.5</ele></trkpt>
    <trkpt lat="32.083313" lon="-6.295432"><ele>1673.5</ele></trkpt>
    <trkpt lat="32.083627" lon="-6.293954"><ele>1676.0</ele></trkpt>
    <trkpt lat="32.083568" lon="-6.293420"><ele>1679.2</ele></trkpt>
    <trkpt lat="32.083465" lon="-6.293203"><ele>1679.2</ele></trkpt>
    <trkpt lat="32.083120" lon="-6.292823"><ele>1691.5</ele></trkpt>
    <trkpt lat="32.083030" lon="-6.292720"><ele>1691.5</ele></trkpt>
    <trkpt lat="32.082850" lon="-6.292089"><ele>1694.2</ele></trkpt>
    <trkpt lat="32.081901" lon="-6.290021"><ele>1710.0</ele></trkpt>
    <trkpt lat="32.081981" lon="-6.287931"><ele>1718.8</ele></trkpt>
    <trkpt lat="32.081984" lon="-6.287633"><ele>1720.8</ele></trkpt>
    <trkpt lat="32.081759" lon="-6.286442"><ele>1731.8</ele></trkpt>
    <trkpt lat="32.081753" lon="-6.286316"><ele>1732.5</ele></trkpt>
    <trkpt lat="32.082054" lon="-6.284511"><ele>1741.2</ele></trkpt>
    <trkpt lat="32.081688" lon="-6.283701"><ele>1745.5</ele></trkpt>
    <trkpt lat="32.081425" lon="-6.283052"><ele>1754.8</ele></trkpt>
    <trkpt lat="32.081359" lon="-6.282578"><ele>1759.0</ele></trkpt>
    <trkpt lat="32.081352" lon="-6.282375"><ele>1760.0</ele></trkpt>
    <trkpt lat="32.081653" lon="-6.280964"><ele>1762.5</ele></trkpt>
    <trkpt lat="32.081425" lon="-6.279244"><ele>1785.0</ele></trkpt>
    <trkpt lat="32.081391" lon="-6.278430"><ele>1794.5</ele></trkpt>
    <trkpt lat="32.081384" lon="-6.277652"><ele>1798.8</ele></trkpt>
    <trkpt lat="32.081108" lon="-6.276861"><ele>1806.5</ele></trkpt>
    <trkpt lat="32.081046" lon="-6.276608"><ele>1807.0</ele></trkpt>
    <trkpt lat="32.080999" lon="-6.276018"><ele>1807.8</ele></trkpt>
    <trkpt lat="32.080698" lon="-6.275366"><ele>1807.8</ele></trkpt>
    <trkpt lat="32.080461" lon="-6.275167"><ele>1807.5</ele></trkpt>
    <trkpt lat="32.080177" lon="-6.275134"><ele>1807.5</ele></trkpt>
    <trkpt lat="32.079483" lon="-6.275319"><ele>1808.5</ele></trkpt>
    <trkpt lat="32.078879" lon="-6.275845"><ele>1809.2</ele></trkpt>
    <trkpt lat="32.075827" lon="-6.278910"><ele>1817.5</ele></trkpt>
    <trkpt lat="32.075151" lon="-6.279547"><ele>1817.5</ele></trkpt>
    <trkpt lat="32.073802" lon="-6.280473"><ele>1816.8</ele></trkpt>
    <trkpt lat="32.072619" lon="-6.281206"><ele>1806.8</ele></trkpt>
    <trkpt lat="32.071819" lon="-6.281516"><ele>1797.5</ele></trkpt>
    <trkpt lat="32.071546" lon="-6.281573"><ele>1796.8</ele></trkpt>
    <trkpt lat="32.071272" lon="-6.281504"><ele>1795.5</ele></trkpt>
    <trkpt lat="32.070041" lon="-6.280644"><ele>1795.0</ele></trkpt>
    <trkpt lat="32.069232" lon="-6.280315"><ele>1793.5</ele></trkpt>
    <trkpt lat="32.067711" lon="-6.278418"><ele>1791.5</ele></trkpt>
    <trkpt lat="32.067354" lon="-6.277796"><ele>1790.8</ele></trkpt>
    <trkpt lat="32.067122" lon="-6.277528"><ele>1790.0</ele></trkpt>
    <trkpt lat="32.066888" lon="-6.277340"><ele>1788.0</ele></trkpt>
    <trkpt lat="32.065583" lon="-6.276653"><ele>1773.8</ele></trkpt>
    <trkpt lat="32.064455" lon="-6.276350"><ele>1765.2</ele></trkpt>
    <trkpt lat="32.063641" lon="-6.275791"><ele>1756.2</ele></trkpt>
    <trkpt lat="32.063330" lon="-6.275379"><ele>1751.2</ele></trkpt>
    <trkpt lat="32.063444" lon="-6.273663"><ele>1744.0</ele></trkpt>
    <trkpt lat="32.063792" lon="-6.272464"><ele>1738.2</ele></trkpt>
    <trkpt lat="32.063894" lon="-6.272241"><ele>1737.0</ele></trkpt>
    <trkpt lat="32.064663" lon="-6.270975"><ele>1728.0</ele></trkpt>
    <trkpt lat="32.064908" lon="-6.270514"><ele>1724.8</ele></trkpt>
    <trkpt lat="32.065890" lon="-6.269276"><ele>1716.5</ele></trkpt>
    <trkpt lat="32.066157" lon="-6.268562"><ele>1711.0</ele></trkpt>
    <trkpt lat="32.066990" lon="-6.267239"><ele>1701.0</ele></trkpt>
    <trkpt lat="32.067365" lon="-6.266151"><ele>1692.2</ele></trkpt>
    <trkpt lat="32.067429" lon="-6.266013"><ele>1691.2</ele></trkpt>
    <trkpt lat="32.067929" lon="-6.265333"><ele>1689.2</ele></trkpt>
    <trkpt lat="32.067999" lon="-6.264923"><ele>1686.2</ele></trkpt>
    <trkpt lat="32.067921" lon="-6.263855"><ele>1680.5</ele></trkpt>
    <trkpt lat="32.067738" lon="-6.263415"><ele>1677.5</ele></trkpt>
    <trkpt lat="32.066658" lon="-6.263147"><ele>1672.8</ele></trkpt>
    <trkpt lat="32.066490" lon="-6.262963"><ele>1671.2</ele></trkpt>
    <trkpt lat="32.066182" lon="-6.262561"><ele>1668.0</ele></trkpt>
    <trkpt lat="32.065620" lon="-6.262128"><ele>1661.8</ele></trkpt>
    <trkpt lat="32.065476" lon="-6.261827"><ele>1658.0</ele></trkpt>
    <trkpt lat="32.065621" lon="-6.260952"><ele>1654.0</ele></trkpt>
    <trkpt lat="32.066130" lon="-6.259820"><ele>1653.2</ele></trkpt>
    <trkpt lat="32.066606" lon="-6.258197"><ele>1640.2</ele></trkpt>
    <trkpt lat="32.066903" lon="-6.256435"><ele>1631.2</ele></trkpt>
    <trkpt lat="32.066934" lon="-6.256193"><ele>1630.8</ele></trkpt>
    <trkpt lat="32.066959" lon="-6.254765"><ele>1629.5</ele></trkpt>
    <trkpt lat="32.066905" lon="-6.254147"><ele>1628.5</ele></trkpt>
    <trkpt lat="32.066687" lon="-6.252845"><ele>1619.5</ele></trkpt>
    <trkpt lat="32.066930" lon="-6.251443"><ele>1608.0</ele></trkpt>
    <trkpt lat="32.066924" lon="-6.251162"><ele>1606.5</ele></trkpt>
    <trkpt lat="32.066903" lon="-6.250678"><ele>1602.8</ele></trkpt>
    <trkpt lat="32.066655" lon="-6.247765"><ele>1578.0</ele></trkpt>
    <trkpt lat="32.066421" lon="-6.246538"><ele>1568.2</ele></trkpt>
    <trkpt lat="32.065613" lon="-6.244951"><ele>1559.2</ele></trkpt>
    <trkpt lat="32.064419" lon="-6.242418"><ele>1550.5</ele></trkpt>
    <trkpt lat="32.064170" lon="-6.242141"><ele>1549.5</ele></trkpt>
    <trkpt lat="32.062103" lon="-6.240621"><ele>1528.2</ele></trkpt>
    <trkpt lat="32.061345" lon="-6.239667"><ele>1519.5</ele></trkpt>
    <trkpt lat="32.060635" lon="-6.239023"><ele>1513.5</ele></trkpt>
    <trkpt lat="32.060239" lon="-6.238107"><ele>1509.5</ele></trkpt>
    <trkpt lat="32.059985" lon="-6.237826"><ele>1509.2</ele></trkpt>
    <trkpt lat="32.059171" lon="-6.237871"><ele>1509.2</ele></trkpt>
    <trkpt lat="32.056062" lon="-6.238495"><ele>1509.2</ele></trkpt>
    <trkpt lat="32.055637" lon="-6.238452"><ele>1508.0</ele></trkpt>
    <trkpt lat="32.053792" lon="-6.237476"><ele>1501.8</ele></trkpt>
    <trkpt lat="32.053594" lon="-6.237317"><ele>1501.0</ele></trkpt>
    <trkpt lat="32.051676" lon="-6.235468"><ele>1485.8</ele></trkpt>
    <trkpt lat="32.050305" lon="-6.235357"><ele>1475.0</ele></trkpt>
    <trkpt lat="32.049832" lon="-6.235251"><ele>1471.2</ele></trkpt>
    <trkpt lat="32.047995" lon="-6.234634"><ele>1452.5</ele></trkpt>
    <trkpt lat="32.047604" lon="-6.234443"><ele>1448.2</ele></trkpt>
    <trkpt lat="32.047356" lon="-6.234185"><ele>1445.2</ele></trkpt>
    <trkpt lat="32.045952" lon="-6.232342"><ele>1424.0</ele></trkpt>
    <trkpt lat="32.044419" lon="-6.231399"><ele>1416.0</ele></trkpt>
    <trkpt lat="32.043256" lon="-6.230624"><ele>1406.0</ele></trkpt>
    <trkpt lat="32.042782" lon="-6.230104"><ele>1400.0</ele></trkpt>
    <trkpt lat="32.042199" lon="-6.229161"><ele>1393.8</ele></trkpt>
    <trkpt lat="32.042068" lon="-6.228984"><ele>1392.2</ele></trkpt>
    <trkpt lat="32.041591" lon="-6.228642"><ele>1385.0</ele></trkpt>
    <trkpt lat="32.041074" lon="-6.228701"><ele>1378.0</ele></trkpt>
    <trkpt lat="32.040805" lon="-6.229015"><ele>1377.2</ele></trkpt>
    <trkpt lat="32.040718" lon="-6.229320"><ele>1374.8</ele></trkpt>
    <trkpt lat="32.040884" lon="-6.231166"><ele>1362.8</ele></trkpt>
    <trkpt lat="32.041663" lon="-6.233540"><ele>1351.2</ele></trkpt>
    <trkpt lat="32.041675" lon="-6.233695"><ele>1351.2</ele></trkpt>
    <trkpt lat="32.041347" lon="-6.234158"><ele>1349.8</ele></trkpt>
    <trkpt lat="32.040987" lon="-6.234004"><ele>1348.5</ele></trkpt>
    <trkpt lat="32.040167" lon="-6.232810"><ele>1335.8</ele></trkpt>
    <trkpt lat="32.039149" lon="-6.230828"><ele>1322.8</ele></trkpt>
    <trkpt lat="32.038377" lon="-6.228695"><ele>1314.2</ele></trkpt>
    <trkpt lat="32.037871" lon="-6.227759"><ele>1303.2</ele></trkpt>
    <trkpt lat="32.036138" lon="-6.226147"><ele>1277.5</ele></trkpt>
    <trkpt lat="32.035543" lon="-6.225748"><ele>1273.8</ele></trkpt>
    <trkpt lat="32.035076" lon="-6.225147"><ele>1272.0</ele></trkpt>
    <trkpt lat="32.034779" lon="-6.224482"><ele>1270.0</ele></trkpt>
    <trkpt lat="32.034801" lon="-6.223782"><ele>1265.2</ele></trkpt>
    <trkpt lat="32.034954" lon="-6.223192"><ele>1261.8</ele></trkpt>
    <trkpt lat="32.034860" lon="-6.222647"><ele>1259.8</ele></trkpt>
    <trkpt lat="32.034542" lon="-6.222296"><ele>1257.0</ele></trkpt>
    <trkpt lat="32.033178" lon="-6.221486"><ele>1252.5</ele></trkpt>
    <trkpt lat="32.032719" lon="-6.221201"><ele>1252.5</ele></trkpt>
    <trkpt lat="32.031629" lon="-6.219375"><ele>1251.2</ele></trkpt>
    <trkpt lat="32.031184" lon="-6.218216"><ele>1249.0</ele></trkpt>
    <trkpt lat="32.030336" lon="-6.217272"><ele>1234.0</ele></trkpt>
    <trkpt lat="32.030206" lon="-6.217057"><ele>1233.5</ele></trkpt>
    <trkpt lat="32.029922" lon="-6.216274"><ele>1231.2</ele></trkpt>
    <trkpt lat="32.029843" lon="-6.214790"><ele>1224.8</ele></trkpt>
    <trkpt lat="32.030357" lon="-6.214233"><ele>1225.5</ele></trkpt>
    <trkpt lat="32.030479" lon="-6.213871"><ele>1224.8</ele></trkpt>
    <trkpt lat="32.030198" lon="-6.212326"><ele>1213.2</ele></trkpt>
    <trkpt lat="32.030183" lon="-6.212208"><ele>1213.2</ele></trkpt>
    <trkpt lat="32.030339" lon="-6.211497"><ele>1212.2</ele></trkpt>
    <trkpt lat="32.030438" lon="-6.210902"><ele>1204.5</ele></trkpt>
    <trkpt lat="32.029809" lon="-6.209995"><ele>1192.8</ele></trkpt>
    <trkpt lat="32.029679" lon="-6.209654"><ele>1190.0</ele></trkpt>
    <trkpt lat="32.029216" lon="-6.208112"><ele>1176.0</ele></trkpt>
    <trkpt lat="32.029065" lon="-6.207788"><ele>1168.0</ele></trkpt>
    <trkpt lat="32.028858" lon="-6.207444"><ele>1157.0</ele></trkpt>
    <trkpt lat="32.029110" lon="-6.207308"><ele>1159.0</ele></trkpt>
    <trkpt lat="32.029394" lon="-6.207941"><ele>1163.0</ele></trkpt>
    <trkpt lat="32.030329" lon="-6.208734"><ele>1170.2</ele></trkpt>
    <trkpt lat="32.030406" lon="-6.208525"><ele>1170.2</ele></trkpt>
    <trkpt lat="32.030365" lon="-6.207983"><ele>1164.5</ele></trkpt>
    <trkpt lat="32.029817" lon="-6.206540"><ele>1148.5</ele></trkpt>
    <trkpt lat="32.029855" lon="-6.206288"><ele>1148.0</ele></trkpt>
    <trkpt lat="32.030102" lon="-6.206138"><ele>1149.2</ele></trkpt>
    <trkpt lat="32.030126" lon="-6.205956"><ele>1149.2</ele></trkpt>
    <trkpt lat="32.030110" lon="-6.205918"><ele>1149.2</ele></trkpt>
    <trkpt lat="32.030024" lon="-6.205848"><ele>1147.5</ele></trkpt>
    <trkpt lat="32.029243" lon="-6.205818"><ele>1137.8</ele></trkpt>
    <trkpt lat="32.028695" lon="-6.204472"><ele>1136.5</ele></trkpt>
    <trkpt lat="32.028621" lon="-6.204376"><ele>1136.0</ele></trkpt>
    <trkpt lat="32.028319" lon="-6.204244"><ele>1130.2</ele></trkpt>
    <trkpt lat="32.027648" lon="-6.204137"><ele>1118.0</ele></trkpt>
    <trkpt lat="32.027561" lon="-6.204057"><ele>1117.2</ele></trkpt>
    <trkpt lat="32.027186" lon="-6.203522"><ele>1115.5</ele></trkpt>
    <trkpt lat="32.026990" lon="-6.202884"><ele>1115.0</ele></trkpt>
    <trkpt lat="32.026875" lon="-6.202984"><ele>1112.0</ele></trkpt>
    <trkpt lat="32.026877" lon="-6.203094"><ele>1110.0</ele></trkpt>
    <trkpt lat="32.027075" lon="-6.205036"><ele>1094.5</ele></trkpt>
    <trkpt lat="32.027068" lon="-6.205559"><ele>1093.8</ele></trkpt>
    <trkpt lat="32.026882" lon="-6.205671"><ele>1088.8</ele></trkpt>
    <trkpt lat="32.026809" lon="-6.205634"><ele>1086.8</ele></trkpt>
    <trkpt lat="32.026756" lon="-6.205537"><ele>1086.8</ele></trkpt>
    <trkpt lat="32.026468" lon="-6.204215"><ele>1090.2</ele></trkpt>
    <trkpt lat="32.026309" lon="-6.204008"><ele>1090.2</ele></trkpt>
    <trkpt lat="32.026232" lon="-6.204202"><ele>1089.0</ele></trkpt>
    <trkpt lat="32.026331" lon="-6.204809"><ele>1085.0</ele></trkpt>
    <trkpt lat="32.025990" lon="-6.205058"><ele>1085.0</ele></trkpt>
    <trkpt lat="32.025873" lon="-6.205301"><ele>1085.0</ele></trkpt>
    <trkpt lat="32.025729" lon="-6.206401"><ele>1088.2</ele></trkpt>
    <trkpt lat="32.025824" lon="-6.207664"><ele>1088.5</ele></trkpt>
    <trkpt lat="32.025683" lon="-6.207852"><ele>1089.5</ele></trkpt>
    <trkpt lat="32.025419" lon="-6.207911"><ele>1090.2</ele></trkpt>
    <trkpt lat="32.024717" lon="-6.207691"><ele>1098.2</ele></trkpt>
    <trkpt lat="32.024553" lon="-6.207517"><ele>1102.0</ele></trkpt>
    <trkpt lat="32.024519" lon="-6.207104"><ele>1107.5</ele></trkpt>
    <trkpt lat="32.024905" lon="-6.206342"><ele>1119.5</ele></trkpt>
    <trkpt lat="32.024942" lon="-6.205921"><ele>1123.8</ele></trkpt>
    <trkpt lat="32.024250" lon="-6.205360"><ele>1127.8</ele></trkpt>
    <trkpt lat="32.023709" lon="-6.204443"><ele>1136.8</ele></trkpt>
    <trkpt lat="32.022186" lon="-6.204169"><ele>1136.8</ele></trkpt>
    <trkpt lat="32.021544" lon="-6.203493"><ele>1135.2</ele></trkpt>
    <trkpt lat="32.020730" lon="-6.203043"><ele>1135.2</ele></trkpt>
    <trkpt lat="32.020357" lon="-6.200591"><ele>1140.0</ele></trkpt>
    <trkpt lat="32.019802" lon="-6.199502"><ele>1141.0</ele></trkpt>
    <trkpt lat="32.019511" lon="-6.199315"><ele>1141.0</ele></trkpt>
    <trkpt lat="32.018897" lon="-6.198901"><ele>1143.5</ele></trkpt>
    <trkpt lat="32.017323" lon="-6.198413"><ele>1153.0</ele></trkpt>
    <trkpt lat="32.016969" lon="-6.198290"><ele>1153.8</ele></trkpt>
    <trkpt lat="32.012106" lon="-6.199958"><ele>1172.8</ele></trkpt>
    <trkpt lat="32.010760" lon="-6.200972"><ele>1177.2</ele></trkpt>
    <trkpt lat="32.009636" lon="-6.201128"><ele>1183.0</ele></trkpt>
    <trkpt lat="32.008563" lon="-6.201680"><ele>1188.0</ele></trkpt>
    <trkpt lat="32.007387" lon="-6.202158"><ele>1189.0</ele></trkpt>
    <trkpt lat="32.006880" lon="-6.202112"><ele>1190.0</ele></trkpt>
    <trkpt lat="32.006702" lon="-6.202386"><ele>1190.5</ele></trkpt>
    <trkpt lat="32.006336" lon="-6.203459"><ele>1202.8</ele></trkpt>
    <trkpt lat="32.006357" lon="-6.203794"><ele>1208.0</ele></trkpt>
    <trkpt lat="32.006327" lon="-6.203955"><ele>1208.2</ele></trkpt>
    <trkpt lat="32.005792" lon="-6.204470"><ele>1210.2</ele></trkpt>
    <trkpt lat="32.005856" lon="-6.204993"><ele>1217.2</ele></trkpt>
    <trkpt lat="32.004866" lon="-6.205283"><ele>1222.0</ele></trkpt>
    <trkpt lat="32.004055" lon="-6.204915"><ele>1223.8</ele></trkpt>
    <trkpt lat="32.003581" lon="-6.205079"><ele>1227.5</ele></trkpt>
    <trkpt lat="32.003458" lon="-6.204667"><ele>1227.5</ele></trkpt>
    <trkpt lat="32.003619" lon="-6.204319"><ele>1227.5</ele></trkpt>
    <trkpt lat="32.004039" lon="-6.203987"><ele>1225.8</ele></trkpt>
    <trkpt lat="32.004043" lon="-6.203807"><ele>1225.8</ele></trkpt>
    <trkpt lat="32.003996" lon="-6.203743"><ele>1225.8</ele></trkpt>
    <trkpt lat="32.003488" lon="-6.203389"><ele>1235.2</ele></trkpt>
    <trkpt lat="32.003404" lon="-6.203094"><ele>1239.0</ele></trkpt>
    <trkpt lat="32.002704" lon="-6.202045"><ele>1253.0</ele></trkpt>
    <trkpt lat="32.002494" lon="-6.201718"><ele>1255.8</ele></trkpt>
    <trkpt lat="32.002519" lon="-6.201297"><ele>1258.0</ele></trkpt>
    <trkpt lat="32.003040" lon="-6.200838"><ele>1258.0</ele></trkpt>
    <trkpt lat="32.003065" lon="-6.200575"><ele>1258.2</ele></trkpt>
    <trkpt lat="32.002419" lon="-6.199427"><ele>1264.8</ele></trkpt>
    <trkpt lat="32.002087" lon="-6.198456"><ele>1269.8</ele></trkpt>
    <trkpt lat="32.002176" lon="-6.198204"><ele>1269.8</ele></trkpt>
    <trkpt lat="32.002756" lon="-6.197960"><ele>1269.8</ele></trkpt>
    <trkpt lat="32.002902" lon="-6.197542"><ele>1270.2</ele></trkpt>
    <trkpt lat="32.002820" lon="-6.197102"><ele>1274.2</ele></trkpt>
    <trkpt lat="32.002067" lon="-6.196549"><ele>1280.5</ele></trkpt>
    <trkpt lat="32.001962" lon="-6.196268"><ele>1282.5</ele></trkpt>
    <trkpt lat="32.001857" lon="-6.195967"><ele>1284.5</ele></trkpt>
    <trkpt lat="32.001111" lon="-6.195374"><ele>1294.2</ele></trkpt>
    <trkpt lat="31.999592" lon="-6.193990"><ele>1313.2</ele></trkpt>
    <trkpt lat="31.999117" lon="-6.193373"><ele>1317.2</ele></trkpt>
    <trkpt lat="31.998800" lon="-6.192993"><ele>1317.2</ele></trkpt>
    <trkpt lat="31.998125" lon="-6.192571"><ele>1317.0</ele></trkpt>
    <trkpt lat="31.997557" lon="-6.192249"><ele>1312.8</ele></trkpt>
    <trkpt lat="31.997110" lon="-6.191413"><ele>1306.8</ele></trkpt>
    <trkpt lat="31.996906" lon="-6.190855"><ele>1301.2</ele></trkpt>
    <trkpt lat="31.996783" lon="-6.190270"><ele>1294.8</ele></trkpt>
    <trkpt lat="31.995677" lon="-6.189618"><ele>1284.8</ele></trkpt>
    <trkpt lat="31.995561" lon="-6.189001"><ele>1277.5</ele></trkpt>
    <trkpt lat="31.995170" lon="-6.188859"><ele>1275.2</ele></trkpt>
    <trkpt lat="31.995011" lon="-6.188666"><ele>1272.5</ele></trkpt>
    <trkpt lat="31.995002" lon="-6.188570"><ele>1271.5</ele></trkpt>
    <trkpt lat="31.994979" lon="-6.187703"><ele>1259.2</ele></trkpt>
    <trkpt lat="31.994899" lon="-6.187499"><ele>1258.0</ele></trkpt>
    <trkpt lat="31.994415" lon="-6.187363"><ele>1256.8</ele></trkpt>
    <trkpt lat="31.994315" lon="-6.186925"><ele>1252.0</ele></trkpt>
    <trkpt lat="31.993978" lon="-6.186596"><ele>1250.2</ele></trkpt>
    <trkpt lat="31.993993" lon="-6.186411"><ele>1249.8</ele></trkpt>
    <trkpt lat="31.994712" lon="-6.184314"><ele>1233.5</ele></trkpt>
    <trkpt lat="31.994643" lon="-6.183766"><ele>1233.0</ele></trkpt>
    <trkpt lat="31.994851" lon="-6.183119"><ele>1230.0</ele></trkpt>
    <trkpt lat="31.994683" lon="-6.182531"><ele>1229.0</ele></trkpt>
    <trkpt lat="31.994669" lon="-6.182274"><ele>1228.8</ele></trkpt>
    <trkpt lat="31.994763" lon="-6.181617"><ele>1224.0</ele></trkpt>
    <trkpt lat="31.995180" lon="-6.181093"><ele>1214.2</ele></trkpt>
    <trkpt lat="31.995352" lon="-6.179928"><ele>1202.8</ele></trkpt>
    <trkpt lat="31.995313" lon="-6.179519"><ele>1202.5</ele></trkpt>
    <trkpt lat="31.996100" lon="-6.177747"><ele>1199.8</ele></trkpt>
    <trkpt lat="31.996166" lon="-6.177278"><ele>1199.0</ele></trkpt>
    <trkpt lat="31.996154" lon="-6.177012"><ele>1198.8</ele></trkpt>
    <trkpt lat="31.995725" lon="-6.174468"><ele>1191.0</ele></trkpt>
    <trkpt lat="31.995810" lon="-6.173585"><ele>1189.8</ele></trkpt>
    <trkpt lat="31.995297" lon="-6.172342"><ele>1185.0</ele></trkpt>
    <trkpt lat="31.995028" lon="-6.170969"><ele>1177.5</ele></trkpt>
    <trkpt lat="31.995047" lon="-6.169829"><ele>1174.0</ele></trkpt>
    <trkpt lat="31.995043" lon="-6.168405"><ele>1173.5</ele></trkpt>
    <trkpt lat="31.995409" lon="-6.166124"><ele>1170.2</ele></trkpt>
    <trkpt lat="31.995228" lon="-6.164440"><ele>1171.0</ele></trkpt>
    <trkpt lat="31.994731" lon="-6.162774"><ele>1174.8</ele></trkpt>
    <trkpt lat="31.994245" lon="-6.160681"><ele>1168.0</ele></trkpt>
    <trkpt lat="31.993004" lon="-6.159456"><ele>1159.5</ele></trkpt>
    <trkpt lat="31.992866" lon="-6.159183"><ele>1158.8</ele></trkpt>
    <trkpt lat="31.994260" lon="-6.156120"><ele>1154.8</ele></trkpt>
    <trkpt lat="31.995704" lon="-6.155688"><ele>1146.5</ele></trkpt>
    <trkpt lat="31.996165" lon="-6.155423"><ele>1145.2</ele></trkpt>
    <trkpt lat="31.996258" lon="-6.155320"><ele>1145.2</ele></trkpt>
    <trkpt lat="31.996373" lon="-6.154913"><ele>1145.2</ele></trkpt>
    <trkpt lat="31.996236" lon="-6.154327"><ele>1145.2</ele></trkpt>
    <trkpt lat="31.996510" lon="-6.153600"><ele>1142.8</ele></trkpt>
    <trkpt lat="31.996112" lon="-6.153005"><ele>1142.8</ele></trkpt>
    <trkpt lat="31.995832" lon="-6.152302"><ele>1142.5</ele></trkpt>
    <trkpt lat="31.995646" lon="-6.151673"><ele>1142.0</ele></trkpt>
    <trkpt lat="31.995444" lon="-6.149993"><ele>1141.8</ele></trkpt>
    <trkpt lat="31.995342" lon="-6.149745"><ele>1141.8</ele></trkpt>
    <trkpt lat="31.994953" lon="-6.149116"><ele>1145.2</ele></trkpt>
    <trkpt lat="31.994457" lon="-6.147272"><ele>1150.2</ele></trkpt>
    <trkpt lat="31.993770" lon="-6.145802"><ele>1150.2</ele></trkpt>
    <trkpt lat="31.994055" lon="-6.144512"><ele>1152.5</ele></trkpt>
    <trkpt lat="31.993763" lon="-6.142635"><ele>1153.8</ele></trkpt>
    <trkpt lat="31.994087" lon="-6.140803"><ele>1160.8</ele></trkpt>
    <trkpt lat="31.994028" lon="-6.139524"><ele>1160.8</ele></trkpt>
    <trkpt lat="31.992897" lon="-6.137634"><ele>1153.8</ele></trkpt>
    <trkpt lat="31.992927" lon="-6.136846"><ele>1153.8</ele></trkpt>
    <trkpt lat="31.992986" lon="-6.136268"><ele>1157.2</ele></trkpt>
    <trkpt lat="31.992659" lon="-6.134191"><ele>1164.0</ele></trkpt>
    <trkpt lat="31.992694" lon="-6.133790"><ele>1166.5</ele></trkpt>
    <trkpt lat="31.992702" lon="-6.133609"><ele>1166.5</ele></trkpt>
    <trkpt lat="31.992382" lon="-6.133154"><ele>1167.0</ele></trkpt>
    <trkpt lat="31.992057" lon="-6.132184"><ele>1168.0</ele></trkpt>
    <trkpt lat="31.991297" lon="-6.131736"><ele>1166.2</ele></trkpt>
    <trkpt lat="31.990588" lon="-6.131118"><ele>1166.8</ele></trkpt>
    <trkpt lat="31.990130" lon="-6.129928"><ele>1170.5</ele></trkpt>
    <trkpt lat="31.989529" lon="-6.128124"><ele>1180.5</ele></trkpt>
    <trkpt lat="31.989143" lon="-6.127875"><ele>1182.5</ele></trkpt>
    <trkpt lat="31.989065" lon="-6.127563"><ele>1182.5</ele></trkpt>
    <trkpt lat="31.988802" lon="-6.126895"><ele>1194.0</ele></trkpt>
    <trkpt lat="31.988766" lon="-6.126844"><ele>1194.0</ele></trkpt>
    <trkpt lat="31.988113" lon="-6.126558"><ele>1190.8</ele></trkpt>
    <trkpt lat="31.987872" lon="-6.126104"><ele>1188.5</ele></trkpt>
    <trkpt lat="31.987868" lon="-6.125809"><ele>1187.5</ele></trkpt>
    <trkpt lat="31.988097" lon="-6.125286"><ele>1187.5</ele></trkpt>
    <trkpt lat="31.987939" lon="-6.124540"><ele>1182.5</ele></trkpt>
    <trkpt lat="31.987998" lon="-6.124269"><ele>1182.5</ele></trkpt>
    <trkpt lat="31.988087" lon="-6.124225"><ele>1182.5</ele></trkpt>
    <trkpt lat="31.988974" lon="-6.124352"><ele>1192.8</ele></trkpt>
    <trkpt lat="31.989508" lon="-6.124207"><ele>1199.5</ele></trkpt>
    <trkpt lat="31.990125" lon="-6.123576"><ele>1203.8</ele></trkpt>
    <trkpt lat="31.990565" lon="-6.122846"><ele>1207.2</ele></trkpt>
    <trkpt lat="31.990660" lon="-6.122645"><ele>1207.8</ele></trkpt>
    <trkpt lat="31.990742" lon="-6.122319"><ele>1208.0</ele></trkpt>
    <trkpt lat="31.990600" lon="-6.121533"><ele>1211.2</ele></trkpt>
    <trkpt lat="31.990891" lon="-6.120641"><ele>1215.8</ele></trkpt>
    <trkpt lat="31.990858" lon="-6.119581"><ele>1223.2</ele></trkpt>
    <trkpt lat="31.990777" lon="-6.119457"><ele>1225.5</ele></trkpt>
    <trkpt lat="31.990344" lon="-6.119563"><ele>1229.0</ele></trkpt>
    <trkpt lat="31.990228" lon="-6.120238"><ele>1232.0</ele></trkpt>
    <trkpt lat="31.989799" lon="-6.121096"><ele>1228.5</ele></trkpt>
    <trkpt lat="31.989785" lon="-6.121513"><ele>1230.5</ele></trkpt>
    <trkpt lat="31.989478" lon="-6.122039"><ele>1230.0</ele></trkpt>
    <trkpt lat="31.989370" lon="-6.122189"><ele>1231.8</ele></trkpt>
    <trkpt lat="31.988952" lon="-6.122385"><ele>1236.0</ele></trkpt>
    <trkpt lat="31.988365" lon="-6.122343"><ele>1243.0</ele></trkpt>
    <trkpt lat="31.988268" lon="-6.122382"><ele>1245.0</ele></trkpt>
    <trkpt lat="31.987572" lon="-6.122703"><ele>1243.8</ele></trkpt>
    <trkpt lat="31.987088" lon="-6.122430"><ele>1244.8</ele></trkpt>
    <trkpt lat="31.987028" lon="-6.122350"><ele>1245.0</ele></trkpt>
    <trkpt lat="31.986736" lon="-6.121781"><ele>1255.0</ele></trkpt>
    <trkpt lat="31.986744" lon="-6.121438"><ele>1262.5</ele></trkpt>
    <trkpt lat="31.986992" lon="-6.121088"><ele>1274.5</ele></trkpt>
    <trkpt lat="31.986991" lon="-6.120983"><ele>1275.5</ele></trkpt>
    <trkpt lat="31.986457" lon="-6.120311"><ele>1276.8</ele></trkpt>
    <trkpt lat="31.986288" lon="-6.119868"><ele>1277.5</ele></trkpt>
    <trkpt lat="31.986301" lon="-6.119742"><ele>1278.8</ele></trkpt>
    <trkpt lat="31.986565" lon="-6.118679"><ele>1299.0</ele></trkpt>
    <trkpt lat="31.986570" lon="-6.118502"><ele>1299.0</ele></trkpt>
    <trkpt lat="31.986099" lon="-6.118307"><ele>1291.2</ele></trkpt>
    <trkpt lat="31.985950" lon="-6.117999"><ele>1291.2</ele></trkpt>
    <trkpt lat="31.985970" lon="-6.117883"><ele>1291.2</ele></trkpt>
    <trkpt lat="31.986416" lon="-6.116579"><ele>1311.0</ele></trkpt>
    <trkpt lat="31.986582" lon="-6.116264"><ele>1316.5</ele></trkpt>
    <trkpt lat="31.986718" lon="-6.116028"><ele>1317.2</ele></trkpt>
    <trkpt lat="31.986601" lon="-6.115534"><ele>1320.5</ele></trkpt>
    <trkpt lat="31.986669" lon="-6.115215"><ele>1320.5</ele></trkpt>
    <trkpt lat="31.986759" lon="-6.115009"><ele>1322.2</ele></trkpt>
    <trkpt lat="31.987574" lon="-6.114054"><ele>1337.0</ele></trkpt>
    <trkpt lat="31.988182" lon="-6.113583"><ele>1348.5</ele></trkpt>
    <trkpt lat="31.988294" lon="-6.112992"><ele>1349.0</ele></trkpt>
    <trkpt lat="31.988298" lon="-6.112706"><ele>1350.2</ele></trkpt>
    <trkpt lat="31.988146" lon="-6.112626"><ele>1351.5</ele></trkpt>
    <trkpt lat="31.987810" lon="-6.113061"><ele>1348.5</ele></trkpt>
    <trkpt lat="31.986723" lon="-6.113098"><ele>1350.0</ele></trkpt>
    <trkpt lat="31.986611" lon="-6.112961"><ele>1352.8</ele></trkpt>
    <trkpt lat="31.986446" lon="-6.111930"><ele>1366.8</ele></trkpt>
    <trkpt lat="31.986762" lon="-6.111490"><ele>1375.8</ele></trkpt>
    <trkpt lat="31.987128" lon="-6.111107"><ele>1380.0</ele></trkpt>
    <trkpt lat="31.987286" lon="-6.110536"><ele>1389.2</ele></trkpt>
    <trkpt lat="31.987855" lon="-6.110077"><ele>1394.2</ele></trkpt>
    <trkpt lat="31.988131" lon="-6.109361"><ele>1402.5</ele></trkpt>
    <trkpt lat="31.988866" lon="-6.108965"><ele>1405.2</ele></trkpt>
    <trkpt lat="31.989027" lon="-6.108724"><ele>1408.2</ele></trkpt>
    <trkpt lat="31.989121" lon="-6.108383"><ele>1412.5</ele></trkpt>
    <trkpt lat="31.989052" lon="-6.107883"><ele>1421.0</ele></trkpt>
    <trkpt lat="31.988943" lon="-6.107043"><ele>1441.0</ele></trkpt>
    <trkpt lat="31.988937" lon="-6.106870"><ele>1442.8</ele></trkpt>
    <trkpt lat="31.988975" lon="-6.106758"><ele>1442.8</ele></trkpt>
    <trkpt lat="31.989144" lon="-6.106711"><ele>1442.8</ele></trkpt>
    <trkpt lat="31.989454" lon="-6.106924"><ele>1435.2</ele></trkpt>
    <trkpt lat="31.989631" lon="-6.106831"><ele>1435.2</ele></trkpt>
    <trkpt lat="31.989897" lon="-6.106326"><ele>1435.2</ele></trkpt>
    <trkpt lat="31.990163" lon="-6.105700"><ele>1442.8</ele></trkpt>
    <trkpt lat="31.990184" lon="-6.105577"><ele>1446.2</ele></trkpt>
    <trkpt lat="31.990163" lon="-6.105117"><ele>1464.2</ele></trkpt>
    <trkpt lat="31.990212" lon="-6.104859"><ele>1464.2</ele></trkpt>
    <trkpt lat="31.990985" lon="-6.104582"><ele>1458.5</ele></trkpt>
    <trkpt lat="31.991958" lon="-6.103713"><ele>1459.8</ele></trkpt>
    <trkpt lat="31.992518" lon="-6.101879"><ele>1483.2</ele></trkpt>
    <trkpt lat="31.992785" lon="-6.101590"><ele>1486.5</ele></trkpt>
    <trkpt lat="31.992700" lon="-6.101517"><ele>1488.8</ele></trkpt>
    <trkpt lat="31.992420" lon="-6.101776"><ele>1492.2</ele></trkpt>
    <trkpt lat="31.992086" lon="-6.102518"><ele>1493.2</ele></trkpt>
    <trkpt lat="31.991891" lon="-6.102814"><ele>1494.2</ele></trkpt>
    <trkpt lat="31.991678" lon="-6.103022"><ele>1499.5</ele></trkpt>
    <trkpt lat="31.991323" lon="-6.103169"><ele>1506.0</ele></trkpt>
    <trkpt lat="31.990340" lon="-6.103898"><ele>1508.0</ele></trkpt>
    <trkpt lat="31.989937" lon="-6.103796"><ele>1515.2</ele></trkpt>
    <trkpt lat="31.989820" lon="-6.103789"><ele>1515.2</ele></trkpt>
    <trkpt lat="31.989556" lon="-6.104260"><ele>1516.0</ele></trkpt>
    <trkpt lat="31.989380" lon="-6.104217"><ele>1516.0</ele></trkpt>
    <trkpt lat="31.989143" lon="-6.103623"><ele>1536.8</ele></trkpt>
    <trkpt lat="31.989173" lon="-6.103532"><ele>1539.0</ele></trkpt>
    <trkpt lat="31.989577" lon="-6.103167"><ele>1545.2</ele></trkpt>
    <trkpt lat="31.989958" lon="-6.102685"><ele>1545.2</ele></trkpt>
    <trkpt lat="31.990347" lon="-6.102834"><ele>1546.5</ele></trkpt>
    <trkpt lat="31.990931" lon="-6.102101"><ele>1550.2</ele></trkpt>
    <trkpt lat="31.990809" lon="-6.101138"><ele>1565.5</ele></trkpt>
    <trkpt lat="31.990612" lon="-6.100726"><ele>1572.8</ele></trkpt>
    <trkpt lat="31.990434" lon="-6.100352"><ele>1578.5</ele></trkpt>
    <trkpt lat="31.990255" lon="-6.099212"><ele>1586.2</ele></trkpt>
    <trkpt lat="31.989840" lon="-6.098488"><ele>1598.2</ele></trkpt>
    <trkpt lat="31.989799" lon="-6.098289"><ele>1598.2</ele></trkpt>
    <trkpt lat="31.990668" lon="-6.097704"><ele>1598.2</ele></trkpt>
    <trkpt lat="31.990824" lon="-6.097301"><ele>1598.2</ele></trkpt>
    <trkpt lat="31.990878" lon="-6.096570"><ele>1614.2</ele></trkpt>
    <trkpt lat="31.990919" lon="-6.096503"><ele>1615.0</ele></trkpt>
    <trkpt lat="31.993024" lon="-6.095967"><ele>1624.0</ele></trkpt>
    <trkpt lat="31.993796" lon="-6.094809"><ele>1647.8</ele></trkpt>
    <trkpt lat="31.993870" lon="-6.094443"><ele>1654.0</ele></trkpt>
    <trkpt lat="31.993930" lon="-6.094256"><ele>1654.0</ele></trkpt>
    <trkpt lat="31.994101" lon="-6.094320"><ele>1652.5</ele></trkpt>
    <trkpt lat="31.994560" lon="-6.095344"><ele>1637.5</ele></trkpt>
    <trkpt lat="31.994700" lon="-6.095418"><ele>1637.5</ele></trkpt>
    <trkpt lat="31.994754" lon="-6.095303"><ele>1639.8</ele></trkpt>
    <trkpt lat="31.994732" lon="-6.095257"><ele>1641.2</ele></trkpt>
    <trkpt lat="31.994593" lon="-6.095042"><ele>1646.8</ele></trkpt>
    <trkpt lat="31.994369" lon="-6.093826"><ele>1667.0</ele></trkpt>
    <trkpt lat="31.994326" lon="-6.093568"><ele>1669.8</ele></trkpt>
    <trkpt lat="31.994328" lon="-6.092884"><ele>1680.0</ele></trkpt>
    <trkpt lat="31.994187" lon="-6.092701"><ele>1682.0</ele></trkpt>
    <trkpt lat="31.993756" lon="-6.092914"><ele>1683.0</ele></trkpt>
    <trkpt lat="31.992821" lon="-6.094397"><ele>1686.8</ele></trkpt>
    <trkpt lat="31.992611" lon="-6.094564"><ele>1686.8</ele></trkpt>
    <trkpt lat="31.992497" lon="-6.094585"><ele>1686.8</ele></trkpt>
    <trkpt lat="31.991901" lon="-6.094459"><ele>1698.5</ele></trkpt>
    <trkpt lat="31.990894" lon="-6.094596"><ele>1703.2</ele></trkpt>
    <trkpt lat="31.990454" lon="-6.094018"><ele>1725.8</ele></trkpt>
    <trkpt lat="31.989831" lon="-6.093736"><ele>1737.0</ele></trkpt>
    <trkpt lat="31.989739" lon="-6.093758"><ele>1738.0</ele></trkpt>
    <trkpt lat="31.989532" lon="-6.093942"><ele>1738.0</ele></trkpt>
    <trkpt lat="31.989502" lon="-6.094026"><ele>1738.0</ele></trkpt>
    <trkpt lat="31.989081" lon="-6.095658"><ele>1724.2</ele></trkpt>
    <trkpt lat="31.988995" lon="-6.095803"><ele>1724.2</ele></trkpt>
    <trkpt lat="31.988732" lon="-6.095883"><ele>1724.2</ele></trkpt>
    <trkpt lat="31.988577" lon="-6.095893"><ele>1727.8</ele></trkpt>
    <trkpt lat="31.987645" lon="-6.095469"><ele>1755.8</ele></trkpt>
    <trkpt lat="31.987509" lon="-6.095446"><ele>1755.8</ele></trkpt>
    <trkpt lat="31.987191" lon="-6.095749"><ele>1756.2</ele></trkpt>
    <trkpt lat="31.986868" lon="-6.095781"><ele>1756.2</ele></trkpt>
    <trkpt lat="31.986424" lon="-6.095852"><ele>1767.8</ele></trkpt>
    <trkpt lat="31.986022" lon="-6.096172"><ele>1780.0</ele></trkpt>
    <trkpt lat="31.985984" lon="-6.096394"><ele>1780.0</ele></trkpt>
    <trkpt lat="31.986160" lon="-6.096575"><ele>1773.8</ele></trkpt>
    <trkpt lat="31.986372" lon="-6.097240"><ele>1772.0</ele></trkpt>
    <trkpt lat="31.986451" lon="-6.097865"><ele>1773.8</ele></trkpt>
    <trkpt lat="31.986247" lon="-6.098736"><ele>1784.2</ele></trkpt>
    <trkpt lat="31.986101" lon="-6.099147"><ele>1784.2</ele></trkpt>
    <trkpt lat="31.985494" lon="-6.100293"><ele>1786.0</ele></trkpt>
    <trkpt lat="31.985289" lon="-6.100426"><ele>1786.0</ele></trkpt>
    <trkpt lat="31.985179" lon="-6.100427"><ele>1786.0</ele></trkpt>
    <trkpt lat="31.985067" lon="-6.100371"><ele>1789.8</ele></trkpt>
    <trkpt lat="31.984184" lon="-6.099228"><ele>1816.5</ele></trkpt>
    <trkpt lat="31.983927" lon="-6.099078"><ele>1827.0</ele></trkpt>
    <trkpt lat="31.983770" lon="-6.099075"><ele>1827.0</ele></trkpt>
    <trkpt lat="31.983224" lon="-6.099405"><ele>1827.0</ele></trkpt>
    <trkpt lat="31.982439" lon="-6.100545"><ele>1819.0</ele></trkpt>
    <trkpt lat="31.982255" lon="-6.100599"><ele>1819.0</ele></trkpt>
    <trkpt lat="31.982153" lon="-6.100494"><ele>1819.8</ele></trkpt>
    <trkpt lat="31.981573" lon="-6.098989"><ele>1815.2</ele></trkpt>
    <trkpt lat="31.981261" lon="-6.098439"><ele>1815.2</ele></trkpt>
    <trkpt lat="31.980756" lon="-6.097817"><ele>1798.8</ele></trkpt>
    <trkpt lat="31.980664" lon="-6.097574"><ele>1797.0</ele></trkpt>
    <trkpt lat="31.980466" lon="-6.096302"><ele>1796.2</ele></trkpt>
    <trkpt lat="31.980384" lon="-6.096149"><ele>1796.2</ele></trkpt>
    <trkpt lat="31.980053" lon="-6.095813"><ele>1781.2</ele></trkpt>
    <trkpt lat="31.979736" lon="-6.094990"><ele>1762.2</ele></trkpt>
    <trkpt lat="31.979712" lon="-6.094889"><ele>1762.2</ele></trkpt>
    <trkpt lat="31.979771" lon="-6.094679"><ele>1762.2</ele></trkpt>
    <trkpt lat="31.980054" lon="-6.094574"><ele>1780.0</ele></trkpt>
    <trkpt lat="31.980160" lon="-6.094376"><ele>1780.2</ele></trkpt>
    <trkpt lat="31.980109" lon="-6.094086"><ele>1780.2</ele></trkpt>
    <trkpt lat="31.979776" lon="-6.093135"><ele>1768.0</ele></trkpt>
    <trkpt lat="31.979567" lon="-6.092846"><ele>1760.5</ele></trkpt>
    <trkpt lat="31.979482" lon="-6.092623"><ele>1760.5</ele></trkpt>
    <trkpt lat="31.979459" lon="-6.091711"><ele>1760.5</ele></trkpt>
    <trkpt lat="31.979579" lon="-6.091104"><ele>1769.0</ele></trkpt>
    <trkpt lat="31.979663" lon="-6.090261"><ele>1770.2</ele></trkpt>
    <trkpt lat="31.980255" lon="-6.089066"><ele>1786.5</ele></trkpt>
    <trkpt lat="31.980378" lon="-6.088707"><ele>1791.2</ele></trkpt>
    <trkpt lat="31.980395" lon="-6.087157"><ele>1798.5</ele></trkpt>
    <trkpt lat="31.980452" lon="-6.086638"><ele>1805.8</ele></trkpt>
    <trkpt lat="31.980400" lon="-6.086167"><ele>1813.8</ele></trkpt>
    <trkpt lat="31.980312" lon="-6.085897"><ele>1813.8</ele></trkpt>
    <trkpt lat="31.979484" lon="-6.085610"><ele>1815.2</ele></trkpt>
    <trkpt lat="31.979216" lon="-6.085203"><ele>1816.5</ele></trkpt>
    <trkpt lat="31.979361" lon="-6.084511"><ele>1816.5</ele></trkpt>
    <trkpt lat="31.979312" lon="-6.083898"><ele>1810.8</ele></trkpt>
    <trkpt lat="31.979698" lon="-6.083402"><ele>1807.0</ele></trkpt>
    <trkpt lat="31.979933" lon="-6.082644"><ele>1804.8</ele></trkpt>
    <trkpt lat="31.980515" lon="-6.082247"><ele>1801.5</ele></trkpt>
    <trkpt lat="31.980603" lon="-6.082019"><ele>1801.5</ele></trkpt>
    <trkpt lat="31.980758" lon="-6.080680"><ele>1781.8</ele></trkpt>
    <trkpt lat="31.981227" lon="-6.078948"><ele>1774.5</ele></trkpt>
    <trkpt lat="31.981220" lon="-6.078240"><ele>1769.0</ele></trkpt>
    <trkpt lat="31.981372" lon="-6.076925"><ele>1769.0</ele></trkpt>
    <trkpt lat="31.981617" lon="-6.076302"><ele>1771.5</ele></trkpt>
    <trkpt lat="31.981459" lon="-6.076247"><ele>1771.5</ele></trkpt>
    <trkpt lat="31.981391" lon="-6.076302"><ele>1771.5</ele></trkpt>
    <trkpt lat="31.980908" lon="-6.076746"><ele>1761.8</ele></trkpt>
    <trkpt lat="31.980753" lon="-6.076861"><ele>1761.2</ele></trkpt>
    <trkpt lat="31.980128" lon="-6.077186"><ele>1759.8</ele></trkpt>
    <trkpt lat="31.979668" lon="-6.077974"><ele>1753.5</ele></trkpt>
    <trkpt lat="31.979288" lon="-6.078307"><ele>1753.5</ele></trkpt>
    <trkpt lat="31.978929" lon="-6.078422"><ele>1753.5</ele></trkpt>
    <trkpt lat="31.978799" lon="-6.078376"><ele>1754.5</ele></trkpt>
    <trkpt lat="31.978390" lon="-6.078060"><ele>1765.2</ele></trkpt>
    <trkpt lat="31.978276" lon="-6.078065"><ele>1765.2</ele></trkpt>
    <trkpt lat="31.977953" lon="-6.078599"><ele>1764.2</ele></trkpt>
    <trkpt lat="31.978151" lon="-6.079278"><ele>1746.5</ele></trkpt>
    <trkpt lat="31.978121" lon="-6.079570"><ele>1740.0</ele></trkpt>
    <trkpt lat="31.976884" lon="-6.080544"><ele>1738.2</ele></trkpt>
    <trkpt lat="31.976358" lon="-6.080739"><ele>1736.8</ele></trkpt>
    <trkpt lat="31.975867" lon="-6.081442"><ele>1729.2</ele></trkpt>
    <trkpt lat="31.975552" lon="-6.081759"><ele>1729.2</ele></trkpt>
    <trkpt lat="31.975243" lon="-6.081745"><ele>1729.2</ele></trkpt>
    <trkpt lat="31.974804" lon="-6.081394"><ele>1745.0</ele></trkpt>
    <trkpt lat="31.974640" lon="-6.081359"><ele>1745.0</ele></trkpt>
    <trkpt lat="31.974570" lon="-6.082019"><ele>1736.8</ele></trkpt>
    <trkpt lat="31.974451" lon="-6.082164"><ele>1736.8</ele></trkpt>
    <trkpt lat="31.974272" lon="-6.082022"><ele>1736.8</ele></trkpt>
    <trkpt lat="31.973935" lon="-6.081804"><ele>1740.8</ele></trkpt>
    <trkpt lat="31.972859" lon="-6.081820"><ele>1743.0</ele></trkpt>
    <trkpt lat="31.971931" lon="-6.081240"><ele>1744.2</ele></trkpt>
    <trkpt lat="31.971794" lon="-6.081284"><ele>1749.8</ele></trkpt>
    <trkpt lat="31.971675" lon="-6.081386"><ele>1749.8</ele></trkpt>
    <trkpt lat="31.971338" lon="-6.081914"><ele>1745.2</ele></trkpt>
    <trkpt lat="31.971516" lon="-6.082448"><ele>1748.5</ele></trkpt>
    <trkpt lat="31.971384" lon="-6.083529"><ele>1743.2</ele></trkpt>
    <trkpt lat="31.971566" lon="-6.084371"><ele>1744.5</ele></trkpt>
    <trkpt lat="31.971587" lon="-6.085315"><ele>1739.8</ele></trkpt>
    <trkpt lat="31.971571" lon="-6.085530"><ele>1739.8</ele></trkpt>
    <trkpt lat="31.971275" lon="-6.086367"><ele>1739.8</ele></trkpt>
    <trkpt lat="31.971072" lon="-6.086520"><ele>1741.0</ele></trkpt>
    <trkpt lat="31.970818" lon="-6.086432"><ele>1745.2</ele></trkpt>
    <trkpt lat="31.970770" lon="-6.086436"><ele>1745.2</ele></trkpt>
    <trkpt lat="31.970112" lon="-6.087466"><ele>1743.2</ele></trkpt>
    <trkpt lat="31.969450" lon="-6.087281"><ele>1741.0</ele></trkpt>
    <trkpt lat="31.968453" lon="-6.086651"><ele>1741.2</ele></trkpt>
    <trkpt lat="31.968383" lon="-6.086005"><ele>1741.2</ele></trkpt>
    <trkpt lat="31.968042" lon="-6.085412"><ele>1741.2</ele></trkpt>
    <trkpt lat="31.967942" lon="-6.085280"><ele>1739.0</ele></trkpt>
    <trkpt lat="31.966870" lon="-6.084787"><ele>1731.8</ele></trkpt>
    <trkpt lat="31.966362" lon="-6.085093"><ele>1721.0</ele></trkpt>
    <trkpt lat="31.965316" lon="-6.085377"><ele>1714.8</ele></trkpt>
    <trkpt lat="31.964746" lon="-6.085526"><ele>1711.2</ele></trkpt>
    <trkpt lat="31.963600" lon="-6.086243"><ele>1697.0</ele></trkpt>
    <trkpt lat="31.962894" lon="-6.086123"><ele>1696.8</ele></trkpt>
    <trkpt lat="31.962291" lon="-6.086219"><ele>1694.2</ele></trkpt>
    <trkpt lat="31.961993" lon="-6.086560"><ele>1693.2</ele></trkpt>
    <trkpt lat="31.961300" lon="-6.087386"><ele>1681.8</ele></trkpt>
    <trkpt lat="31.961245" lon="-6.087623"><ele>1677.2</ele></trkpt>
    <trkpt lat="31.961370" lon="-6.087902"><ele>1671.2</ele></trkpt>
    <trkpt lat="31.961360" lon="-6.087949"><ele>1670.0</ele></trkpt>
    <trkpt lat="31.961296" lon="-6.088002"><ele>1670.0</ele></trkpt>
    <trkpt lat="31.961014" lon="-6.087476"><ele>1673.2</ele></trkpt>
    <trkpt lat="31.961024" lon="-6.086632"><ele>1672.8</ele></trkpt>
    <trkpt lat="31.961506" lon="-6.085557"><ele>1666.2</ele></trkpt>
    <trkpt lat="31.961531" lon="-6.085160"><ele>1660.5</ele></trkpt>
    <trkpt lat="31.961587" lon="-6.084975"><ele>1660.5</ele></trkpt>
    <trkpt lat="31.962565" lon="-6.084275"><ele>1662.2</ele></trkpt>
    <trkpt lat="31.962580" lon="-6.084090"><ele>1662.2</ele></trkpt>
    <trkpt lat="31.962714" lon="-6.083316"><ele>1657.0</ele></trkpt>
    <trkpt lat="31.962776" lon="-6.082073"><ele>1639.0</ele></trkpt>
    <trkpt lat="31.963040" lon="-6.081796"><ele>1639.0</ele></trkpt>
    <trkpt lat="31.963488" lon="-6.081946"><ele>1645.0</ele></trkpt>
    <trkpt lat="31.964180" lon="-6.081429"><ele>1648.0</ele></trkpt>
    <trkpt lat="31.964410" lon="-6.081305"><ele>1645.0</ele></trkpt>
    <trkpt lat="31.964430" lon="-6.081159"><ele>1645.0</ele></trkpt>
    <trkpt lat="31.964413" lon="-6.080544"><ele>1631.8</ele></trkpt>
    <trkpt lat="31.964462" lon="-6.080371"><ele>1631.8</ele></trkpt>
    <trkpt lat="31.964686" lon="-6.080159"><ele>1631.8</ele></trkpt>
    <trkpt lat="31.965069" lon="-6.080023"><ele>1642.2</ele></trkpt>
    <trkpt lat="31.965198" lon="-6.079929"><ele>1642.2</ele></trkpt>
    <trkpt lat="31.965142" lon="-6.079510"><ele>1637.8</ele></trkpt>
    <trkpt lat="31.965385" lon="-6.079201"><ele>1637.8</ele></trkpt>
    <trkpt lat="31.965340" lon="-6.079071"><ele>1637.8</ele></trkpt>
    <trkpt lat="31.965007" lon="-6.078884"><ele>1626.8</ele></trkpt>
    <trkpt lat="31.964765" lon="-6.078606"><ele>1625.5</ele></trkpt>
    <trkpt lat="31.964711" lon="-6.078637"><ele>1625.5</ele></trkpt>
    <trkpt lat="31.964502" lon="-6.078858"><ele>1618.2</ele></trkpt>
    <trkpt lat="31.963690" lon="-6.079027"><ele>1598.5</ele></trkpt>
    <trkpt lat="31.963279" lon="-6.078835"><ele>1595.0</ele></trkpt>
    <trkpt lat="31.962221" lon="-6.078824"><ele>1586.2</ele></trkpt>
    <trkpt lat="31.962101" lon="-6.078862"><ele>1584.8</ele></trkpt>
    <trkpt lat="31.961520" lon="-6.079030"><ele>1570.0</ele></trkpt>
    <trkpt lat="31.960712" lon="-6.078893"><ele>1564.8</ele></trkpt>
    <trkpt lat="31.959938" lon="-6.079240"><ele>1554.8</ele></trkpt>
    <trkpt lat="31.959315" lon="-6.080137"><ele>1532.5</ele></trkpt>
    <trkpt lat="31.959230" lon="-6.080212"><ele>1530.8</ele></trkpt>
    <trkpt lat="31.958580" lon="-6.080308"><ele>1524.2</ele></trkpt>
    <trkpt lat="31.958463" lon="-6.080317"><ele>1523.5</ele></trkpt>
    <trkpt lat="31.958071" lon="-6.080167"><ele>1523.5</ele></trkpt>
    <trkpt lat="31.957950" lon="-6.079937"><ele>1523.5</ele></trkpt>
    <trkpt lat="31.958034" lon="-6.079393"><ele>1525.5</ele></trkpt>
    <trkpt lat="31.957811" lon="-6.079165"><ele>1525.5</ele></trkpt>
    <trkpt lat="31.957431" lon="-6.078806"><ele>1517.5</ele></trkpt>
    <trkpt lat="31.957176" lon="-6.078481"><ele>1517.5</ele></trkpt>
    <trkpt lat="31.957092" lon="-6.077918"><ele>1516.8</ele></trkpt>
    <trkpt lat="31.957236" lon="-6.076498"><ele>1516.8</ele></trkpt>
    <trkpt lat="31.957536" lon="-6.076235"><ele>1516.5</ele></trkpt>
    <trkpt lat="31.957488" lon="-6.075899"><ele>1516.5</ele></trkpt>
    <trkpt lat="31.957799" lon="-6.074560"><ele>1523.2</ele></trkpt>
    <trkpt lat="31.957772" lon="-6.073861"><ele>1523.2</ele></trkpt>
    <trkpt lat="31.957577" lon="-6.073705"><ele>1525.2</ele></trkpt>
    <trkpt lat="31.957335" lon="-6.074517"><ele>1523.2</ele></trkpt>
    <trkpt lat="31.957045" lon="-6.075028"><ele>1527.2</ele></trkpt>
    <trkpt lat="31.956624" lon="-6.075356"><ele>1531.5</ele></trkpt>
    <trkpt lat="31.956164" lon="-6.075545"><ele>1544.5</ele></trkpt>
    <trkpt lat="31.955810" lon="-6.076140"><ele>1544.5</ele></trkpt>
    <trkpt lat="31.955686" lon="-6.076834"><ele>1536.5</ele></trkpt>
    <trkpt lat="31.955192" lon="-6.077218"><ele>1535.8</ele></trkpt>
    <trkpt lat="31.954812" lon="-6.078017"><ele>1528.0</ele></trkpt>
    <trkpt lat="31.955059" lon="-6.078561"><ele>1523.5</ele></trkpt>
    <trkpt lat="31.954841" lon="-6.078985"><ele>1515.0</ele></trkpt>
    <trkpt lat="31.954931" lon="-6.079189"><ele>1515.0</ele></trkpt>
    <trkpt lat="31.955109" lon="-6.079416"><ele>1505.8</ele></trkpt>
    <trkpt lat="31.955122" lon="-6.079542"><ele>1505.8</ele></trkpt>
    <trkpt lat="31.954811" lon="-6.080255"><ele>1509.0</ele></trkpt>
    <trkpt lat="31.954891" lon="-6.081324"><ele>1510.2</ele></trkpt>
    <trkpt lat="31.954529" lon="-6.081749"><ele>1509.5</ele></trkpt>
    <trkpt lat="31.954518" lon="-6.082298"><ele>1506.0</ele></trkpt>
    <trkpt lat="31.954222" lon="-6.082343"><ele>1500.0</ele></trkpt>
    <trkpt lat="31.953951" lon="-6.082079"><ele>1500.0</ele></trkpt>
    <trkpt lat="31.953095" lon="-6.081702"><ele>1498.5</ele></trkpt>
    <trkpt lat="31.953100" lon="-6.081018"><ele>1495.2</ele></trkpt>
    <trkpt lat="31.953036" lon="-6.080789"><ele>1498.0</ele></trkpt>
    <trkpt lat="31.952396" lon="-6.080369"><ele>1499.0</ele></trkpt>
    <trkpt lat="31.951926" lon="-6.080231"><ele>1498.8</ele></trkpt>
    <trkpt lat="31.951602" lon="-6.079944"><ele>1498.2</ele></trkpt>
    <trkpt lat="31.951033" lon="-6.078076"><ele>1499.8</ele></trkpt>
    <trkpt lat="31.951012" lon="-6.077935"><ele>1500.2</ele></trkpt>
    <trkpt lat="31.951077" lon="-6.077368"><ele>1511.8</ele></trkpt>
    <trkpt lat="31.950997" lon="-6.077062"><ele>1511.8</ele></trkpt>
    <trkpt lat="31.950821" lon="-6.077006"><ele>1511.8</ele></trkpt>
    <trkpt lat="31.950355" lon="-6.077133"><ele>1494.2</ele></trkpt>
    <trkpt lat="31.950185" lon="-6.077093"><ele>1494.2</ele></trkpt>
    <trkpt lat="31.950087" lon="-6.076844"><ele>1494.2</ele></trkpt>
    <trkpt lat="31.949967" lon="-6.076304"><ele>1510.5</ele></trkpt>
    <trkpt lat="31.949910" lon="-6.076176"><ele>1514.8</ele></trkpt>
    <trkpt lat="31.949682" lon="-6.075866"><ele>1514.8</ele></trkpt>
    <trkpt lat="31.949270" lon="-6.075402"><ele>1514.8</ele></trkpt>
    <trkpt lat="31.948656" lon="-6.074886"><ele>1513.2</ele></trkpt>
    <trkpt lat="31.948325" lon="-6.074785"><ele>1508.2</ele></trkpt>
    <trkpt lat="31.948245" lon="-6.075035"><ele>1505.0</ele></trkpt>
    <trkpt lat="31.948696" lon="-6.075810"><ele>1503.8</ele></trkpt>
    <trkpt lat="31.948805" lon="-6.076325"><ele>1503.8</ele></trkpt>
    <trkpt lat="31.948733" lon="-6.077711"><ele>1496.0</ele></trkpt>
    <trkpt lat="31.949188" lon="-6.078659"><ele>1491.5</ele></trkpt>
    <trkpt lat="31.949129" lon="-6.078945"><ele>1491.5</ele></trkpt>
    <trkpt lat="31.948786" lon="-6.079318"><ele>1509.5</ele></trkpt>
    <trkpt lat="31.948622" lon="-6.079849"><ele>1511.8</ele></trkpt>
    <trkpt lat="31.948630" lon="-6.080074"><ele>1511.8</ele></trkpt>
    <trkpt lat="31.948843" lon="-6.080325"><ele>1514.0</ele></trkpt>
    <trkpt lat="31.948714" lon="-6.080513"><ele>1514.0</ele></trkpt>
    <trkpt lat="31.948246" lon="-6.080769"><ele>1543.0</ele></trkpt>
    <trkpt lat="31.948100" lon="-6.080879"><ele>1543.8</ele></trkpt>
    <trkpt lat="31.947798" lon="-6.081423"><ele>1543.8</ele></trkpt>
    <trkpt lat="31.947831" lon="-6.081639"><ele>1543.8</ele></trkpt>
    <trkpt lat="31.947893" lon="-6.081714"><ele>1539.2</ele></trkpt>
    <trkpt lat="31.948213" lon="-6.082019"><ele>1518.5</ele></trkpt>
    <trkpt lat="31.948214" lon="-6.082283"><ele>1518.5</ele></trkpt>
    <trkpt lat="31.948139" lon="-6.082300"><ele>1518.5</ele></trkpt>
    <trkpt lat="31.947581" lon="-6.082211"><ele>1544.5</ele></trkpt>
    <trkpt lat="31.947229" lon="-6.082227"><ele>1560.0</ele></trkpt>
    <trkpt lat="31.946789" lon="-6.082164"><ele>1581.5</ele></trkpt>
    <trkpt lat="31.946290" lon="-6.082164"><ele>1595.8</ele></trkpt>
    <trkpt lat="31.945883" lon="-6.081780"><ele>1610.5</ele></trkpt>
    <trkpt lat="31.945780" lon="-6.081713"><ele>1611.8</ele></trkpt>
    <trkpt lat="31.945552" lon="-6.081765"><ele>1611.8</ele></trkpt>
    <trkpt lat="31.945528" lon="-6.081895"><ele>1611.8</ele></trkpt>
    <trkpt lat="31.945446" lon="-6.082388"><ele>1605.0</ele></trkpt>
    <trkpt lat="31.945553" lon="-6.082734"><ele>1602.2</ele></trkpt>
    <trkpt lat="31.946329" lon="-6.084664"><ele>1582.0</ele></trkpt>
    <trkpt lat="31.946391" lon="-6.085001"><ele>1582.0</ele></trkpt>
    <trkpt lat="31.946067" lon="-6.085777"><ele>1591.8</ele></trkpt>
    <trkpt lat="31.945676" lon="-6.086090"><ele>1591.8</ele></trkpt>
    <trkpt lat="31.945564" lon="-6.086461"><ele>1591.8</ele></trkpt>
    <trkpt lat="31.945180" lon="-6.087453"><ele>1583.8</ele></trkpt>
    <trkpt lat="31.945137" lon="-6.088078"><ele>1577.2</ele></trkpt>
    <trkpt lat="31.945099" lon="-6.088156"><ele>1577.2</ele></trkpt>
    <trkpt lat="31.944159" lon="-6.088144"><ele>1574.8</ele></trkpt>
    <trkpt lat="31.943249" lon="-6.087686"><ele>1573.2</ele></trkpt>
    <trkpt lat="31.942909" lon="-6.087165"><ele>1571.0</ele></trkpt>
    <trkpt lat="31.942711" lon="-6.087095"><ele>1571.0</ele></trkpt>
    <trkpt lat="31.942476" lon="-6.087019"><ele>1564.8</ele></trkpt>
    <trkpt lat="31.941605" lon="-6.086447"><ele>1564.8</ele></trkpt>
    <trkpt lat="31.941531" lon="-6.086333"><ele>1564.8</ele></trkpt>
    <trkpt lat="31.941488" lon="-6.085931"><ele>1578.8</ele></trkpt>
    <trkpt lat="31.941431" lon="-6.085885"><ele>1578.8</ele></trkpt>
    <trkpt lat="31.941110" lon="-6.085967"><ele>1578.8</ele></trkpt>
    <trkpt lat="31.940834" lon="-6.086576"><ele>1565.0</ele></trkpt>
    <trkpt lat="31.941069" lon="-6.087086"><ele>1555.5</ele></trkpt>
    <trkpt lat="31.941217" lon="-6.088030"><ele>1536.8</ele></trkpt>
    <trkpt lat="31.941213" lon="-6.088148"><ele>1536.8</ele></trkpt>
    <trkpt lat="31.940748" lon="-6.089054"><ele>1534.0</ele></trkpt>
    <trkpt lat="31.940735" lon="-6.089159"><ele>1533.8</ele></trkpt>
    <trkpt lat="31.940648" lon="-6.089942"><ele>1528.5</ele></trkpt>
    <trkpt lat="31.940703" lon="-6.090484"><ele>1522.2</ele></trkpt>
    <trkpt lat="31.940776" lon="-6.090701"><ele>1520.2</ele></trkpt>
    <trkpt lat="31.940944" lon="-6.091036"><ele>1511.2</ele></trkpt>
    <trkpt lat="31.940974" lon="-6.091129"><ele>1511.2</ele></trkpt>
    <trkpt lat="31.940924" lon="-6.091310"><ele>1510.2</ele></trkpt>
    <trkpt lat="31.940655" lon="-6.091382"><ele>1510.8</ele></trkpt>
    <trkpt lat="31.939944" lon="-6.090990"><ele>1510.8</ele></trkpt>
    <trkpt lat="31.939383" lon="-6.090925"><ele>1511.8</ele></trkpt>
    <trkpt lat="31.938769" lon="-6.090602"><ele>1517.0</ele></trkpt>
    <trkpt lat="31.938674" lon="-6.090690"><ele>1517.0</ele></trkpt>
    <trkpt lat="31.938298" lon="-6.091388"><ele>1506.8</ele></trkpt>
    <trkpt lat="31.938053" lon="-6.092245"><ele>1490.0</ele></trkpt>
    <trkpt lat="31.937685" lon="-6.092552"><ele>1490.0</ele></trkpt>
    <trkpt lat="31.937201" lon="-6.092292"><ele>1490.2</ele></trkpt>
    <trkpt lat="31.936672" lon="-6.092040"><ele>1493.2</ele></trkpt>
    <trkpt lat="31.936369" lon="-6.091753"><ele>1496.2</ele></trkpt>
    <trkpt lat="31.935987" lon="-6.091152"><ele>1506.0</ele></trkpt>
    <trkpt lat="31.935750" lon="-6.091128"><ele>1507.0</ele></trkpt>
    <trkpt lat="31.935708" lon="-6.091218"><ele>1507.0</ele></trkpt>
    <trkpt lat="31.935738" lon="-6.092868"><ele>1486.0</ele></trkpt>
    <trkpt lat="31.935395" lon="-6.093575"><ele>1483.2</ele></trkpt>
    <trkpt lat="31.935616" lon="-6.094263"><ele>1473.2</ele></trkpt>
    <trkpt lat="31.935609" lon="-6.094407"><ele>1473.2</ele></trkpt>
    <trkpt lat="31.935396" lon="-6.094687"><ele>1473.2</ele></trkpt>
    <trkpt lat="31.934488" lon="-6.094730"><ele>1467.8</ele></trkpt>
    <trkpt lat="31.934410" lon="-6.094695"><ele>1467.8</ele></trkpt>
    <trkpt lat="31.934169" lon="-6.093779"><ele>1472.8</ele></trkpt>
    <trkpt lat="31.933999" lon="-6.093617"><ele>1472.5</ele></trkpt>
    <trkpt lat="31.933574" lon="-6.093378"><ele>1464.0</ele></trkpt>
    <trkpt lat="31.933420" lon="-6.093243"><ele>1463.5</ele></trkpt>
    <trkpt lat="31.933097" lon="-6.092561"><ele>1463.5</ele></trkpt>
    <trkpt lat="31.931642" lon="-6.090896"><ele>1472.8</ele></trkpt>
    <trkpt lat="31.931487" lon="-6.090961"><ele>1474.0</ele></trkpt>
    <trkpt lat="31.931449" lon="-6.091217"><ele>1474.0</ele></trkpt>
    <trkpt lat="31.931502" lon="-6.091565"><ele>1474.0</ele></trkpt>
    <trkpt lat="31.931802" lon="-6.092361"><ele>1453.2</ele></trkpt>
    <trkpt lat="31.931849" lon="-6.092740"><ele>1445.8</ele></trkpt>
    <trkpt lat="31.931616" lon="-6.093409"><ele>1439.0</ele></trkpt>
    <trkpt lat="31.931557" lon="-6.093501"><ele>1439.0</ele></trkpt>
    <trkpt lat="31.930982" lon="-6.093521"><ele>1443.5</ele></trkpt>
    <trkpt lat="31.930847" lon="-6.093686"><ele>1443.5</ele></trkpt>
    <trkpt lat="31.930851" lon="-6.093831"><ele>1443.5</ele></trkpt>
    <trkpt lat="31.930995" lon="-6.094832"><ele>1432.5</ele></trkpt>
    <trkpt lat="31.931170" lon="-6.095250"><ele>1419.2</ele></trkpt>
    <trkpt lat="31.931200" lon="-6.095400"><ele>1415.2</ele></trkpt>
    <trkpt lat="31.930913" lon="-6.096184"><ele>1408.0</ele></trkpt>
    <trkpt lat="31.930733" lon="-6.096413"><ele>1403.2</ele></trkpt>
    <trkpt lat="31.930601" lon="-6.096530"><ele>1402.5</ele></trkpt>
    <trkpt lat="31.930295" lon="-6.096637"><ele>1402.5</ele></trkpt>
    <trkpt lat="31.929482" lon="-6.096151"><ele>1413.2</ele></trkpt>
    <trkpt lat="31.929389" lon="-6.096208"><ele>1413.2</ele></trkpt>
    <trkpt lat="31.929335" lon="-6.096273"><ele>1411.2</ele></trkpt>
    <trkpt lat="31.929213" lon="-6.096709"><ele>1397.0</ele></trkpt>
    <trkpt lat="31.929067" lon="-6.097133"><ele>1387.8</ele></trkpt>
    <trkpt lat="31.928443" lon="-6.097399"><ele>1386.8</ele></trkpt>
    <trkpt lat="31.927991" lon="-6.097294"><ele>1384.5</ele></trkpt>
    <trkpt lat="31.927611" lon="-6.096947"><ele>1384.2</ele></trkpt>
    <trkpt lat="31.926781" lon="-6.095352"><ele>1383.0</ele></trkpt>
    <trkpt lat="31.926685" lon="-6.094708"><ele>1383.0</ele></trkpt>
    <trkpt lat="31.926674" lon="-6.094518"><ele>1385.2</ele></trkpt>
    <trkpt lat="31.926522" lon="-6.094266"><ele>1389.2</ele></trkpt>
    <trkpt lat="31.926358" lon="-6.094325"><ele>1389.2</ele></trkpt>
    <trkpt lat="31.926317" lon="-6.094432"><ele>1389.2</ele></trkpt>
    <trkpt lat="31.926219" lon="-6.094904"><ele>1380.0</ele></trkpt>
    <trkpt lat="31.926175" lon="-6.095076"><ele>1379.0</ele></trkpt>
    <trkpt lat="31.926007" lon="-6.095298"><ele>1379.0</ele></trkpt>
    <trkpt lat="31.925259" lon="-6.095176"><ele>1379.0</ele></trkpt>
    <trkpt lat="31.924871" lon="-6.095253"><ele>1379.0</ele></trkpt>
    <trkpt lat="31.924500" lon="-6.095489"><ele>1378.8</ele></trkpt>
    <trkpt lat="31.923974" lon="-6.095923"><ele>1370.2</ele></trkpt>
    <trkpt lat="31.923608" lon="-6.096277"><ele>1370.2</ele></trkpt>
    <trkpt lat="31.923378" lon="-6.096336"><ele>1370.2</ele></trkpt>
    <trkpt lat="31.922531" lon="-6.095714"><ele>1375.5</ele></trkpt>
    <trkpt lat="31.921807" lon="-6.095551"><ele>1373.5</ele></trkpt>
    <trkpt lat="31.921433" lon="-6.094971"><ele>1375.0</ele></trkpt>
    <trkpt lat="31.920919" lon="-6.094644"><ele>1375.0</ele></trkpt>
    <trkpt lat="31.919000" lon="-6.094432"><ele>1374.0</ele></trkpt>
    <trkpt lat="31.918201" lon="-6.094032"><ele>1374.0</ele></trkpt>
    <trkpt lat="31.918075" lon="-6.093996"><ele>1375.8</ele></trkpt>
    <trkpt lat="31.917729" lon="-6.094014"><ele>1378.0</ele></trkpt>
    <trkpt lat="31.917174" lon="-6.094408"><ele>1385.2</ele></trkpt>
    <trkpt lat="31.916590" lon="-6.094711"><ele>1386.2</ele></trkpt>
    <trkpt lat="31.915908" lon="-6.094824"><ele>1386.5</ele></trkpt>
    <trkpt lat="31.914470" lon="-6.094421"><ele>1394.2</ele></trkpt>
    <trkpt lat="31.913881" lon="-6.093998"><ele>1394.8</ele></trkpt>
    <trkpt lat="31.912991" lon="-6.093704"><ele>1394.8</ele></trkpt>
    <trkpt lat="31.912448" lon="-6.093717"><ele>1394.8</ele></trkpt>
    <trkpt lat="31.911458" lon="-6.093882"><ele>1401.2</ele></trkpt>
    <trkpt lat="31.910652" lon="-6.094195"><ele>1406.5</ele></trkpt>
    <trkpt lat="31.910511" lon="-6.094224"><ele>1407.0</ele></trkpt>
    <trkpt lat="31.909555" lon="-6.094224"><ele>1407.2</ele></trkpt>
    <trkpt lat="31.909122" lon="-6.093969"><ele>1409.5</ele></trkpt>
    <trkpt lat="31.908155" lon="-6.093802"><ele>1415.0</ele></trkpt>
    <trkpt lat="31.907744" lon="-6.093443"><ele>1417.2</ele></trkpt>
    <trkpt lat="31.906735" lon="-6.093120"><ele>1417.2</ele></trkpt>
    <trkpt lat="31.906136" lon="-6.093127"><ele>1416.8</ele></trkpt>
    <trkpt lat="31.905875" lon="-6.093438"><ele>1417.2</ele></trkpt>
    <trkpt lat="31.905825" lon="-6.094215"><ele>1424.0</ele></trkpt>
    <trkpt lat="31.905323" lon="-6.095891"><ele>1424.5</ele></trkpt>
    <trkpt lat="31.904977" lon="-6.095899"><ele>1424.0</ele></trkpt>
    <trkpt lat="31.904964" lon="-6.095759"><ele>1423.2</ele></trkpt>
    <trkpt lat="31.905000" lon="-6.094920"><ele>1414.0</ele></trkpt>
    <trkpt lat="31.904811" lon="-6.094455"><ele>1411.2</ele></trkpt>
    <trkpt lat="31.904626" lon="-6.094463"><ele>1411.2</ele></trkpt>
    <trkpt lat="31.903875" lon="-6.094959"><ele>1418.2</ele></trkpt>
    <trkpt lat="31.903206" lon="-6.096366"><ele>1427.8</ele></trkpt>
    <trkpt lat="31.902916" lon="-6.097443"><ele>1427.8</ele></trkpt>
    <trkpt lat="31.901951" lon="-6.098788"><ele>1430.0</ele></trkpt>
    <trkpt lat="31.901528" lon="-6.099020"><ele>1430.2</ele></trkpt>
    <trkpt lat="31.900313" lon="-6.099260"><ele>1432.2</ele></trkpt>
    <trkpt lat="31.899617" lon="-6.099712"><ele>1435.5</ele></trkpt>
    <trkpt lat="31.898432" lon="-6.099728"><ele>1436.5</ele></trkpt>
    <trkpt lat="31.898365" lon="-6.099791"><ele>1436.5</ele></trkpt>
    <trkpt lat="31.898200" lon="-6.100179"><ele>1446.0</ele></trkpt>
    <trkpt lat="31.898049" lon="-6.100506"><ele>1446.0</ele></trkpt>
    <trkpt lat="31.897337" lon="-6.100907"><ele>1445.5</ele></trkpt>
    <trkpt lat="31.896566" lon="-6.100935"><ele>1444.2</ele></trkpt>
    <trkpt lat="31.895216" lon="-6.100722"><ele>1441.5</ele></trkpt>
    <trkpt lat="31.895070" lon="-6.100975"><ele>1442.0</ele></trkpt>
    <trkpt lat="31.895074" lon="-6.101093"><ele>1443.2</ele></trkpt>
    <trkpt lat="31.895265" lon="-6.101949"><ele>1458.5</ele></trkpt>
    <trkpt lat="31.895267" lon="-6.102161"><ele>1458.5</ele></trkpt>
    <trkpt lat="31.894774" lon="-6.103080"><ele>1453.8</ele></trkpt>
    <trkpt lat="31.892791" lon="-6.103882"><ele>1448.5</ele></trkpt>
    <trkpt lat="31.892603" lon="-6.103976"><ele>1448.5</ele></trkpt>
    <trkpt lat="31.891414" lon="-6.104702"><ele>1453.5</ele></trkpt>
    <trkpt lat="31.890183" lon="-6.104682"><ele>1455.2</ele></trkpt>
    <trkpt lat="31.889786" lon="-6.104258"><ele>1458.8</ele></trkpt>
    <trkpt lat="31.889700" lon="-6.104177"><ele>1458.8</ele></trkpt>
    <trkpt lat="31.889272" lon="-6.103146"><ele>1453.5</ele></trkpt>
    <trkpt lat="31.889032" lon="-6.102951"><ele>1453.5</ele></trkpt>
    <trkpt lat="31.888941" lon="-6.102954"><ele>1453.5</ele></trkpt>
    <trkpt lat="31.887743" lon="-6.103697"><ele>1462.8</ele></trkpt>
    <trkpt lat="31.886985" lon="-6.104016"><ele>1463.5</ele></trkpt>
    <trkpt lat="31.885871" lon="-6.103679"><ele>1460.8</ele></trkpt>
    <trkpt lat="31.885231" lon="-6.103111"><ele>1461.2</ele></trkpt>
    <trkpt lat="31.884270" lon="-6.103788"><ele>1470.8</ele></trkpt>
    <trkpt lat="31.882714" lon="-6.104364"><ele>1471.0</ele></trkpt>
    <trkpt lat="31.882637" lon="-6.104423"><ele>1471.2</ele></trkpt>
    <trkpt lat="31.882410" lon="-6.104742"><ele>1477.2</ele></trkpt>
    <trkpt lat="31.881817" lon="-6.105349"><ele>1478.0</ele></trkpt>
    <trkpt lat="31.881557" lon="-6.105931"><ele>1481.5</ele></trkpt>
    <trkpt lat="31.881664" lon="-6.107714"><ele>1484.8</ele></trkpt>
    <trkpt lat="31.881365" lon="-6.108207"><ele>1485.5</ele></trkpt>
    <trkpt lat="31.880586" lon="-6.108741"><ele>1492.0</ele></trkpt>
    <trkpt lat="31.880545" lon="-6.108748"><ele>1492.0</ele></trkpt>
    <trkpt lat="31.880201" lon="-6.108475"><ele>1490.0</ele></trkpt>
    <trkpt lat="31.879644" lon="-6.108272"><ele>1490.0</ele></trkpt>
    <trkpt lat="31.879523" lon="-6.108251"><ele>1491.5</ele></trkpt>
    <trkpt lat="31.878697" lon="-6.108364"><ele>1503.8</ele></trkpt>
    <trkpt lat="31.878349" lon="-6.108641"><ele>1512.5</ele></trkpt>
    <trkpt lat="31.878268" lon="-6.108685"><ele>1512.5</ele></trkpt>
    <trkpt lat="31.878131" lon="-6.107996"><ele>1501.0</ele></trkpt>
    <trkpt lat="31.877721" lon="-6.107937"><ele>1501.0</ele></trkpt>
    <trkpt lat="31.876668" lon="-6.108487"><ele>1514.8</ele></trkpt>
    <trkpt lat="31.876048" lon="-6.108869"><ele>1515.5</ele></trkpt>
    <trkpt lat="31.875113" lon="-6.110399"><ele>1519.0</ele></trkpt>
    <trkpt lat="31.875111" lon="-6.110926"><ele>1525.0</ele></trkpt>
    <trkpt lat="31.874859" lon="-6.111089"><ele>1528.2</ele></trkpt>
    <trkpt lat="31.874272" lon="-6.110646"><ele>1521.0</ele></trkpt>
    <trkpt lat="31.873524" lon="-6.110716"><ele>1519.0</ele></trkpt>
    <trkpt lat="31.873091" lon="-6.110704"><ele>1519.8</ele></trkpt>
    <trkpt lat="31.872765" lon="-6.111097"><ele>1524.2</ele></trkpt>
    <trkpt lat="31.872604" lon="-6.111115"><ele>1524.2</ele></trkpt>
    <trkpt lat="31.871727" lon="-6.110080"><ele>1510.8</ele></trkpt>
    <trkpt lat="31.871363" lon="-6.109742"><ele>1509.8</ele></trkpt>
    <trkpt lat="31.870729" lon="-6.109436"><ele>1510.0</ele></trkpt>
    <trkpt lat="31.870541" lon="-6.109389"><ele>1510.5</ele></trkpt>
    <trkpt lat="31.870106" lon="-6.109356"><ele>1513.2</ele></trkpt>
    <trkpt lat="31.868948" lon="-6.109603"><ele>1517.8</ele></trkpt>
    <trkpt lat="31.868042" lon="-6.110225"><ele>1519.0</ele></trkpt>
    <trkpt lat="31.868019" lon="-6.110287"><ele>1520.0</ele></trkpt>
    <trkpt lat="31.867801" lon="-6.111398"><ele>1531.8</ele></trkpt>
    <trkpt lat="31.868240" lon="-6.112375"><ele>1545.5</ele></trkpt>
    <trkpt lat="31.868380" lon="-6.113584"><ele>1555.2</ele></trkpt>
    <trkpt lat="31.868309" lon="-6.113778"><ele>1556.2</ele></trkpt>
    <trkpt lat="31.868117" lon="-6.113677"><ele>1559.0</ele></trkpt>
    <trkpt lat="31.867677" lon="-6.112851"><ele>1555.0</ele></trkpt>
    <trkpt lat="31.866950" lon="-6.112516"><ele>1555.0</ele></trkpt>
    <trkpt lat="31.866821" lon="-6.112485"><ele>1555.8</ele></trkpt>
    <trkpt lat="31.866573" lon="-6.112544"><ele>1559.5</ele></trkpt>
    <trkpt lat="31.866066" lon="-6.113091"><ele>1572.5</ele></trkpt>
    <trkpt lat="31.865890" lon="-6.113127"><ele>1572.5</ele></trkpt>
    <trkpt lat="31.865538" lon="-6.112501"><ele>1572.5</ele></trkpt>
    <trkpt lat="31.865110" lon="-6.112054"><ele>1573.5</ele></trkpt>
    <trkpt lat="31.863590" lon="-6.111618"><ele>1592.0</ele></trkpt>
    <trkpt lat="31.863302" lon="-6.111463"><ele>1592.0</ele></trkpt>
    <trkpt lat="31.862462" lon="-6.110468"><ele>1581.2</ele></trkpt>
    <trkpt lat="31.861468" lon="-6.110075"><ele>1572.5</ele></trkpt>
    <trkpt lat="31.861297" lon="-6.110123"><ele>1570.5</ele></trkpt>
    <trkpt lat="31.861215" lon="-6.110327"><ele>1570.5</ele></trkpt>
    <trkpt lat="31.861182" lon="-6.110563"><ele>1570.5</ele></trkpt>
    <trkpt lat="31.861121" lon="-6.111821"><ele>1574.5</ele></trkpt>
    <trkpt lat="31.860756" lon="-6.112746"><ele>1577.5</ele></trkpt>
    <trkpt lat="31.860577" lon="-6.112915"><ele>1584.8</ele></trkpt>
    <trkpt lat="31.860524" lon="-6.112913"><ele>1584.8</ele></trkpt>
    <trkpt lat="31.860373" lon="-6.111899"><ele>1577.0</ele></trkpt>
    <trkpt lat="31.860111" lon="-6.111450"><ele>1573.5</ele></trkpt>
    <trkpt lat="31.859794" lon="-6.111258"><ele>1573.5</ele></trkpt>
    <trkpt lat="31.859416" lon="-6.111421"><ele>1581.5</ele></trkpt>
    <trkpt lat="31.859314" lon="-6.111391"><ele>1582.0</ele></trkpt>
    <trkpt lat="31.858373" lon="-6.110286"><ele>1580.8</ele></trkpt>
    <trkpt lat="31.857495" lon="-6.110340"><ele>1581.2</ele></trkpt>
    <trkpt lat="31.856911" lon="-6.111003"><ele>1600.0</ele></trkpt>
    <trkpt lat="31.856857" lon="-6.111059"><ele>1600.0</ele></trkpt>
    <trkpt lat="31.856735" lon="-6.111065"><ele>1600.0</ele></trkpt>
    <trkpt lat="31.856667" lon="-6.110992"><ele>1600.0</ele></trkpt>
    <trkpt lat="31.856559" lon="-6.110682"><ele>1591.8</ele></trkpt>
    <trkpt lat="31.856507" lon="-6.110613"><ele>1589.8</ele></trkpt>
    <trkpt lat="31.856094" lon="-6.110418"><ele>1588.0</ele></trkpt>
    <trkpt lat="31.853025" lon="-6.108932"><ele>1592.8</ele></trkpt>
    <trkpt lat="31.852835" lon="-6.109078"><ele>1593.5</ele></trkpt>
    <trkpt lat="31.852871" lon="-6.110228"><ele>1596.2</ele></trkpt>
    <trkpt lat="31.852622" lon="-6.110250"><ele>1596.2</ele></trkpt>
    <trkpt lat="31.852393" lon="-6.110193"><ele>1591.5</ele></trkpt>
    <trkpt lat="31.852367" lon="-6.109488"><ele>1589.2</ele></trkpt>
    <trkpt lat="31.852455" lon="-6.109006"><ele>1587.2</ele></trkpt>
    <trkpt lat="31.852328" lon="-6.108921"><ele>1583.2</ele></trkpt>
    <trkpt lat="31.852361" lon="-6.108705"><ele>1580.2</ele></trkpt>
    <trkpt lat="31.852185" lon="-6.108502"><ele>1574.2</ele></trkpt>
    <trkpt lat="31.852092" lon="-6.108421"><ele>1572.8</ele></trkpt>
    <trkpt lat="31.851979" lon="-6.108442"><ele>1571.8</ele></trkpt>
    <trkpt lat="31.851951" lon="-6.108648"><ele>1570.5</ele></trkpt>
    <trkpt lat="31.851400" lon="-6.108523"><ele>1567.8</ele></trkpt>
    <trkpt lat="31.851329" lon="-6.108508"><ele>1568.0</ele></trkpt>
    <trkpt lat="31.851121" lon="-6.108591"><ele>1568.2</ele></trkpt>
    <trkpt lat="31.850251" lon="-6.109160"><ele>1570.5</ele></trkpt>
    <trkpt lat="31.849745" lon="-6.108990"><ele>1570.5</ele></trkpt>
    <trkpt lat="31.848638" lon="-6.108911"><ele>1572.0</ele></trkpt>
    <trkpt lat="31.847969" lon="-6.108621"><ele>1572.8</ele></trkpt>
    <trkpt lat="31.847486" lon="-6.108719"><ele>1573.5</ele></trkpt>
    <trkpt lat="31.847454" lon="-6.108866"><ele>1575.8</ele></trkpt>
    <trkpt lat="31.847149" lon="-6.109034"><ele>1577.5</ele></trkpt>
    <trkpt lat="31.846922" lon="-6.108860"><ele>1577.5</ele></trkpt>
    <trkpt lat="31.845991" lon="-6.108845"><ele>1577.5</ele></trkpt>
    <trkpt lat="31.845443" lon="-6.110367"><ele>1593.0</ele></trkpt>
    <trkpt lat="31.845411" lon="-6.110693"><ele>1597.5</ele></trkpt>
    <trkpt lat="31.845390" lon="-6.110899"><ele>1600.2</ele></trkpt>
    <trkpt lat="31.845392" lon="-6.111107"><ele>1600.5</ele></trkpt>
    <trkpt lat="31.845302" lon="-6.111136"><ele>1600.5</ele></trkpt>
    <trkpt lat="31.844753" lon="-6.110609"><ele>1595.2</ele></trkpt>
    <trkpt lat="31.844312" lon="-6.110465"><ele>1595.2</ele></trkpt>
    <trkpt lat="31.842614" lon="-6.109945"><ele>1598.0</ele></trkpt>
    <trkpt lat="31.841626" lon="-6.109941"><ele>1598.8</ele></trkpt>
    <trkpt lat="31.840924" lon="-6.109617"><ele>1603.2</ele></trkpt>
    <trkpt lat="31.839054" lon="-6.107856"><ele>1604.2</ele></trkpt>
    <trkpt lat="31.837711" lon="-6.106246"><ele>1612.0</ele></trkpt>
    <trkpt lat="31.837028" lon="-6.106279"><ele>1617.2</ele></trkpt>
    <trkpt lat="31.836767" lon="-6.106344"><ele>1618.8</ele></trkpt>
    <trkpt lat="31.836247" lon="-6.106528"><ele>1618.8</ele></trkpt>
    <trkpt lat="31.835733" lon="-6.106371"><ele>1612.2</ele></trkpt>
    <trkpt lat="31.835217" lon="-6.106576"><ele>1610.5</ele></trkpt>
    <trkpt lat="31.835016" lon="-6.106401"><ele>1608.2</ele></trkpt>
    <trkpt lat="31.834954" lon="-6.106375"><ele>1608.2</ele></trkpt>
    <trkpt lat="31.834233" lon="-6.106242"><ele>1608.2</ele></trkpt>
    <trkpt lat="31.834429" lon="-6.105826"><ele>1609.8</ele></trkpt>
    <trkpt lat="31.834666" lon="-6.105773"><ele>1611.0</ele></trkpt>
    <trkpt lat="31.834779" lon="-6.105688"><ele>1615.0</ele></trkpt>
    <trkpt lat="31.834185" lon="-6.105098"><ele>1620.0</ele></trkpt>
    <trkpt lat="31.833508" lon="-6.104720"><ele>1622.0</ele></trkpt>
    <trkpt lat="31.832953" lon="-6.104140"><ele>1626.2</ele></trkpt>
    <trkpt lat="31.833727" lon="-6.104600"><ele>1628.8</ele></trkpt>
    <trkpt lat="31.833780" lon="-6.104608"><ele>1629.2</ele></trkpt>
    <trkpt lat="31.833980" lon="-6.104568"><ele>1633.5</ele></trkpt>
    <trkpt lat="31.834177" lon="-6.104379"><ele>1642.5</ele></trkpt>
    <trkpt lat="31.834188" lon="-6.104354"><ele>1643.8</ele></trkpt>
    <trkpt lat="31.834147" lon="-6.104276"><ele>1643.8</ele></trkpt>
    <trkpt lat="31.833842" lon="-6.104322"><ele>1641.0</ele></trkpt>
    <trkpt lat="31.833194" lon="-6.103574"><ele>1644.8</ele></trkpt>
    <trkpt lat="31.833871" lon="-6.103604"><ele>1659.5</ele></trkpt>
    <trkpt lat="31.833659" lon="-6.103131"><ele>1663.0</ele></trkpt>
    <trkpt lat="31.833909" lon="-6.102774"><ele>1670.2</ele></trkpt>
    <trkpt lat="31.834035" lon="-6.103033"><ele>1672.2</ele></trkpt>
    <trkpt lat="31.834222" lon="-6.103019"><ele>1677.8</ele></trkpt>
    <trkpt lat="31.834455" lon="-6.101814"><ele>1681.5</ele></trkpt>
    <trkpt lat="31.834596" lon="-6.101868"><ele>1687.0</ele></trkpt>
    <trkpt lat="31.834620" lon="-6.102287"><ele>1695.5</ele></trkpt>
    <trkpt lat="31.834839" lon="-6.102561"><ele>1703.8</ele></trkpt>
    <trkpt lat="31.835231" lon="-6.103175"><ele>1704.0</ele></trkpt>
    <trkpt lat="31.835358" lon="-6.103146"><ele>1706.0</ele></trkpt>
    <trkpt lat="31.834968" lon="-6.102028"><ele>1707.2</ele></trkpt>
    <trkpt lat="31.835239" lon="-6.101652"><ele>1708.2</ele></trkpt>
    <trkpt lat="31.835340" lon="-6.101568"><ele>1712.2</ele></trkpt>
    <trkpt lat="31.835781" lon="-6.101405"><ele>1736.8</ele></trkpt>
    <trkpt lat="31.835843" lon="-6.101316"><ele>1738.0</ele></trkpt>
    <trkpt lat="31.835932" lon="-6.100946"><ele>1738.0</ele></trkpt>
    <trkpt lat="31.835754" lon="-6.099755"><ele>1736.0</ele></trkpt>
    <trkpt lat="31.835840" lon="-6.098577"><ele>1736.0</ele></trkpt>
    <trkpt lat="31.835716" lon="-6.098114"><ele>1738.5</ele></trkpt>
    <trkpt lat="31.835734" lon="-6.097645"><ele>1738.5</ele></trkpt>
    <trkpt lat="31.835681" lon="-6.095607"><ele>1746.8</ele></trkpt>
    <trkpt lat="31.835475" lon="-6.094481"><ele>1750.8</ele></trkpt>
    <trkpt lat="31.835732" lon="-6.093900"><ele>1758.5</ele></trkpt>
    <trkpt lat="31.836145" lon="-6.092676"><ele>1760.2</ele></trkpt>
    <trkpt lat="31.837331" lon="-6.092354"><ele>1769.5</ele></trkpt>
    <trkpt lat="31.837484" lon="-6.092024"><ele>1774.5</ele></trkpt>
    <trkpt lat="31.838066" lon="-6.091833"><ele>1775.2</ele></trkpt>
    <trkpt lat="31.838141" lon="-6.091552"><ele>1777.0</ele></trkpt>
    <trkpt lat="31.838474" lon="-6.091479"><ele>1777.5</ele></trkpt>
    <trkpt lat="31.839075" lon="-6.091248"><ele>1782.2</ele></trkpt>
    <trkpt lat="31.839318" lon="-6.091108"><ele>1785.8</ele></trkpt>
    <trkpt lat="31.840075" lon="-6.090614"><ele>1798.5</ele></trkpt>
    <trkpt lat="31.840351" lon="-6.090508"><ele>1803.0</ele></trkpt>
    <trkpt lat="31.841510" lon="-6.090576"><ele>1824.0</ele></trkpt>
    <trkpt lat="31.841942" lon="-6.090620"><ele>1831.5</ele></trkpt>
    <trkpt lat="31.842452" lon="-6.090519"><ele>1845.5</ele></trkpt>
    <trkpt lat="31.844043" lon="-6.090728"><ele>1863.8</ele></trkpt>
    <trkpt lat="31.844717" lon="-6.090572"><ele>1877.8</ele></trkpt>
    <trkpt lat="31.845369" lon="-6.090620"><ele>1885.8</ele></trkpt>
    <trkpt lat="31.845665" lon="-6.090432"><ele>1887.8</ele></trkpt>
    </trkseg>
  </trk>
</gpx>
