<?xml version="1.0" encoding="UTF-8"?>
<gpx version="1.1" creator="tripplanner (converted from Garmin TCX)" xmlns="http://www.topografix.com/GPX/1/1">
  <metadata>
    <name>La Garde-Freinet → Castellane</name>
    <time>2026-08-01T05:59:53Z</time>
  </metadata>
  <trk>
    <name>La Garde-Freinet → Castellane</name>
    <trkseg>
    <trkpt lat="43.311530" lon="6.471659"><ele>327.2</ele><time>2026-08-01T05:59:53Z</time></trkpt>
    <trkpt lat="43.313016" lon="6.471656"><ele>347.0</ele><time>2026-08-01T06:01:19Z</time></trkpt>
    <trkpt lat="43.313238" lon="6.471603"><ele>350.4</ele><time>2026-08-01T06:01:33Z</time></trkpt>
    <trkpt lat="43.314262" lon="6.471213"><ele>351.8</ele><time>2026-08-01T06:06:39Z</time></trkpt>
    <trkpt lat="43.314486" lon="6.471385"><ele>351.8</ele><time>2026-08-01T06:06:46Z</time></trkpt>
    <trkpt lat="43.314632" lon="6.472162"><ele>351.8</ele><time>2026-08-01T06:07:08Z</time></trkpt>
    <trkpt lat="43.314605" lon="6.471142"><ele>351.8</ele><time>2026-08-01T06:07:40Z</time></trkpt>
    <trkpt lat="43.316604" lon="6.470439"><ele>351.4</ele><time>2026-08-01T06:08:32Z</time></trkpt>
    <trkpt lat="43.317825" lon="6.469862"><ele>344.2</ele><time>2026-08-01T06:08:58Z</time></trkpt>
    <trkpt lat="43.317907" lon="6.470086"><ele>342.8</ele><time>2026-08-01T06:09:02Z</time></trkpt>
    <trkpt lat="43.317787" lon="6.470792"><ele>339.6</ele><time>2026-08-01T06:09:10Z</time></trkpt>
    <trkpt lat="43.317062" lon="6.471952"><ele>334.2</ele><time>2026-08-01T06:09:24Z</time></trkpt>
    <trkpt lat="43.316754" lon="6.472181"><ele>332.8</ele><time>2026-08-01T06:09:29Z</time></trkpt>
    <trkpt lat="43.316756" lon="6.472379"><ele>332.8</ele><time>2026-08-01T06:09:32Z</time></trkpt>
    <trkpt lat="43.317977" lon="6.472318"><ele>328.4</ele><time>2026-08-01T06:09:51Z</time></trkpt>
    <trkpt lat="43.318574" lon="6.472086"><ele>326.0</ele><time>2026-08-01T06:09:59Z</time></trkpt>
    <trkpt lat="43.318954" lon="6.472109"><ele>324.8</ele><time>2026-08-01T06:10:04Z</time></trkpt>
    <trkpt lat="43.319596" lon="6.472386"><ele>323.6</ele><time>2026-08-01T06:10:13Z</time></trkpt>
    <trkpt lat="43.320672" lon="6.472045"><ele>321.2</ele><time>2026-08-01T06:10:28Z</time></trkpt>
    <trkpt lat="43.321027" lon="6.472137"><ele>320.4</ele><time>2026-08-01T06:10:33Z</time></trkpt>
    <trkpt lat="43.321248" lon="6.472547"><ele>319.6</ele><time>2026-08-01T06:10:38Z</time></trkpt>
    <trkpt lat="43.321281" lon="6.473987"><ele>318.4</ele><time>2026-08-01T06:10:52Z</time></trkpt>
    <trkpt lat="43.321942" lon="6.474267"><ele>316.2</ele><time>2026-08-01T06:11:02Z</time></trkpt>
    <trkpt lat="43.322184" lon="6.474665"><ele>315.4</ele><time>2026-08-01T06:11:07Z</time></trkpt>
    <trkpt lat="43.322244" lon="6.476374"><ele>313.8</ele><time>2026-08-01T06:11:22Z</time></trkpt>
    <trkpt lat="43.322431" lon="6.476683"><ele>313.6</ele><time>2026-08-01T06:11:26Z</time></trkpt>
    <trkpt lat="43.323311" lon="6.475494"><ele>309.2</ele><time>2026-08-01T06:11:42Z</time></trkpt>
    <trkpt lat="43.323956" lon="6.475428"><ele>308.0</ele><time>2026-08-01T06:11:50Z</time></trkpt>
    <trkpt lat="43.324531" lon="6.474208"><ele>304.6</ele><time>2026-08-01T06:12:03Z</time></trkpt>
    <trkpt lat="43.326029" lon="6.474379"><ele>302.2</ele><time>2026-08-01T06:12:23Z</time></trkpt>
    <trkpt lat="43.326231" lon="6.474265"><ele>301.6</ele><time>2026-08-01T06:12:26Z</time></trkpt>
    <trkpt lat="43.326455" lon="6.472317"><ele>298.2</ele><time>2026-08-01T06:12:45Z</time></trkpt>
    <trkpt lat="43.326925" lon="6.471940"><ele>295.8</ele><time>2026-08-01T06:12:52Z</time></trkpt>
    <trkpt lat="43.327251" lon="6.471263"><ele>295.2</ele><time>2026-08-01T06:12:59Z</time></trkpt>
    <trkpt lat="43.328064" lon="6.471269"><ele>293.6</ele><time>2026-08-01T06:13:09Z</time></trkpt>
    <trkpt lat="43.328414" lon="6.471783"><ele>291.8</ele><time>2026-08-01T06:13:16Z</time></trkpt>
    <trkpt lat="43.328949" lon="6.471136"><ele>289.8</ele><time>2026-08-01T06:13:26Z</time></trkpt>
    <trkpt lat="43.328769" lon="6.470222"><ele>288.0</ele><time>2026-08-01T06:13:35Z</time></trkpt>
    <trkpt lat="43.328156" lon="6.469030"><ele>286.0</ele><time>2026-08-01T06:13:48Z</time></trkpt>
    <trkpt lat="43.328099" lon="6.468487"><ele>285.4</ele><time>2026-08-01T06:13:53Z</time></trkpt>
    <trkpt lat="43.328409" lon="6.468041"><ele>284.8</ele><time>2026-08-01T06:13:59Z</time></trkpt>
    <trkpt lat="43.329293" lon="6.467668"><ele>284.8</ele><time>2026-08-01T06:14:11Z</time></trkpt>
    <trkpt lat="43.329377" lon="6.467316"><ele>284.8</ele><time>2026-08-01T06:14:15Z</time></trkpt>
    <trkpt lat="43.329290" lon="6.467145"><ele>284.6</ele><time>2026-08-01T06:14:17Z</time></trkpt>
    <trkpt lat="43.328462" lon="6.466379"><ele>279.2</ele><time>2026-08-01T06:14:28Z</time></trkpt>
    <trkpt lat="43.327923" lon="6.466103"><ele>276.2</ele><time>2026-08-01T06:14:34Z</time></trkpt>
    <trkpt lat="43.327397" lon="6.465351"><ele>272.4</ele><time>2026-08-01T06:14:42Z</time></trkpt>
    <trkpt lat="43.327356" lon="6.463747"><ele>267.6</ele><time>2026-08-01T06:14:55Z</time></trkpt>
    <trkpt lat="43.328013" lon="6.462247"><ele>261.8</ele><time>2026-08-01T06:15:08Z</time></trkpt>
    <trkpt lat="43.328854" lon="6.462333"><ele>258.6</ele><time>2026-08-01T06:15:17Z</time></trkpt>
    <trkpt lat="43.329090" lon="6.462205"><ele>257.6</ele><time>2026-08-01T06:15:20Z</time></trkpt>
    <trkpt lat="43.329709" lon="6.460378"><ele>251.4</ele><time>2026-08-01T06:15:38Z</time></trkpt>
    <trkpt lat="43.329811" lon="6.459343"><ele>248.0</ele><time>2026-08-01T06:15:49Z</time></trkpt>
    <trkpt lat="43.329988" lon="6.459169"><ele>246.8</ele><time>2026-08-01T06:15:52Z</time></trkpt>
    <trkpt lat="43.330478" lon="6.459128"><ele>244.8</ele><time>2026-08-01T06:15:58Z</time></trkpt>
    <trkpt lat="43.330427" lon="6.458035"><ele>241.2</ele><time>2026-08-01T06:16:08Z</time></trkpt>
    <trkpt lat="43.330891" lon="6.457774"><ele>238.8</ele><time>2026-08-01T06:16:14Z</time></trkpt>
    <trkpt lat="43.331651" lon="6.456703"><ele>233.8</ele><time>2026-08-01T06:16:26Z</time></trkpt>
    <trkpt lat="43.331703" lon="6.455623"><ele>230.6</ele><time>2026-08-01T06:16:34Z</time></trkpt>
    <trkpt lat="43.331295" lon="6.454023"><ele>224.6</ele><time>2026-08-01T06:16:46Z</time></trkpt>
    <trkpt lat="43.331456" lon="6.453385"><ele>222.4</ele><time>2026-08-01T06:16:51Z</time></trkpt>
    <trkpt lat="43.331556" lon="6.452508"><ele>220.6</ele><time>2026-08-01T06:16:58Z</time></trkpt>
    <trkpt lat="43.331112" lon="6.451507"><ele>218.0</ele><time>2026-08-01T06:17:14Z</time></trkpt>
    <trkpt lat="43.330899" lon="6.450377"><ele>214.4</ele><time>2026-08-01T06:17:27Z</time></trkpt>
    <trkpt lat="43.330442" lon="6.449386"><ele>209.0</ele><time>2026-08-01T06:18:33Z</time></trkpt>
    <trkpt lat="43.330402" lon="6.448696"><ele>206.8</ele><time>2026-08-01T06:18:39Z</time></trkpt>
    <trkpt lat="43.330799" lon="6.448279"><ele>204.4</ele><time>2026-08-01T06:18:45Z</time></trkpt>
    <trkpt lat="43.331048" lon="6.447224"><ele>201.4</ele><time>2026-08-01T06:18:54Z</time></trkpt>
    <trkpt lat="43.331241" lon="6.447129"><ele>201.2</ele><time>2026-08-01T06:18:57Z</time></trkpt>
    <trkpt lat="43.332608" lon="6.449003"><ele>195.6</ele><time>2026-08-01T06:19:21Z</time></trkpt>
    <trkpt lat="43.332863" lon="6.449948"><ele>192.4</ele><time>2026-08-01T06:19:29Z</time></trkpt>
    <trkpt lat="43.333075" lon="6.450077"><ele>191.8</ele><time>2026-08-01T06:19:32Z</time></trkpt>
    <trkpt lat="43.333175" lon="6.449931"><ele>191.2</ele><time>2026-08-01T06:19:34Z</time></trkpt>
    <trkpt lat="43.333201" lon="6.449716"><ele>190.6</ele><time>2026-08-01T06:19:36Z</time></trkpt>
    <trkpt lat="43.333258" lon="6.449113"><ele>188.0</ele><time>2026-08-01T06:19:41Z</time></trkpt>
    <trkpt lat="43.332559" lon="6.445167"><ele>175.6</ele><time>2026-08-01T06:20:11Z</time></trkpt>
    <trkpt lat="43.332569" lon="6.444639"><ele>174.2</ele><time>2026-08-01T06:20:15Z</time></trkpt>
    <trkpt lat="43.332215" lon="6.443478"><ele>170.4</ele><time>2026-08-01T06:20:25Z</time></trkpt>
    <trkpt lat="43.331833" lon="6.440855"><ele>162.0</ele><time>2026-08-01T06:20:45Z</time></trkpt>
    <trkpt lat="43.331432" lon="6.440288"><ele>160.0</ele><time>2026-08-01T06:20:51Z</time></trkpt>
    <trkpt lat="43.331336" lon="6.439814"><ele>158.0</ele><time>2026-08-01T06:20:55Z</time></trkpt>
    <trkpt lat="43.331819" lon="6.439062"><ele>154.8</ele><time>2026-08-01T06:21:03Z</time></trkpt>
    <trkpt lat="43.331666" lon="6.438113"><ele>151.8</ele><time>2026-08-01T06:21:11Z</time></trkpt>
    <trkpt lat="43.332033" lon="6.437394"><ele>149.0</ele><time>2026-08-01T06:21:18Z</time></trkpt>
    <trkpt lat="43.331916" lon="6.436549"><ele>146.8</ele><time>2026-08-01T06:21:25Z</time></trkpt>
    <trkpt lat="43.332250" lon="6.435192"><ele>141.6</ele><time>2026-08-01T06:21:36Z</time></trkpt>
    <trkpt lat="43.333338" lon="6.432678"><ele>132.2</ele><time>2026-08-01T06:21:57Z</time></trkpt>
    <trkpt lat="43.333308" lon="6.431801"><ele>129.4</ele><time>2026-08-01T06:22:03Z</time></trkpt>
    <trkpt lat="43.333001" lon="6.431029"><ele>126.4</ele><time>2026-08-01T06:22:09Z</time></trkpt>
    <trkpt lat="43.332507" lon="6.428790"><ele>118.6</ele><time>2026-08-01T06:22:26Z</time></trkpt>
    <trkpt lat="43.333441" lon="6.427509"><ele>111.6</ele><time>2026-08-01T06:22:40Z</time></trkpt>
    <trkpt lat="43.334125" lon="6.427144"><ele>107.2</ele><time>2026-08-01T06:22:47Z</time></trkpt>
    <trkpt lat="43.335168" lon="6.426680"><ele>106.2</ele><time>2026-08-01T06:23:01Z</time></trkpt>
    <trkpt lat="43.334997" lon="6.425413"><ele>102.6</ele><time>2026-08-01T06:23:15Z</time></trkpt>
    <trkpt lat="43.334940" lon="6.425115"><ele>102.6</ele><time>2026-08-01T06:23:18Z</time></trkpt>
    <trkpt lat="43.334575" lon="6.424334"><ele>105.0</ele><time>2026-08-01T06:23:37Z</time></trkpt>
    <trkpt lat="43.334841" lon="6.424878"><ele>103.6</ele><time>2026-08-01T06:24:26Z</time></trkpt>
    <trkpt lat="43.335182" lon="6.426631"><ele>105.6</ele><time>2026-08-01T06:25:01Z</time></trkpt>
    <trkpt lat="43.335300" lon="6.426752"><ele>105.6</ele><time>2026-08-01T06:25:09Z</time></trkpt>
    <trkpt lat="43.335440" lon="6.426780"><ele>105.6</ele><time>2026-08-01T06:25:12Z</time></trkpt>
    <trkpt lat="43.341612" lon="6.428083"><ele>93.2</ele><time>2026-08-01T06:26:38Z</time></trkpt>
    <trkpt lat="43.342276" lon="6.428620"><ele>91.2</ele><time>2026-08-01T06:26:48Z</time></trkpt>
    <trkpt lat="43.342547" lon="6.428829"><ele>91.2</ele><time>2026-08-01T06:26:52Z</time></trkpt>
    <trkpt lat="43.342760" lon="6.428773"><ele>91.2</ele><time>2026-08-01T06:26:55Z</time></trkpt>
    <trkpt lat="43.343328" lon="6.427971"><ele>91.4</ele><time>2026-08-01T06:27:07Z</time></trkpt>
    <trkpt lat="43.343685" lon="6.427809"><ele>90.4</ele><time>2026-08-01T06:27:12Z</time></trkpt>
    <trkpt lat="43.349407" lon="6.427974"><ele>86.4</ele><time>2026-08-01T06:28:33Z</time></trkpt>
    <trkpt lat="43.350018" lon="6.428513"><ele>83.0</ele><time>2026-08-01T06:28:42Z</time></trkpt>
    <trkpt lat="43.350546" lon="6.429058"><ele>83.0</ele><time>2026-08-01T06:28:51Z</time></trkpt>
    <trkpt lat="43.351757" lon="6.429324"><ele>83.6</ele><time>2026-08-01T06:29:09Z</time></trkpt>
    <trkpt lat="43.353977" lon="6.431076"><ele>83.0</ele><time>2026-08-01T06:29:46Z</time></trkpt>
    <trkpt lat="43.354457" lon="6.432240"><ele>83.0</ele><time>2026-08-01T06:30:00Z</time></trkpt>
    <trkpt lat="43.354531" lon="6.432391"><ele>83.2</ele><time>2026-08-01T06:30:02Z</time></trkpt>
    <trkpt lat="43.355583" lon="6.434207"><ele>88.2</ele><time>2026-08-01T06:30:33Z</time></trkpt>
    <trkpt lat="43.358281" lon="6.440504"><ele>98.6</ele><time>2026-08-01T06:32:10Z</time></trkpt>
    <trkpt lat="43.358643" lon="6.441289"><ele>98.2</ele><time>2026-08-01T06:32:22Z</time></trkpt>
    <trkpt lat="43.360162" lon="6.443854"><ele>90.0</ele><time>2026-08-01T06:32:52Z</time></trkpt>
    <trkpt lat="43.364083" lon="6.446047"><ele>98.4</ele><time>2026-08-01T06:34:10Z</time></trkpt>
    <trkpt lat="43.365015" lon="6.445995"><ele>98.2</ele><time>2026-08-01T06:34:27Z</time></trkpt>
    <trkpt lat="43.366206" lon="6.445759"><ele>94.8</ele><time>2026-08-01T06:34:45Z</time></trkpt>
    <trkpt lat="43.367714" lon="6.446785"><ele>91.6</ele><time>2026-08-01T06:35:09Z</time></trkpt>
    <trkpt lat="43.368391" lon="6.447057"><ele>91.2</ele><time>2026-08-01T06:35:18Z</time></trkpt>
    <trkpt lat="43.369909" lon="6.446764"><ele>88.6</ele><time>2026-08-01T06:35:38Z</time></trkpt>
    <trkpt lat="43.370162" lon="6.446792"><ele>87.0</ele><time>2026-08-01T06:35:41Z</time></trkpt>
    <trkpt lat="43.370889" lon="6.447668"><ele>79.4</ele><time>2026-08-01T06:35:51Z</time></trkpt>
    <trkpt lat="43.370979" lon="6.447728"><ele>78.8</ele><time>2026-08-01T06:35:52Z</time></trkpt>
    <trkpt lat="43.372728" lon="6.448599"><ele>77.4</ele><time>2026-08-01T06:36:13Z</time></trkpt>
    <trkpt lat="43.373253" lon="6.448245"><ele>75.4</ele><time>2026-08-01T06:36:20Z</time></trkpt>
    <trkpt lat="43.373720" lon="6.447253"><ele>74.2</ele><time>2026-08-01T06:36:30Z</time></trkpt>
    <trkpt lat="43.374553" lon="6.445164"><ele>64.4</ele><time>2026-08-01T06:36:47Z</time></trkpt>
    <trkpt lat="43.375147" lon="6.444481"><ele>61.2</ele><time>2026-08-01T06:36:54Z</time></trkpt>
    <trkpt lat="43.376444" lon="6.443058"><ele>60.8</ele><time>2026-08-01T06:37:12Z</time></trkpt>
    <trkpt lat="43.377532" lon="6.442294"><ele>58.0</ele><time>2026-08-01T06:37:27Z</time></trkpt>
    <trkpt lat="43.379437" lon="6.442288"><ele>55.6</ele><time>2026-08-01T06:37:52Z</time></trkpt>
    <trkpt lat="43.380207" lon="6.441070"><ele>56.8</ele><time>2026-08-01T06:38:11Z</time></trkpt>
    <trkpt lat="43.380548" lon="6.440844"><ele>55.0</ele><time>2026-08-01T06:38:16Z</time></trkpt>
    <trkpt lat="43.384468" lon="6.441960"><ele>53.4</ele><time>2026-08-01T06:39:14Z</time></trkpt>
    <trkpt lat="43.386154" lon="6.441865"><ele>50.8</ele><time>2026-08-01T06:39:37Z</time></trkpt>
    <trkpt lat="43.387419" lon="6.441795"><ele>52.6</ele><time>2026-08-01T06:39:56Z</time></trkpt>
    <trkpt lat="43.388391" lon="6.441214"><ele>52.6</ele><time>2026-08-01T06:40:12Z</time></trkpt>
    <trkpt lat="43.390527" lon="6.440488"><ele>58.4</ele><time>2026-08-01T06:40:51Z</time></trkpt>
    <trkpt lat="43.392648" lon="6.439016"><ele>66.4</ele><time>2026-08-01T06:41:43Z</time></trkpt>
    <trkpt lat="43.393729" lon="6.437627"><ele>71.8</ele><time>2026-08-01T06:42:18Z</time></trkpt>
    <trkpt lat="43.395956" lon="6.434767"><ele>62.8</ele><time>2026-08-01T06:43:01Z</time></trkpt>
    <trkpt lat="43.397571" lon="6.433307"><ele>58.2</ele><time>2026-08-01T06:43:25Z</time></trkpt>
    <trkpt lat="43.398416" lon="6.431885"><ele>54.4</ele><time>2026-08-01T06:43:40Z</time></trkpt>
    <trkpt lat="43.399196" lon="6.431541"><ele>52.6</ele><time>2026-08-01T06:43:49Z</time></trkpt>
    <trkpt lat="43.400432" lon="6.430530"><ele>50.6</ele><time>2026-08-01T06:44:06Z</time></trkpt>
    <trkpt lat="43.401205" lon="6.429914"><ele>51.2</ele><time>2026-08-01T06:44:18Z</time></trkpt>
    <trkpt lat="43.402022" lon="6.429726"><ele>53.0</ele><time>2026-08-01T06:44:31Z</time></trkpt>
    <trkpt lat="43.403697" lon="6.428957"><ele>58.2</ele><time>2026-08-01T06:45:05Z</time></trkpt>
    <trkpt lat="43.405555" lon="6.428980"><ele>61.6</ele><time>2026-08-01T06:45:40Z</time></trkpt>
    <trkpt lat="43.405967" lon="6.429006"><ele>61.6</ele><time>2026-08-01T06:45:47Z</time></trkpt>
    <trkpt lat="43.407153" lon="6.429631"><ele>56.8</ele><time>2026-08-01T06:46:04Z</time></trkpt>
    <trkpt lat="43.408567" lon="6.429837"><ele>55.6</ele><time>2026-08-01T06:46:23Z</time></trkpt>
    <trkpt lat="43.408742" lon="6.429861"><ele>56.0</ele><time>2026-08-01T06:46:26Z</time></trkpt>
    <trkpt lat="43.410377" lon="6.430330"><ele>59.4</ele><time>2026-08-01T06:46:58Z</time></trkpt>
    <trkpt lat="43.411823" lon="6.430101"><ele>66.0</ele><time>2026-08-01T06:47:32Z</time></trkpt>
    <trkpt lat="43.412891" lon="6.429436"><ele>68.6</ele><time>2026-08-01T06:47:58Z</time></trkpt>
    <trkpt lat="43.413693" lon="6.429137"><ele>69.0</ele><time>2026-08-01T06:48:14Z</time></trkpt>
    <trkpt lat="43.414123" lon="6.428997"><ele>69.0</ele><time>2026-08-01T06:48:22Z</time></trkpt>
    <trkpt lat="43.416035" lon="6.427343"><ele>61.4</ele><time>2026-08-01T06:49:00Z</time></trkpt>
    <trkpt lat="43.417813" lon="6.427696"><ele>59.8</ele><time>2026-08-01T06:49:24Z</time></trkpt>
    <trkpt lat="43.418449" lon="6.427980"><ele>59.0</ele><time>2026-08-01T06:49:33Z</time></trkpt>
    <trkpt lat="43.420479" lon="6.428823"><ele>59.6</ele><time>2026-08-01T06:50:06Z</time></trkpt>
    <trkpt lat="43.421581" lon="6.429591"><ele>59.4</ele><time>2026-08-01T06:50:26Z</time></trkpt>
    <trkpt lat="43.423051" lon="6.431049"><ele>61.6</ele><time>2026-08-01T06:50:56Z</time></trkpt>
    <trkpt lat="43.423480" lon="6.431242"><ele>62.4</ele><time>2026-08-01T06:51:04Z</time></trkpt>
    <trkpt lat="43.425563" lon="6.430947"><ele>58.8</ele><time>2026-08-01T06:51:33Z</time></trkpt>
    <trkpt lat="43.426342" lon="6.430332"><ele>58.6</ele><time>2026-08-01T06:51:51Z</time></trkpt>
    <trkpt lat="43.427098" lon="6.431041"><ele>58.4</ele><time>2026-08-01T06:52:18Z</time></trkpt>
    <trkpt lat="43.427287" lon="6.431622"><ele>58.8</ele><time>2026-08-01T06:52:27Z</time></trkpt>
    <trkpt lat="43.428135" lon="6.432648"><ele>61.0</ele><time>2026-08-01T06:52:50Z</time></trkpt>
    <trkpt lat="43.428843" lon="6.433184"><ele>60.6</ele><time>2026-08-01T06:53:06Z</time></trkpt>
    <trkpt lat="43.429999" lon="6.434729"><ele>59.6</ele><time>2026-08-01T06:53:33Z</time></trkpt>
    <trkpt lat="43.431201" lon="6.436313"><ele>68.4</ele><time>2026-08-01T06:54:20Z</time></trkpt>
    <trkpt lat="43.431183" lon="6.436896"><ele>70.6</ele><time>2026-08-01T06:54:33Z</time></trkpt>
    <trkpt lat="43.431536" lon="6.437026"><ele>71.6</ele><time>2026-08-01T06:54:42Z</time></trkpt>
    <trkpt lat="43.433296" lon="6.438668"><ele>77.8</ele><time>2026-08-01T06:55:32Z</time></trkpt>
    <trkpt lat="43.433906" lon="6.439595"><ele>80.0</ele><time>2026-08-01T06:55:53Z</time></trkpt>
    <trkpt lat="43.434089" lon="6.440059"><ele>80.0</ele><time>2026-08-01T06:56:01Z</time></trkpt>
    <trkpt lat="43.435744" lon="6.444813"><ele>73.4</ele><time>2026-08-01T06:56:54Z</time></trkpt>
    <trkpt lat="43.436117" lon="6.445569"><ele>72.2</ele><time>2026-08-01T06:57:02Z</time></trkpt>
    <trkpt lat="43.438479" lon="6.449789"><ele>51.0</ele><time>2026-08-01T06:57:34Z</time></trkpt>
    <trkpt lat="43.438542" lon="6.449933"><ele>50.8</ele><time>2026-08-01T06:57:35Z</time></trkpt>
    <trkpt lat="43.441472" lon="6.457167"><ele>50.0</ele><time>2026-08-01T06:58:46Z</time></trkpt>
    <trkpt lat="43.443037" lon="6.463036"><ele>47.6</ele><time>2026-08-01T06:59:49Z</time></trkpt>
    <trkpt lat="43.443849" lon="6.466790"><ele>48.4</ele><time>2026-08-01T07:00:28Z</time></trkpt>
    <trkpt lat="43.444220" lon="6.467697"><ele>48.0</ele><time>2026-08-01T07:00:38Z</time></trkpt>
    <trkpt lat="43.446267" lon="6.471427"><ele>48.8</ele><time>2026-08-01T07:01:26Z</time></trkpt>
    <trkpt lat="43.447193" lon="6.473783"><ele>48.2</ele><time>2026-08-01T07:01:55Z</time></trkpt>
    <trkpt lat="43.447349" lon="6.474965"><ele>48.0</ele><time>2026-08-01T07:02:13Z</time></trkpt>
    <trkpt lat="43.447492" lon="6.475060"><ele>47.8</ele><time>2026-08-01T07:02:16Z</time></trkpt>
    <trkpt lat="43.447807" lon="6.474907"><ele>47.6</ele><time>2026-08-01T07:02:22Z</time></trkpt>
    <trkpt lat="43.448237" lon="6.475252"><ele>47.4</ele><time>2026-08-01T07:02:30Z</time></trkpt>
    <trkpt lat="43.448385" lon="6.475396"><ele>47.6</ele><time>2026-08-01T07:02:33Z</time></trkpt>
    <trkpt lat="43.448898" lon="6.475573"><ele>48.6</ele><time>2026-08-01T07:02:42Z</time></trkpt>
    <trkpt lat="43.453761" lon="6.479157"><ele>63.6</ele><time>2026-08-01T07:04:42Z</time></trkpt>
    <trkpt lat="43.454871" lon="6.479671"><ele>69.8</ele><time>2026-08-01T07:05:14Z</time></trkpt>
    <trkpt lat="43.455194" lon="6.479814"><ele>69.6</ele><time>2026-08-01T07:05:22Z</time></trkpt>
    <trkpt lat="43.456250" lon="6.483266"><ele>64.4</ele><time>2026-08-01T07:06:09Z</time></trkpt>
    <trkpt lat="43.456493" lon="6.484875"><ele>63.2</ele><time>2026-08-01T07:06:30Z</time></trkpt>
    <trkpt lat="43.457586" lon="6.487322"><ele>61.8</ele><time>2026-08-01T07:07:01Z</time></trkpt>
    <trkpt lat="43.457836" lon="6.487676"><ele>62.6</ele><time>2026-08-01T07:07:07Z</time></trkpt>
    <trkpt lat="43.458341" lon="6.487889"><ele>65.2</ele><time>2026-08-01T07:07:18Z</time></trkpt>
    <trkpt lat="43.459770" lon="6.487623"><ele>74.2</ele><time>2026-08-01T07:08:00Z</time></trkpt>
    <trkpt lat="43.461706" lon="6.488237"><ele>78.0</ele><time>2026-08-01T07:08:48Z</time></trkpt>
    <trkpt lat="43.461710" lon="6.488450"><ele>78.8</ele><time>2026-08-01T07:08:53Z</time></trkpt>
    <trkpt lat="43.461492" lon="6.488821"><ele>78.8</ele><time>2026-08-01T07:09:03Z</time></trkpt>
    <trkpt lat="43.461682" lon="6.489415"><ele>78.8</ele><time>2026-08-01T07:09:13Z</time></trkpt>
    <trkpt lat="43.461647" lon="6.490397"><ele>76.8</ele><time>2026-08-01T07:09:24Z</time></trkpt>
    <trkpt lat="43.461353" lon="6.491754"><ele>79.2</ele><time>2026-08-01T07:09:43Z</time></trkpt>
    <trkpt lat="43.461089" lon="6.495229"><ele>79.2</ele><time>2026-08-01T07:10:33Z</time></trkpt>
    <trkpt lat="43.461158" lon="6.496193"><ele>78.2</ele><time>2026-08-01T07:10:43Z</time></trkpt>
    <trkpt lat="43.461173" lon="6.496278"><ele>78.4</ele><time>2026-08-01T07:10:44Z</time></trkpt>
    <trkpt lat="43.461504" lon="6.497498"><ele>82.0</ele><time>2026-08-01T07:11:01Z</time></trkpt>
    <trkpt lat="43.461712" lon="6.497962"><ele>85.2</ele><time>2026-08-01T07:11:11Z</time></trkpt>
    <trkpt lat="43.462212" lon="6.498967"><ele>84.4</ele><time>2026-08-01T07:11:27Z</time></trkpt>
    <trkpt lat="43.462632" lon="6.501000"><ele>83.2</ele><time>2026-08-01T07:11:51Z</time></trkpt>
    <trkpt lat="43.462679" lon="6.501072"><ele>83.2</ele><time>2026-08-01T07:11:52Z</time></trkpt>
    <trkpt lat="43.464383" lon="6.502621"><ele>89.8</ele><time>2026-08-01T07:12:37Z</time></trkpt>
    <trkpt lat="43.465719" lon="6.504479"><ele>93.6</ele><time>2026-08-01T07:13:20Z</time></trkpt>
    <trkpt lat="43.465877" lon="6.505817"><ele>94.0</ele><time>2026-08-01T07:13:39Z</time></trkpt>
    <trkpt lat="43.466916" lon="6.507153"><ele>96.8</ele><time>2026-08-01T07:14:07Z</time></trkpt>
    <trkpt lat="43.467148" lon="6.507788"><ele>98.4</ele><time>2026-08-01T07:14:18Z</time></trkpt>
    <trkpt lat="43.467344" lon="6.508858"><ele>99.0</ele><time>2026-08-01T07:14:34Z</time></trkpt>
    <trkpt lat="43.467950" lon="6.509938"><ele>100.0</ele><time>2026-08-01T07:14:54Z</time></trkpt>
    <trkpt lat="43.469059" lon="6.511363"><ele>98.4</ele><time>2026-08-01T07:15:22Z</time></trkpt>
    <trkpt lat="43.469540" lon="6.511708"><ele>98.2</ele><time>2026-08-01T07:15:31Z</time></trkpt>
    <trkpt lat="43.469805" lon="6.511905"><ele>99.2</ele><time>2026-08-01T07:15:37Z</time></trkpt>
    <trkpt lat="43.470431" lon="6.512691"><ele>104.2</ele><time>2026-08-01T07:15:56Z</time></trkpt>
    <trkpt lat="43.471432" lon="6.513173"><ele>111.2</ele><time>2026-08-01T07:16:30Z</time></trkpt>
    <trkpt lat="43.472576" lon="6.513711"><ele>111.2</ele><time>2026-08-01T07:16:59Z</time></trkpt>
    <trkpt lat="43.473557" lon="6.513905"><ele>112.4</ele><time>2026-08-01T07:17:21Z</time></trkpt>
    <trkpt lat="43.476068" lon="6.514410"><ele>108.2</ele><time>2026-08-01T07:18:08Z</time></trkpt>
    <trkpt lat="43.476838" lon="6.516017"><ele>102.6</ele><time>2026-08-01T07:18:26Z</time></trkpt>
    <trkpt lat="43.479040" lon="6.520731"><ele>111.2</ele><time>2026-08-01T07:19:44Z</time></trkpt>
    <trkpt lat="43.479363" lon="6.521610"><ele>110.0</ele><time>2026-08-01T07:20:16Z</time></trkpt>
    <trkpt lat="43.479592" lon="6.521791"><ele>109.6</ele><time>2026-08-01T07:20:21Z</time></trkpt>
    <trkpt lat="43.479921" lon="6.521534"><ele>109.8</ele><time>2026-08-01T07:20:28Z</time></trkpt>
    <trkpt lat="43.480097" lon="6.521651"><ele>110.0</ele><time>2026-08-01T07:20:32Z</time></trkpt>
    <trkpt lat="43.480297" lon="6.522627"><ele>109.4</ele><time>2026-08-01T07:20:44Z</time></trkpt>
    <trkpt lat="43.480720" lon="6.523709"><ele>109.0</ele><time>2026-08-01T07:20:59Z</time></trkpt>
    <trkpt lat="43.481395" lon="6.525802"><ele>100.0</ele><time>2026-08-01T07:21:17Z</time></trkpt>
    <trkpt lat="43.481549" lon="6.526155"><ele>100.0</ele><time>2026-08-01T07:21:20Z</time></trkpt>
    <trkpt lat="43.482357" lon="6.526785"><ele>102.0</ele><time>2026-08-01T07:21:32Z</time></trkpt>
    <trkpt lat="43.483608" lon="6.528170"><ele>102.0</ele><time>2026-08-01T07:21:55Z</time></trkpt>
    <trkpt lat="43.485158" lon="6.528962"><ele>102.0</ele><time>2026-08-01T07:22:19Z</time></trkpt>
    <trkpt lat="43.486671" lon="6.528560"><ele>103.0</ele><time>2026-08-01T07:22:45Z</time></trkpt>
    <trkpt lat="43.487232" lon="6.528593"><ele>102.6</ele><time>2026-08-01T07:22:54Z</time></trkpt>
    <trkpt lat="43.487430" lon="6.528654"><ele>102.0</ele><time>2026-08-01T07:22:57Z</time></trkpt>
    <trkpt lat="43.488709" lon="6.529351"><ele>92.6</ele><time>2026-08-01T07:23:13Z</time></trkpt>
    <trkpt lat="43.489495" lon="6.530042"><ele>82.6</ele><time>2026-08-01T07:23:23Z</time></trkpt>
    <trkpt lat="43.489702" lon="6.530663"><ele>78.4</ele><time>2026-08-01T07:23:28Z</time></trkpt>
    <trkpt lat="43.489793" lon="6.531268"><ele>76.6</ele><time>2026-08-01T07:23:33Z</time></trkpt>
    <trkpt lat="43.489251" lon="6.532913"><ele>74.8</ele><time>2026-08-01T07:23:49Z</time></trkpt>
    <trkpt lat="43.489223" lon="6.534559"><ele>68.4</ele><time>2026-08-01T07:24:09Z</time></trkpt>
    <trkpt lat="43.489310" lon="6.534607"><ele>68.0</ele><time>2026-08-01T07:24:12Z</time></trkpt>
    <trkpt lat="43.490908" lon="6.535144"><ele>57.0</ele><time>2026-08-01T07:24:32Z</time></trkpt>
    <trkpt lat="43.491325" lon="6.535171"><ele>57.0</ele><time>2026-08-01T07:24:38Z</time></trkpt>
    <trkpt lat="43.491720" lon="6.535530"><ele>57.6</ele><time>2026-08-01T07:24:47Z</time></trkpt>
    <trkpt lat="43.490914" lon="6.536401"><ele>59.6</ele><time>2026-08-01T07:25:12Z</time></trkpt>
    <trkpt lat="43.490685" lon="6.537126"><ele>56.6</ele><time>2026-08-01T07:25:20Z</time></trkpt>
    <trkpt lat="43.490766" lon="6.537594"><ele>56.6</ele><time>2026-08-01T07:25:26Z</time></trkpt>
    <trkpt lat="43.490766" lon="6.537656"><ele>57.8</ele><time>2026-08-01T07:25:29Z</time></trkpt>
    <trkpt lat="43.491356" lon="6.537871"><ele>61.4</ele><time>2026-08-01T07:31:17Z</time></trkpt>
    <trkpt lat="43.491454" lon="6.538165"><ele>63.8</ele><time>2026-08-01T07:31:27Z</time></trkpt>
    <trkpt lat="43.491379" lon="6.538437"><ele>63.8</ele><time>2026-08-01T07:31:32Z</time></trkpt>
    <trkpt lat="43.490272" lon="6.541208"><ele>59.6</ele><time>2026-08-01T07:32:08Z</time></trkpt>
    <trkpt lat="43.490188" lon="6.541711"><ele>58.4</ele><time>2026-08-01T07:32:13Z</time></trkpt>
    <trkpt lat="43.490421" lon="6.542850"><ele>56.8</ele><time>2026-08-01T07:32:24Z</time></trkpt>
    <trkpt lat="43.490458" lon="6.543242"><ele>56.8</ele><time>2026-08-01T07:32:28Z</time></trkpt>
    <trkpt lat="43.490418" lon="6.544729"><ele>63.8</ele><time>2026-08-01T07:32:46Z</time></trkpt>
    <trkpt lat="43.490746" lon="6.546880"><ele>68.4</ele><time>2026-08-01T07:33:17Z</time></trkpt>
    <trkpt lat="43.491135" lon="6.548520"><ele>64.8</ele><time>2026-08-01T07:33:37Z</time></trkpt>
    <trkpt lat="43.491749" lon="6.549749"><ele>61.8</ele><time>2026-08-01T07:33:51Z</time></trkpt>
    <trkpt lat="43.492218" lon="6.551169"><ele>60.0</ele><time>2026-08-01T07:34:04Z</time></trkpt>
    <trkpt lat="43.492805" lon="6.554051"><ele>58.8</ele><time>2026-08-01T07:34:36Z</time></trkpt>
    <trkpt lat="43.492884" lon="6.555482"><ele>57.6</ele><time>2026-08-01T07:34:50Z</time></trkpt>
    <trkpt lat="43.492904" lon="6.558852"><ele>49.0</ele><time>2026-08-01T07:35:17Z</time></trkpt>
    <trkpt lat="43.493038" lon="6.564572"><ele>48.2</ele><time>2026-08-01T07:36:09Z</time></trkpt>
    <trkpt lat="43.493027" lon="6.564879"><ele>48.2</ele><time>2026-08-01T07:36:12Z</time></trkpt>
    <trkpt lat="43.492959" lon="6.565136"><ele>49.0</ele><time>2026-08-01T07:36:15Z</time></trkpt>
    <trkpt lat="43.492705" lon="6.565494"><ele>49.4</ele><time>2026-08-01T07:36:21Z</time></trkpt>
    <trkpt lat="43.492834" lon="6.565834"><ele>50.2</ele><time>2026-08-01T07:36:26Z</time></trkpt>
    <trkpt lat="43.493213" lon="6.565640"><ele>51.0</ele><time>2026-08-01T07:36:33Z</time></trkpt>
    <trkpt lat="43.494527" lon="6.566002"><ele>53.6</ele><time>2026-08-01T07:36:58Z</time></trkpt>
    <trkpt lat="43.496406" lon="6.565914"><ele>56.6</ele><time>2026-08-01T07:37:32Z</time></trkpt>
    <trkpt lat="43.499331" lon="6.565150"><ele>61.0</ele><time>2026-08-01T07:38:23Z</time></trkpt>
    <trkpt lat="43.500191" lon="6.565379"><ele>62.2</ele><time>2026-08-01T07:38:38Z</time></trkpt>
    <trkpt lat="43.501555" lon="6.566420"><ele>66.4</ele><time>2026-08-01T07:39:07Z</time></trkpt>
    <trkpt lat="43.503592" lon="6.565959"><ele>72.6</ele><time>2026-08-01T07:40:23Z</time></trkpt>
    <trkpt lat="43.506780" lon="6.566528"><ele>79.2</ele><time>2026-08-01T07:41:30Z</time></trkpt>
    <trkpt lat="43.507507" lon="6.566359"><ele>80.2</ele><time>2026-08-01T07:41:45Z</time></trkpt>
    <trkpt lat="43.509119" lon="6.565476"><ele>84.4</ele><time>2026-08-01T07:42:24Z</time></trkpt>
    <trkpt lat="43.509730" lon="6.565669"><ele>86.0</ele><time>2026-08-01T07:42:38Z</time></trkpt>
    <trkpt lat="43.510569" lon="6.566282"><ele>87.6</ele><time>2026-08-01T07:42:58Z</time></trkpt>
    <trkpt lat="43.510779" lon="6.566321"><ele>88.0</ele><time>2026-08-01T07:43:02Z</time></trkpt>
    <trkpt lat="43.511811" lon="6.566182"><ele>94.6</ele><time>2026-08-01T07:43:29Z</time></trkpt>
    <trkpt lat="43.513234" lon="6.566551"><ele>101.6</ele><time>2026-08-01T07:44:15Z</time></trkpt>
    <trkpt lat="43.513271" lon="6.566548"><ele>101.6</ele><time>2026-08-01T07:44:16Z</time></trkpt>
    <trkpt lat="43.514499" lon="6.565921"><ele>97.2</ele><time>2026-08-01T07:44:38Z</time></trkpt>
    <trkpt lat="43.517047" lon="6.565262"><ele>98.0</ele><time>2026-08-01T07:45:17Z</time></trkpt>
    <trkpt lat="43.517275" lon="6.565178"><ele>98.4</ele><time>2026-08-01T07:45:21Z</time></trkpt>
    <trkpt lat="43.519780" lon="6.563754"><ele>106.0</ele><time>2026-08-01T07:46:15Z</time></trkpt>
    <trkpt lat="43.520511" lon="6.563603"><ele>109.2</ele><time>2026-08-01T07:46:32Z</time></trkpt>
    <trkpt lat="43.520897" lon="6.563600"><ele>109.2</ele><time>2026-08-01T07:46:40Z</time></trkpt>
    <trkpt lat="43.522416" lon="6.564154"><ele>105.8</ele><time>2026-08-01T07:47:03Z</time></trkpt>
    <trkpt lat="43.526852" lon="6.565869"><ele>116.8</ele><time>2026-08-01T07:48:33Z</time></trkpt>
    <trkpt lat="43.530045" lon="6.566839"><ele>123.0</ele><time>2026-08-01T07:49:38Z</time></trkpt>
    <trkpt lat="43.532305" lon="6.567573"><ele>134.8</ele><time>2026-08-01T07:50:42Z</time></trkpt>
    <trkpt lat="43.532925" lon="6.568475"><ele>138.8</ele><time>2026-08-01T07:51:08Z</time></trkpt>
    <trkpt lat="43.533381" lon="6.570744"><ele>142.6</ele><time>2026-08-01T07:51:49Z</time></trkpt>
    <trkpt lat="43.533869" lon="6.571576"><ele>147.4</ele><time>2026-08-01T07:52:13Z</time></trkpt>
    <trkpt lat="43.535923" lon="6.573190"><ele>160.8</ele><time>2026-08-01T07:53:30Z</time></trkpt>
    <trkpt lat="43.539661" lon="6.574091"><ele>184.8</ele><time>2026-08-01T07:55:50Z</time></trkpt>
    <trkpt lat="43.540833" lon="6.574979"><ele>193.6</ele><time>2026-08-01T07:56:39Z</time></trkpt>
    <trkpt lat="43.541524" lon="6.575099"><ele>196.0</ele><time>2026-08-01T07:57:03Z</time></trkpt>
    <trkpt lat="43.542803" lon="6.575291"><ele>195.2</ele><time>2026-08-01T07:57:37Z</time></trkpt>
    <trkpt lat="43.543129" lon="6.575217"><ele>192.8</ele><time>2026-08-01T07:57:41Z</time></trkpt>
    <trkpt lat="43.544809" lon="6.573110"><ele>176.2</ele><time>2026-08-01T07:58:00Z</time></trkpt>
    <trkpt lat="43.545787" lon="6.572368"><ele>169.6</ele><time>2026-08-01T07:58:09Z</time></trkpt>
    <trkpt lat="43.546121" lon="6.572465"><ele>167.2</ele><time>2026-08-01T07:58:12Z</time></trkpt>
    <trkpt lat="43.546207" lon="6.572539"><ele>166.6</ele><time>2026-08-01T07:58:13Z</time></trkpt>
    <trkpt lat="43.547501" lon="6.573852"><ele>165.0</ele><time>2026-08-01T08:01:11Z</time></trkpt>
    <trkpt lat="43.547786" lon="6.574078"><ele>167.8</ele><time>2026-08-01T08:01:21Z</time></trkpt>
    <trkpt lat="43.548972" lon="6.573689"><ele>177.4</ele><time>2026-08-01T08:02:13Z</time></trkpt>
    <trkpt lat="43.550244" lon="6.572662"><ele>189.2</ele><time>2026-08-01T08:03:21Z</time></trkpt>
    <trkpt lat="43.551112" lon="6.573472"><ele>195.4</ele><time>2026-08-01T08:04:03Z</time></trkpt>
    <trkpt lat="43.551766" lon="6.572918"><ele>198.4</ele><time>2026-08-01T08:04:31Z</time></trkpt>
    <trkpt lat="43.552053" lon="6.572191"><ele>202.2</ele><time>2026-08-01T08:04:54Z</time></trkpt>
    <trkpt lat="43.552323" lon="6.571940"><ele>204.2</ele><time>2026-08-01T08:05:07Z</time></trkpt>
    <trkpt lat="43.555123" lon="6.570321"><ele>224.8</ele><time>2026-08-01T08:07:08Z</time></trkpt>
    <trkpt lat="43.555972" lon="6.570042"><ele>230.4</ele><time>2026-08-01T08:07:44Z</time></trkpt>
    <trkpt lat="43.556958" lon="6.570207"><ele>237.4</ele><time>2026-08-01T08:08:26Z</time></trkpt>
    <trkpt lat="43.557866" lon="6.569876"><ele>243.0</ele><time>2026-08-01T08:09:02Z</time></trkpt>
    <trkpt lat="43.558849" lon="6.570315"><ele>250.4</ele><time>2026-08-01T08:09:43Z</time></trkpt>
    <trkpt lat="43.558959" lon="6.570353"><ele>250.6</ele><time>2026-08-01T08:09:47Z</time></trkpt>
    <trkpt lat="43.559672" lon="6.570342"><ele>250.8</ele><time>2026-08-01T08:10:07Z</time></trkpt>
    <trkpt lat="43.560437" lon="6.569822"><ele>249.2</ele><time>2026-08-01T08:10:22Z</time></trkpt>
    <trkpt lat="43.561967" lon="6.568062"><ele>250.0</ele><time>2026-08-01T08:10:56Z</time></trkpt>
    <trkpt lat="43.563564" lon="6.566981"><ele>245.2</ele><time>2026-08-01T08:11:19Z</time></trkpt>
    <trkpt lat="43.564445" lon="6.566623"><ele>245.4</ele><time>2026-08-01T08:11:32Z</time></trkpt>
    <trkpt lat="43.566259" lon="6.566123"><ele>256.2</ele><time>2026-08-01T08:12:22Z</time></trkpt>
    <trkpt lat="43.567530" lon="6.565727"><ele>257.0</ele><time>2026-08-01T08:12:51Z</time></trkpt>
    <trkpt lat="43.569066" lon="6.565702"><ele>258.8</ele><time>2026-08-01T08:13:23Z</time></trkpt>
    <trkpt lat="43.569770" lon="6.565507"><ele>258.0</ele><time>2026-08-01T08:13:35Z</time></trkpt>
    <trkpt lat="43.569856" lon="6.565408"><ele>258.0</ele><time>2026-08-01T08:13:37Z</time></trkpt>
    <trkpt lat="43.570976" lon="6.563190"><ele>264.6</ele><time>2026-08-01T08:14:18Z</time></trkpt>
    <trkpt lat="43.571675" lon="6.562174"><ele>271.0</ele><time>2026-08-01T08:14:54Z</time></trkpt>
    <trkpt lat="43.572020" lon="6.561956"><ele>273.6</ele><time>2026-08-01T08:15:10Z</time></trkpt>
    <trkpt lat="43.573082" lon="6.561645"><ele>276.0</ele><time>2026-08-01T08:15:49Z</time></trkpt>
    <trkpt lat="43.573886" lon="6.560730"><ele>277.0</ele><time>2026-08-01T08:16:53Z</time></trkpt>
    <trkpt lat="43.574432" lon="6.559821"><ele>278.0</ele><time>2026-08-01T08:17:13Z</time></trkpt>
    <trkpt lat="43.575620" lon="6.558227"><ele>287.0</ele><time>2026-08-01T08:18:03Z</time></trkpt>
    <trkpt lat="43.576139" lon="6.557983"><ele>288.8</ele><time>2026-08-01T08:18:19Z</time></trkpt>
    <trkpt lat="43.577117" lon="6.557694"><ele>289.0</ele><time>2026-08-01T08:18:43Z</time></trkpt>
    <trkpt lat="43.577675" lon="6.556551"><ele>286.2</ele><time>2026-08-01T08:18:58Z</time></trkpt>
    <trkpt lat="43.578534" lon="6.554044"><ele>282.8</ele><time>2026-08-01T08:19:23Z</time></trkpt>
    <trkpt lat="43.579173" lon="6.552925"><ele>281.2</ele><time>2026-08-01T08:19:36Z</time></trkpt>
    <trkpt lat="43.579724" lon="6.551252"><ele>282.0</ele><time>2026-08-01T08:19:55Z</time></trkpt>
    <trkpt lat="43.580881" lon="6.548004"><ele>289.8</ele><time>2026-08-01T08:20:55Z</time></trkpt>
    <trkpt lat="43.581568" lon="6.547476"><ele>290.6</ele><time>2026-08-01T08:21:14Z</time></trkpt>
    <trkpt lat="43.582360" lon="6.547541"><ele>292.8</ele><time>2026-08-01T08:21:34Z</time></trkpt>
    <trkpt lat="43.583352" lon="6.547249"><ele>295.6</ele><time>2026-08-01T08:22:00Z</time></trkpt>
    <trkpt lat="43.584748" lon="6.546014"><ele>300.6</ele><time>2026-08-01T08:22:44Z</time></trkpt>
    <trkpt lat="43.585566" lon="6.545634"><ele>304.0</ele><time>2026-08-01T08:23:09Z</time></trkpt>
    <trkpt lat="43.586080" lon="6.544780"><ele>307.8</ele><time>2026-08-01T08:23:34Z</time></trkpt>
    <trkpt lat="43.586480" lon="6.543193"><ele>312.6</ele><time>2026-08-01T08:24:13Z</time></trkpt>
    <trkpt lat="43.586686" lon="6.543092"><ele>312.6</ele><time>2026-08-01T08:24:19Z</time></trkpt>
    <trkpt lat="43.587382" lon="6.542962"><ele>316.8</ele><time>2026-08-01T08:24:43Z</time></trkpt>
    <trkpt lat="43.588412" lon="6.541466"><ele>325.2</ele><time>2026-08-01T08:25:38Z</time></trkpt>
    <trkpt lat="43.588499" lon="6.541138"><ele>327.0</ele><time>2026-08-01T08:25:49Z</time></trkpt>
    <trkpt lat="43.588417" lon="6.539179"><ele>336.0</ele><time>2026-08-01T08:26:50Z</time></trkpt>
    <trkpt lat="43.588918" lon="6.538044"><ele>341.6</ele><time>2026-08-01T08:27:29Z</time></trkpt>
    <trkpt lat="43.588413" lon="6.536471"><ele>345.8</ele><time>2026-08-01T08:28:13Z</time></trkpt>
    <trkpt lat="43.588492" lon="6.536099"><ele>347.8</ele><time>2026-08-01T08:28:23Z</time></trkpt>
    <trkpt lat="43.589707" lon="6.535873"><ele>356.0</ele><time>2026-08-01T08:29:20Z</time></trkpt>
    <trkpt lat="43.590130" lon="6.536004"><ele>359.4</ele><time>2026-08-01T08:29:40Z</time></trkpt>
    <trkpt lat="43.590895" lon="6.535571"><ele>366.0</ele><time>2026-08-01T08:30:20Z</time></trkpt>
    <trkpt lat="43.591184" lon="6.535763"><ele>368.6</ele><time>2026-08-01T08:30:35Z</time></trkpt>
    <trkpt lat="43.591836" lon="6.536407"><ele>370.8</ele><time>2026-08-01T08:31:03Z</time></trkpt>
    <trkpt lat="43.592220" lon="6.537545"><ele>366.6</ele><time>2026-08-01T08:31:21Z</time></trkpt>
    <trkpt lat="43.592216" lon="6.538875"><ele>366.2</ele><time>2026-08-01T08:31:36Z</time></trkpt>
    <trkpt lat="43.592351" lon="6.539277"><ele>366.8</ele><time>2026-08-01T08:31:42Z</time></trkpt>
    <trkpt lat="43.592672" lon="6.539720"><ele>367.2</ele><time>2026-08-01T08:31:51Z</time></trkpt>
    <trkpt lat="43.593116" lon="6.539829"><ele>369.6</ele><time>2026-08-01T08:32:04Z</time></trkpt>
    <trkpt lat="43.593488" lon="6.540219"><ele>372.2</ele><time>2026-08-01T08:32:25Z</time></trkpt>
    <trkpt lat="43.593155" lon="6.539799"><ele>370.0</ele><time>2026-08-01T08:34:12Z</time></trkpt>
    <trkpt lat="43.592610" lon="6.539606"><ele>368.0</ele><time>2026-08-01T08:35:31Z</time></trkpt>
    <trkpt lat="43.592847" lon="6.539799"><ele>368.4</ele><time>2026-08-01T08:35:41Z</time></trkpt>
    <trkpt lat="43.593112" lon="6.539839"><ele>370.4</ele><time>2026-08-01T08:35:51Z</time></trkpt>
    <trkpt lat="43.593430" lon="6.540193"><ele>373.2</ele><time>2026-08-01T08:36:09Z</time></trkpt>
    <trkpt lat="43.594100" lon="6.540008"><ele>378.4</ele><time>2026-08-01T08:36:42Z</time></trkpt>
    <trkpt lat="43.594219" lon="6.539724"><ele>380.4</ele><time>2026-08-01T08:36:53Z</time></trkpt>
    <trkpt lat="43.594114" lon="6.538817"><ele>385.0</ele><time>2026-08-01T09:13:17Z</time></trkpt>
    <trkpt lat="43.593523" lon="6.538986"><ele>390.2</ele><time>2026-08-01T09:13:56Z</time></trkpt>
    <trkpt lat="43.593472" lon="6.538829"><ele>391.2</ele><time>2026-08-01T09:14:05Z</time></trkpt>
    <trkpt lat="43.594328" lon="6.538554"><ele>396.4</ele><time>2026-08-01T09:14:45Z</time></trkpt>
    <trkpt lat="43.594473" lon="6.538501"><ele>396.8</ele><time>2026-08-01T09:14:52Z</time></trkpt>
    <trkpt lat="43.594848" lon="6.537797"><ele>399.2</ele><time>2026-08-01T09:15:19Z</time></trkpt>
    <trkpt lat="43.595139" lon="6.537832"><ele>400.4</ele><time>2026-08-01T09:15:32Z</time></trkpt>
    <trkpt lat="43.595189" lon="6.538688"><ele>403.2</ele><time>2026-08-01T09:15:58Z</time></trkpt>
    <trkpt lat="43.595471" lon="6.539581"><ele>406.4</ele><time>2026-08-01T09:16:27Z</time></trkpt>
    <trkpt lat="43.595854" lon="6.539944"><ele>408.2</ele><time>2026-08-01T09:16:46Z</time></trkpt>
    <trkpt lat="43.595997" lon="6.540650"><ele>409.8</ele><time>2026-08-01T09:17:08Z</time></trkpt>
    <trkpt lat="43.596606" lon="6.541095"><ele>413.2</ele><time>2026-08-01T09:17:33Z</time></trkpt>
    <trkpt lat="43.596567" lon="6.541304"><ele>413.2</ele><time>2026-08-01T09:17:38Z</time></trkpt>
    <trkpt lat="43.596086" lon="6.541498"><ele>415.0</ele><time>2026-08-01T09:17:55Z</time></trkpt>
    <trkpt lat="43.595983" lon="6.541764"><ele>415.4</ele><time>2026-08-01T09:18:01Z</time></trkpt>
    <trkpt lat="43.596154" lon="6.542572"><ele>417.0</ele><time>2026-08-01T09:18:21Z</time></trkpt>
    <trkpt lat="43.596475" lon="6.543516"><ele>421.4</ele><time>2026-08-01T09:18:46Z</time></trkpt>
    <trkpt lat="43.596327" lon="6.545899"><ele>432.4</ele><time>2026-08-01T09:19:50Z</time></trkpt>
    <trkpt lat="43.596380" lon="6.546112"><ele>432.4</ele><time>2026-08-01T09:19:55Z</time></trkpt>
    <trkpt lat="43.597130" lon="6.546712"><ele>433.6</ele><time>2026-08-01T09:20:17Z</time></trkpt>
    <trkpt lat="43.597716" lon="6.546817"><ele>434.2</ele><time>2026-08-01T09:20:31Z</time></trkpt>
    <trkpt lat="43.598471" lon="6.546258"><ele>434.8</ele><time>2026-08-01T09:20:50Z</time></trkpt>
    <trkpt lat="43.599066" lon="6.546240"><ele>435.4</ele><time>2026-08-01T09:21:03Z</time></trkpt>
    <trkpt lat="43.599142" lon="6.546458"><ele>435.6</ele><time>2026-08-01T09:21:06Z</time></trkpt>
    <trkpt lat="43.599162" lon="6.547784"><ele>439.4</ele><time>2026-08-01T09:21:29Z</time></trkpt>
    <trkpt lat="43.599646" lon="6.548995"><ele>442.6</ele><time>2026-08-01T09:21:56Z</time></trkpt>
    <trkpt lat="43.600657" lon="6.550763"><ele>449.0</ele><time>2026-08-01T09:22:39Z</time></trkpt>
    <trkpt lat="43.601725" lon="6.551864"><ele>453.4</ele><time>2026-08-01T09:23:17Z</time></trkpt>
    <trkpt lat="43.602094" lon="6.551536"><ele>455.2</ele><time>2026-08-01T09:23:31Z</time></trkpt>
    <trkpt lat="43.602345" lon="6.550202"><ele>460.0</ele><time>2026-08-01T09:24:00Z</time></trkpt>
    <trkpt lat="43.602450" lon="6.549963"><ele>461.0</ele><time>2026-08-01T09:24:07Z</time></trkpt>
    <trkpt lat="43.602715" lon="6.549654"><ele>460.6</ele><time>2026-08-01T09:24:16Z</time></trkpt>
    <trkpt lat="43.603833" lon="6.550455"><ele>460.8</ele><time>2026-08-01T09:24:43Z</time></trkpt>
    <trkpt lat="43.604166" lon="6.550340"><ele>460.8</ele><time>2026-08-01T09:24:50Z</time></trkpt>
    <trkpt lat="43.604603" lon="6.549811"><ele>461.0</ele><time>2026-08-01T09:25:02Z</time></trkpt>
    <trkpt lat="43.605083" lon="6.549745"><ele>461.0</ele><time>2026-08-01T09:25:13Z</time></trkpt>
    <trkpt lat="43.605275" lon="6.550051"><ele>461.0</ele><time>2026-08-01T09:25:18Z</time></trkpt>
    <trkpt lat="43.605547" lon="6.551169"><ele>461.0</ele><time>2026-08-01T09:25:35Z</time></trkpt>
    <trkpt lat="43.606053" lon="6.551739"><ele>460.8</ele><time>2026-08-01T09:25:49Z</time></trkpt>
    <trkpt lat="43.608355" lon="6.551678"><ele>460.6</ele><time>2026-08-01T09:26:33Z</time></trkpt>
    <trkpt lat="43.608644" lon="6.551809"><ele>460.8</ele><time>2026-08-01T09:26:40Z</time></trkpt>
    <trkpt lat="43.609094" lon="6.552031"><ele>462.2</ele><time>2026-08-01T09:26:48Z</time></trkpt>
    <trkpt lat="43.609746" lon="6.551903"><ele>462.6</ele><time>2026-08-01T09:27:00Z</time></trkpt>
    <trkpt lat="43.611172" lon="6.550840"><ele>464.8</ele><time>2026-08-01T09:27:34Z</time></trkpt>
    <trkpt lat="43.612469" lon="6.547578"><ele>469.6</ele><time>2026-08-01T09:28:28Z</time></trkpt>
    <trkpt lat="43.612711" lon="6.546659"><ele>470.0</ele><time>2026-08-01T09:28:41Z</time></trkpt>
    <trkpt lat="43.613816" lon="6.545461"><ele>472.4</ele><time>2026-08-01T09:29:08Z</time></trkpt>
    <trkpt lat="43.613928" lon="6.544007"><ele>473.4</ele><time>2026-08-01T09:29:29Z</time></trkpt>
    <trkpt lat="43.614162" lon="6.542868"><ele>474.2</ele><time>2026-08-01T09:29:44Z</time></trkpt>
    <trkpt lat="43.614235" lon="6.542453"><ele>474.0</ele><time>2026-08-01T09:29:48Z</time></trkpt>
    <trkpt lat="43.614191" lon="6.540931"><ele>473.8</ele><time>2026-08-01T09:30:05Z</time></trkpt>
    <trkpt lat="43.614032" lon="6.540204"><ele>474.2</ele><time>2026-08-01T09:30:15Z</time></trkpt>
    <trkpt lat="43.614120" lon="6.539832"><ele>473.8</ele><time>2026-08-01T09:30:19Z</time></trkpt>
    <trkpt lat="43.614334" lon="6.539718"><ele>473.2</ele><time>2026-08-01T09:30:22Z</time></trkpt>
    <trkpt lat="43.614828" lon="6.539988"><ele>471.6</ele><time>2026-08-01T09:30:28Z</time></trkpt>
    <trkpt lat="43.615768" lon="6.541077"><ele>468.2</ele><time>2026-08-01T09:30:41Z</time></trkpt>
    <trkpt lat="43.616613" lon="6.541613"><ele>466.6</ele><time>2026-08-01T09:30:51Z</time></trkpt>
    <trkpt lat="43.617152" lon="6.542043"><ele>466.6</ele><time>2026-08-01T09:30:59Z</time></trkpt>
    <trkpt lat="43.617633" lon="6.541972"><ele>467.4</ele><time>2026-08-01T09:31:05Z</time></trkpt>
    <trkpt lat="43.618650" lon="6.541081"><ele>468.8</ele><time>2026-08-01T09:31:23Z</time></trkpt>
    <trkpt lat="43.618858" lon="6.541069"><ele>468.6</ele><time>2026-08-01T09:31:26Z</time></trkpt>
    <trkpt lat="43.619274" lon="6.541825"><ele>468.4</ele><time>2026-08-01T09:31:37Z</time></trkpt>
    <trkpt lat="43.619975" lon="6.542270"><ele>468.2</ele><time>2026-08-01T09:31:48Z</time></trkpt>
    <trkpt lat="43.618822" lon="6.545148"><ele>468.2</ele><time>2026-08-01T09:32:23Z</time></trkpt>
    <trkpt lat="43.618504" lon="6.547408"><ele>469.2</ele><time>2026-08-01T09:32:53Z</time></trkpt>
    <trkpt lat="43.618753" lon="6.548209"><ele>468.6</ele><time>2026-08-01T09:33:04Z</time></trkpt>
    <trkpt lat="43.618964" lon="6.548565"><ele>468.6</ele><time>2026-08-01T09:33:10Z</time></trkpt>
    <trkpt lat="43.619701" lon="6.549769"><ele>471.8</ele><time>2026-08-01T09:33:36Z</time></trkpt>
    <trkpt lat="43.619457" lon="6.550629"><ele>473.6</ele><time>2026-08-01T09:33:56Z</time></trkpt>
    <trkpt lat="43.619703" lon="6.550874"><ele>475.6</ele><time>2026-08-01T09:34:10Z</time></trkpt>
    <trkpt lat="43.620000" lon="6.550653"><ele>478.2</ele><time>2026-08-01T09:34:24Z</time></trkpt>
    <trkpt lat="43.620158" lon="6.550074"><ele>479.4</ele><time>2026-08-01T09:34:39Z</time></trkpt>
    <trkpt lat="43.619586" lon="6.548953"><ele>480.2</ele><time>2026-08-01T09:35:02Z</time></trkpt>
    <trkpt lat="43.619365" lon="6.548197"><ele>481.6</ele><time>2026-08-01T09:35:18Z</time></trkpt>
    <trkpt lat="43.619068" lon="6.547437"><ele>485.6</ele><time>2026-08-01T09:35:39Z</time></trkpt>
    <trkpt lat="43.619129" lon="6.547215"><ele>487.0</ele><time>2026-08-01T09:35:47Z</time></trkpt>
    <trkpt lat="43.619865" lon="6.548902"><ele>494.6</ele><time>2026-08-01T09:36:36Z</time></trkpt>
    <trkpt lat="43.620757" lon="6.549531"><ele>499.2</ele><time>2026-08-01T09:37:13Z</time></trkpt>
    <trkpt lat="43.620882" lon="6.549895"><ele>501.0</ele><time>2026-08-01T09:37:24Z</time></trkpt>
    <trkpt lat="43.621248" lon="6.550279"><ele>503.6</ele><time>2026-08-01T09:37:41Z</time></trkpt>
    <trkpt lat="43.621340" lon="6.550844"><ele>504.2</ele><time>2026-08-01T09:37:56Z</time></trkpt>
    <trkpt lat="43.621576" lon="6.550905"><ele>508.2</ele><time>2026-08-01T09:38:06Z</time></trkpt>
    <trkpt lat="43.621609" lon="6.550652"><ele>508.2</ele><time>2026-08-01T09:38:15Z</time></trkpt>
    <trkpt lat="43.621677" lon="6.550935"><ele>508.2</ele><time>2026-08-01T09:38:24Z</time></trkpt>
    <trkpt lat="43.622084" lon="6.551085"><ele>510.4</ele><time>2026-08-01T09:38:40Z</time></trkpt>
    <trkpt lat="43.622870" lon="6.550699"><ele>515.4</ele><time>2026-08-01T09:39:14Z</time></trkpt>
    <trkpt lat="43.623554" lon="6.549697"><ele>522.2</ele><time>2026-08-01T09:39:55Z</time></trkpt>
    <trkpt lat="43.623996" lon="6.549495"><ele>525.4</ele><time>2026-08-01T09:40:15Z</time></trkpt>
    <trkpt lat="43.624396" lon="6.548470"><ele>530.8</ele><time>2026-08-01T09:40:48Z</time></trkpt>
    <trkpt lat="43.624722" lon="6.548246"><ele>531.4</ele><time>2026-08-01T09:41:00Z</time></trkpt>
    <trkpt lat="43.625027" lon="6.547676"><ele>533.6</ele><time>2026-08-01T09:41:16Z</time></trkpt>
    <trkpt lat="43.625837" lon="6.547456"><ele>537.8</ele><time>2026-08-01T09:41:45Z</time></trkpt>
    <trkpt lat="43.625811" lon="6.548727"><ele>540.8</ele><time>2026-08-01T09:42:14Z</time></trkpt>
    <trkpt lat="43.627054" lon="6.550899"><ele>554.4</ele><time>2026-08-01T09:43:31Z</time></trkpt>
    <trkpt lat="43.628409" lon="6.551294"><ele>564.0</ele><time>2026-08-01T09:44:33Z</time></trkpt>
    <trkpt lat="43.628229" lon="6.552784"><ele>571.8</ele><time>2026-08-01T09:45:36Z</time></trkpt>
    <trkpt lat="43.628497" lon="6.553839"><ele>578.2</ele><time>2026-08-01T09:46:15Z</time></trkpt>
    <trkpt lat="43.628827" lon="6.556269"><ele>591.6</ele><time>2026-08-01T09:50:18Z</time></trkpt>
    <trkpt lat="43.629775" lon="6.557621"><ele>599.8</ele><time>2026-08-01T09:51:17Z</time></trkpt>
    <trkpt lat="43.629880" lon="6.558065"><ele>601.4</ele><time>2026-08-01T09:51:31Z</time></trkpt>
    <trkpt lat="43.629981" lon="6.558674"><ele>605.6</ele><time>2026-08-01T09:51:51Z</time></trkpt>
    <trkpt lat="43.630123" lon="6.558845"><ele>607.6</ele><time>2026-08-01T09:52:00Z</time></trkpt>
    <trkpt lat="43.630297" lon="6.558593"><ele>610.4</ele><time>2026-08-01T09:52:13Z</time></trkpt>
    <trkpt lat="43.629780" lon="6.556690"><ele>619.6</ele><time>2026-08-01T09:53:17Z</time></trkpt>
    <trkpt lat="43.629800" lon="6.554818"><ele>629.4</ele><time>2026-08-01T09:54:16Z</time></trkpt>
    <trkpt lat="43.630177" lon="6.553329"><ele>637.6</ele><time>2026-08-01T09:55:06Z</time></trkpt>
    <trkpt lat="43.630817" lon="6.553280"><ele>643.0</ele><time>2026-08-01T09:55:39Z</time></trkpt>
    <trkpt lat="43.630995" lon="6.553106"><ele>646.2</ele><time>2026-08-01T09:57:18Z</time></trkpt>
    <trkpt lat="43.631043" lon="6.551397"><ele>654.4</ele><time>2026-08-01T09:58:14Z</time></trkpt>
    <trkpt lat="43.631537" lon="6.550259"><ele>662.0</ele><time>2026-08-01T09:58:59Z</time></trkpt>
    <trkpt lat="43.631267" lon="6.549232"><ele>666.8</ele><time>2026-08-01T09:59:34Z</time></trkpt>
    <trkpt lat="43.631877" lon="6.548336"><ele>674.2</ele><time>2026-08-01T10:00:12Z</time></trkpt>
    <trkpt lat="43.632102" lon="6.547617"><ele>678.8</ele><time>2026-08-01T10:00:38Z</time></trkpt>
    <trkpt lat="43.632282" lon="6.545397"><ele>690.0</ele><time>2026-08-01T10:01:50Z</time></trkpt>
    <trkpt lat="43.632054" lon="6.544120"><ele>696.2</ele><time>2026-08-01T10:02:31Z</time></trkpt>
    <trkpt lat="43.631480" lon="6.543450"><ele>701.6</ele><time>2026-08-01T10:03:04Z</time></trkpt>
    <trkpt lat="43.631721" lon="6.542226"><ele>711.0</ele><time>2026-08-01T10:07:30Z</time></trkpt>
    <trkpt lat="43.631515" lon="6.541705"><ele>713.8</ele><time>2026-08-01T10:07:50Z</time></trkpt>
    <trkpt lat="43.631007" lon="6.541114"><ele>718.0</ele><time>2026-08-01T10:08:19Z</time></trkpt>
    <trkpt lat="43.631017" lon="6.540929"><ele>719.6</ele><time>2026-08-01T10:08:26Z</time></trkpt>
    <trkpt lat="43.631158" lon="6.540938"><ele>721.2</ele><time>2026-08-01T10:08:33Z</time></trkpt>
    <trkpt lat="43.632126" lon="6.541749"><ele>730.2</ele><time>2026-08-01T10:09:28Z</time></trkpt>
    <trkpt lat="43.632367" lon="6.542444"><ele>735.0</ele><time>2026-08-01T10:09:54Z</time></trkpt>
    <trkpt lat="43.633069" lon="6.544105"><ele>744.8</ele><time>2026-08-01T10:11:00Z</time></trkpt>
    <trkpt lat="43.633702" lon="6.544961"><ele>750.2</ele><time>2026-08-01T10:11:43Z</time></trkpt>
    <trkpt lat="43.633890" lon="6.546156"><ele>756.0</ele><time>2026-08-01T10:12:25Z</time></trkpt>
    <trkpt lat="43.634248" lon="6.547181"><ele>762.4</ele><time>2026-08-01T10:13:02Z</time></trkpt>
    <trkpt lat="43.634295" lon="6.548491"><ele>768.6</ele><time>2026-08-01T10:13:46Z</time></trkpt>
    <trkpt lat="43.634498" lon="6.549208"><ele>772.6</ele><time>2026-08-01T10:14:13Z</time></trkpt>
    <trkpt lat="43.634427" lon="6.552015"><ele>788.4</ele><time>2026-08-01T10:15:56Z</time></trkpt>
    <trkpt lat="43.634557" lon="6.552856"><ele>792.4</ele><time>2026-08-01T10:16:25Z</time></trkpt>
    <trkpt lat="43.634355" lon="6.554250"><ele>799.6</ele><time>2026-08-01T10:17:19Z</time></trkpt>
    <trkpt lat="43.634553" lon="6.555562"><ele>806.0</ele><time>2026-08-01T10:18:06Z</time></trkpt>
    <trkpt lat="43.634823" lon="6.556331"><ele>809.0</ele><time>2026-08-01T10:18:35Z</time></trkpt>
    <trkpt lat="43.634739" lon="6.557586"><ele>816.4</ele><time>2026-08-01T10:19:24Z</time></trkpt>
    <trkpt lat="43.635070" lon="6.558508"><ele>821.8</ele><time>2026-08-01T10:24:13Z</time></trkpt>
    <trkpt lat="43.635181" lon="6.560237"><ele>830.0</ele><time>2026-08-01T10:25:11Z</time></trkpt>
    <trkpt lat="43.636241" lon="6.561683"><ele>841.2</ele><time>2026-08-01T10:26:26Z</time></trkpt>
    <trkpt lat="43.637593" lon="6.564656"><ele>859.8</ele><time>2026-08-01T10:28:32Z</time></trkpt>
    <trkpt lat="43.637832" lon="6.565963"><ele>866.6</ele><time>2026-08-01T10:29:19Z</time></trkpt>
    <trkpt lat="43.638043" lon="6.566456"><ele>869.6</ele><time>2026-08-01T10:29:37Z</time></trkpt>
    <trkpt lat="43.638029" lon="6.567095"><ele>871.8</ele><time>2026-08-01T10:29:58Z</time></trkpt>
    <trkpt lat="43.638233" lon="6.568002"><ele>876.8</ele><time>2026-08-01T10:30:31Z</time></trkpt>
    <trkpt lat="43.638752" lon="6.569000"><ele>883.0</ele><time>2026-08-01T10:31:13Z</time></trkpt>
    <trkpt lat="43.639299" lon="6.570996"><ele>893.4</ele><time>2026-08-01T10:32:28Z</time></trkpt>
    <trkpt lat="43.639087" lon="6.571831"><ele>897.8</ele><time>2026-08-01T10:37:25Z</time></trkpt>
    <trkpt lat="43.639287" lon="6.572884"><ele>902.6</ele><time>2026-08-01T10:38:05Z</time></trkpt>
    <trkpt lat="43.639612" lon="6.572812"><ele>906.2</ele><time>2026-08-01T10:38:23Z</time></trkpt>
    <trkpt lat="43.639758" lon="6.572404"><ele>908.6</ele><time>2026-08-01T10:38:38Z</time></trkpt>
    <trkpt lat="43.639771" lon="6.572334"><ele>908.8</ele><time>2026-08-01T10:38:40Z</time></trkpt>
    <trkpt lat="43.639602" lon="6.571236"><ele>912.6</ele><time>2026-08-01T10:39:14Z</time></trkpt>
    <trkpt lat="43.639800" lon="6.569114"><ele>914.2</ele><time>2026-08-01T10:40:04Z</time></trkpt>
    <trkpt lat="43.639914" lon="6.568672"><ele>915.4</ele><time>2026-08-01T10:40:19Z</time></trkpt>
    <trkpt lat="43.640604" lon="6.567439"><ele>917.2</ele><time>2026-08-01T10:44:32Z</time></trkpt>
    <trkpt lat="43.640991" lon="6.567109"><ele>918.8</ele><time>2026-08-01T10:44:42Z</time></trkpt>
    <trkpt lat="43.641452" lon="6.566713"><ele>918.8</ele><time>2026-08-01T10:44:53Z</time></trkpt>
    <trkpt lat="43.642757" lon="6.566623"><ele>918.2</ele><time>2026-08-01T10:45:18Z</time></trkpt>
    <trkpt lat="43.643740" lon="6.566214"><ele>918.4</ele><time>2026-08-01T10:45:36Z</time></trkpt>
    <trkpt lat="43.645734" lon="6.564171"><ele>916.0</ele><time>2026-08-01T10:46:14Z</time></trkpt>
    <trkpt lat="43.646673" lon="6.562959"><ele>917.4</ele><time>2026-08-01T10:46:38Z</time></trkpt>
    <trkpt lat="43.647896" lon="6.562734"><ele>918.4</ele><time>2026-08-01T10:47:02Z</time></trkpt>
    <trkpt lat="43.648652" lon="6.562922"><ele>918.2</ele><time>2026-08-01T10:47:16Z</time></trkpt>
    <trkpt lat="43.649432" lon="6.563533"><ele>918.0</ele><time>2026-08-01T10:47:31Z</time></trkpt>
    <trkpt lat="43.649723" lon="6.563607"><ele>918.2</ele><time>2026-08-01T10:47:36Z</time></trkpt>
    <trkpt lat="43.650288" lon="6.563819"><ele>920.8</ele><time>2026-08-01T10:47:50Z</time></trkpt>
    <trkpt lat="43.651796" lon="6.565982"><ele>929.6</ele><time>2026-08-01T10:49:02Z</time></trkpt>
    <trkpt lat="43.655305" lon="6.566380"><ele>949.0</ele><time>2026-08-01T10:51:10Z</time></trkpt>
    <trkpt lat="43.657620" lon="6.567699"><ele>955.0</ele><time>2026-08-01T10:52:24Z</time></trkpt>
    <trkpt lat="43.657643" lon="6.567714"><ele>955.0</ele><time>2026-08-01T10:52:25Z</time></trkpt>
    <trkpt lat="43.658605" lon="6.568382"><ele>952.4</ele><time>2026-08-01T10:53:18Z</time></trkpt>
    <trkpt lat="43.660866" lon="6.569988"><ele>942.2</ele><time>2026-08-01T10:53:43Z</time></trkpt>
    <trkpt lat="43.663497" lon="6.572619"><ele>930.6</ele><time>2026-08-01T10:54:11Z</time></trkpt>
    <trkpt lat="43.663766" lon="6.572675"><ele>930.0</ele><time>2026-08-01T10:54:14Z</time></trkpt>
    <trkpt lat="43.663951" lon="6.572604"><ele>929.4</ele><time>2026-08-01T10:54:16Z</time></trkpt>
    <trkpt lat="43.664129" lon="6.572458"><ele>928.2</ele><time>2026-08-01T10:54:18Z</time></trkpt>
    <trkpt lat="43.665179" lon="6.570818"><ele>919.0</ele><time>2026-08-01T10:54:32Z</time></trkpt>
    <trkpt lat="43.665850" lon="6.570575"><ele>915.6</ele><time>2026-08-01T10:54:39Z</time></trkpt>
    <trkpt lat="43.666208" lon="6.570731"><ele>912.8</ele><time>2026-08-01T10:54:43Z</time></trkpt>
    <trkpt lat="43.667421" lon="6.573620"><ele>895.8</ele><time>2026-08-01T10:55:06Z</time></trkpt>
    <trkpt lat="43.668175" lon="6.573987"><ele>891.2</ele><time>2026-08-01T10:55:14Z</time></trkpt>
    <trkpt lat="43.669149" lon="6.575975"><ele>878.2</ele><time>2026-08-01T10:55:30Z</time></trkpt>
    <trkpt lat="43.669613" lon="6.576585"><ele>873.8</ele><time>2026-08-01T10:55:36Z</time></trkpt>
    <trkpt lat="43.670126" lon="6.580973"><ele>852.8</ele><time>2026-08-01T10:56:02Z</time></trkpt>
    <trkpt lat="43.670303" lon="6.581484"><ele>851.2</ele><time>2026-08-01T10:56:06Z</time></trkpt>
    <trkpt lat="43.671924" lon="6.582425"><ele>839.6</ele><time>2026-08-01T10:56:22Z</time></trkpt>
    <trkpt lat="43.672955" lon="6.584198"><ele>832.6</ele><time>2026-08-01T10:56:35Z</time></trkpt>
    <trkpt lat="43.673477" lon="6.584880"><ele>832.6</ele><time>2026-08-01T10:56:42Z</time></trkpt>
    <trkpt lat="43.676901" lon="6.587171"><ele>840.4</ele><time>2026-08-01T10:58:02Z</time></trkpt>
    <trkpt lat="43.677570" lon="6.587399"><ele>841.2</ele><time>2026-08-01T10:58:16Z</time></trkpt>
    <trkpt lat="43.678649" lon="6.587125"><ele>843.0</ele><time>2026-08-01T10:58:38Z</time></trkpt>
    <trkpt lat="43.680490" lon="6.585384"><ele>849.2</ele><time>2026-08-01T10:59:34Z</time></trkpt>
    <trkpt lat="43.680878" lon="6.585007"><ele>849.6</ele><time>2026-08-01T10:59:46Z</time></trkpt>
    <trkpt lat="43.681738" lon="6.584610"><ele>849.0</ele><time>2026-08-01T11:00:05Z</time></trkpt>
    <trkpt lat="43.682321" lon="6.584688"><ele>847.8</ele><time>2026-08-01T11:00:16Z</time></trkpt>
    <trkpt lat="43.684229" lon="6.585496"><ele>849.0</ele><time>2026-08-01T11:00:54Z</time></trkpt>
    <trkpt lat="43.684353" lon="6.585527"><ele>849.4</ele><time>2026-08-01T11:00:57Z</time></trkpt>
    <trkpt lat="43.687152" lon="6.585264"><ele>861.2</ele><time>2026-08-01T11:02:28Z</time></trkpt>
    <trkpt lat="43.688642" lon="6.585414"><ele>867.2</ele><time>2026-08-01T11:03:21Z</time></trkpt>
    <trkpt lat="43.691052" lon="6.584854"><ele>878.6</ele><time>2026-08-01T11:04:50Z</time></trkpt>
    <trkpt lat="43.691585" lon="6.584468"><ele>881.6</ele><time>2026-08-01T11:05:12Z</time></trkpt>
    <trkpt lat="43.692460" lon="6.583869"><ele>879.0</ele><time>2026-08-01T11:06:02Z</time></trkpt>
    <trkpt lat="43.693240" lon="6.583120"><ele>875.8</ele><time>2026-08-01T11:06:14Z</time></trkpt>
    <trkpt lat="43.693916" lon="6.582959"><ele>875.2</ele><time>2026-08-01T11:06:22Z</time></trkpt>
    <trkpt lat="43.695533" lon="6.583084"><ele>872.6</ele><time>2026-08-01T11:06:40Z</time></trkpt>
    <trkpt lat="43.695960" lon="6.583306"><ele>872.6</ele><time>2026-08-01T11:06:46Z</time></trkpt>
    <trkpt lat="43.696930" lon="6.583982"><ele>875.2</ele><time>2026-08-01T11:07:04Z</time></trkpt>
    <trkpt lat="43.697419" lon="6.584133"><ele>879.4</ele><time>2026-08-01T11:07:20Z</time></trkpt>
    <trkpt lat="43.698041" lon="6.584010"><ele>884.2</ele><time>2026-08-01T11:07:47Z</time></trkpt>
    <trkpt lat="43.698916" lon="6.583277"><ele>890.4</ele><time>2026-08-01T11:08:30Z</time></trkpt>
    <trkpt lat="43.699269" lon="6.583185"><ele>892.8</ele><time>2026-08-01T11:08:46Z</time></trkpt>
    <trkpt lat="43.701409" lon="6.583890"><ele>909.6</ele><time>2026-08-01T11:11:34Z</time></trkpt>
    <trkpt lat="43.702226" lon="6.583265"><ele>914.4</ele><time>2026-08-01T11:12:10Z</time></trkpt>
    <trkpt lat="43.704404" lon="6.581973"><ele>909.6</ele><time>2026-08-01T11:12:58Z</time></trkpt>
    <trkpt lat="43.704811" lon="6.581563"><ele>909.2</ele><time>2026-08-01T11:13:05Z</time></trkpt>
    <trkpt lat="43.704894" lon="6.581522"><ele>909.0</ele><time>2026-08-01T11:13:06Z</time></trkpt>
    <trkpt lat="43.706931" lon="6.580779"><ele>900.6</ele><time>2026-08-01T11:13:26Z</time></trkpt>
    <trkpt lat="43.707720" lon="6.579635"><ele>894.2</ele><time>2026-08-01T11:13:37Z</time></trkpt>
    <trkpt lat="43.708134" lon="6.579656"><ele>891.6</ele><time>2026-08-01T11:13:41Z</time></trkpt>
    <trkpt lat="43.708387" lon="6.579697"><ele>891.6</ele><time>2026-08-01T11:13:44Z</time></trkpt>
    <trkpt lat="43.708735" lon="6.579967"><ele>891.6</ele><time>2026-08-01T11:13:51Z</time></trkpt>
    <trkpt lat="43.709375" lon="6.579422"><ele>889.6</ele><time>2026-08-01T11:14:02Z</time></trkpt>
    <trkpt lat="43.709875" lon="6.579245"><ele>889.6</ele><time>2026-08-01T11:14:10Z</time></trkpt>
    <trkpt lat="43.710296" lon="6.579119"><ele>890.0</ele><time>2026-08-01T11:14:17Z</time></trkpt>
    <trkpt lat="43.713930" lon="6.580268"><ele>897.0</ele><time>2026-08-01T11:15:37Z</time></trkpt>
    <trkpt lat="43.715324" lon="6.580418"><ele>897.8</ele><time>2026-08-01T11:16:08Z</time></trkpt>
    <trkpt lat="43.716522" lon="6.579980"><ele>899.8</ele><time>2026-08-01T11:16:33Z</time></trkpt>
    <trkpt lat="43.717353" lon="6.579360"><ele>904.6</ele><time>2026-08-01T11:16:58Z</time></trkpt>
    <trkpt lat="43.717350" lon="6.577616"><ele>908.0</ele><time>2026-08-01T11:17:34Z</time></trkpt>
    <trkpt lat="43.717044" lon="6.574884"><ele>915.8</ele><time>2026-08-01T11:18:44Z</time></trkpt>
    <trkpt lat="43.716961" lon="6.574645"><ele>915.8</ele><time>2026-08-01T11:18:49Z</time></trkpt>
    <trkpt lat="43.715768" lon="6.572649"><ele>907.8</ele><time>2026-08-01T11:19:18Z</time></trkpt>
    <trkpt lat="43.714816" lon="6.570738"><ele>896.0</ele><time>2026-08-01T11:19:34Z</time></trkpt>
    <trkpt lat="43.714751" lon="6.570610"><ele>896.0</ele><time>2026-08-01T11:19:35Z</time></trkpt>
    <trkpt lat="43.714408" lon="6.569382"><ele>898.2</ele><time>2026-08-01T11:19:46Z</time></trkpt>
    <trkpt lat="43.714588" lon="6.567956"><ele>905.4</ele><time>2026-08-01T11:20:14Z</time></trkpt>
    <trkpt lat="43.715262" lon="6.563878"><ele>904.6</ele><time>2026-08-01T11:21:16Z</time></trkpt>
    <trkpt lat="43.715563" lon="6.562573"><ele>903.6</ele><time>2026-08-01T11:21:35Z</time></trkpt>
    <trkpt lat="43.715733" lon="6.561823"><ele>898.4</ele><time>2026-08-01T11:21:42Z</time></trkpt>
    <trkpt lat="43.715716" lon="6.561344"><ele>897.4</ele><time>2026-08-01T11:21:46Z</time></trkpt>
    <trkpt lat="43.715368" lon="6.560194"><ele>894.4</ele><time>2026-08-01T11:21:57Z</time></trkpt>
    <trkpt lat="43.715246" lon="6.558760"><ele>890.2</ele><time>2026-08-01T11:22:09Z</time></trkpt>
    <trkpt lat="43.714930" lon="6.557837"><ele>887.2</ele><time>2026-08-01T11:22:17Z</time></trkpt>
    <trkpt lat="43.714895" lon="6.557709"><ele>886.6</ele><time>2026-08-01T11:22:18Z</time></trkpt>
    <trkpt lat="43.714855" lon="6.557140"><ele>882.4</ele><time>2026-08-01T11:22:22Z</time></trkpt>
    <trkpt lat="43.715091" lon="6.555916"><ele>875.6</ele><time>2026-08-01T11:22:30Z</time></trkpt>
    <trkpt lat="43.715944" lon="6.553556"><ele>862.2</ele><time>2026-08-01T11:22:45Z</time></trkpt>
    <trkpt lat="43.715963" lon="6.553224"><ele>861.0</ele><time>2026-08-01T11:22:47Z</time></trkpt>
    <trkpt lat="43.716038" lon="6.551064"><ele>856.4</ele><time>2026-08-01T11:23:02Z</time></trkpt>
    <trkpt lat="43.715575" lon="6.548626"><ele>851.8</ele><time>2026-08-01T11:23:21Z</time></trkpt>
    <trkpt lat="43.715490" lon="6.547306"><ele>847.0</ele><time>2026-08-01T11:23:31Z</time></trkpt>
    <trkpt lat="43.716324" lon="6.542827"><ele>837.4</ele><time>2026-08-01T11:24:11Z</time></trkpt>
    <trkpt lat="43.716601" lon="6.540999"><ele>834.8</ele><time>2026-08-01T11:24:30Z</time></trkpt>
    <trkpt lat="43.716220" lon="6.537378"><ele>830.6</ele><time>2026-08-01T11:25:11Z</time></trkpt>
    <trkpt lat="43.715439" lon="6.534552"><ele>828.6</ele><time>2026-08-01T11:25:48Z</time></trkpt>
    <trkpt lat="43.715271" lon="6.533968"><ele>828.6</ele><time>2026-08-01T11:25:56Z</time></trkpt>
    <trkpt lat="43.715121" lon="6.532998"><ele>828.4</ele><time>2026-08-01T11:26:08Z</time></trkpt>
    <trkpt lat="43.715974" lon="6.528877"><ele>829.4</ele><time>2026-08-01T11:27:03Z</time></trkpt>
    <trkpt lat="43.716003" lon="6.526850"><ele>831.6</ele><time>2026-08-01T11:27:33Z</time></trkpt>
    <trkpt lat="43.715865" lon="6.523786"><ele>824.8</ele><time>2026-08-01T11:28:06Z</time></trkpt>
    <trkpt lat="43.715907" lon="6.522292"><ele>825.2</ele><time>2026-08-01T11:28:23Z</time></trkpt>
    <trkpt lat="43.716621" lon="6.519695"><ele>825.2</ele><time>2026-08-01T11:29:02Z</time></trkpt>
    <trkpt lat="43.717848" lon="6.515514"><ele>836.2</ele><time>2026-08-01T11:30:38Z</time></trkpt>
    <trkpt lat="43.719297" lon="6.510661"><ele>839.0</ele><time>2026-08-01T11:34:06Z</time></trkpt>
    <trkpt lat="43.720024" lon="6.508231"><ele>849.4</ele><time>2026-08-01T11:35:24Z</time></trkpt>
    <trkpt lat="43.720139" lon="6.507010"><ele>854.2</ele><time>2026-08-01T11:36:01Z</time></trkpt>
    <trkpt lat="43.719771" lon="6.505775"><ele>859.2</ele><time>2026-08-01T11:36:40Z</time></trkpt>
    <trkpt lat="43.718973" lon="6.504964"><ele>865.0</ele><time>2026-08-01T11:37:19Z</time></trkpt>
    <trkpt lat="43.715708" lon="6.504036"><ele>883.2</ele><time>2026-08-01T11:39:18Z</time></trkpt>
    <trkpt lat="43.715314" lon="6.503938"><ele>884.2</ele><time>2026-08-01T11:39:31Z</time></trkpt>
    <trkpt lat="43.714504" lon="6.504092"><ele>886.6</ele><time>2026-08-01T11:39:55Z</time></trkpt>
    <trkpt lat="43.712968" lon="6.505465"><ele>890.6</ele><time>2026-08-01T11:40:48Z</time></trkpt>
    <trkpt lat="43.712218" lon="6.505521"><ele>893.6</ele><time>2026-08-01T11:41:14Z</time></trkpt>
    <trkpt lat="43.711381" lon="6.505966"><ele>892.2</ele><time>2026-08-01T11:45:39Z</time></trkpt>
    <trkpt lat="43.710857" lon="6.506646"><ele>894.0</ele><time>2026-08-01T11:46:03Z</time></trkpt>
    <trkpt lat="43.710719" lon="6.506718"><ele>895.2</ele><time>2026-08-01T11:46:10Z</time></trkpt>
    <trkpt lat="43.710784" lon="6.506528"><ele>895.8</ele><time>2026-08-01T11:46:19Z</time></trkpt>
    <trkpt lat="43.710680" lon="6.506803"><ele>896.2</ele><time>2026-08-01T13:10:51Z</time></trkpt>
    <trkpt lat="43.710715" lon="6.506588"><ele>897.6</ele><time>2026-08-01T13:11:45Z</time></trkpt>
    <trkpt lat="43.710717" lon="6.506695"><ele>898.0</ele><time>2026-08-01T13:18:06Z</time></trkpt>
    <trkpt lat="43.710727" lon="6.506820"><ele>897.6</ele><time>2026-08-01T13:18:20Z</time></trkpt>
    <trkpt lat="43.711446" lon="6.506006"><ele>892.2</ele><time>2026-08-01T13:18:37Z</time></trkpt>
    <trkpt lat="43.712003" lon="6.505716"><ele>892.0</ele><time>2026-08-01T13:18:45Z</time></trkpt>
    <trkpt lat="43.712506" lon="6.505538"><ele>894.2</ele><time>2026-08-01T13:18:54Z</time></trkpt>
    <trkpt lat="43.712981" lon="6.505019"><ele>897.8</ele><time>2026-08-01T13:19:11Z</time></trkpt>
    <trkpt lat="43.713432" lon="6.504096"><ele>899.4</ele><time>2026-08-01T13:19:37Z</time></trkpt>
    <trkpt lat="43.714716" lon="6.503168"><ele>906.6</ele><time>2026-08-01T13:20:25Z</time></trkpt>
    <trkpt lat="43.716671" lon="6.502553"><ele>915.2</ele><time>2026-08-01T13:21:30Z</time></trkpt>
    <trkpt lat="43.717385" lon="6.502642"><ele>917.2</ele><time>2026-08-01T13:21:52Z</time></trkpt>
    <trkpt lat="43.718211" lon="6.503039"><ele>920.4</ele><time>2026-08-01T13:22:19Z</time></trkpt>
    <trkpt lat="43.718735" lon="6.503119"><ele>920.4</ele><time>2026-08-01T13:22:32Z</time></trkpt>
    <trkpt lat="43.719082" lon="6.503090"><ele>919.2</ele><time>2026-08-01T13:22:38Z</time></trkpt>
    <trkpt lat="43.719703" lon="6.502667"><ele>916.8</ele><time>2026-08-01T13:22:48Z</time></trkpt>
    <trkpt lat="43.720086" lon="6.501698"><ele>914.2</ele><time>2026-08-01T13:22:58Z</time></trkpt>
    <trkpt lat="43.721235" lon="6.501198"><ele>910.2</ele><time>2026-08-01T13:23:12Z</time></trkpt>
    <trkpt lat="43.721468" lon="6.501264"><ele>909.8</ele><time>2026-08-01T13:23:15Z</time></trkpt>
    <trkpt lat="43.721594" lon="6.501547"><ele>909.6</ele><time>2026-08-01T13:23:18Z</time></trkpt>
    <trkpt lat="43.721374" lon="6.502648"><ele>909.8</ele><time>2026-08-01T13:23:29Z</time></trkpt>
    <trkpt lat="43.721487" lon="6.503713"><ele>908.6</ele><time>2026-08-01T13:23:39Z</time></trkpt>
    <trkpt lat="43.722673" lon="6.504573"><ele>905.6</ele><time>2026-08-01T13:23:57Z</time></trkpt>
    <trkpt lat="43.723146" lon="6.505753"><ele>904.2</ele><time>2026-08-01T13:24:11Z</time></trkpt>
    <trkpt lat="43.723462" lon="6.505825"><ele>902.6</ele><time>2026-08-01T13:24:16Z</time></trkpt>
    <trkpt lat="43.724952" lon="6.505457"><ele>897.8</ele><time>2026-08-01T13:24:36Z</time></trkpt>
    <trkpt lat="43.725042" lon="6.505425"><ele>897.4</ele><time>2026-08-01T13:24:37Z</time></trkpt>
    <trkpt lat="43.727236" lon="6.503377"><ele>881.8</ele><time>2026-08-01T13:25:02Z</time></trkpt>
    <trkpt lat="43.727558" lon="6.502688"><ele>878.6</ele><time>2026-08-01T13:25:07Z</time></trkpt>
    <trkpt lat="43.728191" lon="6.502057"><ele>875.4</ele><time>2026-08-01T13:25:13Z</time></trkpt>
    <trkpt lat="43.729033" lon="6.500459"><ele>868.6</ele><time>2026-08-01T13:25:24Z</time></trkpt>
    <trkpt lat="43.729898" lon="6.500173"><ele>864.8</ele><time>2026-08-01T13:25:31Z</time></trkpt>
    <trkpt lat="43.731856" lon="6.500048"><ele>854.4</ele><time>2026-08-01T13:25:46Z</time></trkpt>
    <trkpt lat="43.732629" lon="6.500387"><ele>849.6</ele><time>2026-08-01T13:25:53Z</time></trkpt>
    <trkpt lat="43.733218" lon="6.501076"><ele>844.8</ele><time>2026-08-01T13:26:00Z</time></trkpt>
    <trkpt lat="43.734076" lon="6.501450"><ele>841.4</ele><time>2026-08-01T13:26:08Z</time></trkpt>
    <trkpt lat="43.735097" lon="6.502298"><ele>834.0</ele><time>2026-08-01T13:26:18Z</time></trkpt>
    <trkpt lat="43.735652" lon="6.502534"><ele>831.2</ele><time>2026-08-01T13:26:23Z</time></trkpt>
    <trkpt lat="43.736154" lon="6.503194"><ele>827.2</ele><time>2026-08-01T13:26:29Z</time></trkpt>
    <trkpt lat="43.736986" lon="6.504112"><ele>823.2</ele><time>2026-08-01T13:26:39Z</time></trkpt>
    <trkpt lat="43.737160" lon="6.503898"><ele>823.0</ele><time>2026-08-01T13:26:42Z</time></trkpt>
    <trkpt lat="43.736861" lon="6.502897"><ele>818.4</ele><time>2026-08-01T13:26:51Z</time></trkpt>
    <trkpt lat="43.736616" lon="6.501102"><ele>810.2</ele><time>2026-08-01T13:27:06Z</time></trkpt>
    <trkpt lat="43.736707" lon="6.500814"><ele>807.8</ele><time>2026-08-01T13:27:10Z</time></trkpt>
    <trkpt lat="43.737336" lon="6.500729"><ele>800.0</ele><time>2026-08-01T13:27:18Z</time></trkpt>
    <trkpt lat="43.738724" lon="6.499298"><ele>786.8</ele><time>2026-08-01T13:27:34Z</time></trkpt>
    <trkpt lat="43.739012" lon="6.499063"><ele>785.0</ele><time>2026-08-01T13:27:37Z</time></trkpt>
    <trkpt lat="43.739648" lon="6.498699"><ele>783.0</ele><time>2026-08-01T13:27:44Z</time></trkpt>
    <trkpt lat="43.741070" lon="6.499306"><ele>773.8</ele><time>2026-08-01T13:28:00Z</time></trkpt>
    <trkpt lat="43.741644" lon="6.499511"><ele>772.8</ele><time>2026-08-01T13:28:06Z</time></trkpt>
    <trkpt lat="43.742033" lon="6.499569"><ele>772.0</ele><time>2026-08-01T13:28:13Z</time></trkpt>
    <trkpt lat="43.742256" lon="6.499392"><ele>770.4</ele><time>2026-08-01T13:28:21Z</time></trkpt>
    <trkpt lat="43.742334" lon="6.499173"><ele>768.2</ele><time>2026-08-01T13:29:12Z</time></trkpt>
    <trkpt lat="43.742546" lon="6.498272"><ele>767.0</ele><time>2026-08-01T13:29:27Z</time></trkpt>
    <trkpt lat="43.741704" lon="6.494673"><ele>764.6</ele><time>2026-08-01T13:30:05Z</time></trkpt>
    <trkpt lat="43.741132" lon="6.492254"><ele>771.0</ele><time>2026-08-01T13:30:49Z</time></trkpt>
    <trkpt lat="43.741131" lon="6.491256"><ele>774.4</ele><time>2026-08-01T13:31:10Z</time></trkpt>
    <trkpt lat="43.741019" lon="6.490583"><ele>774.8</ele><time>2026-08-01T13:31:23Z</time></trkpt>
    <trkpt lat="43.740695" lon="6.488181"><ele>769.6</ele><time>2026-08-01T13:31:52Z</time></trkpt>
    <trkpt lat="43.740849" lon="6.485801"><ele>764.2</ele><time>2026-08-01T13:32:15Z</time></trkpt>
    <trkpt lat="43.741225" lon="6.484296"><ele>760.4</ele><time>2026-08-01T13:32:29Z</time></trkpt>
    <trkpt lat="43.741878" lon="6.482619"><ele>754.8</ele><time>2026-08-01T13:32:46Z</time></trkpt>
    <trkpt lat="43.742183" lon="6.480783"><ele>751.8</ele><time>2026-08-01T13:33:02Z</time></trkpt>
    <trkpt lat="43.742500" lon="6.480275"><ele>749.6</ele><time>2026-08-01T13:33:08Z</time></trkpt>
    <trkpt lat="43.743306" lon="6.479175"><ele>749.2</ele><time>2026-08-01T13:33:24Z</time></trkpt>
    <trkpt lat="43.744279" lon="6.478150"><ele>751.0</ele><time>2026-08-01T13:33:41Z</time></trkpt>
    <trkpt lat="43.747550" lon="6.474676"><ele>745.2</ele><time>2026-08-01T13:34:37Z</time></trkpt>
    <trkpt lat="43.748115" lon="6.473574"><ele>742.8</ele><time>2026-08-01T13:34:51Z</time></trkpt>
    <trkpt lat="43.754864" lon="6.464219"><ele>731.0</ele><time>2026-08-01T13:37:00Z</time></trkpt>
    <trkpt lat="43.755329" lon="6.463378"><ele>730.0</ele><time>2026-08-01T13:37:11Z</time></trkpt>
    <trkpt lat="43.755887" lon="6.461912"><ele>730.8</ele><time>2026-08-01T13:37:29Z</time></trkpt>
    <trkpt lat="43.757510" lon="6.460429"><ele>730.0</ele><time>2026-08-01T13:37:58Z</time></trkpt>
    <trkpt lat="43.758432" lon="6.458658"><ele>729.6</ele><time>2026-08-01T13:38:23Z</time></trkpt>
    <trkpt lat="43.760107" lon="6.457168"><ele>729.0</ele><time>2026-08-01T13:38:55Z</time></trkpt>
    <trkpt lat="43.761648" lon="6.453052"><ele>724.8</ele><time>2026-08-01T13:39:43Z</time></trkpt>
    <trkpt lat="43.761983" lon="6.452525"><ele>724.6</ele><time>2026-08-01T13:39:50Z</time></trkpt>
    <trkpt lat="43.763629" lon="6.450445"><ele>723.0</ele><time>2026-08-01T13:40:21Z</time></trkpt>
    <trkpt lat="43.767533" lon="6.447925"><ele>720.8</ele><time>2026-08-01T13:41:22Z</time></trkpt>
    <trkpt lat="43.768686" lon="6.447840"><ele>717.4</ele><time>2026-08-01T13:41:37Z</time></trkpt>
    <trkpt lat="43.769557" lon="6.448191"><ele>715.0</ele><time>2026-08-01T13:41:48Z</time></trkpt>
    <trkpt lat="43.770482" lon="6.448856"><ele>711.6</ele><time>2026-08-01T13:42:00Z</time></trkpt>
    <trkpt lat="43.771905" lon="6.448944"><ele>706.4</ele><time>2026-08-01T13:42:16Z</time></trkpt>
    <trkpt lat="43.772309" lon="6.449600"><ele>704.8</ele><time>2026-08-01T13:42:24Z</time></trkpt>
    <trkpt lat="43.772495" lon="6.449424"><ele>704.6</ele><time>2026-08-01T13:42:27Z</time></trkpt>
    <trkpt lat="43.772730" lon="6.448640"><ele>701.4</ele><time>2026-08-01T13:42:34Z</time></trkpt>
    <trkpt lat="43.773335" lon="6.448141"><ele>698.8</ele><time>2026-08-01T13:42:42Z</time></trkpt>
    <trkpt lat="43.773556" lon="6.447579"><ele>697.4</ele><time>2026-08-01T13:42:47Z</time></trkpt>
    <trkpt lat="43.773777" lon="6.447406"><ele>696.6</ele><time>2026-08-01T13:42:50Z</time></trkpt>
    <trkpt lat="43.773857" lon="6.447399"><ele>696.2</ele><time>2026-08-01T13:42:51Z</time></trkpt>
    <trkpt lat="43.775391" lon="6.448103"><ele>699.2</ele><time>2026-08-01T13:43:13Z</time></trkpt>
    <trkpt lat="43.775936" lon="6.448532"><ele>700.6</ele><time>2026-08-01T13:43:23Z</time></trkpt>
    <trkpt lat="43.776500" lon="6.448614"><ele>700.8</ele><time>2026-08-01T13:43:32Z</time></trkpt>
    <trkpt lat="43.776578" lon="6.448396"><ele>701.0</ele><time>2026-08-01T13:43:35Z</time></trkpt>
    <trkpt lat="43.776305" lon="6.447130"><ele>703.8</ele><time>2026-08-01T13:43:55Z</time></trkpt>
    <trkpt lat="43.776336" lon="6.446434"><ele>706.2</ele><time>2026-08-01T13:44:09Z</time></trkpt>
    <trkpt lat="43.777695" lon="6.445017"><ele>712.6</ele><time>2026-08-01T13:45:00Z</time></trkpt>
    <trkpt lat="43.778228" lon="6.444761"><ele>714.0</ele><time>2026-08-01T13:45:17Z</time></trkpt>
    <trkpt lat="43.779137" lon="6.444520"><ele>718.0</ele><time>2026-08-01T13:45:45Z</time></trkpt>
    <trkpt lat="43.779376" lon="6.445241"><ele>720.8</ele><time>2026-08-01T13:46:04Z</time></trkpt>
    <trkpt lat="43.779689" lon="6.445301"><ele>722.0</ele><time>2026-08-01T13:46:14Z</time></trkpt>
    <trkpt lat="43.780390" lon="6.444550"><ele>725.4</ele><time>2026-08-01T13:46:41Z</time></trkpt>
    <trkpt lat="43.780674" lon="6.444442"><ele>726.4</ele><time>2026-08-01T13:46:50Z</time></trkpt>
    <trkpt lat="43.781288" lon="6.444907"><ele>730.6</ele><time>2026-08-01T13:47:12Z</time></trkpt>
    <trkpt lat="43.782256" lon="6.445433"><ele>731.0</ele><time>2026-08-01T13:48:58Z</time></trkpt>
    <trkpt lat="43.784965" lon="6.445893"><ele>726.6</ele><time>2026-08-01T13:49:40Z</time></trkpt>
    <trkpt lat="43.785316" lon="6.445749"><ele>727.0</ele><time>2026-08-01T13:49:45Z</time></trkpt>
    <trkpt lat="43.785506" lon="6.445446"><ele>727.8</ele><time>2026-08-01T13:49:49Z</time></trkpt>
    <trkpt lat="43.785703" lon="6.443962"><ele>727.8</ele><time>2026-08-01T13:50:07Z</time></trkpt>
    <trkpt lat="43.785961" lon="6.443600"><ele>727.4</ele><time>2026-08-01T13:50:13Z</time></trkpt>
    <trkpt lat="43.786304" lon="6.443541"><ele>727.4</ele><time>2026-08-01T13:50:18Z</time></trkpt>
    <trkpt lat="43.788284" lon="6.443339"><ele>718.2</ele><time>2026-08-01T13:50:38Z</time></trkpt>
    <trkpt lat="43.788995" lon="6.444003"><ele>714.8</ele><time>2026-08-01T13:50:46Z</time></trkpt>
    <trkpt lat="43.789910" lon="6.444130"><ele>711.2</ele><time>2026-08-01T13:50:54Z</time></trkpt>
    <trkpt lat="43.790328" lon="6.443811"><ele>709.2</ele><time>2026-08-01T13:50:58Z</time></trkpt>
    <trkpt lat="43.791126" lon="6.442753"><ele>704.6</ele><time>2026-08-01T13:51:07Z</time></trkpt>
    <trkpt lat="43.792624" lon="6.442881"><ele>697.8</ele><time>2026-08-01T13:51:19Z</time></trkpt>
    <trkpt lat="43.793472" lon="6.442457"><ele>693.2</ele><time>2026-08-01T13:51:26Z</time></trkpt>
    <trkpt lat="43.795156" lon="6.443094"><ele>686.2</ele><time>2026-08-01T13:51:40Z</time></trkpt>
    <trkpt lat="43.795727" lon="6.443275"><ele>685.6</ele><time>2026-08-01T13:51:47Z</time></trkpt>
    <trkpt lat="43.795993" lon="6.444644"><ele>683.2</ele><time>2026-08-01T13:52:00Z</time></trkpt>
    <trkpt lat="43.796242" lon="6.444771"><ele>682.4</ele><time>2026-08-01T13:52:04Z</time></trkpt>
    <trkpt lat="43.797941" lon="6.443120"><ele>674.4</ele><time>2026-08-01T13:52:30Z</time></trkpt>
    <trkpt lat="43.798047" lon="6.442765"><ele>674.2</ele><time>2026-08-01T13:52:33Z</time></trkpt>
    <trkpt lat="43.797935" lon="6.442004"><ele>673.0</ele><time>2026-08-01T13:52:39Z</time></trkpt>
    <trkpt lat="43.798106" lon="6.441665"><ele>672.0</ele><time>2026-08-01T13:52:42Z</time></trkpt>
    <trkpt lat="43.799922" lon="6.441140"><ele>667.2</ele><time>2026-08-01T13:53:01Z</time></trkpt>
    <trkpt lat="43.800156" lon="6.440899"><ele>666.6</ele><time>2026-08-01T13:53:04Z</time></trkpt>
    <trkpt lat="43.800259" lon="6.440368"><ele>666.0</ele><time>2026-08-01T13:53:08Z</time></trkpt>
    <trkpt lat="43.800556" lon="6.439928"><ele>665.0</ele><time>2026-08-01T13:53:12Z</time></trkpt>
    <trkpt lat="43.801838" lon="6.439785"><ele>663.0</ele><time>2026-08-01T13:53:24Z</time></trkpt>
    <trkpt lat="43.802759" lon="6.439138"><ele>663.0</ele><time>2026-08-01T13:53:35Z</time></trkpt>
    <trkpt lat="43.803109" lon="6.439213"><ele>662.6</ele><time>2026-08-01T13:53:39Z</time></trkpt>
    <trkpt lat="43.803621" lon="6.439820"><ele>660.6</ele><time>2026-08-01T13:53:46Z</time></trkpt>
    <trkpt lat="43.803725" lon="6.441124"><ele>658.2</ele><time>2026-08-01T13:53:56Z</time></trkpt>
    <trkpt lat="43.803914" lon="6.442142"><ele>658.2</ele><time>2026-08-01T13:54:05Z</time></trkpt>
    <trkpt lat="43.804116" lon="6.442275"><ele>658.4</ele><time>2026-08-01T13:54:08Z</time></trkpt>
    <trkpt lat="43.804826" lon="6.442123"><ele>659.2</ele><time>2026-08-01T13:54:19Z</time></trkpt>
    <trkpt lat="43.805556" lon="6.441513"><ele>660.0</ele><time>2026-08-01T13:54:35Z</time></trkpt>
    <trkpt lat="43.805744" lon="6.440025"><ele>660.0</ele><time>2026-08-01T13:54:57Z</time></trkpt>
    <trkpt lat="43.806178" lon="6.438724"><ele>660.8</ele><time>2026-08-01T13:55:18Z</time></trkpt>
    <trkpt lat="43.807159" lon="6.438003"><ele>660.8</ele><time>2026-08-01T13:55:35Z</time></trkpt>
    <trkpt lat="43.808895" lon="6.438115"><ele>662.2</ele><time>2026-08-01T13:56:02Z</time></trkpt>
    <trkpt lat="43.810277" lon="6.437142"><ele>662.8</ele><time>2026-08-01T13:56:26Z</time></trkpt>
    <trkpt lat="43.811597" lon="6.436455"><ele>664.2</ele><time>2026-08-01T13:56:49Z</time></trkpt>
    <trkpt lat="43.812712" lon="6.436994"><ele>664.6</ele><time>2026-08-01T13:57:07Z</time></trkpt>
    <trkpt lat="43.813825" lon="6.438136"><ele>665.2</ele><time>2026-08-01T13:57:29Z</time></trkpt>
    <trkpt lat="43.815447" lon="6.438219"><ele>667.0</ele><time>2026-08-01T13:57:57Z</time></trkpt>
    <trkpt lat="43.815684" lon="6.437945"><ele>667.0</ele><time>2026-08-01T13:58:02Z</time></trkpt>
    <trkpt lat="43.815868" lon="6.437292"><ele>668.2</ele><time>2026-08-01T13:58:11Z</time></trkpt>
    <trkpt lat="43.816325" lon="6.436814"><ele>669.6</ele><time>2026-08-01T13:58:21Z</time></trkpt>
    <trkpt lat="43.817650" lon="6.436607"><ele>670.4</ele><time>2026-08-01T13:58:44Z</time></trkpt>
    <trkpt lat="43.818618" lon="6.435969"><ele>669.8</ele><time>2026-08-01T13:59:01Z</time></trkpt>
    <trkpt lat="43.819505" lon="6.434048"><ele>672.0</ele><time>2026-08-01T13:59:30Z</time></trkpt>
    <trkpt lat="43.820120" lon="6.433361"><ele>672.0</ele><time>2026-08-01T13:59:43Z</time></trkpt>
    <trkpt lat="43.820483" lon="6.432308"><ele>672.6</ele><time>2026-08-01T13:59:57Z</time></trkpt>
    <trkpt lat="43.821116" lon="6.431408"><ele>672.6</ele><time>2026-08-01T14:00:12Z</time></trkpt>
    <trkpt lat="43.821754" lon="6.431393"><ele>672.8</ele><time>2026-08-01T14:00:23Z</time></trkpt>
    <trkpt lat="43.822221" lon="6.431123"><ele>673.2</ele><time>2026-08-01T14:00:32Z</time></trkpt>
    <trkpt lat="43.823249" lon="6.431427"><ele>674.0</ele><time>2026-08-01T14:00:51Z</time></trkpt>
    <trkpt lat="43.824192" lon="6.430632"><ele>674.6</ele><time>2026-08-01T14:01:11Z</time></trkpt>
    <trkpt lat="43.825838" lon="6.430503"><ele>675.0</ele><time>2026-08-01T14:01:41Z</time></trkpt>
    <trkpt lat="43.826164" lon="6.430111"><ele>675.0</ele><time>2026-08-01T14:01:49Z</time></trkpt>
    <trkpt lat="43.826355" lon="6.429427"><ele>675.4</ele><time>2026-08-01T14:01:58Z</time></trkpt>
    <trkpt lat="43.826608" lon="6.427455"><ele>677.4</ele><time>2026-08-01T14:02:23Z</time></trkpt>
    <trkpt lat="43.827421" lon="6.426168"><ele>678.2</ele><time>2026-08-01T14:02:43Z</time></trkpt>
    <trkpt lat="43.827709" lon="6.425977"><ele>678.6</ele><time>2026-08-01T14:02:48Z</time></trkpt>
    <trkpt lat="43.828089" lon="6.425994"><ele>678.6</ele><time>2026-08-01T14:02:54Z</time></trkpt>
    <trkpt lat="43.829278" lon="6.426616"><ele>678.8</ele><time>2026-08-01T14:03:14Z</time></trkpt>
    <trkpt lat="43.830427" lon="6.428480"><ele>681.2</ele><time>2026-08-01T14:03:59Z</time></trkpt>
    <trkpt lat="43.830515" lon="6.430061"><ele>681.0</ele><time>2026-08-01T14:04:21Z</time></trkpt>
    <trkpt lat="43.831250" lon="6.432000"><ele>682.0</ele><time>2026-08-01T14:04:50Z</time></trkpt>
    <trkpt lat="43.831310" lon="6.433348"><ele>682.4</ele><time>2026-08-01T14:05:07Z</time></trkpt>
    <trkpt lat="43.832934" lon="6.435466"><ele>683.6</ele><time>2026-08-01T14:05:44Z</time></trkpt>
    <trkpt lat="43.833440" lon="6.438364"><ele>684.8</ele><time>2026-08-01T14:06:19Z</time></trkpt>
    <trkpt lat="43.833487" lon="6.439285"><ele>685.2</ele><time>2026-08-01T14:06:30Z</time></trkpt>
    <trkpt lat="43.833198" lon="6.440537"><ele>686.0</ele><time>2026-08-01T14:06:46Z</time></trkpt>
    <trkpt lat="43.832636" lon="6.441843"><ele>687.0</ele><time>2026-08-01T14:07:03Z</time></trkpt>
    <trkpt lat="43.832230" lon="6.442357"><ele>687.0</ele><time>2026-08-01T14:07:11Z</time></trkpt>
    <trkpt lat="43.831803" lon="6.442629"><ele>687.2</ele><time>2026-08-01T14:07:18Z</time></trkpt>
    <trkpt lat="43.831110" lon="6.443031"><ele>688.6</ele><time>2026-08-01T14:07:29Z</time></trkpt>
    <trkpt lat="43.830717" lon="6.443684"><ele>688.8</ele><time>2026-08-01T14:07:38Z</time></trkpt>
    <trkpt lat="43.830720" lon="6.444322"><ele>688.8</ele><time>2026-08-01T14:07:45Z</time></trkpt>
    <trkpt lat="43.831574" lon="6.445217"><ele>689.6</ele><time>2026-08-01T14:08:00Z</time></trkpt>
    <trkpt lat="43.832003" lon="6.446604"><ele>692.2</ele><time>2026-08-01T14:08:17Z</time></trkpt>
    <trkpt lat="43.832030" lon="6.448335"><ele>692.8</ele><time>2026-08-01T14:08:35Z</time></trkpt>
    <trkpt lat="43.831575" lon="6.449808"><ele>694.2</ele><time>2026-08-01T14:08:53Z</time></trkpt>
    <trkpt lat="43.831762" lon="6.450654"><ele>695.0</ele><time>2026-08-01T14:09:05Z</time></trkpt>
    <trkpt lat="43.831697" lon="6.451405"><ele>697.0</ele><time>2026-08-01T14:09:18Z</time></trkpt>
    <trkpt lat="43.831464" lon="6.452070"><ele>697.8</ele><time>2026-08-01T14:09:30Z</time></trkpt>
    <trkpt lat="43.830864" lon="6.452815"><ele>700.2</ele><time>2026-08-01T14:10:24Z</time></trkpt>
    <trkpt lat="43.830583" lon="6.453513"><ele>701.4</ele><time>2026-08-01T14:10:38Z</time></trkpt>
    <trkpt lat="43.830461" lon="6.454463"><ele>703.8</ele><time>2026-08-01T14:10:53Z</time></trkpt>
    <trkpt lat="43.830487" lon="6.454964"><ele>705.0</ele><time>2026-08-01T14:11:01Z</time></trkpt>
    <trkpt lat="43.830505" lon="6.456148"><ele>705.0</ele><time>2026-08-01T14:11:19Z</time></trkpt>
    <trkpt lat="43.828722" lon="6.459088"><ele>708.4</ele><time>2026-08-01T14:12:30Z</time></trkpt>
    <trkpt lat="43.828556" lon="6.459961"><ele>709.2</ele><time>2026-08-01T14:12:47Z</time></trkpt>
    <trkpt lat="43.827722" lon="6.461609"><ele>711.0</ele><time>2026-08-01T14:13:23Z</time></trkpt>
    <trkpt lat="43.827743" lon="6.462071"><ele>712.0</ele><time>2026-08-01T14:13:31Z</time></trkpt>
    <trkpt lat="43.828068" lon="6.463018"><ele>713.0</ele><time>2026-08-01T14:13:49Z</time></trkpt>
    <trkpt lat="43.828706" lon="6.464105"><ele>713.8</ele><time>2026-08-01T14:14:12Z</time></trkpt>
    <trkpt lat="43.828649" lon="6.465456"><ele>714.8</ele><time>2026-08-01T14:14:34Z</time></trkpt>
    <trkpt lat="43.829107" lon="6.466579"><ele>716.6</ele><time>2026-08-01T14:14:55Z</time></trkpt>
    <trkpt lat="43.828933" lon="6.467738"><ele>718.6</ele><time>2026-08-01T14:15:15Z</time></trkpt>
    <trkpt lat="43.829168" lon="6.468757"><ele>719.6</ele><time>2026-08-01T14:15:32Z</time></trkpt>
    <trkpt lat="43.829080" lon="6.469914"><ele>720.6</ele><time>2026-08-01T14:15:49Z</time></trkpt>
    <trkpt lat="43.829524" lon="6.471280"><ele>722.4</ele><time>2026-08-01T14:16:11Z</time></trkpt>
    <trkpt lat="43.830089" lon="6.471969"><ele>723.2</ele><time>2026-08-01T14:16:27Z</time></trkpt>
    <trkpt lat="43.830464" lon="6.473196"><ele>724.4</ele><time>2026-08-01T14:16:48Z</time></trkpt>
    <trkpt lat="43.831107" lon="6.473981"><ele>725.0</ele><time>2026-08-01T14:17:07Z</time></trkpt>
    <trkpt lat="43.831569" lon="6.476740"><ele>728.4</ele><time>2026-08-01T14:17:54Z</time></trkpt>
    <trkpt lat="43.832065" lon="6.478452"><ele>731.4</ele><time>2026-08-01T14:18:26Z</time></trkpt>
    <trkpt lat="43.832077" lon="6.479177"><ele>732.4</ele><time>2026-08-01T14:18:38Z</time></trkpt>
    <trkpt lat="43.832811" lon="6.480719"><ele>734.8</ele><time>2026-08-01T14:19:08Z</time></trkpt>
    <trkpt lat="43.833024" lon="6.481924"><ele>736.0</ele><time>2026-08-01T14:19:27Z</time></trkpt>
    <trkpt lat="43.833074" lon="6.482030"><ele>736.2</ele><time>2026-08-01T14:19:29Z</time></trkpt>
    <trkpt lat="43.833391" lon="6.482468"><ele>736.2</ele><time>2026-08-01T14:19:38Z</time></trkpt>
    <trkpt lat="43.834329" lon="6.483077"><ele>735.8</ele><time>2026-08-01T14:19:58Z</time></trkpt>
    <trkpt lat="43.835098" lon="6.483971"><ele>734.4</ele><time>2026-08-01T14:20:17Z</time></trkpt>
    <trkpt lat="43.835342" lon="6.484520"><ele>734.0</ele><time>2026-08-01T14:20:25Z</time></trkpt>
    <trkpt lat="43.835550" lon="6.485663"><ele>732.6</ele><time>2026-08-01T14:20:39Z</time></trkpt>
    <trkpt lat="43.835224" lon="6.486167"><ele>731.8</ele><time>2026-08-01T14:20:47Z</time></trkpt>
    <trkpt lat="43.835007" lon="6.487272"><ele>732.0</ele><time>2026-08-01T14:21:00Z</time></trkpt>
    <trkpt lat="43.835448" lon="6.489257"><ele>733.2</ele><time>2026-08-01T14:21:25Z</time></trkpt>
    <trkpt lat="43.834914" lon="6.490127"><ele>732.4</ele><time>2026-08-01T14:21:40Z</time></trkpt>
    <trkpt lat="43.835176" lon="6.491567"><ele>732.6</ele><time>2026-08-01T14:21:58Z</time></trkpt>
    <trkpt lat="43.834772" lon="6.493172"><ele>733.0</ele><time>2026-08-01T14:22:18Z</time></trkpt>
    <trkpt lat="43.835354" lon="6.493471"><ele>733.2</ele><time>2026-08-01T14:22:27Z</time></trkpt>
    <trkpt lat="43.835428" lon="6.493467"><ele>733.0</ele><time>2026-08-01T14:22:28Z</time></trkpt>
    <trkpt lat="43.836147" lon="6.492996"><ele>730.6</ele><time>2026-08-01T14:22:39Z</time></trkpt>
    <trkpt lat="43.836565" lon="6.492963"><ele>729.0</ele><time>2026-08-01T14:22:44Z</time></trkpt>
    <trkpt lat="43.837329" lon="6.493305"><ele>727.8</ele><time>2026-08-01T14:22:55Z</time></trkpt>
    <trkpt lat="43.838037" lon="6.494133"><ele>726.6</ele><time>2026-08-01T14:23:08Z</time></trkpt>
    <trkpt lat="43.838442" lon="6.493647"><ele>725.4</ele><time>2026-08-01T14:23:16Z</time></trkpt>
    <trkpt lat="43.838914" lon="6.493529"><ele>723.8</ele><time>2026-08-01T14:23:22Z</time></trkpt>
    <trkpt lat="43.839550" lon="6.493942"><ele>722.4</ele><time>2026-08-01T14:23:32Z</time></trkpt>
    <trkpt lat="43.840976" lon="6.495464"><ele>719.4</ele><time>2026-08-01T14:23:56Z</time></trkpt>
    <trkpt lat="43.841801" lon="6.496350"><ele>720.2</ele><time>2026-08-01T14:24:11Z</time></trkpt>
    <trkpt lat="43.842899" lon="6.498709"><ele>724.8</ele><time>2026-08-01T14:24:45Z</time></trkpt>
    <trkpt lat="43.843211" lon="6.500575"><ele>724.0</ele><time>2026-08-01T14:25:06Z</time></trkpt>
    <trkpt lat="43.844559" lon="6.503195"><ele>726.6</ele><time>2026-08-01T14:25:42Z</time></trkpt>
    <trkpt lat="43.844794" lon="6.503785"><ele>728.0</ele><time>2026-08-01T14:25:52Z</time></trkpt>
    <trkpt lat="43.845449" lon="6.505583"><ele>726.6</ele><time>2026-08-01T14:26:16Z</time></trkpt>
    <trkpt lat="43.846202" lon="6.508672"><ele>724.6</ele><time>2026-08-01T14:26:52Z</time></trkpt>
    <trkpt lat="43.846041" lon="6.512523"><ele>726.0</ele><time>2026-08-01T14:29:25Z</time></trkpt>
    <trkpt lat="43.846423" lon="6.512609"><ele>725.2</ele><time>2026-08-01T14:30:04Z</time></trkpt>
    <trkpt lat="43.846080" lon="6.512478"><ele>725.6</ele><time>2026-08-01T14:30:17Z</time></trkpt>
    <trkpt lat="43.845899" lon="6.513301"><ele>726.4</ele><time>2026-08-01T14:30:34Z</time></trkpt>
    <trkpt lat="43.846141" lon="6.513333"><ele>726.2</ele><time>2026-08-01T14:31:03Z</time></trkpt>
    <trkpt lat="43.846350" lon="6.513795"><ele>726.8</ele><time>2026-08-01T14:31:19Z</time></trkpt>
    </trkseg>
  </trk>
</gpx>
