<?xml version="1.0" encoding="UTF-8"?>
<gpx version="1.1" creator="tripplanner (converted from Garmin TCX)" xmlns="http://www.topografix.com/GPX/1/1">
  <metadata>
    <name>Briançon → Le Bourg-d'Oisans</name>
    <time>2026-08-04T06:52:45Z</time>
  </metadata>
  <trk>
    <name>Briançon → Le Bourg-d'Oisans</name>
    <trkseg>
    <trkpt lat="44.898435" lon="6.642431"><ele>1299.0</ele><time>2026-08-04T06:52:45Z</time></trkpt>
    <trkpt lat="44.898801" lon="6.642395"><ele>1296.8</ele><time>2026-08-04T06:52:58Z</time></trkpt>
    <trkpt lat="44.898971" lon="6.641498"><ele>1291.6</ele><time>2026-08-04T06:53:19Z</time></trkpt>
    <trkpt lat="44.899353" lon="6.641371"><ele>1290.2</ele><time>2026-08-04T06:55:03Z</time></trkpt>
    <trkpt lat="44.900496" lon="6.640785"><ele>1299.6</ele><time>2026-08-04T06:56:00Z</time></trkpt>
    <trkpt lat="44.902082" lon="6.639196"><ele>1314.0</ele><time>2026-08-04T06:57:32Z</time></trkpt>
    <trkpt lat="44.902363" lon="6.639108"><ele>1315.2</ele><time>2026-08-04T06:58:01Z</time></trkpt>
    <trkpt lat="44.902411" lon="6.638904"><ele>1315.2</ele><time>2026-08-04T06:58:05Z</time></trkpt>
    <trkpt lat="44.902678" lon="6.638241"><ele>1312.2</ele><time>2026-08-04T06:58:15Z</time></trkpt>
    <trkpt lat="44.903160" lon="6.637468"><ele>1308.8</ele><time>2026-08-04T06:58:27Z</time></trkpt>
    <trkpt lat="44.903359" lon="6.636589"><ele>1305.2</ele><time>2026-08-04T06:58:38Z</time></trkpt>
    <trkpt lat="44.904839" lon="6.634965"><ele>1296.0</ele><time>2026-08-04T06:59:02Z</time></trkpt>
    <trkpt lat="44.904959" lon="6.634400"><ele>1293.6</ele><time>2026-08-04T06:59:06Z</time></trkpt>
    <trkpt lat="44.904845" lon="6.632939"><ele>1287.4</ele><time>2026-08-04T06:59:18Z</time></trkpt>
    <trkpt lat="44.905381" lon="6.631415"><ele>1280.8</ele><time>2026-08-04T06:59:35Z</time></trkpt>
    <trkpt lat="44.905650" lon="6.629827"><ele>1274.4</ele><time>2026-08-04T06:59:53Z</time></trkpt>
    <trkpt lat="44.905658" lon="6.629748"><ele>1274.2</ele><time>2026-08-04T06:59:54Z</time></trkpt>
    <trkpt lat="44.905638" lon="6.628688"><ele>1270.0</ele><time>2026-08-04T07:00:08Z</time></trkpt>
    <trkpt lat="44.905806" lon="6.628227"><ele>1269.8</ele><time>2026-08-04T07:01:32Z</time></trkpt>
    <trkpt lat="44.905914" lon="6.628127"><ele>1270.0</ele><time>2026-08-04T07:01:39Z</time></trkpt>
    <trkpt lat="44.906381" lon="6.627811"><ele>1273.8</ele><time>2026-08-04T07:02:03Z</time></trkpt>
    <trkpt lat="44.907718" lon="6.627595"><ele>1284.0</ele><time>2026-08-04T07:02:58Z</time></trkpt>
    <trkpt lat="44.908164" lon="6.627331"><ele>1287.0</ele><time>2026-08-04T07:03:18Z</time></trkpt>
    <trkpt lat="44.909119" lon="6.626610"><ele>1294.2</ele><time>2026-08-04T07:03:59Z</time></trkpt>
    <trkpt lat="44.909864" lon="6.626049"><ele>1297.4</ele><time>2026-08-04T07:04:27Z</time></trkpt>
    <trkpt lat="44.911425" lon="6.624231"><ele>1303.8</ele><time>2026-08-04T07:05:29Z</time></trkpt>
    <trkpt lat="44.912846" lon="6.624029"><ele>1311.6</ele><time>2026-08-04T07:06:23Z</time></trkpt>
    <trkpt lat="44.913636" lon="6.623380"><ele>1316.6</ele><time>2026-08-04T07:06:58Z</time></trkpt>
    <trkpt lat="44.916703" lon="6.622413"><ele>1334.4</ele><time>2026-08-04T07:08:59Z</time></trkpt>
    <trkpt lat="44.917385" lon="6.621949"><ele>1335.4</ele><time>2026-08-04T07:09:21Z</time></trkpt>
    <trkpt lat="44.918528" lon="6.620176"><ele>1341.2</ele><time>2026-08-04T07:10:12Z</time></trkpt>
    <trkpt lat="44.918999" lon="6.619357"><ele>1341.8</ele><time>2026-08-04T07:10:32Z</time></trkpt>
    <trkpt lat="44.919098" lon="6.619221"><ele>1341.6</ele><time>2026-08-04T07:10:35Z</time></trkpt>
    <trkpt lat="44.920342" lon="6.617642"><ele>1334.0</ele><time>2026-08-04T07:10:57Z</time></trkpt>
    <trkpt lat="44.921919" lon="6.615409"><ele>1334.4</ele><time>2026-08-04T07:11:31Z</time></trkpt>
    <trkpt lat="44.922348" lon="6.614360"><ele>1335.0</ele><time>2026-08-04T07:11:47Z</time></trkpt>
    <trkpt lat="44.922510" lon="6.612598"><ele>1336.0</ele><time>2026-08-04T07:22:03Z</time></trkpt>
    <trkpt lat="44.922675" lon="6.612272"><ele>1336.2</ele><time>2026-08-04T07:22:14Z</time></trkpt>
    <trkpt lat="44.922555" lon="6.611783"><ele>1336.2</ele><time>2026-08-04T07:22:24Z</time></trkpt>
    <trkpt lat="44.923073" lon="6.610037"><ele>1336.4</ele><time>2026-08-04T07:22:57Z</time></trkpt>
    <trkpt lat="44.924690" lon="6.606094"><ele>1336.2</ele><time>2026-08-04T07:24:10Z</time></trkpt>
    <trkpt lat="44.925176" lon="6.605008"><ele>1336.6</ele><time>2026-08-04T07:24:29Z</time></trkpt>
    <trkpt lat="44.927972" lon="6.598785"><ele>1352.0</ele><time>2026-08-04T07:26:41Z</time></trkpt>
    <trkpt lat="44.929159" lon="6.596111"><ele>1353.6</ele><time>2026-08-04T07:27:32Z</time></trkpt>
    <trkpt lat="44.930098" lon="6.594280"><ele>1354.6</ele><time>2026-08-04T07:28:06Z</time></trkpt>
    <trkpt lat="44.930150" lon="6.594184"><ele>1355.0</ele><time>2026-08-04T07:28:08Z</time></trkpt>
    <trkpt lat="44.930690" lon="6.593536"><ele>1358.4</ele><time>2026-08-04T07:28:28Z</time></trkpt>
    <trkpt lat="44.930811" lon="6.593114"><ele>1359.6</ele><time>2026-08-04T07:28:37Z</time></trkpt>
    <trkpt lat="44.932468" lon="6.590373"><ele>1370.2</ele><time>2026-08-04T07:32:13Z</time></trkpt>
    <trkpt lat="44.932630" lon="6.590115"><ele>1370.4</ele><time>2026-08-04T07:32:23Z</time></trkpt>
    <trkpt lat="44.933885" lon="6.588303"><ele>1371.6</ele><time>2026-08-04T07:33:15Z</time></trkpt>
    <trkpt lat="44.934220" lon="6.588300"><ele>1370.8</ele><time>2026-08-04T07:33:57Z</time></trkpt>
    <trkpt lat="44.933898" lon="6.588444"><ele>1371.4</ele><time>2026-08-04T07:36:11Z</time></trkpt>
    <trkpt lat="44.933878" lon="6.588311"><ele>1371.4</ele><time>2026-08-04T07:36:16Z</time></trkpt>
    <trkpt lat="44.934397" lon="6.587488"><ele>1370.8</ele><time>2026-08-04T07:36:36Z</time></trkpt>
    <trkpt lat="44.934910" lon="6.586633"><ele>1368.6</ele><time>2026-08-04T07:36:49Z</time></trkpt>
    <trkpt lat="44.936628" lon="6.583285"><ele>1359.2</ele><time>2026-08-04T07:37:21Z</time></trkpt>
    <trkpt lat="44.938653" lon="6.576066"><ele>1376.2</ele><time>2026-08-04T07:39:22Z</time></trkpt>
    <trkpt lat="44.939683" lon="6.572392"><ele>1379.2</ele><time>2026-08-04T07:40:26Z</time></trkpt>
    <trkpt lat="44.940668" lon="6.570441"><ele>1380.2</ele><time>2026-08-04T07:41:00Z</time></trkpt>
    <trkpt lat="44.942388" lon="6.568606"><ele>1378.6</ele><time>2026-08-04T07:41:36Z</time></trkpt>
    <trkpt lat="44.942978" lon="6.567608"><ele>1380.8</ele><time>2026-08-04T07:41:53Z</time></trkpt>
    <trkpt lat="44.943885" lon="6.564972"><ele>1383.6</ele><time>2026-08-04T07:42:34Z</time></trkpt>
    <trkpt lat="44.944659" lon="6.563402"><ele>1383.8</ele><time>2026-08-04T07:42:59Z</time></trkpt>
    <trkpt lat="44.945045" lon="6.562192"><ele>1384.2</ele><time>2026-08-04T07:43:18Z</time></trkpt>
    <trkpt lat="44.944928" lon="6.562118"><ele>1384.6</ele><time>2026-08-04T07:43:33Z</time></trkpt>
    <trkpt lat="44.945092" lon="6.561347"><ele>1386.2</ele><time>2026-08-04T07:51:14Z</time></trkpt>
    <trkpt lat="44.944939" lon="6.561700"><ele>1386.2</ele><time>2026-08-04T07:51:30Z</time></trkpt>
    <trkpt lat="44.945055" lon="6.561375"><ele>1386.6</ele><time>2026-08-04T07:53:15Z</time></trkpt>
    <trkpt lat="44.944969" lon="6.560649"><ele>1389.6</ele><time>2026-08-04T07:53:34Z</time></trkpt>
    <trkpt lat="44.945054" lon="6.561352"><ele>1388.2</ele><time>2026-08-04T07:55:31Z</time></trkpt>
    <trkpt lat="44.944953" lon="6.561701"><ele>1387.4</ele><time>2026-08-04T07:55:42Z</time></trkpt>
    <trkpt lat="44.945063" lon="6.561480"><ele>1388.8</ele><time>2026-08-04T08:02:27Z</time></trkpt>
    <trkpt lat="44.944949" lon="6.562008"><ele>1388.0</ele><time>2026-08-04T08:06:29Z</time></trkpt>
    <trkpt lat="44.945206" lon="6.560714"><ele>1391.6</ele><time>2026-08-04T08:11:32Z</time></trkpt>
    <trkpt lat="44.945467" lon="6.561137"><ele>1390.2</ele><time>2026-08-04T08:11:41Z</time></trkpt>
    <trkpt lat="44.945672" lon="6.561098"><ele>1390.0</ele><time>2026-08-04T08:11:44Z</time></trkpt>
    <trkpt lat="44.945807" lon="6.560644"><ele>1390.0</ele><time>2026-08-04T08:11:49Z</time></trkpt>
    <trkpt lat="44.945853" lon="6.560562"><ele>1390.2</ele><time>2026-08-04T08:11:50Z</time></trkpt>
    <trkpt lat="44.946530" lon="6.559644"><ele>1391.8</ele><time>2026-08-04T08:12:04Z</time></trkpt>
    <trkpt lat="44.947790" lon="6.558858"><ele>1393.6</ele><time>2026-08-04T08:12:27Z</time></trkpt>
    <trkpt lat="44.948310" lon="6.558333"><ele>1395.0</ele><time>2026-08-04T08:12:38Z</time></trkpt>
    <trkpt lat="44.954136" lon="6.550038"><ele>1404.0</ele><time>2026-08-04T08:14:51Z</time></trkpt>
    <trkpt lat="44.955748" lon="6.548609"><ele>1405.0</ele><time>2026-08-04T08:15:19Z</time></trkpt>
    <trkpt lat="44.955905" lon="6.548439"><ele>1405.6</ele><time>2026-08-04T08:15:22Z</time></trkpt>
    <trkpt lat="44.957323" lon="6.546189"><ele>1408.4</ele><time>2026-08-04T08:15:53Z</time></trkpt>
    <trkpt lat="44.957702" lon="6.545272"><ele>1409.4</ele><time>2026-08-04T08:16:04Z</time></trkpt>
    <trkpt lat="44.958181" lon="6.542528"><ele>1411.4</ele><time>2026-08-04T08:16:33Z</time></trkpt>
    <trkpt lat="44.958534" lon="6.541781"><ele>1412.0</ele><time>2026-08-04T08:16:42Z</time></trkpt>
    <trkpt lat="44.961414" lon="6.538517"><ele>1418.8</ele><time>2026-08-04T08:17:42Z</time></trkpt>
    <trkpt lat="44.964492" lon="6.535959"><ele>1426.2</ele><time>2026-08-04T08:18:38Z</time></trkpt>
    <trkpt lat="44.966190" lon="6.533110"><ele>1432.8</ele><time>2026-08-04T08:19:27Z</time></trkpt>
    <trkpt lat="44.967415" lon="6.531606"><ele>1436.4</ele><time>2026-08-04T08:19:58Z</time></trkpt>
    <trkpt lat="44.967728" lon="6.531017"><ele>1438.0</ele><time>2026-08-04T08:20:08Z</time></trkpt>
    <trkpt lat="44.967864" lon="6.530243"><ele>1439.2</ele><time>2026-08-04T08:20:19Z</time></trkpt>
    <trkpt lat="44.967824" lon="6.528325"><ele>1442.0</ele><time>2026-08-04T08:20:45Z</time></trkpt>
    <trkpt lat="44.968185" lon="6.527011"><ele>1444.4</ele><time>2026-08-04T08:21:04Z</time></trkpt>
    <trkpt lat="44.968548" lon="6.525247"><ele>1446.6</ele><time>2026-08-04T08:21:28Z</time></trkpt>
    <trkpt lat="44.968952" lon="6.524141"><ele>1447.8</ele><time>2026-08-04T08:21:43Z</time></trkpt>
    <trkpt lat="44.969314" lon="6.523722"><ele>1448.4</ele><time>2026-08-04T08:21:51Z</time></trkpt>
    <trkpt lat="44.971014" lon="6.522736"><ele>1449.4</ele><time>2026-08-04T08:22:20Z</time></trkpt>
    <trkpt lat="44.971874" lon="6.520619"><ele>1450.6</ele><time>2026-08-04T08:22:46Z</time></trkpt>
    <trkpt lat="44.972473" lon="6.519271"><ele>1454.6</ele><time>2026-08-04T08:23:07Z</time></trkpt>
    <trkpt lat="44.972781" lon="6.519036"><ele>1456.8</ele><time>2026-08-04T08:23:15Z</time></trkpt>
    <trkpt lat="44.973888" lon="6.517440"><ele>1460.8</ele><time>2026-08-04T08:23:48Z</time></trkpt>
    <trkpt lat="44.975049" lon="6.516820"><ele>1466.2</ele><time>2026-08-04T08:24:21Z</time></trkpt>
    <trkpt lat="44.975544" lon="6.516193"><ele>1469.0</ele><time>2026-08-04T08:24:39Z</time></trkpt>
    <trkpt lat="44.976287" lon="6.513882"><ele>1476.2</ele><time>2026-08-04T08:25:25Z</time></trkpt>
    <trkpt lat="44.976228" lon="6.513195"><ele>1478.0</ele><time>2026-08-04T08:25:39Z</time></trkpt>
    <trkpt lat="44.975786" lon="6.511861"><ele>1482.2</ele><time>2026-08-04T08:26:09Z</time></trkpt>
    <trkpt lat="44.975821" lon="6.511109"><ele>1485.0</ele><time>2026-08-04T08:26:25Z</time></trkpt>
    <trkpt lat="44.976027" lon="6.509649"><ele>1486.8</ele><time>2026-08-04T08:26:53Z</time></trkpt>
    <trkpt lat="44.975992" lon="6.508121"><ele>1489.2</ele><time>2026-08-04T08:46:43Z</time></trkpt>
    <trkpt lat="44.977981" lon="6.503797"><ele>1502.0</ele><time>2026-08-04T08:48:24Z</time></trkpt>
    <trkpt lat="44.979137" lon="6.500346"><ele>1511.8</ele><time>2026-08-04T08:49:36Z</time></trkpt>
    <trkpt lat="44.980198" lon="6.499219"><ele>1514.4</ele><time>2026-08-04T08:50:07Z</time></trkpt>
    <trkpt lat="44.981958" lon="6.499474"><ele>1518.6</ele><time>2026-08-04T08:50:45Z</time></trkpt>
    <trkpt lat="44.982479" lon="6.499247"><ele>1520.2</ele><time>2026-08-04T08:50:57Z</time></trkpt>
    <trkpt lat="44.983424" lon="6.498450"><ele>1523.6</ele><time>2026-08-04T08:51:21Z</time></trkpt>
    <trkpt lat="44.985075" lon="6.495541"><ele>1531.6</ele><time>2026-08-04T08:52:18Z</time></trkpt>
    <trkpt lat="44.985843" lon="6.494803"><ele>1534.2</ele><time>2026-08-04T08:52:39Z</time></trkpt>
    <trkpt lat="44.986457" lon="6.493903"><ele>1536.8</ele><time>2026-08-04T08:52:59Z</time></trkpt>
    <trkpt lat="44.987107" lon="6.492118"><ele>1540.8</ele><time>2026-08-04T08:53:31Z</time></trkpt>
    <trkpt lat="44.988531" lon="6.490288"><ele>1546.8</ele><time>2026-08-04T08:54:15Z</time></trkpt>
    <trkpt lat="44.989023" lon="6.488788"><ele>1549.8</ele><time>2026-08-04T08:54:41Z</time></trkpt>
    <trkpt lat="44.990453" lon="6.486058"><ele>1556.4</ele><time>2026-08-04T08:55:34Z</time></trkpt>
    <trkpt lat="44.991542" lon="6.484552"><ele>1560.6</ele><time>2026-08-04T08:56:07Z</time></trkpt>
    <trkpt lat="44.992495" lon="6.482453"><ele>1565.6</ele><time>2026-08-04T08:56:46Z</time></trkpt>
    <trkpt lat="44.993419" lon="6.481310"><ele>1569.2</ele><time>2026-08-04T08:57:13Z</time></trkpt>
    <trkpt lat="44.995501" lon="6.479852"><ele>1576.0</ele><time>2026-08-04T08:58:05Z</time></trkpt>
    <trkpt lat="44.996383" lon="6.478773"><ele>1579.0</ele><time>2026-08-04T08:58:31Z</time></trkpt>
    <trkpt lat="44.997313" lon="6.478569"><ele>1581.8</ele><time>2026-08-04T08:58:53Z</time></trkpt>
    <trkpt lat="44.997899" lon="6.477998"><ele>1584.0</ele><time>2026-08-04T08:59:11Z</time></trkpt>
    <trkpt lat="44.998493" lon="6.477806"><ele>1585.8</ele><time>2026-08-04T08:59:26Z</time></trkpt>
    <trkpt lat="44.998530" lon="6.477787"><ele>1586.0</ele><time>2026-08-04T08:59:27Z</time></trkpt>
    <trkpt lat="44.999680" lon="6.477031"><ele>1592.8</ele><time>2026-08-04T09:00:04Z</time></trkpt>
    <trkpt lat="45.001031" lon="6.476774"><ele>1600.8</ele><time>2026-08-04T09:00:45Z</time></trkpt>
    <trkpt lat="45.002771" lon="6.475420"><ele>1612.0</ele><time>2026-08-04T09:01:50Z</time></trkpt>
    <trkpt lat="45.003803" lon="6.474158"><ele>1619.0</ele><time>2026-08-04T09:02:34Z</time></trkpt>
    <trkpt lat="45.004619" lon="6.473524"><ele>1624.2</ele><time>2026-08-04T09:03:03Z</time></trkpt>
    <trkpt lat="45.005290" lon="6.472726"><ele>1628.4</ele><time>2026-08-04T09:03:31Z</time></trkpt>
    <trkpt lat="45.006411" lon="6.472769"><ele>1634.2</ele><time>2026-08-04T09:04:08Z</time></trkpt>
    <trkpt lat="45.008184" lon="6.472075"><ele>1645.2</ele><time>2026-08-04T09:05:11Z</time></trkpt>
    <trkpt lat="45.008860" lon="6.471256"><ele>1649.4</ele><time>2026-08-04T09:05:38Z</time></trkpt>
    <trkpt lat="45.011280" lon="6.469774"><ele>1663.6</ele><time>2026-08-04T09:07:02Z</time></trkpt>
    <trkpt lat="45.013024" lon="6.467822"><ele>1676.6</ele><time>2026-08-04T09:08:16Z</time></trkpt>
    <trkpt lat="45.014540" lon="6.467156"><ele>1683.6</ele><time>2026-08-04T09:09:03Z</time></trkpt>
    <trkpt lat="45.015858" lon="6.465426"><ele>1694.4</ele><time>2026-08-04T09:09:58Z</time></trkpt>
    <trkpt lat="45.016482" lon="6.465384"><ele>1698.0</ele><time>2026-08-04T09:10:18Z</time></trkpt>
    <trkpt lat="45.017932" lon="6.466151"><ele>1707.8</ele><time>2026-08-04T09:11:11Z</time></trkpt>
    <trkpt lat="45.018508" lon="6.465701"><ele>1713.6</ele><time>2026-08-04T09:18:01Z</time></trkpt>
    <trkpt lat="45.018765" lon="6.464460"><ele>1717.6</ele><time>2026-08-04T09:18:29Z</time></trkpt>
    <trkpt lat="45.019134" lon="6.463825"><ele>1722.0</ele><time>2026-08-04T09:18:50Z</time></trkpt>
    <trkpt lat="45.019931" lon="6.462880"><ele>1727.2</ele><time>2026-08-04T09:19:28Z</time></trkpt>
    <trkpt lat="45.021056" lon="6.459614"><ele>1742.2</ele><time>2026-08-04T09:21:05Z</time></trkpt>
    <trkpt lat="45.022158" lon="6.457354"><ele>1752.2</ele><time>2026-08-04T09:22:14Z</time></trkpt>
    <trkpt lat="45.023166" lon="6.456183"><ele>1759.0</ele><time>2026-08-04T09:23:00Z</time></trkpt>
    <trkpt lat="45.024301" lon="6.454465"><ele>1768.2</ele><time>2026-08-04T09:23:58Z</time></trkpt>
    <trkpt lat="45.024923" lon="6.453128"><ele>1775.6</ele><time>2026-08-04T09:24:37Z</time></trkpt>
    <trkpt lat="45.025479" lon="6.451482"><ele>1782.8</ele><time>2026-08-04T09:25:20Z</time></trkpt>
    <trkpt lat="45.026524" lon="6.449643"><ele>1792.4</ele><time>2026-08-04T09:26:18Z</time></trkpt>
    <trkpt lat="45.027651" lon="6.448090"><ele>1799.8</ele><time>2026-08-04T09:27:12Z</time></trkpt>
    <trkpt lat="45.028827" lon="6.446873"><ele>1807.2</ele><time>2026-08-04T09:28:03Z</time></trkpt>
    <trkpt lat="45.029289" lon="6.445750"><ele>1813.6</ele><time>2026-08-04T09:28:35Z</time></trkpt>
    <trkpt lat="45.030301" lon="6.444320"><ele>1819.8</ele><time>2026-08-04T09:29:26Z</time></trkpt>
    <trkpt lat="45.031453" lon="6.441670"><ele>1834.8</ele><time>2026-08-04T09:30:43Z</time></trkpt>
    <trkpt lat="45.033189" lon="6.439473"><ele>1847.8</ele><time>2026-08-04T09:32:04Z</time></trkpt>
    <trkpt lat="45.035682" lon="6.437049"><ele>1863.2</ele><time>2026-08-04T09:33:44Z</time></trkpt>
    <trkpt lat="45.037055" lon="6.434845"><ele>1875.4</ele><time>2026-08-04T09:34:56Z</time></trkpt>
    <trkpt lat="45.039297" lon="6.432240"><ele>1893.2</ele><time>2026-08-04T09:36:51Z</time></trkpt>
    <trkpt lat="45.039701" lon="6.431185"><ele>1897.4</ele><time>2026-08-04T09:37:23Z</time></trkpt>
    <trkpt lat="45.040117" lon="6.429238"><ele>1905.6</ele><time>2026-08-04T09:38:16Z</time></trkpt>
    <trkpt lat="45.040565" lon="6.428256"><ele>1911.2</ele><time>2026-08-04T09:38:44Z</time></trkpt>
    <trkpt lat="45.041133" lon="6.427583"><ele>1914.4</ele><time>2026-08-04T09:39:10Z</time></trkpt>
    <trkpt lat="45.042234" lon="6.426783"><ele>1921.8</ele><time>2026-08-04T09:39:59Z</time></trkpt>
    <trkpt lat="45.042705" lon="6.426120"><ele>1925.6</ele><time>2026-08-04T09:40:25Z</time></trkpt>
    <trkpt lat="45.043121" lon="6.423812"><ele>1935.2</ele><time>2026-08-04T09:41:32Z</time></trkpt>
    <trkpt lat="45.043151" lon="6.422121"><ele>1943.2</ele><time>2026-08-04T09:42:16Z</time></trkpt>
    <trkpt lat="45.043052" lon="6.421701"><ele>1945.4</ele><time>2026-08-04T09:42:29Z</time></trkpt>
    <trkpt lat="45.042829" lon="6.421525"><ele>1947.4</ele><time>2026-08-04T09:42:39Z</time></trkpt>
    <trkpt lat="45.042149" lon="6.421955"><ele>1950.8</ele><time>2026-08-04T09:43:08Z</time></trkpt>
    <trkpt lat="45.041880" lon="6.421943"><ele>1953.4</ele><time>2026-08-04T09:43:18Z</time></trkpt>
    <trkpt lat="45.041574" lon="6.420965"><ele>1959.6</ele><time>2026-08-04T09:43:48Z</time></trkpt>
    <trkpt lat="45.041550" lon="6.420735"><ele>1960.0</ele><time>2026-08-04T09:43:54Z</time></trkpt>
    <trkpt lat="45.041660" lon="6.418806"><ele>1967.2</ele><time>2026-08-04T09:44:43Z</time></trkpt>
    <trkpt lat="45.041973" lon="6.418121"><ele>1970.2</ele><time>2026-08-04T09:45:02Z</time></trkpt>
    <trkpt lat="45.042758" lon="6.417270"><ele>1974.4</ele><time>2026-08-04T09:45:34Z</time></trkpt>
    <trkpt lat="45.042864" lon="6.416837"><ele>1976.0</ele><time>2026-08-04T09:45:44Z</time></trkpt>
    <trkpt lat="45.042780" lon="6.416438"><ele>1976.2</ele><time>2026-08-04T09:45:53Z</time></trkpt>
    <trkpt lat="45.042159" lon="6.415080"><ele>1980.2</ele><time>2026-08-04T09:46:25Z</time></trkpt>
    <trkpt lat="45.041949" lon="6.414803"><ele>1981.4</ele><time>2026-08-04T09:46:34Z</time></trkpt>
    <trkpt lat="45.041781" lon="6.414601"><ele>1986.4</ele><time>2026-08-04T09:46:50Z</time></trkpt>
    <trkpt lat="45.038791" lon="6.410759"><ele>2008.2</ele><time>2026-08-04T09:49:07Z</time></trkpt>
    <trkpt lat="45.038759" lon="6.409085"><ele>2011.8</ele><time>2026-08-04T09:49:44Z</time></trkpt>
    <trkpt lat="45.039629" lon="6.406493"><ele>2021.8</ele><time>2026-08-04T09:50:50Z</time></trkpt>
    <trkpt lat="45.039658" lon="6.405888"><ele>2022.8</ele><time>2026-08-04T09:51:03Z</time></trkpt>
    <trkpt lat="45.039537" lon="6.405434"><ele>2024.2</ele><time>2026-08-04T09:51:13Z</time></trkpt>
    <trkpt lat="45.039009" lon="6.404806"><ele>2026.8</ele><time>2026-08-04T09:51:33Z</time></trkpt>
    <trkpt lat="45.038684" lon="6.404526"><ele>2029.0</ele><time>2026-08-04T09:51:44Z</time></trkpt>
    <trkpt lat="45.038132" lon="6.404263"><ele>2032.4</ele><time>2026-08-04T09:52:02Z</time></trkpt>
    <trkpt lat="45.037457" lon="6.404597"><ele>2037.4</ele><time>2026-08-04T09:52:27Z</time></trkpt>
    <trkpt lat="45.036954" lon="6.405744"><ele>2043.8</ele><time>2026-08-04T09:53:01Z</time></trkpt>
    <trkpt lat="45.036637" lon="6.406022"><ele>2046.6</ele><time>2026-08-04T09:53:14Z</time></trkpt>
    <trkpt lat="45.036190" lon="6.405987"><ele>2052.2</ele><time>2026-08-04T09:55:35Z</time></trkpt>
    <trkpt lat="45.036176" lon="6.405980"><ele>2052.2</ele><time>2026-08-04T09:55:36Z</time></trkpt>
    <trkpt lat="45.035607" lon="6.405236"><ele>2055.8</ele><time>2026-08-04T09:56:10Z</time></trkpt>
    <trkpt lat="45.035684" lon="6.404953"><ele>2057.4</ele><time>2026-08-04T09:56:20Z</time></trkpt>
    <trkpt lat="45.036162" lon="6.404553"><ele>2059.4</ele><time>2026-08-04T09:57:31Z</time></trkpt>
    <trkpt lat="45.035498" lon="6.405151"><ele>2058.6</ele><time>2026-08-04T09:57:53Z</time></trkpt>
    <trkpt lat="45.035118" lon="6.405128"><ele>2058.8</ele><time>2026-08-04T10:05:23Z</time></trkpt>
    <trkpt lat="45.035515" lon="6.405233"><ele>2058.6</ele><time>2026-08-04T10:05:37Z</time></trkpt>
    <trkpt lat="45.035749" lon="6.404888"><ele>2059.6</ele><time>2026-08-04T10:05:47Z</time></trkpt>
    <trkpt lat="45.036700" lon="6.404187"><ele>2062.6</ele><time>2026-08-04T10:06:19Z</time></trkpt>
    <trkpt lat="45.037285" lon="6.403011"><ele>2065.8</ele><time>2026-08-04T10:06:48Z</time></trkpt>
    <trkpt lat="45.037402" lon="6.402878"><ele>2066.8</ele><time>2026-08-04T10:06:52Z</time></trkpt>
    <trkpt lat="45.038115" lon="6.402852"><ele>2072.2</ele><time>2026-08-04T10:07:18Z</time></trkpt>
    <trkpt lat="45.038605" lon="6.401146"><ele>2082.8</ele><time>2026-08-04T10:08:08Z</time></trkpt>
    <trkpt lat="45.038898" lon="6.400762"><ele>2086.2</ele><time>2026-08-04T10:08:25Z</time></trkpt>
    <trkpt lat="45.039677" lon="6.400936"><ele>2092.2</ele><time>2026-08-04T10:09:00Z</time></trkpt>
    <trkpt lat="45.040630" lon="6.401684"><ele>2100.2</ele><time>2026-08-04T10:09:45Z</time></trkpt>
    <trkpt lat="45.040888" lon="6.401495"><ele>2102.0</ele><time>2026-08-04T10:09:58Z</time></trkpt>
    <trkpt lat="45.040830" lon="6.401244"><ele>2103.0</ele><time>2026-08-04T10:10:05Z</time></trkpt>
    <trkpt lat="45.040271" lon="6.400827"><ele>2106.6</ele><time>2026-08-04T10:10:27Z</time></trkpt>
    <trkpt lat="45.038391" lon="6.398422"><ele>2128.0</ele><time>2026-08-04T10:12:09Z</time></trkpt>
    <trkpt lat="45.037660" lon="6.398341"><ele>2134.0</ele><time>2026-08-04T10:12:38Z</time></trkpt>
    <trkpt lat="45.037368" lon="6.397998"><ele>2138.2</ele><time>2026-08-04T10:12:55Z</time></trkpt>
    <trkpt lat="45.037355" lon="6.396782"><ele>2145.6</ele><time>2026-08-04T10:13:36Z</time></trkpt>
    <trkpt lat="45.037534" lon="6.395879"><ele>2151.0</ele><time>2026-08-04T10:14:07Z</time></trkpt>
    <trkpt lat="45.038020" lon="6.394576"><ele>2161.4</ele><time>2026-08-04T10:14:56Z</time></trkpt>
    <trkpt lat="45.038035" lon="6.394459"><ele>2162.2</ele><time>2026-08-04T10:15:00Z</time></trkpt>
    <trkpt lat="45.038076" lon="6.392958"><ele>2168.0</ele><time>2026-08-04T10:15:46Z</time></trkpt>
    <trkpt lat="45.038279" lon="6.393025"><ele>2168.4</ele><time>2026-08-04T10:15:56Z</time></trkpt>
    <trkpt lat="45.038270" lon="6.393965"><ele>2173.4</ele><time>2026-08-04T10:16:22Z</time></trkpt>
    <trkpt lat="45.038468" lon="6.395234"><ele>2181.6</ele><time>2026-08-04T10:17:03Z</time></trkpt>
    <trkpt lat="45.039413" lon="6.396845"><ele>2193.0</ele><time>2026-08-04T10:18:12Z</time></trkpt>
    <trkpt lat="45.039960" lon="6.397597"><ele>2198.4</ele><time>2026-08-04T10:18:49Z</time></trkpt>
    <trkpt lat="45.041207" lon="6.398712"><ele>2209.8</ele><time>2026-08-04T10:19:58Z</time></trkpt>
    <trkpt lat="45.041983" lon="6.399220"><ele>2216.6</ele><time>2026-08-04T10:20:33Z</time></trkpt>
    <trkpt lat="45.042820" lon="6.400450"><ele>2226.8</ele><time>2026-08-04T10:21:24Z</time></trkpt>
    <trkpt lat="45.043427" lon="6.401752"><ele>2236.4</ele><time>2026-08-04T10:22:09Z</time></trkpt>
    <trkpt lat="45.043766" lon="6.401908"><ele>2239.8</ele><time>2026-08-04T10:22:24Z</time></trkpt>
    <trkpt lat="45.044337" lon="6.401050"><ele>2244.6</ele><time>2026-08-04T10:22:56Z</time></trkpt>
    <trkpt lat="45.045128" lon="6.400721"><ele>2251.4</ele><time>2026-08-04T10:23:29Z</time></trkpt>
    <trkpt lat="45.047213" lon="6.398322"><ele>2271.8</ele><time>2026-08-04T10:25:18Z</time></trkpt>
    <trkpt lat="45.048526" lon="6.396321"><ele>2288.8</ele><time>2026-08-04T10:26:41Z</time></trkpt>
    <trkpt lat="45.048754" lon="6.394858"><ele>2295.4</ele><time>2026-08-04T10:27:27Z</time></trkpt>
    <trkpt lat="45.048804" lon="6.394714"><ele>2296.4</ele><time>2026-08-04T10:27:32Z</time></trkpt>
    <trkpt lat="45.049018" lon="6.394324"><ele>2300.0</ele><time>2026-08-04T10:27:47Z</time></trkpt>
    <trkpt lat="45.049332" lon="6.393931"><ele>2304.4</ele><time>2026-08-04T10:28:05Z</time></trkpt>
    <trkpt lat="45.050016" lon="6.393534"><ele>2313.6</ele><time>2026-08-04T10:28:36Z</time></trkpt>
    <trkpt lat="45.050092" lon="6.393434"><ele>2314.0</ele><time>2026-08-04T10:28:40Z</time></trkpt>
    <trkpt lat="45.050158" lon="6.392058"><ele>2319.4</ele><time>2026-08-04T10:29:24Z</time></trkpt>
    <trkpt lat="45.051037" lon="6.391067"><ele>2329.0</ele><time>2026-08-04T10:30:13Z</time></trkpt>
    <trkpt lat="45.051828" lon="6.389602"><ele>2339.0</ele><time>2026-08-04T10:31:09Z</time></trkpt>
    <trkpt lat="45.052102" lon="6.389554"><ele>2340.4</ele><time>2026-08-04T10:31:20Z</time></trkpt>
    <trkpt lat="45.052419" lon="6.390065"><ele>2343.4</ele><time>2026-08-04T10:31:39Z</time></trkpt>
    <trkpt lat="45.051953" lon="6.390999"><ele>2347.8</ele><time>2026-08-04T10:32:11Z</time></trkpt>
    <trkpt lat="45.051652" lon="6.392438"><ele>2354.2</ele><time>2026-08-04T10:32:53Z</time></trkpt>
    <trkpt lat="45.052220" lon="6.393111"><ele>2359.2</ele><time>2026-08-04T10:33:19Z</time></trkpt>
    <trkpt lat="45.052434" lon="6.393951"><ele>2363.4</ele><time>2026-08-04T10:33:45Z</time></trkpt>
    <trkpt lat="45.052922" lon="6.394461"><ele>2366.4</ele><time>2026-08-04T10:34:07Z</time></trkpt>
    <trkpt lat="45.053071" lon="6.394947"><ele>2368.0</ele><time>2026-08-04T10:34:21Z</time></trkpt>
    <trkpt lat="45.053291" lon="6.395890"><ele>2373.0</ele><time>2026-08-04T10:34:47Z</time></trkpt>
    <trkpt lat="45.053234" lon="6.398696"><ele>2389.2</ele><time>2026-08-04T10:36:11Z</time></trkpt>
    <trkpt lat="45.052864" lon="6.400445"><ele>2402.0</ele><time>2026-08-04T10:37:09Z</time></trkpt>
    <trkpt lat="45.053100" lon="6.402281"><ele>2412.6</ele><time>2026-08-04T10:38:06Z</time></trkpt>
    <trkpt lat="45.053266" lon="6.402593"><ele>2414.8</ele><time>2026-08-04T10:38:17Z</time></trkpt>
    <trkpt lat="45.053865" lon="6.402679"><ele>2420.4</ele><time>2026-08-04T10:38:43Z</time></trkpt>
    <trkpt lat="45.053917" lon="6.402961"><ele>2422.4</ele><time>2026-08-04T10:38:51Z</time></trkpt>
    <trkpt lat="45.053867" lon="6.404368"><ele>2428.8</ele><time>2026-08-04T10:39:33Z</time></trkpt>
    <trkpt lat="45.054923" lon="6.406682"><ele>2440.6</ele><time>2026-08-04T10:40:52Z</time></trkpt>
    <trkpt lat="45.055475" lon="6.408299"><ele>2447.0</ele><time>2026-08-04T10:41:40Z</time></trkpt>
    <trkpt lat="45.055723" lon="6.408564"><ele>2449.0</ele><time>2026-08-04T10:41:52Z</time></trkpt>
    <trkpt lat="45.056764" lon="6.408616"><ele>2458.8</ele><time>2026-08-04T10:42:32Z</time></trkpt>
    <trkpt lat="45.057380" lon="6.407887"><ele>2464.0</ele><time>2026-08-04T10:43:05Z</time></trkpt>
    <trkpt lat="45.059462" lon="6.407010"><ele>2479.2</ele><time>2026-08-04T10:44:32Z</time></trkpt>
    <trkpt lat="45.060041" lon="6.406905"><ele>2483.2</ele><time>2026-08-04T10:44:57Z</time></trkpt>
    <trkpt lat="45.060727" lon="6.407143"><ele>2488.8</ele><time>2026-08-04T10:45:28Z</time></trkpt>
    <trkpt lat="45.061026" lon="6.407657"><ele>2491.4</ele><time>2026-08-04T10:45:45Z</time></trkpt>
    <trkpt lat="45.060937" lon="6.409590"><ele>2499.6</ele><time>2026-08-04T10:46:39Z</time></trkpt>
    <trkpt lat="45.060840" lon="6.410159"><ele>2501.2</ele><time>2026-08-04T10:46:56Z</time></trkpt>
    <trkpt lat="45.060288" lon="6.411325"><ele>2509.8</ele><time>2026-08-04T10:47:37Z</time></trkpt>
    <trkpt lat="45.060325" lon="6.411588"><ele>2512.2</ele><time>2026-08-04T10:47:45Z</time></trkpt>
    <trkpt lat="45.060490" lon="6.411673"><ele>2512.6</ele><time>2026-08-04T10:47:52Z</time></trkpt>
    <trkpt lat="45.060800" lon="6.410821"><ele>2515.2</ele><time>2026-08-04T10:48:15Z</time></trkpt>
    <trkpt lat="45.061115" lon="6.410273"><ele>2516.8</ele><time>2026-08-04T10:48:29Z</time></trkpt>
    <trkpt lat="45.061477" lon="6.409657"><ele>2522.6</ele><time>2026-08-04T10:48:49Z</time></trkpt>
    <trkpt lat="45.061570" lon="6.408627"><ele>2529.0</ele><time>2026-08-04T10:49:13Z</time></trkpt>
    <trkpt lat="45.061858" lon="6.408286"><ele>2532.4</ele><time>2026-08-04T10:49:26Z</time></trkpt>
    <trkpt lat="45.062345" lon="6.407986"><ele>2533.4</ele><time>2026-08-04T10:49:44Z</time></trkpt>
    <trkpt lat="45.062504" lon="6.407679"><ele>2534.0</ele><time>2026-08-04T10:49:53Z</time></trkpt>
    <trkpt lat="45.062459" lon="6.407261"><ele>2535.0</ele><time>2026-08-04T10:50:02Z</time></trkpt>
    <trkpt lat="45.061552" lon="6.406403"><ele>2544.4</ele><time>2026-08-04T10:50:43Z</time></trkpt>
    <trkpt lat="45.061592" lon="6.405840"><ele>2546.6</ele><time>2026-08-04T10:51:00Z</time></trkpt>
    <trkpt lat="45.061901" lon="6.405904"><ele>2547.8</ele><time>2026-08-04T10:51:14Z</time></trkpt>
    <trkpt lat="45.062871" lon="6.407193"><ele>2555.4</ele><time>2026-08-04T10:52:10Z</time></trkpt>
    <trkpt lat="45.062931" lon="6.407405"><ele>2557.4</ele><time>2026-08-04T10:52:19Z</time></trkpt>
    <trkpt lat="45.062910" lon="6.408467"><ele>2566.0</ele><time>2026-08-04T10:53:01Z</time></trkpt>
    <trkpt lat="45.062227" lon="6.409879"><ele>2578.6</ele><time>2026-08-04T10:54:03Z</time></trkpt>
    <trkpt lat="45.062235" lon="6.411633"><ele>2590.6</ele><time>2026-08-04T10:55:08Z</time></trkpt>
    <trkpt lat="45.062362" lon="6.411568"><ele>2592.2</ele><time>2026-08-04T10:55:14Z</time></trkpt>
    <trkpt lat="45.062532" lon="6.410959"><ele>2595.6</ele><time>2026-08-04T10:55:34Z</time></trkpt>
    <trkpt lat="45.062493" lon="6.411597"><ele>2599.2</ele><time>2026-08-04T10:55:56Z</time></trkpt>
    <trkpt lat="45.062560" lon="6.411716"><ele>2601.6</ele><time>2026-08-04T10:56:00Z</time></trkpt>
    <trkpt lat="45.062684" lon="6.411587"><ele>2603.6</ele><time>2026-08-04T10:56:07Z</time></trkpt>
    <trkpt lat="45.062911" lon="6.410520"><ele>2612.8</ele><time>2026-08-04T10:56:49Z</time></trkpt>
    <trkpt lat="45.063836" lon="6.408674"><ele>2631.0</ele><time>2026-08-04T10:58:26Z</time></trkpt>
    <trkpt lat="45.064026" lon="6.407775"><ele>2641.2</ele><time>2026-08-04T10:59:07Z</time></trkpt>
    <trkpt lat="45.064028" lon="6.407774"><ele>2641.2</ele><time>2026-08-04T10:59:08Z</time></trkpt>
    <trkpt lat="45.063740" lon="6.408877"><ele>2627.0</ele><time>2026-08-04T11:23:05Z</time></trkpt>
    <trkpt lat="45.062925" lon="6.410407"><ele>2612.2</ele><time>2026-08-04T11:23:25Z</time></trkpt>
    <trkpt lat="45.062678" lon="6.411549"><ele>2601.0</ele><time>2026-08-04T11:23:37Z</time></trkpt>
    <trkpt lat="45.062655" lon="6.411615"><ele>2600.4</ele><time>2026-08-04T11:23:38Z</time></trkpt>
    <trkpt lat="45.062524" lon="6.411594"><ele>2599.2</ele><time>2026-08-04T11:23:42Z</time></trkpt>
    <trkpt lat="45.062628" lon="6.411133"><ele>2597.2</ele><time>2026-08-04T11:23:47Z</time></trkpt>
    <trkpt lat="45.062551" lon="6.410933"><ele>2595.6</ele><time>2026-08-04T11:23:50Z</time></trkpt>
    <trkpt lat="45.062251" lon="6.411578"><ele>2589.6</ele><time>2026-08-04T11:24:01Z</time></trkpt>
    <trkpt lat="45.062237" lon="6.409931"><ele>2581.4</ele><time>2026-08-04T11:24:18Z</time></trkpt>
    <trkpt lat="45.062295" lon="6.409682"><ele>2580.2</ele><time>2026-08-04T11:24:20Z</time></trkpt>
    <trkpt lat="45.062511" lon="6.409137"><ele>2576.0</ele><time>2026-08-04T11:24:24Z</time></trkpt>
    <trkpt lat="45.062913" lon="6.408522"><ele>2569.4</ele><time>2026-08-04T11:24:30Z</time></trkpt>
    <trkpt lat="45.062948" lon="6.407414"><ele>2561.2</ele><time>2026-08-04T11:24:40Z</time></trkpt>
    <trkpt lat="45.062903" lon="6.407261"><ele>2559.4</ele><time>2026-08-04T11:24:43Z</time></trkpt>
    <trkpt lat="45.062664" lon="6.406814"><ele>2556.0</ele><time>2026-08-04T11:24:52Z</time></trkpt>
    <trkpt lat="45.062253" lon="6.406490"><ele>2553.0</ele><time>2026-08-04T11:24:59Z</time></trkpt>
    <trkpt lat="45.061942" lon="6.405886"><ele>2551.0</ele><time>2026-08-04T11:25:05Z</time></trkpt>
    <trkpt lat="45.061786" lon="6.405759"><ele>2550.0</ele><time>2026-08-04T11:25:07Z</time></trkpt>
    <trkpt lat="45.061525" lon="6.405860"><ele>2548.4</ele><time>2026-08-04T11:25:10Z</time></trkpt>
    <trkpt lat="45.061450" lon="6.406073"><ele>2547.6</ele><time>2026-08-04T11:25:12Z</time></trkpt>
    <trkpt lat="45.061553" lon="6.406437"><ele>2547.2</ele><time>2026-08-04T11:25:15Z</time></trkpt>
    <trkpt lat="45.062391" lon="6.407204"><ele>2539.4</ele><time>2026-08-04T11:25:26Z</time></trkpt>
    <trkpt lat="45.062487" lon="6.407629"><ele>2537.4</ele><time>2026-08-04T11:25:30Z</time></trkpt>
    <trkpt lat="45.062345" lon="6.407928"><ele>2535.4</ele><time>2026-08-04T11:25:33Z</time></trkpt>
    <trkpt lat="45.061603" lon="6.408510"><ele>2531.6</ele><time>2026-08-04T11:25:44Z</time></trkpt>
    <trkpt lat="45.061460" lon="6.409621"><ele>2526.8</ele><time>2026-08-04T11:25:54Z</time></trkpt>
    <trkpt lat="45.060783" lon="6.410780"><ele>2518.2</ele><time>2026-08-04T11:26:06Z</time></trkpt>
    <trkpt lat="45.060587" lon="6.411552"><ele>2516.6</ele><time>2026-08-04T11:26:14Z</time></trkpt>
    <trkpt lat="45.060436" lon="6.411625"><ele>2516.4</ele><time>2026-08-04T11:26:17Z</time></trkpt>
    <trkpt lat="45.060332" lon="6.411319"><ele>2515.8</ele><time>2026-08-04T11:26:22Z</time></trkpt>
    <trkpt lat="45.060450" lon="6.411045"><ele>2515.0</ele><time>2026-08-04T11:26:25Z</time></trkpt>
    <trkpt lat="45.060884" lon="6.410120"><ele>2509.8</ele><time>2026-08-04T11:26:33Z</time></trkpt>
    <trkpt lat="45.060963" lon="6.409555"><ele>2507.0</ele><time>2026-08-04T11:26:37Z</time></trkpt>
    <trkpt lat="45.061041" lon="6.407678"><ele>2500.2</ele><time>2026-08-04T11:26:50Z</time></trkpt>
    <trkpt lat="45.060706" lon="6.407104"><ele>2496.2</ele><time>2026-08-04T11:26:56Z</time></trkpt>
    <trkpt lat="45.060037" lon="6.406860"><ele>2491.8</ele><time>2026-08-04T11:27:03Z</time></trkpt>
    <trkpt lat="45.059353" lon="6.406996"><ele>2487.0</ele><time>2026-08-04T11:27:10Z</time></trkpt>
    <trkpt lat="45.057343" lon="6.407843"><ele>2472.8</ele><time>2026-08-04T11:27:33Z</time></trkpt>
    <trkpt lat="45.056754" lon="6.408563"><ele>2468.4</ele><time>2026-08-04T11:27:44Z</time></trkpt>
    <trkpt lat="45.055735" lon="6.408533"><ele>2460.4</ele><time>2026-08-04T11:27:59Z</time></trkpt>
    <trkpt lat="45.055495" lon="6.408274"><ele>2458.8</ele><time>2026-08-04T11:28:03Z</time></trkpt>
    <trkpt lat="45.054990" lon="6.406765"><ele>2451.4</ele><time>2026-08-04T11:28:15Z</time></trkpt>
    <trkpt lat="45.053864" lon="6.404307"><ele>2440.0</ele><time>2026-08-04T11:28:36Z</time></trkpt>
    <trkpt lat="45.053916" lon="6.402783"><ele>2432.6</ele><time>2026-08-04T11:28:47Z</time></trkpt>
    <trkpt lat="45.053694" lon="6.402532"><ele>2431.0</ele><time>2026-08-04T11:28:50Z</time></trkpt>
    <trkpt lat="45.053598" lon="6.402521"><ele>2430.4</ele><time>2026-08-04T11:28:51Z</time></trkpt>
    <trkpt lat="45.053300" lon="6.402576"><ele>2426.6</ele><time>2026-08-04T11:28:55Z</time></trkpt>
    <trkpt lat="45.053122" lon="6.402274"><ele>2424.0</ele><time>2026-08-04T11:28:59Z</time></trkpt>
    <trkpt lat="45.052886" lon="6.400569"><ele>2415.6</ele><time>2026-08-04T11:29:12Z</time></trkpt>
    <trkpt lat="45.053262" lon="6.398726"><ele>2404.0</ele><time>2026-08-04T11:29:24Z</time></trkpt>
    <trkpt lat="45.053342" lon="6.396125"><ele>2390.6</ele><time>2026-08-04T11:29:37Z</time></trkpt>
    <trkpt lat="45.053168" lon="6.395180"><ele>2385.6</ele><time>2026-08-04T11:29:42Z</time></trkpt>
    <trkpt lat="45.053008" lon="6.394521"><ele>2382.8</ele><time>2026-08-04T11:29:46Z</time></trkpt>
    <trkpt lat="45.052487" lon="6.394002"><ele>2379.4</ele><time>2026-08-04T11:29:52Z</time></trkpt>
    <trkpt lat="45.052262" lon="6.393119"><ele>2376.2</ele><time>2026-08-04T11:29:59Z</time></trkpt>
    <trkpt lat="45.051686" lon="6.392471"><ele>2371.6</ele><time>2026-08-04T11:30:07Z</time></trkpt>
    <trkpt lat="45.051963" lon="6.391001"><ele>2365.8</ele><time>2026-08-04T11:30:18Z</time></trkpt>
    <trkpt lat="45.052440" lon="6.390082"><ele>2360.0</ele><time>2026-08-04T11:30:26Z</time></trkpt>
    <trkpt lat="45.052319" lon="6.389705"><ele>2358.0</ele><time>2026-08-04T11:30:29Z</time></trkpt>
    <trkpt lat="45.052051" lon="6.389506"><ele>2357.0</ele><time>2026-08-04T11:30:32Z</time></trkpt>
    <trkpt lat="45.051952" lon="6.389508"><ele>2356.8</ele><time>2026-08-04T11:30:33Z</time></trkpt>
    <trkpt lat="45.051781" lon="6.389619"><ele>2355.2</ele><time>2026-08-04T11:30:35Z</time></trkpt>
    <trkpt lat="45.051056" lon="6.390954"><ele>2344.4</ele><time>2026-08-04T11:30:47Z</time></trkpt>
    <trkpt lat="45.050219" lon="6.391942"><ele>2336.0</ele><time>2026-08-04T11:30:58Z</time></trkpt>
    <trkpt lat="45.050063" lon="6.392441"><ele>2333.2</ele><time>2026-08-04T11:31:02Z</time></trkpt>
    <trkpt lat="45.050042" lon="6.393425"><ele>2327.0</ele><time>2026-08-04T11:31:10Z</time></trkpt>
    <trkpt lat="45.049266" lon="6.393941"><ele>2319.4</ele><time>2026-08-04T11:31:19Z</time></trkpt>
    <trkpt lat="45.048869" lon="6.394489"><ele>2314.8</ele><time>2026-08-04T11:31:24Z</time></trkpt>
    <trkpt lat="45.048486" lon="6.396272"><ele>2304.4</ele><time>2026-08-04T11:31:37Z</time></trkpt>
    <trkpt lat="45.046774" lon="6.398841"><ele>2284.2</ele><time>2026-08-04T11:32:00Z</time></trkpt>
    <trkpt lat="45.045070" lon="6.400715"><ele>2267.2</ele><time>2026-08-04T11:32:21Z</time></trkpt>
    <trkpt lat="45.044286" lon="6.401034"><ele>2261.4</ele><time>2026-08-04T11:32:29Z</time></trkpt>
    <trkpt lat="45.043881" lon="6.401750"><ele>2256.6</ele><time>2026-08-04T11:32:36Z</time></trkpt>
    <trkpt lat="45.043650" lon="6.401873"><ele>2255.0</ele><time>2026-08-04T11:32:39Z</time></trkpt>
    <trkpt lat="45.043442" lon="6.401748"><ele>2253.0</ele><time>2026-08-04T11:32:42Z</time></trkpt>
    <trkpt lat="45.042891" lon="6.400540"><ele>2245.0</ele><time>2026-08-04T11:32:52Z</time></trkpt>
    <trkpt lat="45.041985" lon="6.399198"><ele>2234.8</ele><time>2026-08-04T11:33:04Z</time></trkpt>
    <trkpt lat="45.040006" lon="6.397629"><ele>2217.6</ele><time>2026-08-04T11:33:25Z</time></trkpt>
    <trkpt lat="45.039380" lon="6.396740"><ele>2210.8</ele><time>2026-08-04T11:33:33Z</time></trkpt>
    <trkpt lat="45.038484" lon="6.395224"><ele>2200.0</ele><time>2026-08-04T11:33:45Z</time></trkpt>
    <trkpt lat="45.038294" lon="6.393931"><ele>2192.4</ele><time>2026-08-04T11:33:54Z</time></trkpt>
    <trkpt lat="45.038284" lon="6.393792"><ele>2191.8</ele><time>2026-08-04T11:33:55Z</time></trkpt>
    <trkpt lat="45.038335" lon="6.392984"><ele>2187.8</ele><time>2026-08-04T11:34:02Z</time></trkpt>
    <trkpt lat="45.038083" lon="6.392857"><ele>2186.2</ele><time>2026-08-04T11:34:08Z</time></trkpt>
    <trkpt lat="45.038022" lon="6.394265"><ele>2178.4</ele><time>2026-08-04T11:34:22Z</time></trkpt>
    <trkpt lat="45.037976" lon="6.394636"><ele>2176.2</ele><time>2026-08-04T11:34:25Z</time></trkpt>
    <trkpt lat="45.037346" lon="6.396512"><ele>2163.6</ele><time>2026-08-04T11:34:41Z</time></trkpt>
    <trkpt lat="45.037309" lon="6.397956"><ele>2154.8</ele><time>2026-08-04T11:34:53Z</time></trkpt>
    <trkpt lat="45.037573" lon="6.398333"><ele>2151.6</ele><time>2026-08-04T11:34:58Z</time></trkpt>
    <trkpt lat="45.038452" lon="6.398567"><ele>2144.6</ele><time>2026-08-04T11:35:08Z</time></trkpt>
    <trkpt lat="45.040353" lon="6.400992"><ele>2123.0</ele><time>2026-08-04T11:35:34Z</time></trkpt>
    <trkpt lat="45.040809" lon="6.401276"><ele>2119.4</ele><time>2026-08-04T11:35:40Z</time></trkpt>
    <trkpt lat="45.040798" lon="6.401633"><ele>2117.8</ele><time>2026-08-04T11:35:44Z</time></trkpt>
    <trkpt lat="45.039354" lon="6.400742"><ele>2107.6</ele><time>2026-08-04T11:36:03Z</time></trkpt>
    <trkpt lat="45.038829" lon="6.400757"><ele>2103.4</ele><time>2026-08-04T11:36:08Z</time></trkpt>
    <trkpt lat="45.038487" lon="6.401372"><ele>2098.4</ele><time>2026-08-04T11:36:13Z</time></trkpt>
    <trkpt lat="45.038203" lon="6.402527"><ele>2090.4</ele><time>2026-08-04T11:36:22Z</time></trkpt>
    <trkpt lat="45.038118" lon="6.402787"><ele>2089.0</ele><time>2026-08-04T11:36:25Z</time></trkpt>
    <trkpt lat="45.037369" lon="6.402854"><ele>2083.4</ele><time>2026-08-04T11:36:34Z</time></trkpt>
    <trkpt lat="45.036686" lon="6.404130"><ele>2078.0</ele><time>2026-08-04T11:36:46Z</time></trkpt>
    <trkpt lat="45.035946" lon="6.404678"><ele>2075.0</ele><time>2026-08-04T11:36:55Z</time></trkpt>
    <trkpt lat="45.035666" lon="6.404877"><ele>2074.2</ele><time>2026-08-04T11:36:59Z</time></trkpt>
    <trkpt lat="45.035523" lon="6.405141"><ele>2073.6</ele><time>2026-08-04T11:37:03Z</time></trkpt>
    <trkpt lat="45.035147" lon="6.405080"><ele>2073.6</ele><time>2026-08-04T11:37:13Z</time></trkpt>
    <trkpt lat="45.035118" lon="6.405511"><ele>2071.6</ele><time>2026-08-04T11:38:46Z</time></trkpt>
    <trkpt lat="45.035136" lon="6.405033"><ele>2066.2</ele><time>2026-08-04T11:47:32Z</time></trkpt>
    <trkpt lat="45.034355" lon="6.405185"><ele>2063.0</ele><time>2026-08-04T11:48:36Z</time></trkpt>
    <trkpt lat="45.033742" lon="6.405263"><ele>2059.0</ele><time>2026-08-04T11:48:45Z</time></trkpt>
    <trkpt lat="45.033449" lon="6.404936"><ele>2056.4</ele><time>2026-08-04T11:48:49Z</time></trkpt>
    <trkpt lat="45.033349" lon="6.404513"><ele>2054.0</ele><time>2026-08-04T11:48:52Z</time></trkpt>
    <trkpt lat="45.033801" lon="6.401823"><ele>2039.8</ele><time>2026-08-04T11:49:07Z</time></trkpt>
    <trkpt lat="45.033852" lon="6.400617"><ele>2034.4</ele><time>2026-08-04T11:49:13Z</time></trkpt>
    <trkpt lat="45.033666" lon="6.399303"><ele>2030.6</ele><time>2026-08-04T11:49:20Z</time></trkpt>
    <trkpt lat="45.033472" lon="6.398625"><ele>2028.0</ele><time>2026-08-04T11:49:24Z</time></trkpt>
    <trkpt lat="45.033065" lon="6.397036"><ele>2026.0</ele><time>2026-08-04T11:49:34Z</time></trkpt>
    <trkpt lat="45.032867" lon="6.395095"><ele>2025.2</ele><time>2026-08-04T11:49:47Z</time></trkpt>
    <trkpt lat="45.032991" lon="6.393042"><ele>2025.4</ele><time>2026-08-04T11:50:02Z</time></trkpt>
    <trkpt lat="45.032582" lon="6.391070"><ele>2022.0</ele><time>2026-08-04T11:50:16Z</time></trkpt>
    <trkpt lat="45.032555" lon="6.390533"><ele>2019.6</ele><time>2026-08-04T11:50:19Z</time></trkpt>
    <trkpt lat="45.032836" lon="6.388184"><ele>2009.2</ele><time>2026-08-04T11:50:31Z</time></trkpt>
    <trkpt lat="45.033463" lon="6.385334"><ele>1994.6</ele><time>2026-08-04T11:50:46Z</time></trkpt>
    <trkpt lat="45.033336" lon="6.384539"><ele>1991.0</ele><time>2026-08-04T11:50:50Z</time></trkpt>
    <trkpt lat="45.033170" lon="6.384014"><ele>1989.0</ele><time>2026-08-04T11:50:53Z</time></trkpt>
    <trkpt lat="45.032309" lon="6.383384"><ele>1985.0</ele><time>2026-08-04T11:51:01Z</time></trkpt>
    <trkpt lat="45.032076" lon="6.382971"><ele>1983.4</ele><time>2026-08-04T11:51:04Z</time></trkpt>
    <trkpt lat="45.032020" lon="6.382463"><ele>1981.4</ele><time>2026-08-04T11:51:07Z</time></trkpt>
    <trkpt lat="45.032190" lon="6.380998"><ele>1975.4</ele><time>2026-08-04T11:51:15Z</time></trkpt>
    <trkpt lat="45.032219" lon="6.380805"><ele>1974.2</ele><time>2026-08-04T11:51:16Z</time></trkpt>
    <trkpt lat="45.033630" lon="6.376275"><ele>1947.8</ele><time>2026-08-04T11:51:40Z</time></trkpt>
    <trkpt lat="45.034475" lon="6.374592"><ele>1936.6</ele><time>2026-08-04T11:51:50Z</time></trkpt>
    <trkpt lat="45.034561" lon="6.373084"><ele>1929.4</ele><time>2026-08-04T11:51:58Z</time></trkpt>
    <trkpt lat="45.034741" lon="6.372364"><ele>1925.8</ele><time>2026-08-04T11:52:02Z</time></trkpt>
    <trkpt lat="45.035542" lon="6.371317"><ele>1916.4</ele><time>2026-08-04T11:52:10Z</time></trkpt>
    <trkpt lat="45.036232" lon="6.370456"><ele>1911.4</ele><time>2026-08-04T11:52:17Z</time></trkpt>
    <trkpt lat="45.037248" lon="6.368292"><ele>1899.4</ele><time>2026-08-04T11:52:31Z</time></trkpt>
    <trkpt lat="45.037708" lon="6.366977"><ele>1893.0</ele><time>2026-08-04T11:52:39Z</time></trkpt>
    <trkpt lat="45.038456" lon="6.365808"><ele>1885.2</ele><time>2026-08-04T11:52:48Z</time></trkpt>
    <trkpt lat="45.038505" lon="6.365694"><ele>1884.6</ele><time>2026-08-04T11:52:49Z</time></trkpt>
    <trkpt lat="45.038503" lon="6.365367"><ele>1882.8</ele><time>2026-08-04T11:52:52Z</time></trkpt>
    <trkpt lat="45.038228" lon="6.365282"><ele>1881.8</ele><time>2026-08-04T11:52:56Z</time></trkpt>
    <trkpt lat="45.037832" lon="6.366102"><ele>1876.4</ele><time>2026-08-04T11:53:06Z</time></trkpt>
    <trkpt lat="45.036452" lon="6.367844"><ele>1869.4</ele><time>2026-08-04T11:53:28Z</time></trkpt>
    <trkpt lat="45.035947" lon="6.368269"><ele>1867.8</ele><time>2026-08-04T11:53:36Z</time></trkpt>
    <trkpt lat="45.035876" lon="6.367873"><ele>1866.0</ele><time>2026-08-04T11:53:41Z</time></trkpt>
    <trkpt lat="45.035929" lon="6.367787"><ele>1865.6</ele><time>2026-08-04T11:53:42Z</time></trkpt>
    <trkpt lat="45.036450" lon="6.367198"><ele>1860.0</ele><time>2026-08-04T11:53:49Z</time></trkpt>
    <trkpt lat="45.037445" lon="6.364428"><ele>1846.8</ele><time>2026-08-04T11:54:08Z</time></trkpt>
    <trkpt lat="45.038918" lon="6.363373"><ele>1834.6</ele><time>2026-08-04T11:54:22Z</time></trkpt>
    <trkpt lat="45.038931" lon="6.362848"><ele>1833.2</ele><time>2026-08-04T11:54:26Z</time></trkpt>
    <trkpt lat="45.038622" lon="6.362117"><ele>1830.4</ele><time>2026-08-04T11:54:32Z</time></trkpt>
    <trkpt lat="45.038655" lon="6.361149"><ele>1826.2</ele><time>2026-08-04T11:54:38Z</time></trkpt>
    <trkpt lat="45.038699" lon="6.361004"><ele>1825.6</ele><time>2026-08-04T11:54:39Z</time></trkpt>
    <trkpt lat="45.038921" lon="6.360613"><ele>1823.2</ele><time>2026-08-04T11:54:42Z</time></trkpt>
    <trkpt lat="45.039687" lon="6.359809"><ele>1815.8</ele><time>2026-08-04T11:54:50Z</time></trkpt>
    <trkpt lat="45.040092" lon="6.358073"><ele>1805.4</ele><time>2026-08-04T11:55:00Z</time></trkpt>
    <trkpt lat="45.040701" lon="6.357361"><ele>1799.0</ele><time>2026-08-04T11:55:06Z</time></trkpt>
    <trkpt lat="45.040801" lon="6.357253"><ele>1798.4</ele><time>2026-08-04T11:55:07Z</time></trkpt>
    <trkpt lat="45.041188" lon="6.356519"><ele>1797.2</ele><time>2026-08-04T11:55:13Z</time></trkpt>
    <trkpt lat="45.041465" lon="6.356323"><ele>1795.8</ele><time>2026-08-04T11:55:16Z</time></trkpt>
    <trkpt lat="45.042014" lon="6.356044"><ele>1791.2</ele><time>2026-08-04T11:55:21Z</time></trkpt>
    <trkpt lat="45.042461" lon="6.355350"><ele>1786.2</ele><time>2026-08-04T11:55:27Z</time></trkpt>
    <trkpt lat="45.042397" lon="6.354915"><ele>1784.0</ele><time>2026-08-04T11:55:30Z</time></trkpt>
    <trkpt lat="45.041589" lon="6.353720"><ele>1775.0</ele><time>2026-08-04T11:55:40Z</time></trkpt>
    <trkpt lat="45.041123" lon="6.351564"><ele>1765.0</ele><time>2026-08-04T11:55:53Z</time></trkpt>
    <trkpt lat="45.041288" lon="6.350346"><ele>1759.2</ele><time>2026-08-04T11:56:00Z</time></trkpt>
    <trkpt lat="45.041175" lon="6.348385"><ele>1749.8</ele><time>2026-08-04T11:56:12Z</time></trkpt>
    <trkpt lat="45.041223" lon="6.348084"><ele>1748.6</ele><time>2026-08-04T11:56:14Z</time></trkpt>
    <trkpt lat="45.041540" lon="6.346998"><ele>1741.2</ele><time>2026-08-04T11:56:21Z</time></trkpt>
    <trkpt lat="45.041074" lon="6.345361"><ele>1733.6</ele><time>2026-08-04T11:56:31Z</time></trkpt>
    <trkpt lat="45.041466" lon="6.343279"><ele>1721.0</ele><time>2026-08-04T11:56:41Z</time></trkpt>
    <trkpt lat="45.041300" lon="6.341465"><ele>1711.8</ele><time>2026-08-04T11:56:50Z</time></trkpt>
    <trkpt lat="45.041800" lon="6.340246"><ele>1703.8</ele><time>2026-08-04T11:56:59Z</time></trkpt>
    <trkpt lat="45.042424" lon="6.339648"><ele>1697.8</ele><time>2026-08-04T11:57:06Z</time></trkpt>
    <trkpt lat="45.042745" lon="6.338812"><ele>1692.4</ele><time>2026-08-04T11:57:12Z</time></trkpt>
    <trkpt lat="45.043939" lon="6.337533"><ele>1680.0</ele><time>2026-08-04T11:57:24Z</time></trkpt>
    <trkpt lat="45.044016" lon="6.337377"><ele>1679.2</ele><time>2026-08-04T11:57:25Z</time></trkpt>
    <trkpt lat="45.044254" lon="6.336680"><ele>1676.8</ele><time>2026-08-04T11:57:29Z</time></trkpt>
    <trkpt lat="45.044299" lon="6.335740"><ele>1672.4</ele><time>2026-08-04T11:57:40Z</time></trkpt>
    <trkpt lat="45.044293" lon="6.335692"><ele>1665.8</ele><time>2026-08-04T12:00:49Z</time></trkpt>
    <trkpt lat="45.044298" lon="6.335386"><ele>1664.8</ele><time>2026-08-04T12:00:54Z</time></trkpt>
    <trkpt lat="45.044457" lon="6.334694"><ele>1660.6</ele><time>2026-08-04T12:01:01Z</time></trkpt>
    <trkpt lat="45.045100" lon="6.333894"><ele>1652.8</ele><time>2026-08-04T12:01:09Z</time></trkpt>
    <trkpt lat="45.045895" lon="6.333633"><ele>1647.8</ele><time>2026-08-04T12:01:18Z</time></trkpt>
    <trkpt lat="45.045761" lon="6.333338"><ele>1646.4</ele><time>2026-08-04T12:01:22Z</time></trkpt>
    <trkpt lat="45.044113" lon="6.333366"><ele>1637.0</ele><time>2026-08-04T12:01:39Z</time></trkpt>
    <trkpt lat="45.043324" lon="6.332432"><ele>1632.6</ele><time>2026-08-04T12:01:49Z</time></trkpt>
    <trkpt lat="45.043252" lon="6.332072"><ele>1631.2</ele><time>2026-08-04T12:01:52Z</time></trkpt>
    <trkpt lat="45.043503" lon="6.331430"><ele>1626.6</ele><time>2026-08-04T12:01:57Z</time></trkpt>
    <trkpt lat="45.043765" lon="6.331254"><ele>1624.0</ele><time>2026-08-04T12:02:00Z</time></trkpt>
    <trkpt lat="45.045060" lon="6.331956"><ele>1615.6</ele><time>2026-08-04T12:02:13Z</time></trkpt>
    <trkpt lat="45.045745" lon="6.331851"><ele>1611.0</ele><time>2026-08-04T12:02:19Z</time></trkpt>
    <trkpt lat="45.046114" lon="6.331474"><ele>1608.2</ele><time>2026-08-04T12:02:23Z</time></trkpt>
    <trkpt lat="45.046260" lon="6.328935"><ele>1599.6</ele><time>2026-08-04T12:02:39Z</time></trkpt>
    <trkpt lat="45.045980" lon="6.328759"><ele>1597.4</ele><time>2026-08-04T12:02:43Z</time></trkpt>
    <trkpt lat="45.045679" lon="6.329362"><ele>1594.0</ele><time>2026-08-04T12:02:50Z</time></trkpt>
    <trkpt lat="45.045562" lon="6.329047"><ele>1591.6</ele><time>2026-08-04T12:02:54Z</time></trkpt>
    <trkpt lat="45.046368" lon="6.327419"><ele>1583.4</ele><time>2026-08-04T12:03:09Z</time></trkpt>
    <trkpt lat="45.046368" lon="6.327419"><ele>1582.8</ele><time>2026-08-04T12:03:10Z</time></trkpt>
    <trkpt lat="45.048037" lon="6.321965"><ele>1564.0</ele><time>2026-08-04T12:03:46Z</time></trkpt>
    <trkpt lat="45.048162" lon="6.321893"><ele>1563.6</ele><time>2026-08-04T12:03:47Z</time></trkpt>
    <trkpt lat="45.048363" lon="6.319296"><ele>1550.4</ele><time>2026-08-04T12:04:03Z</time></trkpt>
    <trkpt lat="45.048169" lon="6.318203"><ele>1546.4</ele><time>2026-08-04T12:04:10Z</time></trkpt>
    <trkpt lat="45.047776" lon="6.317699"><ele>1543.0</ele><time>2026-08-04T12:04:15Z</time></trkpt>
    <trkpt lat="45.047736" lon="6.317258"><ele>1540.6</ele><time>2026-08-04T12:04:18Z</time></trkpt>
    <trkpt lat="45.048184" lon="6.316412"><ele>1535.4</ele><time>2026-08-04T12:04:25Z</time></trkpt>
    <trkpt lat="45.048848" lon="6.315840"><ele>1530.2</ele><time>2026-08-04T12:04:32Z</time></trkpt>
    <trkpt lat="45.049002" lon="6.315653"><ele>1529.0</ele><time>2026-08-04T12:04:34Z</time></trkpt>
    <trkpt lat="45.049103" lon="6.315291"><ele>1527.2</ele><time>2026-08-04T12:04:37Z</time></trkpt>
    <trkpt lat="45.048103" lon="6.313561"><ele>1522.2</ele><time>2026-08-04T12:05:06Z</time></trkpt>
    <trkpt lat="45.046499" lon="6.311517"><ele>1513.4</ele><time>2026-08-04T12:06:34Z</time></trkpt>
    <trkpt lat="45.046617" lon="6.311279"><ele>1512.4</ele><time>2026-08-04T12:06:41Z</time></trkpt>
    <trkpt lat="45.046706" lon="6.310915"><ele>1510.8</ele><time>2026-08-04T12:06:45Z</time></trkpt>
    <trkpt lat="45.046769" lon="6.310019"><ele>1507.6</ele><time>2026-08-04T12:06:52Z</time></trkpt>
    <trkpt lat="45.046490" lon="6.308140"><ele>1500.4</ele><time>2026-08-04T12:07:12Z</time></trkpt>
    <trkpt lat="45.046458" lon="6.308111"><ele>1494.8</ele><time>2026-08-04T12:13:51Z</time></trkpt>
    <trkpt lat="45.046410" lon="6.307832"><ele>1494.2</ele><time>2026-08-04T12:13:58Z</time></trkpt>
    <trkpt lat="45.046249" lon="6.307422"><ele>1493.4</ele><time>2026-08-04T12:14:06Z</time></trkpt>
    <trkpt lat="45.045144" lon="6.306492"><ele>1494.4</ele><time>2026-08-04T12:14:43Z</time></trkpt>
    <trkpt lat="45.045060" lon="6.306308"><ele>1494.6</ele><time>2026-08-04T12:14:54Z</time></trkpt>
    <trkpt lat="45.045046" lon="6.306248"><ele>1489.0</ele><time>2026-08-04T13:14:51Z</time></trkpt>
    <trkpt lat="45.045041" lon="6.306219"><ele>1489.0</ele><time>2026-08-04T13:14:52Z</time></trkpt>
    <trkpt lat="45.045086" lon="6.304567"><ele>1484.2</ele><time>2026-08-04T13:15:18Z</time></trkpt>
    <trkpt lat="45.045452" lon="6.303587"><ele>1480.4</ele><time>2026-08-04T13:15:29Z</time></trkpt>
    <trkpt lat="45.044603" lon="6.302178"><ele>1478.2</ele><time>2026-08-04T13:15:46Z</time></trkpt>
    <trkpt lat="45.044448" lon="6.301659"><ele>1476.8</ele><time>2026-08-04T13:15:51Z</time></trkpt>
    <trkpt lat="45.044408" lon="6.301077"><ele>1476.0</ele><time>2026-08-04T13:15:56Z</time></trkpt>
    <trkpt lat="45.044649" lon="6.298041"><ele>1463.6</ele><time>2026-08-04T13:16:15Z</time></trkpt>
    <trkpt lat="45.044611" lon="6.296844"><ele>1457.0</ele><time>2026-08-04T13:16:21Z</time></trkpt>
    <trkpt lat="45.043897" lon="6.294036"><ele>1442.4</ele><time>2026-08-04T13:16:35Z</time></trkpt>
    <trkpt lat="45.043439" lon="6.292811"><ele>1435.4</ele><time>2026-08-04T13:16:41Z</time></trkpt>
    <trkpt lat="45.043290" lon="6.291207"><ele>1427.2</ele><time>2026-08-04T13:16:48Z</time></trkpt>
    <trkpt lat="45.043557" lon="6.287116"><ele>1408.8</ele><time>2026-08-04T13:17:06Z</time></trkpt>
    <trkpt lat="45.044024" lon="6.285513"><ele>1401.8</ele><time>2026-08-04T13:17:14Z</time></trkpt>
    <trkpt lat="45.044249" lon="6.284344"><ele>1399.0</ele><time>2026-08-04T13:17:20Z</time></trkpt>
    <trkpt lat="45.043630" lon="6.282452"><ele>1397.0</ele><time>2026-08-04T13:17:32Z</time></trkpt>
    <trkpt lat="45.043470" lon="6.281485"><ele>1395.4</ele><time>2026-08-04T13:17:38Z</time></trkpt>
    <trkpt lat="45.043135" lon="6.280003"><ele>1390.6</ele><time>2026-08-04T13:17:47Z</time></trkpt>
    <trkpt lat="45.043077" lon="6.279301"><ele>1388.2</ele><time>2026-08-04T13:17:51Z</time></trkpt>
    <trkpt lat="45.043298" lon="6.277868"><ele>1383.6</ele><time>2026-08-04T13:17:59Z</time></trkpt>
    <trkpt lat="45.042967" lon="6.276861"><ele>1380.2</ele><time>2026-08-04T13:18:05Z</time></trkpt>
    <trkpt lat="45.042858" lon="6.275037"><ele>1374.2</ele><time>2026-08-04T13:18:15Z</time></trkpt>
    <trkpt lat="45.042458" lon="6.273017"><ele>1368.2</ele><time>2026-08-04T13:18:26Z</time></trkpt>
    <trkpt lat="45.042477" lon="6.271152"><ele>1362.2</ele><time>2026-08-04T13:18:36Z</time></trkpt>
    <trkpt lat="45.042652" lon="6.269706"><ele>1357.0</ele><time>2026-08-04T13:18:44Z</time></trkpt>
    <trkpt lat="45.042869" lon="6.267841"><ele>1352.2</ele><time>2026-08-04T13:18:55Z</time></trkpt>
    <trkpt lat="45.042564" lon="6.265877"><ele>1346.8</ele><time>2026-08-04T13:19:07Z</time></trkpt>
    <trkpt lat="45.041899" lon="6.262915"><ele>1341.4</ele><time>2026-08-04T13:19:28Z</time></trkpt>
    <trkpt lat="45.041527" lon="6.261225"><ele>1339.6</ele><time>2026-08-04T13:19:41Z</time></trkpt>
    <trkpt lat="45.041052" lon="6.260314"><ele>1338.6</ele><time>2026-08-04T13:19:50Z</time></trkpt>
    <trkpt lat="45.040115" lon="6.259442"><ele>1336.2</ele><time>2026-08-04T13:20:03Z</time></trkpt>
    <trkpt lat="45.039391" lon="6.256933"><ele>1332.2</ele><time>2026-08-04T13:20:25Z</time></trkpt>
    <trkpt lat="45.039489" lon="6.255329"><ele>1329.8</ele><time>2026-08-04T13:20:38Z</time></trkpt>
    <trkpt lat="45.038901" lon="6.250894"><ele>1324.2</ele><time>2026-08-04T13:21:10Z</time></trkpt>
    <trkpt lat="45.038901" lon="6.250894"><ele>1324.2</ele><time>2026-08-04T13:21:11Z</time></trkpt>
    <trkpt lat="45.038685" lon="6.243770"><ele>1298.4</ele><time>2026-08-04T13:21:52Z</time></trkpt>
    <trkpt lat="45.037876" lon="6.241851"><ele>1288.8</ele><time>2026-08-04T13:22:04Z</time></trkpt>
    <trkpt lat="45.037601" lon="6.239380"><ele>1278.4</ele><time>2026-08-04T13:22:17Z</time></trkpt>
    <trkpt lat="45.037534" lon="6.238657"><ele>1276.6</ele><time>2026-08-04T13:22:21Z</time></trkpt>
    <trkpt lat="45.037791" lon="6.236809"><ele>1272.0</ele><time>2026-08-04T13:22:32Z</time></trkpt>
    <trkpt lat="45.037860" lon="6.234711"><ele>1267.8</ele><time>2026-08-04T13:22:44Z</time></trkpt>
    <trkpt lat="45.037696" lon="6.234020"><ele>1266.0</ele><time>2026-08-04T13:22:48Z</time></trkpt>
    <trkpt lat="45.037166" lon="6.233167"><ele>1262.6</ele><time>2026-08-04T13:22:54Z</time></trkpt>
    <trkpt lat="45.037022" lon="6.232827"><ele>1261.0</ele><time>2026-08-04T13:22:56Z</time></trkpt>
    <trkpt lat="45.036683" lon="6.230943"><ele>1252.2</ele><time>2026-08-04T13:23:05Z</time></trkpt>
    <trkpt lat="45.036674" lon="6.228834"><ele>1242.2</ele><time>2026-08-04T13:23:14Z</time></trkpt>
    <trkpt lat="45.036022" lon="6.225276"><ele>1225.0</ele><time>2026-08-04T13:23:31Z</time></trkpt>
    <trkpt lat="45.036091" lon="6.224694"><ele>1222.2</ele><time>2026-08-04T13:23:34Z</time></trkpt>
    <trkpt lat="45.036173" lon="6.223961"><ele>1219.0</ele><time>2026-08-04T13:23:38Z</time></trkpt>
    <trkpt lat="45.036056" lon="6.223011"><ele>1215.0</ele><time>2026-08-04T13:23:44Z</time></trkpt>
    <trkpt lat="45.036501" lon="6.220852"><ele>1204.4</ele><time>2026-08-04T13:23:57Z</time></trkpt>
    <trkpt lat="45.036044" lon="6.219780"><ele>1199.0</ele><time>2026-08-04T13:24:05Z</time></trkpt>
    <trkpt lat="45.035809" lon="6.218574"><ele>1192.6</ele><time>2026-08-04T13:24:12Z</time></trkpt>
    <trkpt lat="45.035962" lon="6.217273"><ele>1186.2</ele><time>2026-08-04T13:24:19Z</time></trkpt>
    <trkpt lat="45.036224" lon="6.216373"><ele>1181.4</ele><time>2026-08-04T13:24:24Z</time></trkpt>
    <trkpt lat="45.037039" lon="6.215207"><ele>1174.8</ele><time>2026-08-04T13:24:33Z</time></trkpt>
    <trkpt lat="45.038092" lon="6.212364"><ele>1163.0</ele><time>2026-08-04T13:24:49Z</time></trkpt>
    <trkpt lat="45.038363" lon="6.210837"><ele>1159.2</ele><time>2026-08-04T13:24:57Z</time></trkpt>
    <trkpt lat="45.038505" lon="6.209715"><ele>1157.2</ele><time>2026-08-04T13:25:03Z</time></trkpt>
    <trkpt lat="45.037706" lon="6.204211"><ele>1147.8</ele><time>2026-08-04T13:25:38Z</time></trkpt>
    <trkpt lat="45.037776" lon="6.200542"><ele>1141.2</ele><time>2026-08-04T13:26:03Z</time></trkpt>
    <trkpt lat="45.037287" lon="6.195340"><ele>1132.8</ele><time>2026-08-04T13:26:43Z</time></trkpt>
    <trkpt lat="45.037656" lon="6.194229"><ele>1132.2</ele><time>2026-08-04T13:26:53Z</time></trkpt>
    <trkpt lat="45.038063" lon="6.193169"><ele>1128.8</ele><time>2026-08-04T13:27:02Z</time></trkpt>
    <trkpt lat="45.038446" lon="6.190496"><ele>1120.6</ele><time>2026-08-04T13:27:20Z</time></trkpt>
    <trkpt lat="45.038905" lon="6.189558"><ele>1119.2</ele><time>2026-08-04T13:27:28Z</time></trkpt>
    <trkpt lat="45.039291" lon="6.188253"><ele>1117.8</ele><time>2026-08-04T13:27:39Z</time></trkpt>
    <trkpt lat="45.039314" lon="6.187281"><ele>1116.8</ele><time>2026-08-04T13:27:47Z</time></trkpt>
    <trkpt lat="45.039086" lon="6.186494"><ele>1116.6</ele><time>2026-08-04T13:27:54Z</time></trkpt>
    <trkpt lat="45.038907" lon="6.184659"><ele>1114.4</ele><time>2026-08-04T13:28:09Z</time></trkpt>
    <trkpt lat="45.039150" lon="6.183223"><ele>1113.0</ele><time>2026-08-04T13:28:21Z</time></trkpt>
    <trkpt lat="45.039309" lon="6.182264"><ele>1110.0</ele><time>2026-08-04T13:28:28Z</time></trkpt>
    <trkpt lat="45.039184" lon="6.181097"><ele>1105.6</ele><time>2026-08-04T13:28:36Z</time></trkpt>
    <trkpt lat="45.039364" lon="6.179064"><ele>1098.6</ele><time>2026-08-04T13:28:49Z</time></trkpt>
    <trkpt lat="45.039381" lon="6.178890"><ele>1097.8</ele><time>2026-08-04T13:28:50Z</time></trkpt>
    <trkpt lat="45.039207" lon="6.177493"><ele>1090.6</ele><time>2026-08-04T13:28:58Z</time></trkpt>
    <trkpt lat="45.040086" lon="6.175576"><ele>1080.4</ele><time>2026-08-04T13:29:10Z</time></trkpt>
    <trkpt lat="45.040512" lon="6.173914"><ele>1072.2</ele><time>2026-08-04T13:29:19Z</time></trkpt>
    <trkpt lat="45.040573" lon="6.173743"><ele>1072.2</ele><time>2026-08-04T13:29:20Z</time></trkpt>
    <trkpt lat="45.041420" lon="6.172062"><ele>1079.6</ele><time>2026-08-04T13:29:40Z</time></trkpt>
    <trkpt lat="45.041751" lon="6.170522"><ele>1084.2</ele><time>2026-08-04T13:30:14Z</time></trkpt>
    <trkpt lat="45.042029" lon="6.170096"><ele>1085.4</ele><time>2026-08-04T13:30:24Z</time></trkpt>
    <trkpt lat="45.042774" lon="6.169019"><ele>1085.6</ele><time>2026-08-04T13:30:45Z</time></trkpt>
    <trkpt lat="45.042714" lon="6.167277"><ele>1086.0</ele><time>2026-08-04T13:31:05Z</time></trkpt>
    <trkpt lat="45.044232" lon="6.161927"><ele>1083.6</ele><time>2026-08-04T13:32:04Z</time></trkpt>
    <trkpt lat="45.044233" lon="6.161814"><ele>1083.6</ele><time>2026-08-04T13:32:05Z</time></trkpt>
    <trkpt lat="45.043840" lon="6.160984"><ele>1086.6</ele><time>2026-08-04T13:32:17Z</time></trkpt>
    <trkpt lat="45.043744" lon="6.160406"><ele>1089.8</ele><time>2026-08-04T13:32:30Z</time></trkpt>
    <trkpt lat="45.043778" lon="6.159134"><ele>1092.6</ele><time>2026-08-04T13:33:01Z</time></trkpt>
    <trkpt lat="45.043979" lon="6.157949"><ele>1096.4</ele><time>2026-08-04T13:33:28Z</time></trkpt>
    <trkpt lat="45.044100" lon="6.157487"><ele>1096.6</ele><time>2026-08-04T13:33:39Z</time></trkpt>
    <trkpt lat="45.044314" lon="6.156582"><ele>1094.0</ele><time>2026-08-04T13:33:51Z</time></trkpt>
    <trkpt lat="45.044877" lon="6.156497"><ele>1091.6</ele><time>2026-08-04T13:33:59Z</time></trkpt>
    <trkpt lat="45.045205" lon="6.156039"><ele>1089.4</ele><time>2026-08-04T13:34:06Z</time></trkpt>
    <trkpt lat="45.047934" lon="6.143620"><ele>1083.0</ele><time>2026-08-04T13:35:48Z</time></trkpt>
    <trkpt lat="45.047911" lon="6.143031"><ele>1082.4</ele><time>2026-08-04T13:35:53Z</time></trkpt>
    <trkpt lat="45.047884" lon="6.142530"><ele>1080.4</ele><time>2026-08-04T13:35:57Z</time></trkpt>
    <trkpt lat="45.047548" lon="6.141445"><ele>1075.4</ele><time>2026-08-04T13:36:06Z</time></trkpt>
    <trkpt lat="45.047482" lon="6.139798"><ele>1066.6</ele><time>2026-08-04T13:37:04Z</time></trkpt>
    <trkpt lat="45.047125" lon="6.138905"><ele>1061.8</ele><time>2026-08-04T13:37:14Z</time></trkpt>
    <trkpt lat="45.047099" lon="6.138408"><ele>1058.8</ele><time>2026-08-04T13:37:19Z</time></trkpt>
    <trkpt lat="45.047064" lon="6.138219"><ele>1058.4</ele><time>2026-08-04T13:37:21Z</time></trkpt>
    <trkpt lat="45.046855" lon="6.138018"><ele>1058.2</ele><time>2026-08-04T13:37:25Z</time></trkpt>
    <trkpt lat="45.045531" lon="6.137657"><ele>1059.4</ele><time>2026-08-04T13:37:46Z</time></trkpt>
    <trkpt lat="45.045161" lon="6.137144"><ele>1058.6</ele><time>2026-08-04T13:37:54Z</time></trkpt>
    <trkpt lat="45.045042" lon="6.136475"><ele>1058.0</ele><time>2026-08-04T13:38:01Z</time></trkpt>
    <trkpt lat="45.045229" lon="6.135624"><ele>1058.4</ele><time>2026-08-04T13:38:10Z</time></trkpt>
    <trkpt lat="45.045614" lon="6.135217"><ele>1058.2</ele><time>2026-08-04T13:38:16Z</time></trkpt>
    <trkpt lat="45.046322" lon="6.134552"><ele>1054.2</ele><time>2026-08-04T13:38:26Z</time></trkpt>
    <trkpt lat="45.046624" lon="6.134018"><ele>1051.6</ele><time>2026-08-04T13:38:31Z</time></trkpt>
    <trkpt lat="45.047083" lon="6.132898"><ele>1046.0</ele><time>2026-08-04T13:38:40Z</time></trkpt>
    <trkpt lat="45.046977" lon="6.132401"><ele>1043.8</ele><time>2026-08-04T13:38:44Z</time></trkpt>
    <trkpt lat="45.046117" lon="6.131910"><ele>1038.4</ele><time>2026-08-04T13:38:53Z</time></trkpt>
    <trkpt lat="45.045380" lon="6.130593"><ele>1031.4</ele><time>2026-08-04T13:39:03Z</time></trkpt>
    <trkpt lat="45.045275" lon="6.130502"><ele>1030.8</ele><time>2026-08-04T13:39:04Z</time></trkpt>
    <trkpt lat="45.042269" lon="6.127893"><ele>1007.2</ele><time>2026-08-04T13:39:29Z</time></trkpt>
    <trkpt lat="45.041282" lon="6.126816"><ele>998.6</ele><time>2026-08-04T13:39:37Z</time></trkpt>
    <trkpt lat="45.040743" lon="6.126044"><ele>993.8</ele><time>2026-08-04T13:39:42Z</time></trkpt>
    <trkpt lat="45.040554" lon="6.125468"><ele>991.6</ele><time>2026-08-04T13:39:45Z</time></trkpt>
    <trkpt lat="45.040482" lon="6.125096"><ele>990.4</ele><time>2026-08-04T13:39:47Z</time></trkpt>
    <trkpt lat="45.040561" lon="6.124565"><ele>989.2</ele><time>2026-08-04T13:39:51Z</time></trkpt>
    <trkpt lat="45.040884" lon="6.124565"><ele>988.0</ele><time>2026-08-04T13:39:55Z</time></trkpt>
    <trkpt lat="45.041240" lon="6.126260"><ele>981.8</ele><time>2026-08-04T13:40:07Z</time></trkpt>
    <trkpt lat="45.042885" lon="6.127263"><ele>972.6</ele><time>2026-08-04T13:40:23Z</time></trkpt>
    <trkpt lat="45.044050" lon="6.127505"><ele>966.4</ele><time>2026-08-04T13:40:33Z</time></trkpt>
    <trkpt lat="45.045247" lon="6.127431"><ele>959.8</ele><time>2026-08-04T13:40:45Z</time></trkpt>
    <trkpt lat="45.045608" lon="6.127296"><ele>957.8</ele><time>2026-08-04T13:40:50Z</time></trkpt>
    <trkpt lat="45.045732" lon="6.126929"><ele>955.6</ele><time>2026-08-04T13:40:54Z</time></trkpt>
    <trkpt lat="45.045061" lon="6.125259"><ele>945.2</ele><time>2026-08-04T13:41:09Z</time></trkpt>
    <trkpt lat="45.044386" lon="6.124924"><ele>942.2</ele><time>2026-08-04T13:41:16Z</time></trkpt>
    <trkpt lat="45.042691" lon="6.124022"><ele>944.6</ele><time>2026-08-04T13:41:40Z</time></trkpt>
    <trkpt lat="45.042422" lon="6.123168"><ele>945.8</ele><time>2026-08-04T13:41:52Z</time></trkpt>
    <trkpt lat="45.042675" lon="6.121915"><ele>948.2</ele><time>2026-08-04T13:42:11Z</time></trkpt>
    <trkpt lat="45.042540" lon="6.120967"><ele>949.0</ele><time>2026-08-04T13:42:27Z</time></trkpt>
    <trkpt lat="45.042213" lon="6.120498"><ele>949.0</ele><time>2026-08-04T13:42:38Z</time></trkpt>
    <trkpt lat="45.041628" lon="6.120161"><ele>948.6</ele><time>2026-08-04T13:43:18Z</time></trkpt>
    <trkpt lat="45.041266" lon="6.119500"><ele>948.8</ele><time>2026-08-04T13:43:30Z</time></trkpt>
    <trkpt lat="45.040431" lon="6.118566"><ele>949.0</ele><time>2026-08-04T13:43:49Z</time></trkpt>
    <trkpt lat="45.040046" lon="6.117344"><ele>949.2</ele><time>2026-08-04T13:44:05Z</time></trkpt>
    <trkpt lat="45.039868" lon="6.114456"><ele>951.0</ele><time>2026-08-04T13:44:40Z</time></trkpt>
    <trkpt lat="45.039431" lon="6.112736"><ele>951.8</ele><time>2026-08-04T13:45:04Z</time></trkpt>
    <trkpt lat="45.039419" lon="6.112682"><ele>952.0</ele><time>2026-08-04T13:45:05Z</time></trkpt>
    <trkpt lat="45.039448" lon="6.112618"><ele>952.8</ele><time>2026-08-04T13:45:08Z</time></trkpt>
    <trkpt lat="45.039189" lon="6.110351"><ele>961.4</ele><time>2026-08-04T13:45:33Z</time></trkpt>
    <trkpt lat="45.039221" lon="6.110024"><ele>963.0</ele><time>2026-08-04T13:45:38Z</time></trkpt>
    <trkpt lat="45.039181" lon="6.109887"><ele>963.8</ele><time>2026-08-04T13:45:41Z</time></trkpt>
    <trkpt lat="45.039001" lon="6.109463"><ele>964.8</ele><time>2026-08-04T13:45:52Z</time></trkpt>
    <trkpt lat="45.039220" lon="6.108379"><ele>970.2</ele><time>2026-08-04T13:46:24Z</time></trkpt>
    <trkpt lat="45.038774" lon="6.107455"><ele>974.0</ele><time>2026-08-04T13:52:11Z</time></trkpt>
    <trkpt lat="45.038279" lon="6.105606"><ele>981.4</ele><time>2026-08-04T13:52:53Z</time></trkpt>
    <trkpt lat="45.038029" lon="6.103862"><ele>991.0</ele><time>2026-08-04T13:53:28Z</time></trkpt>
    <trkpt lat="45.038294" lon="6.103282"><ele>994.2</ele><time>2026-08-04T13:53:42Z</time></trkpt>
    <trkpt lat="45.038881" lon="6.102585"><ele>997.0</ele><time>2026-08-04T13:54:05Z</time></trkpt>
    <trkpt lat="45.038905" lon="6.101530"><ele>999.0</ele><time>2026-08-04T13:54:28Z</time></trkpt>
    <trkpt lat="45.039279" lon="6.101166"><ele>1001.0</ele><time>2026-08-04T13:54:39Z</time></trkpt>
    <trkpt lat="45.039836" lon="6.100394"><ele>1001.6</ele><time>2026-08-04T13:54:55Z</time></trkpt>
    <trkpt lat="45.040416" lon="6.100172"><ele>1002.8</ele><time>2026-08-04T13:55:08Z</time></trkpt>
    <trkpt lat="45.040980" lon="6.099489"><ele>1002.8</ele><time>2026-08-04T13:55:25Z</time></trkpt>
    <trkpt lat="45.040947" lon="6.098872"><ele>1001.2</ele><time>2026-08-04T13:55:34Z</time></trkpt>
    <trkpt lat="45.040413" lon="6.098326"><ele>999.6</ele><time>2026-08-04T13:55:45Z</time></trkpt>
    <trkpt lat="45.040240" lon="6.097922"><ele>998.4</ele><time>2026-08-04T13:55:50Z</time></trkpt>
    <trkpt lat="45.040359" lon="6.096231"><ele>997.4</ele><time>2026-08-04T13:56:08Z</time></trkpt>
    <trkpt lat="45.040318" lon="6.096127"><ele>997.2</ele><time>2026-08-04T13:56:09Z</time></trkpt>
    <trkpt lat="45.039624" lon="6.094597"><ele>990.6</ele><time>2026-08-04T13:56:22Z</time></trkpt>
    <trkpt lat="45.039011" lon="6.093864"><ele>986.8</ele><time>2026-08-04T13:56:29Z</time></trkpt>
    <trkpt lat="45.037920" lon="6.091587"><ele>977.4</ele><time>2026-08-04T13:56:46Z</time></trkpt>
    <trkpt lat="45.037606" lon="6.091508"><ele>975.8</ele><time>2026-08-04T13:56:49Z</time></trkpt>
    <trkpt lat="45.037292" lon="6.091722"><ele>973.8</ele><time>2026-08-04T13:56:52Z</time></trkpt>
    <trkpt lat="45.037093" lon="6.091924"><ele>972.2</ele><time>2026-08-04T13:56:54Z</time></trkpt>
    <trkpt lat="45.036903" lon="6.092153"><ele>970.2</ele><time>2026-08-04T13:56:56Z</time></trkpt>
    <trkpt lat="45.036555" lon="6.093032"><ele>964.2</ele><time>2026-08-04T13:57:02Z</time></trkpt>
    <trkpt lat="45.036180" lon="6.093219"><ele>960.8</ele><time>2026-08-04T13:57:06Z</time></trkpt>
    <trkpt lat="45.035231" lon="6.092246"><ele>950.4</ele><time>2026-08-04T13:57:16Z</time></trkpt>
    <trkpt lat="45.034120" lon="6.091825"><ele>941.8</ele><time>2026-08-04T13:57:25Z</time></trkpt>
    <trkpt lat="45.033781" lon="6.090655"><ele>933.4</ele><time>2026-08-04T13:57:33Z</time></trkpt>
    <trkpt lat="45.033054" lon="6.090461"><ele>928.0</ele><time>2026-08-04T13:57:39Z</time></trkpt>
    <trkpt lat="45.032699" lon="6.090173"><ele>924.8</ele><time>2026-08-04T13:57:42Z</time></trkpt>
    <trkpt lat="45.032398" lon="6.088844"><ele>918.0</ele><time>2026-08-04T13:57:49Z</time></trkpt>
    <trkpt lat="45.032452" lon="6.087585"><ele>911.8</ele><time>2026-08-04T13:57:55Z</time></trkpt>
    <trkpt lat="45.032346" lon="6.087257"><ele>909.6</ele><time>2026-08-04T13:57:57Z</time></trkpt>
    <trkpt lat="45.031861" lon="6.086872"><ele>907.0</ele><time>2026-08-04T13:58:02Z</time></trkpt>
    <trkpt lat="45.031248" lon="6.085647"><ele>899.8</ele><time>2026-08-04T13:58:11Z</time></trkpt>
    <trkpt lat="45.031144" lon="6.085540"><ele>899.0</ele><time>2026-08-04T13:58:12Z</time></trkpt>
    <trkpt lat="45.029698" lon="6.084320"><ele>883.8</ele><time>2026-08-04T13:58:25Z</time></trkpt>
    <trkpt lat="45.028528" lon="6.082339"><ele>867.2</ele><time>2026-08-04T13:58:39Z</time></trkpt>
    <trkpt lat="45.027434" lon="6.081235"><ele>855.4</ele><time>2026-08-04T13:58:50Z</time></trkpt>
    <trkpt lat="45.027355" lon="6.081108"><ele>854.6</ele><time>2026-08-04T13:58:51Z</time></trkpt>
    <trkpt lat="45.027037" lon="6.079944"><ele>849.2</ele><time>2026-08-04T13:58:58Z</time></trkpt>
    <trkpt lat="45.026959" lon="6.077988"><ele>842.8</ele><time>2026-08-04T13:59:09Z</time></trkpt>
    <trkpt lat="45.026959" lon="6.077988"><ele>842.0</ele><time>2026-08-04T13:59:10Z</time></trkpt>
    <trkpt lat="45.027363" lon="6.076078"><ele>825.6</ele><time>2026-08-04T13:59:31Z</time></trkpt>
    <trkpt lat="45.030937" lon="6.076111"><ele>809.2</ele><time>2026-08-04T13:59:47Z</time></trkpt>
    <trkpt lat="45.030783" lon="6.074783"><ele>798.6</ele><time>2026-08-04T13:59:55Z</time></trkpt>
    <trkpt lat="45.030346" lon="6.073819"><ele>793.0</ele><time>2026-08-04T14:00:02Z</time></trkpt>
    <trkpt lat="45.029420" lon="6.072652"><ele>780.6</ele><time>2026-08-04T14:00:12Z</time></trkpt>
    <trkpt lat="45.028836" lon="6.072343"><ele>775.4</ele><time>2026-08-04T14:00:18Z</time></trkpt>
    <trkpt lat="45.028524" lon="6.072140"><ele>772.6</ele><time>2026-08-04T14:00:22Z</time></trkpt>
    <trkpt lat="45.028437" lon="6.071874"><ele>770.4</ele><time>2026-08-04T14:00:25Z</time></trkpt>
    <trkpt lat="45.028553" lon="6.071542"><ele>768.2</ele><time>2026-08-04T14:00:29Z</time></trkpt>
    <trkpt lat="45.028816" lon="6.071322"><ele>767.0</ele><time>2026-08-04T14:00:37Z</time></trkpt>
    <trkpt lat="45.028838" lon="6.071297"><ele>759.8</ele><time>2026-08-04T14:02:47Z</time></trkpt>
    <trkpt lat="45.030244" lon="6.070035"><ele>758.6</ele><time>2026-08-04T14:04:12Z</time></trkpt>
    <trkpt lat="45.032140" lon="6.068357"><ele>747.2</ele><time>2026-08-04T14:04:37Z</time></trkpt>
    <trkpt lat="45.037237" lon="6.063911"><ele>739.8</ele><time>2026-08-04T14:05:52Z</time></trkpt>
    <trkpt lat="45.045569" lon="6.056586"><ele>737.0</ele><time>2026-08-04T14:08:21Z</time></trkpt>
    <trkpt lat="45.046144" lon="6.055878"><ele>736.8</ele><time>2026-08-04T14:08:34Z</time></trkpt>
    <trkpt lat="45.051537" lon="6.046802"><ele>732.2</ele><time>2026-08-04T14:10:39Z</time></trkpt>
    <trkpt lat="45.056237" lon="6.040900"><ele>728.2</ele><time>2026-08-04T14:12:07Z</time></trkpt>
    <trkpt lat="45.058923" lon="6.038996"><ele>726.4</ele><time>2026-08-04T14:12:47Z</time></trkpt>
    <trkpt lat="45.059380" lon="6.037989"><ele>727.0</ele><time>2026-08-04T14:13:00Z</time></trkpt>
    <trkpt lat="45.059350" lon="6.037648"><ele>726.6</ele><time>2026-08-04T14:13:04Z</time></trkpt>
    <trkpt lat="45.059037" lon="6.037454"><ele>727.0</ele><time>2026-08-04T14:13:10Z</time></trkpt>
    <trkpt lat="45.058231" lon="6.036335"><ele>728.4</ele><time>2026-08-04T14:13:32Z</time></trkpt>
    <trkpt lat="45.057957" lon="6.035960"><ele>727.0</ele><time>2026-08-04T14:13:38Z</time></trkpt>
    <trkpt lat="45.056479" lon="6.034269"><ele>723.2</ele><time>2026-08-04T14:14:04Z</time></trkpt>
    <trkpt lat="45.055102" lon="6.032701"><ele>724.2</ele><time>2026-08-04T14:14:38Z</time></trkpt>
    <trkpt lat="45.054787" lon="6.031990"><ele>724.6</ele><time>2026-08-04T14:14:58Z</time></trkpt>
    <trkpt lat="45.054987" lon="6.030280"><ele>725.6</ele><time>2026-08-04T14:15:26Z</time></trkpt>
    <trkpt lat="45.055226" lon="6.029748"><ele>727.2</ele><time>2026-08-04T14:19:38Z</time></trkpt>
    <trkpt lat="45.057109" lon="6.029390"><ele>725.8</ele><time>2026-08-04T14:20:26Z</time></trkpt>
    <trkpt lat="45.058155" lon="6.028706"><ele>724.6</ele><time>2026-08-04T14:20:49Z</time></trkpt>
    <trkpt lat="45.058449" lon="6.028297"><ele>725.8</ele><time>2026-08-04T14:21:10Z</time></trkpt>
    </trkseg>
  </trk>
</gpx>
