<?xml version="1.0" encoding="UTF-8"?>
<gpx version="1.1" creator="tripplanner (converted from Garmin TCX)" xmlns="http://www.topografix.com/GPX/1/1">
  <metadata>
    <name>Albertville → Grenoble</name>
    <time>2026-08-06T06:43:03Z</time>
  </metadata>
  <trk>
    <name>Albertville → Grenoble</name>
    <trkseg>
    <trkpt lat="45.657939" lon="6.376826"><time>2026-08-06T06:43:03Z</time></trkpt>
    <trkpt lat="45.658428" lon="6.377327"><ele>332.6</ele><time>2026-08-06T06:43:28Z</time></trkpt>
    <trkpt lat="45.658988" lon="6.378774"><ele>333.4</ele><time>2026-08-06T06:43:59Z</time></trkpt>
    <trkpt lat="45.657650" lon="6.379833"><ele>333.6</ele><time>2026-08-06T06:44:43Z</time></trkpt>
    <trkpt lat="45.658346" lon="6.379368"><ele>333.4</ele><time>2026-08-06T06:45:08Z</time></trkpt>
    <trkpt lat="45.658482" lon="6.379427"><ele>333.2</ele><time>2026-08-06T06:45:11Z</time></trkpt>
    <trkpt lat="45.658233" lon="6.381434"><ele>333.0</ele><time>2026-08-06T06:45:44Z</time></trkpt>
    <trkpt lat="45.659589" lon="6.385408"><ele>334.6</ele><time>2026-08-06T06:46:54Z</time></trkpt>
    <trkpt lat="45.659657" lon="6.386394"><ele>335.2</ele><time>2026-08-06T06:47:10Z</time></trkpt>
    <trkpt lat="45.659510" lon="6.386429"><ele>335.6</ele><time>2026-08-06T06:47:15Z</time></trkpt>
    <trkpt lat="45.659063" lon="6.385443"><ele>337.6</ele><time>2026-08-06T06:47:35Z</time></trkpt>
    <trkpt lat="45.658865" lon="6.385309"><ele>338.4</ele><time>2026-08-06T06:47:40Z</time></trkpt>
    <trkpt lat="45.657995" lon="6.386164"><ele>339.4</ele><time>2026-08-06T06:48:05Z</time></trkpt>
    <trkpt lat="45.657777" lon="6.386199"><ele>339.2</ele><time>2026-08-06T06:48:10Z</time></trkpt>
    <trkpt lat="45.656536" lon="6.384867"><ele>336.6</ele><time>2026-08-06T06:48:44Z</time></trkpt>
    <trkpt lat="45.656774" lon="6.384993"><ele>336.6</ele><time>2026-08-06T06:48:52Z</time></trkpt>
    <trkpt lat="45.656823" lon="6.384688"><ele>336.0</ele><time>2026-08-06T06:48:57Z</time></trkpt>
    <trkpt lat="45.653189" lon="6.361970"><ele>328.0</ele><time>2026-08-06T06:53:10Z</time></trkpt>
    <trkpt lat="45.647795" lon="6.341593"><ele>323.0</ele><time>2026-08-06T06:56:47Z</time></trkpt>
    <trkpt lat="45.646657" lon="6.338846"><ele>322.0</ele><time>2026-08-06T06:57:18Z</time></trkpt>
    <trkpt lat="45.645342" lon="6.336661"><ele>321.6</ele><time>2026-08-06T06:57:46Z</time></trkpt>
    <trkpt lat="45.643451" lon="6.334295"><ele>321.0</ele><time>2026-08-06T06:58:22Z</time></trkpt>
    <trkpt lat="45.642938" lon="6.334330"><ele>319.6</ele><time>2026-08-06T06:58:30Z</time></trkpt>
    <trkpt lat="45.637147" lon="6.333262"><ele>316.6</ele><time>2026-08-06T06:59:49Z</time></trkpt>
    <trkpt lat="45.634852" lon="6.332657"><ele>316.6</ele><time>2026-08-06T07:00:23Z</time></trkpt>
    <trkpt lat="45.633144" lon="6.331880"><ele>316.0</ele><time>2026-08-06T07:00:49Z</time></trkpt>
    <trkpt lat="45.631546" lon="6.330894"><ele>315.6</ele><time>2026-08-06T07:01:14Z</time></trkpt>
    <trkpt lat="45.629115" lon="6.328755"><ele>315.0</ele><time>2026-08-06T07:01:56Z</time></trkpt>
    <trkpt lat="45.628564" lon="6.328466"><ele>315.2</ele><time>2026-08-06T07:02:05Z</time></trkpt>
    <trkpt lat="45.627994" lon="6.327390"><ele>314.4</ele><time>2026-08-06T07:02:19Z</time></trkpt>
    <trkpt lat="45.624410" lon="6.322691"><ele>313.2</ele><time>2026-08-06T07:03:32Z</time></trkpt>
    <trkpt lat="45.624275" lon="6.322262"><ele>314.2</ele><time>2026-08-06T07:03:41Z</time></trkpt>
    <trkpt lat="45.623887" lon="6.322222"><ele>313.6</ele><time>2026-08-06T07:03:49Z</time></trkpt>
    <trkpt lat="45.623508" lon="6.321773"><ele>313.0</ele><time>2026-08-06T07:03:58Z</time></trkpt>
    <trkpt lat="45.622878" lon="6.319220"><ele>313.0</ele><time>2026-08-06T07:04:34Z</time></trkpt>
    <trkpt lat="45.621777" lon="6.316540"><ele>312.4</ele><time>2026-08-06T07:05:09Z</time></trkpt>
    <trkpt lat="45.620533" lon="6.315147"><ele>313.0</ele><time>2026-08-06T07:05:37Z</time></trkpt>
    <trkpt lat="45.619505" lon="6.312895"><ele>312.2</ele><time>2026-08-06T07:06:12Z</time></trkpt>
    <trkpt lat="45.618730" lon="6.309860"><ele>310.4</ele><time>2026-08-06T07:06:47Z</time></trkpt>
    <trkpt lat="45.617649" lon="6.306991"><ele>310.2</ele><time>2026-08-06T07:07:23Z</time></trkpt>
    <trkpt lat="45.616939" lon="6.305591"><ele>309.6</ele><time>2026-08-06T07:07:43Z</time></trkpt>
    <trkpt lat="45.616406" lon="6.304948"><ele>309.6</ele><time>2026-08-06T07:07:54Z</time></trkpt>
    <trkpt lat="45.616332" lon="6.304485"><ele>308.8</ele><time>2026-08-06T07:07:59Z</time></trkpt>
    <trkpt lat="45.615210" lon="6.302276"><ele>308.0</ele><time>2026-08-06T07:08:28Z</time></trkpt>
    <trkpt lat="45.615031" lon="6.301656"><ele>308.0</ele><time>2026-08-06T07:08:35Z</time></trkpt>
    <trkpt lat="45.608430" lon="6.288608"><ele>305.6</ele><time>2026-08-06T07:11:18Z</time></trkpt>
    <trkpt lat="45.606980" lon="6.286222"><ele>306.4</ele><time>2026-08-06T07:11:52Z</time></trkpt>
    <trkpt lat="45.604899" lon="6.283789"><ele>303.8</ele><time>2026-08-06T07:12:30Z</time></trkpt>
    <trkpt lat="45.602471" lon="6.281695"><ele>303.0</ele><time>2026-08-06T07:13:11Z</time></trkpt>
    <trkpt lat="45.599746" lon="6.280067"><ele>302.4</ele><time>2026-08-06T07:13:53Z</time></trkpt>
    <trkpt lat="45.596471" lon="6.278652"><ele>300.8</ele><time>2026-08-06T07:14:40Z</time></trkpt>
    <trkpt lat="45.595900" lon="6.278658"><ele>300.6</ele><time>2026-08-06T07:14:48Z</time></trkpt>
    <trkpt lat="45.595136" lon="6.278062"><ele>300.4</ele><time>2026-08-06T07:15:00Z</time></trkpt>
    <trkpt lat="45.585159" lon="6.273575"><ele>298.6</ele><time>2026-08-06T07:17:30Z</time></trkpt>
    <trkpt lat="45.583893" lon="6.272820"><ele>298.0</ele><time>2026-08-06T07:17:50Z</time></trkpt>
    <trkpt lat="45.583068" lon="6.272095"><ele>300.2</ele><time>2026-08-06T07:18:07Z</time></trkpt>
    <trkpt lat="45.584224" lon="6.269710"><ele>302.6</ele><time>2026-08-06T07:18:56Z</time></trkpt>
    <trkpt lat="45.584465" lon="6.269446"><ele>302.6</ele><time>2026-08-06T07:19:03Z</time></trkpt>
    <trkpt lat="45.584406" lon="6.269261"><ele>302.4</ele><time>2026-08-06T07:19:06Z</time></trkpt>
    <trkpt lat="45.583670" lon="6.268891"><ele>301.2</ele><time>2026-08-06T07:19:23Z</time></trkpt>
    <trkpt lat="45.584067" lon="6.269267"><ele>302.0</ele><time>2026-08-06T07:19:36Z</time></trkpt>
    <trkpt lat="45.584603" lon="6.268760"><ele>301.0</ele><time>2026-08-06T07:19:53Z</time></trkpt>
    <trkpt lat="45.584018" lon="6.268014"><ele>298.8</ele><time>2026-08-06T07:20:06Z</time></trkpt>
    <trkpt lat="45.583324" lon="6.265201"><ele>298.4</ele><time>2026-08-06T07:20:38Z</time></trkpt>
    <trkpt lat="45.584174" lon="6.262808"><ele>297.8</ele><time>2026-08-06T07:21:06Z</time></trkpt>
    <trkpt lat="45.584441" lon="6.260728"><ele>297.8</ele><time>2026-08-06T07:21:28Z</time></trkpt>
    <trkpt lat="45.584854" lon="6.259443"><ele>297.6</ele><time>2026-08-06T07:21:43Z</time></trkpt>
    <trkpt lat="45.584917" lon="6.257630"><ele>297.4</ele><time>2026-08-06T07:22:02Z</time></trkpt>
    <trkpt lat="45.585720" lon="6.255309"><ele>297.0</ele><time>2026-08-06T07:22:29Z</time></trkpt>
    <trkpt lat="45.585935" lon="6.253803"><ele>296.8</ele><time>2026-08-06T07:22:45Z</time></trkpt>
    <trkpt lat="45.586367" lon="6.252193"><ele>296.4</ele><time>2026-08-06T07:23:03Z</time></trkpt>
    <trkpt lat="45.586922" lon="6.251516"><ele>296.2</ele><time>2026-08-06T07:23:14Z</time></trkpt>
    <trkpt lat="45.587800" lon="6.250925"><ele>296.2</ele><time>2026-08-06T07:23:29Z</time></trkpt>
    <trkpt lat="45.587969" lon="6.249393"><ele>296.0</ele><time>2026-08-06T07:23:47Z</time></trkpt>
    <trkpt lat="45.587862" lon="6.249197"><ele>295.8</ele><time>2026-08-06T07:23:51Z</time></trkpt>
    <trkpt lat="45.586852" lon="6.248836"><ele>295.4</ele><time>2026-08-06T07:24:10Z</time></trkpt>
    <trkpt lat="45.586904" lon="6.248195"><ele>295.0</ele><time>2026-08-06T07:24:18Z</time></trkpt>
    <trkpt lat="45.585502" lon="6.240241"><ele>293.8</ele><time>2026-08-06T07:25:48Z</time></trkpt>
    <trkpt lat="45.584208" lon="6.237850"><ele>293.4</ele><time>2026-08-06T07:26:18Z</time></trkpt>
    <trkpt lat="45.583531" lon="6.234754"><ele>292.4</ele><time>2026-08-06T07:26:50Z</time></trkpt>
    <trkpt lat="45.583831" lon="6.233839"><ele>292.4</ele><time>2026-08-06T07:27:01Z</time></trkpt>
    <trkpt lat="45.585215" lon="6.232497"><ele>292.6</ele><time>2026-08-06T07:27:25Z</time></trkpt>
    <trkpt lat="45.585438" lon="6.232065"><ele>292.6</ele><time>2026-08-06T07:27:31Z</time></trkpt>
    <trkpt lat="45.585754" lon="6.231984"><ele>292.2</ele><time>2026-08-06T07:27:37Z</time></trkpt>
    <trkpt lat="45.585972" lon="6.231506"><ele>292.2</ele><time>2026-08-06T07:27:44Z</time></trkpt>
    <trkpt lat="45.586069" lon="6.230582"><ele>292.6</ele><time>2026-08-06T07:27:55Z</time></trkpt>
    <trkpt lat="45.585975" lon="6.229769"><ele>292.0</ele><time>2026-08-06T07:28:04Z</time></trkpt>
    <trkpt lat="45.585710" lon="6.229365"><ele>291.8</ele><time>2026-08-06T07:28:10Z</time></trkpt>
    <trkpt lat="45.585134" lon="6.229144"><ele>292.0</ele><time>2026-08-06T07:28:19Z</time></trkpt>
    <trkpt lat="45.585084" lon="6.228880"><ele>291.8</ele><time>2026-08-06T07:28:22Z</time></trkpt>
    <trkpt lat="45.585309" lon="6.228010"><ele>291.8</ele><time>2026-08-06T07:28:32Z</time></trkpt>
    <trkpt lat="45.586324" lon="6.226180"><ele>291.6</ele><time>2026-08-06T07:28:57Z</time></trkpt>
    <trkpt lat="45.586344" lon="6.225584"><ele>291.4</ele><time>2026-08-06T07:29:03Z</time></trkpt>
    <trkpt lat="45.586150" lon="6.224927"><ele>291.0</ele><time>2026-08-06T07:29:10Z</time></trkpt>
    <trkpt lat="45.586305" lon="6.223710"><ele>291.4</ele><time>2026-08-06T07:29:23Z</time></trkpt>
    <trkpt lat="45.586209" lon="6.222946"><ele>291.0</ele><time>2026-08-06T07:29:31Z</time></trkpt>
    <trkpt lat="45.586487" lon="6.222424"><ele>290.8</ele><time>2026-08-06T07:29:38Z</time></trkpt>
    <trkpt lat="45.586112" lon="6.221638"><ele>291.2</ele><time>2026-08-06T07:29:49Z</time></trkpt>
    <trkpt lat="45.585569" lon="6.221206"><ele>292.2</ele><time>2026-08-06T07:30:01Z</time></trkpt>
    <trkpt lat="45.584038" lon="6.219408"><ele>291.2</ele><time>2026-08-06T07:30:36Z</time></trkpt>
    <trkpt lat="45.583332" lon="6.218267"><ele>290.8</ele><time>2026-08-06T07:30:53Z</time></trkpt>
    <trkpt lat="45.582583" lon="6.216553"><ele>290.8</ele><time>2026-08-06T07:31:15Z</time></trkpt>
    <trkpt lat="45.582511" lon="6.216223"><ele>291.0</ele><time>2026-08-06T07:31:19Z</time></trkpt>
    <trkpt lat="45.582781" lon="6.215005"><ele>291.0</ele><time>2026-08-06T07:31:34Z</time></trkpt>
    <trkpt lat="45.582767" lon="6.212792"><ele>291.2</ele><time>2026-08-06T07:32:00Z</time></trkpt>
    <trkpt lat="45.582614" lon="6.212691"><ele>291.2</ele><time>2026-08-06T07:32:06Z</time></trkpt>
    <trkpt lat="45.581682" lon="6.213309"><ele>290.6</ele><time>2026-08-06T07:32:30Z</time></trkpt>
    <trkpt lat="45.581037" lon="6.212065"><ele>289.2</ele><time>2026-08-06T07:32:48Z</time></trkpt>
    <trkpt lat="45.580937" lon="6.208044"><ele>290.0</ele><time>2026-08-06T07:33:34Z</time></trkpt>
    <trkpt lat="45.580661" lon="6.206076"><ele>289.8</ele><time>2026-08-06T07:33:56Z</time></trkpt>
    <trkpt lat="45.580012" lon="6.205135"><ele>289.0</ele><time>2026-08-06T07:34:10Z</time></trkpt>
    <trkpt lat="45.579356" lon="6.205387"><ele>288.2</ele><time>2026-08-06T07:34:21Z</time></trkpt>
    <trkpt lat="45.577710" lon="6.202226"><ele>287.8</ele><time>2026-08-06T07:35:04Z</time></trkpt>
    <trkpt lat="45.576758" lon="6.200922"><ele>288.2</ele><time>2026-08-06T07:35:24Z</time></trkpt>
    <trkpt lat="45.576831" lon="6.200532"><ele>290.0</ele><time>2026-08-06T07:35:31Z</time></trkpt>
    <trkpt lat="45.576412" lon="6.200076"><ele>288.0</ele><time>2026-08-06T07:35:41Z</time></trkpt>
    <trkpt lat="45.576101" lon="6.199298"><ele>288.2</ele><time>2026-08-06T07:35:51Z</time></trkpt>
    <trkpt lat="45.576052" lon="6.198726"><ele>288.4</ele><time>2026-08-06T07:35:58Z</time></trkpt>
    <trkpt lat="45.574924" lon="6.196767"><ele>289.2</ele><time>2026-08-06T07:36:26Z</time></trkpt>
    <trkpt lat="45.574601" lon="6.195765"><ele>289.0</ele><time>2026-08-06T07:36:38Z</time></trkpt>
    <trkpt lat="45.574555" lon="6.194807"><ele>288.4</ele><time>2026-08-06T07:36:48Z</time></trkpt>
    <trkpt lat="45.574284" lon="6.193771"><ele>288.8</ele><time>2026-08-06T07:37:00Z</time></trkpt>
    <trkpt lat="45.573515" lon="6.192193"><ele>288.2</ele><time>2026-08-06T07:37:20Z</time></trkpt>
    <trkpt lat="45.572687" lon="6.190004"><ele>288.0</ele><time>2026-08-06T07:37:48Z</time></trkpt>
    <trkpt lat="45.572823" lon="6.189647"><ele>288.6</ele><time>2026-08-06T07:37:57Z</time></trkpt>
    <trkpt lat="45.572362" lon="6.188329"><ele>288.4</ele><time>2026-08-06T07:38:15Z</time></trkpt>
    <trkpt lat="45.568635" lon="6.179714"><ele>286.8</ele><time>2026-08-06T07:39:56Z</time></trkpt>
    <trkpt lat="45.568374" lon="6.179461"><ele>286.8</ele><time>2026-08-06T07:40:01Z</time></trkpt>
    <trkpt lat="45.568015" lon="6.179436"><ele>286.2</ele><time>2026-08-06T07:40:06Z</time></trkpt>
    <trkpt lat="45.566551" lon="6.180131"><ele>285.8</ele><time>2026-08-06T07:40:28Z</time></trkpt>
    <trkpt lat="45.564733" lon="6.179377"><ele>286.0</ele><time>2026-08-06T07:40:55Z</time></trkpt>
    <trkpt lat="45.563677" lon="6.179191"><ele>286.2</ele><time>2026-08-06T07:41:12Z</time></trkpt>
    <trkpt lat="45.559315" lon="6.171030"><ele>285.2</ele><time>2026-08-06T07:43:09Z</time></trkpt>
    <trkpt lat="45.559311" lon="6.170835"><ele>285.4</ele><time>2026-08-06T07:43:12Z</time></trkpt>
    <trkpt lat="45.559639" lon="6.170430"><ele>285.2</ele><time>2026-08-06T07:43:21Z</time></trkpt>
    <trkpt lat="45.559022" lon="6.169139"><ele>285.2</ele><time>2026-08-06T07:43:43Z</time></trkpt>
    <trkpt lat="45.558712" lon="6.167358"><ele>283.8</ele><time>2026-08-06T07:44:04Z</time></trkpt>
    <trkpt lat="45.558554" lon="6.165429"><ele>284.2</ele><time>2026-08-06T07:44:26Z</time></trkpt>
    <trkpt lat="45.558363" lon="6.165174"><ele>284.0</ele><time>2026-08-06T07:44:30Z</time></trkpt>
    <trkpt lat="45.557508" lon="6.164773"><ele>283.4</ele><time>2026-08-06T07:44:44Z</time></trkpt>
    <trkpt lat="45.557176" lon="6.164980"><ele>284.0</ele><time>2026-08-06T07:44:50Z</time></trkpt>
    <trkpt lat="45.556618" lon="6.165884"><ele>283.8</ele><time>2026-08-06T07:45:05Z</time></trkpt>
    <trkpt lat="45.556077" lon="6.165580"><ele>284.0</ele><time>2026-08-06T07:45:21Z</time></trkpt>
    <trkpt lat="45.554996" lon="6.163161"><ele>284.4</ele><time>2026-08-06T07:46:03Z</time></trkpt>
    <trkpt lat="45.554438" lon="6.158544"><ele>284.2</ele><time>2026-08-06T07:47:02Z</time></trkpt>
    <trkpt lat="45.554256" lon="6.158464"><ele>284.0</ele><time>2026-08-06T07:47:08Z</time></trkpt>
    <trkpt lat="45.553510" lon="6.158906"><ele>283.8</ele><time>2026-08-06T07:47:23Z</time></trkpt>
    <trkpt lat="45.552965" lon="6.158595"><ele>284.0</ele><time>2026-08-06T07:47:34Z</time></trkpt>
    <trkpt lat="45.546326" lon="6.143926"><ele>282.4</ele><time>2026-08-06T07:50:46Z</time></trkpt>
    <trkpt lat="45.546448" lon="6.143731"><ele>283.4</ele><time>2026-08-06T07:50:53Z</time></trkpt>
    <trkpt lat="45.549378" lon="6.142297"><ele>281.6</ele><time>2026-08-06T07:51:43Z</time></trkpt>
    <trkpt lat="45.550199" lon="6.141598"><ele>281.6</ele><time>2026-08-06T07:51:58Z</time></trkpt>
    <trkpt lat="45.551313" lon="6.141056"><ele>281.4</ele><time>2026-08-06T07:52:19Z</time></trkpt>
    <trkpt lat="45.549882" lon="6.134963"><ele>280.2</ele><time>2026-08-06T07:53:28Z</time></trkpt>
    <trkpt lat="45.548313" lon="6.129383"><ele>279.6</ele><time>2026-08-06T07:54:31Z</time></trkpt>
    <trkpt lat="45.548345" lon="6.129158"><ele>280.2</ele><time>2026-08-06T07:54:35Z</time></trkpt>
    <trkpt lat="45.548787" lon="6.128935"><ele>281.2</ele><time>2026-08-06T07:54:46Z</time></trkpt>
    <trkpt lat="45.548792" lon="6.128672"><ele>281.2</ele><time>2026-08-06T07:54:50Z</time></trkpt>
    <trkpt lat="45.546427" lon="6.124925"><ele>279.2</ele><time>2026-08-06T07:55:40Z</time></trkpt>
    <trkpt lat="45.544323" lon="6.120418"><ele>277.4</ele><time>2026-08-06T07:56:33Z</time></trkpt>
    <trkpt lat="45.543656" lon="6.119468"><ele>277.6</ele><time>2026-08-06T07:56:46Z</time></trkpt>
    <trkpt lat="45.539826" lon="6.115278"><ele>276.2</ele><time>2026-08-06T07:57:48Z</time></trkpt>
    <trkpt lat="45.537480" lon="6.112036"><ele>274.6</ele><time>2026-08-06T07:58:34Z</time></trkpt>
    <trkpt lat="45.535345" lon="6.110088"><ele>275.8</ele><time>2026-08-06T07:59:13Z</time></trkpt>
    <trkpt lat="45.529313" lon="6.105193"><ele>275.0</ele><time>2026-08-06T08:00:58Z</time></trkpt>
    <trkpt lat="45.528436" lon="6.104833"><ele>275.0</ele><time>2026-08-06T08:01:11Z</time></trkpt>
    <trkpt lat="45.522779" lon="6.105097"><ele>275.6</ele><time>2026-08-06T08:02:32Z</time></trkpt>
    <trkpt lat="45.522446" lon="6.104932"><ele>275.8</ele><time>2026-08-06T08:02:38Z</time></trkpt>
    <trkpt lat="45.517095" lon="6.096544"><ele>272.2</ele><time>2026-08-06T08:04:33Z</time></trkpt>
    <trkpt lat="45.517158" lon="6.096227"><ele>272.4</ele><time>2026-08-06T08:04:37Z</time></trkpt>
    <trkpt lat="45.518345" lon="6.095138"><ele>272.2</ele><time>2026-08-06T08:04:59Z</time></trkpt>
    <trkpt lat="45.518263" lon="6.094700"><ele>272.0</ele><time>2026-08-06T08:05:06Z</time></trkpt>
    <trkpt lat="45.514380" lon="6.086205"><ele>269.8</ele><time>2026-08-06T08:07:09Z</time></trkpt>
    <trkpt lat="45.512989" lon="6.084948"><ele>269.6</ele><time>2026-08-06T08:07:32Z</time></trkpt>
    <trkpt lat="45.511749" lon="6.084355"><ele>269.2</ele><time>2026-08-06T08:07:50Z</time></trkpt>
    <trkpt lat="45.510730" lon="6.082841"><ele>269.8</ele><time>2026-08-06T08:08:11Z</time></trkpt>
    <trkpt lat="45.510165" lon="6.080089"><ele>269.8</ele><time>2026-08-06T08:08:38Z</time></trkpt>
    <trkpt lat="45.509697" lon="6.079096"><ele>269.2</ele><time>2026-08-06T08:08:49Z</time></trkpt>
    <trkpt lat="45.508861" lon="6.078118"><ele>269.6</ele><time>2026-08-06T08:09:05Z</time></trkpt>
    <trkpt lat="45.509049" lon="6.077674"><ele>269.6</ele><time>2026-08-06T08:09:14Z</time></trkpt>
    <trkpt lat="45.507069" lon="6.073532"><ele>268.8</ele><time>2026-08-06T08:10:14Z</time></trkpt>
    <trkpt lat="45.504934" lon="6.065608"><ele>271.4</ele><time>2026-08-06T08:12:04Z</time></trkpt>
    <trkpt lat="45.504936" lon="6.064977"><ele>272.2</ele><time>2026-08-06T08:12:13Z</time></trkpt>
    <trkpt lat="45.504696" lon="6.064597"><ele>272.6</ele><time>2026-08-06T08:12:20Z</time></trkpt>
    <trkpt lat="45.504371" lon="6.062996"><ele>273.8</ele><time>2026-08-06T08:12:41Z</time></trkpt>
    <trkpt lat="45.504394" lon="6.062463"><ele>274.4</ele><time>2026-08-06T08:12:49Z</time></trkpt>
    <trkpt lat="45.504184" lon="6.061668"><ele>275.0</ele><time>2026-08-06T08:13:02Z</time></trkpt>
    <trkpt lat="45.503982" lon="6.059713"><ele>275.8</ele><time>2026-08-06T08:13:26Z</time></trkpt>
    <trkpt lat="45.503653" lon="6.053816"><ele>289.6</ele><time>2026-08-06T08:14:59Z</time></trkpt>
    <trkpt lat="45.503187" lon="6.052986"><ele>292.6</ele><time>2026-08-06T08:15:25Z</time></trkpt>
    <trkpt lat="45.502212" lon="6.052037"><ele>296.6</ele><time>2026-08-06T08:16:03Z</time></trkpt>
    <trkpt lat="45.501836" lon="6.051436"><ele>295.0</ele><time>2026-08-06T08:16:15Z</time></trkpt>
    <trkpt lat="45.501664" lon="6.050137"><ele>294.2</ele><time>2026-08-06T08:16:36Z</time></trkpt>
    <trkpt lat="45.501691" lon="6.050621"><ele>293.8</ele><time>2026-08-06T08:16:49Z</time></trkpt>
    <trkpt lat="45.501339" lon="6.050488"><ele>293.8</ele><time>2026-08-06T08:17:00Z</time></trkpt>
    <trkpt lat="45.500886" lon="6.048615"><ele>293.6</ele><time>2026-08-06T08:17:34Z</time></trkpt>
    <trkpt lat="45.500557" lon="6.048510"><ele>293.4</ele><time>2026-08-06T08:17:47Z</time></trkpt>
    <trkpt lat="45.500424" lon="6.048247"><ele>292.8</ele><time>2026-08-06T08:17:55Z</time></trkpt>
    <trkpt lat="45.500159" lon="6.045999"><ele>291.2</ele><time>2026-08-06T08:18:25Z</time></trkpt>
    <trkpt lat="45.500281" lon="6.044904"><ele>292.4</ele><time>2026-08-06T08:18:40Z</time></trkpt>
    <trkpt lat="45.501548" lon="6.041941"><ele>286.0</ele><time>2026-08-06T08:19:12Z</time></trkpt>
    <trkpt lat="45.503451" lon="6.039397"><ele>284.2</ele><time>2026-08-06T08:19:50Z</time></trkpt>
    <trkpt lat="45.502637" lon="6.038058"><ele>285.2</ele><time>2026-08-06T08:20:14Z</time></trkpt>
    <trkpt lat="45.502647" lon="6.035876"><ele>286.0</ele><time>2026-08-06T08:20:40Z</time></trkpt>
    <trkpt lat="45.502446" lon="6.035076"><ele>284.4</ele><time>2026-08-06T08:20:49Z</time></trkpt>
    <trkpt lat="45.501822" lon="6.033628"><ele>283.2</ele><time>2026-08-06T08:21:08Z</time></trkpt>
    <trkpt lat="45.501715" lon="6.032961"><ele>283.6</ele><time>2026-08-06T08:22:44Z</time></trkpt>
    <trkpt lat="45.501772" lon="6.029495"><ele>286.8</ele><time>2026-08-06T08:23:34Z</time></trkpt>
    <trkpt lat="45.501333" lon="6.027779"><ele>287.2</ele><time>2026-08-06T08:23:58Z</time></trkpt>
    <trkpt lat="45.500777" lon="6.026627"><ele>289.6</ele><time>2026-08-06T08:24:18Z</time></trkpt>
    <trkpt lat="45.500120" lon="6.023908"><ele>295.8</ele><time>2026-08-06T08:25:02Z</time></trkpt>
    <trkpt lat="45.499926" lon="6.022813"><ele>294.8</ele><time>2026-08-06T08:25:17Z</time></trkpt>
    <trkpt lat="45.499961" lon="6.020681"><ele>292.0</ele><time>2026-08-06T08:25:40Z</time></trkpt>
    <trkpt lat="45.499174" lon="6.017757"><ele>298.4</ele><time>2026-08-06T08:26:22Z</time></trkpt>
    <trkpt lat="45.499295" lon="6.016504"><ele>305.0</ele><time>2026-08-06T08:26:48Z</time></trkpt>
    <trkpt lat="45.499937" lon="6.015011"><ele>311.8</ele><time>2026-08-06T08:27:22Z</time></trkpt>
    <trkpt lat="45.500787" lon="6.011778"><ele>308.6</ele><time>2026-08-06T08:28:05Z</time></trkpt>
    <trkpt lat="45.501146" lon="6.008847"><ele>307.2</ele><time>2026-08-06T08:28:36Z</time></trkpt>
    <trkpt lat="45.501103" lon="6.007814"><ele>310.6</ele><time>2026-08-06T08:28:51Z</time></trkpt>
    <trkpt lat="45.500868" lon="6.006628"><ele>310.2</ele><time>2026-08-06T08:29:11Z</time></trkpt>
    <trkpt lat="45.500918" lon="6.004532"><ele>302.8</ele><time>2026-08-06T08:29:29Z</time></trkpt>
    <trkpt lat="45.500269" lon="6.002851"><ele>309.4</ele><time>2026-08-06T08:29:56Z</time></trkpt>
    <trkpt lat="45.500554" lon="6.001514"><ele>314.0</ele><time>2026-08-06T08:30:25Z</time></trkpt>
    <trkpt lat="45.500048" lon="6.000695"><ele>314.2</ele><time>2026-08-06T08:30:46Z</time></trkpt>
    <trkpt lat="45.499052" lon="6.001029"><ele>319.6</ele><time>2026-08-06T08:31:17Z</time></trkpt>
    <trkpt lat="45.498854" lon="6.000835"><ele>322.0</ele><time>2026-08-06T08:31:28Z</time></trkpt>
    <trkpt lat="45.498863" lon="6.000362"><ele>324.0</ele><time>2026-08-06T08:31:43Z</time></trkpt>
    <trkpt lat="45.498364" lon="6.000490"><ele>322.8</ele><time>2026-08-06T08:32:46Z</time></trkpt>
    <trkpt lat="45.498686" lon="6.000391"><ele>323.6</ele><time>2026-08-06T09:01:08Z</time></trkpt>
    <trkpt lat="45.498662" lon="6.000575"><ele>322.8</ele><time>2026-08-06T09:01:14Z</time></trkpt>
    <trkpt lat="45.498803" lon="6.000658"><ele>323.0</ele><time>2026-08-06T09:01:20Z</time></trkpt>
    <trkpt lat="45.498985" lon="6.000226"><ele>323.4</ele><time>2026-08-06T09:01:31Z</time></trkpt>
    <trkpt lat="45.500408" lon="5.998904"><ele>328.6</ele><time>2026-08-06T09:02:21Z</time></trkpt>
    <trkpt lat="45.501021" lon="5.998043"><ele>331.6</ele><time>2026-08-06T09:02:46Z</time></trkpt>
    <trkpt lat="45.501595" lon="5.997756"><ele>332.6</ele><time>2026-08-06T09:03:03Z</time></trkpt>
    <trkpt lat="45.502424" lon="5.996800"><ele>334.6</ele><time>2026-08-06T09:03:31Z</time></trkpt>
    <trkpt lat="45.505911" lon="5.993800"><ele>327.4</ele><time>2026-08-06T09:04:43Z</time></trkpt>
    <trkpt lat="45.506988" lon="5.991988"><ele>327.6</ele><time>2026-08-06T09:05:19Z</time></trkpt>
    <trkpt lat="45.508969" lon="5.990661"><ele>325.4</ele><time>2026-08-06T09:06:03Z</time></trkpt>
    <trkpt lat="45.511588" lon="5.988109"><ele>331.0</ele><time>2026-08-06T09:07:12Z</time></trkpt>
    <trkpt lat="45.513349" lon="5.987223"><ele>342.2</ele><time>2026-08-06T09:08:23Z</time></trkpt>
    <trkpt lat="45.514464" lon="5.985604"><ele>349.4</ele><time>2026-08-06T09:09:16Z</time></trkpt>
    <trkpt lat="45.515948" lon="5.982456"><ele>343.8</ele><time>2026-08-06T09:10:14Z</time></trkpt>
    <trkpt lat="45.516357" lon="5.982075"><ele>342.2</ele><time>2026-08-06T09:10:22Z</time></trkpt>
    <trkpt lat="45.516321" lon="5.981083"><ele>338.4</ele><time>2026-08-06T09:10:31Z</time></trkpt>
    <trkpt lat="45.516439" lon="5.980740"><ele>337.0</ele><time>2026-08-06T09:10:34Z</time></trkpt>
    <trkpt lat="45.518035" lon="5.979463"><ele>325.2</ele><time>2026-08-06T09:10:52Z</time></trkpt>
    <trkpt lat="45.518809" lon="5.977977"><ele>317.6</ele><time>2026-08-06T09:11:08Z</time></trkpt>
    <trkpt lat="45.519164" lon="5.977564"><ele>316.6</ele><time>2026-08-06T09:11:15Z</time></trkpt>
    <trkpt lat="45.519543" lon="5.977737"><ele>315.8</ele><time>2026-08-06T09:11:24Z</time></trkpt>
    <trkpt lat="45.520730" lon="5.979444"><ele>313.2</ele><time>2026-08-06T09:11:53Z</time></trkpt>
    <trkpt lat="45.520721" lon="5.979953"><ele>312.6</ele><time>2026-08-06T09:11:59Z</time></trkpt>
    <trkpt lat="45.520148" lon="5.980551"><ele>310.4</ele><time>2026-08-06T09:12:09Z</time></trkpt>
    <trkpt lat="45.520192" lon="5.980861"><ele>309.8</ele><time>2026-08-06T09:12:12Z</time></trkpt>
    <trkpt lat="45.520519" lon="5.981315"><ele>308.2</ele><time>2026-08-06T09:12:18Z</time></trkpt>
    <trkpt lat="45.520769" lon="5.981485"><ele>308.4</ele><time>2026-08-06T09:12:22Z</time></trkpt>
    <trkpt lat="45.521013" lon="5.981419"><ele>309.2</ele><time>2026-08-06T09:12:26Z</time></trkpt>
    <trkpt lat="45.521195" lon="5.980504"><ele>313.0</ele><time>2026-08-06T09:12:41Z</time></trkpt>
    <trkpt lat="45.521354" lon="5.980305"><ele>314.0</ele><time>2026-08-06T09:12:47Z</time></trkpt>
    <trkpt lat="45.521669" lon="5.980475"><ele>314.6</ele><time>2026-08-06T09:12:56Z</time></trkpt>
    <trkpt lat="45.522249" lon="5.981405"><ele>314.2</ele><time>2026-08-06T09:13:14Z</time></trkpt>
    <trkpt lat="45.522761" lon="5.981296"><ele>314.4</ele><time>2026-08-06T09:13:26Z</time></trkpt>
    <trkpt lat="45.523921" lon="5.979852"><ele>317.8</ele><time>2026-08-06T09:14:02Z</time></trkpt>
    <trkpt lat="45.524609" lon="5.979464"><ele>318.6</ele><time>2026-08-06T09:14:19Z</time></trkpt>
    <trkpt lat="45.525392" lon="5.978692"><ele>318.0</ele><time>2026-08-06T09:14:39Z</time></trkpt>
    <trkpt lat="45.527860" lon="5.975715"><ele>312.0</ele><time>2026-08-06T09:15:35Z</time></trkpt>
    <trkpt lat="45.529171" lon="5.974654"><ele>307.8</ele><time>2026-08-06T09:15:57Z</time></trkpt>
    <trkpt lat="45.529892" lon="5.973434"><ele>307.0</ele><time>2026-08-06T09:16:16Z</time></trkpt>
    <trkpt lat="45.530694" lon="5.972591"><ele>308.6</ele><time>2026-08-06T09:16:37Z</time></trkpt>
    <trkpt lat="45.536615" lon="5.968810"><ele>307.0</ele><time>2026-08-06T09:18:44Z</time></trkpt>
    <trkpt lat="45.536665" lon="5.968442"><ele>307.6</ele><time>2026-08-06T09:18:52Z</time></trkpt>
    <trkpt lat="45.537267" lon="5.968179"><ele>310.2</ele><time>2026-08-06T09:19:12Z</time></trkpt>
    <trkpt lat="45.537319" lon="5.967881"><ele>311.4</ele><time>2026-08-06T09:19:18Z</time></trkpt>
    <trkpt lat="45.537038" lon="5.967293"><ele>311.4</ele><time>2026-08-06T09:19:27Z</time></trkpt>
    <trkpt lat="45.536508" lon="5.966887"><ele>308.0</ele><time>2026-08-06T09:19:37Z</time></trkpt>
    <trkpt lat="45.536898" lon="5.966369"><ele>305.2</ele><time>2026-08-06T09:19:47Z</time></trkpt>
    <trkpt lat="45.536712" lon="5.965583"><ele>302.0</ele><time>2026-08-06T09:19:57Z</time></trkpt>
    <trkpt lat="45.537193" lon="5.965116"><ele>301.2</ele><time>2026-08-06T09:20:06Z</time></trkpt>
    <trkpt lat="45.538379" lon="5.964650"><ele>299.6</ele><time>2026-08-06T09:20:26Z</time></trkpt>
    <trkpt lat="45.539964" lon="5.963672"><ele>298.2</ele><time>2026-08-06T09:20:53Z</time></trkpt>
    <trkpt lat="45.540692" lon="5.963000"><ele>297.8</ele><time>2026-08-06T09:21:06Z</time></trkpt>
    <trkpt lat="45.542787" lon="5.961761"><ele>295.6</ele><time>2026-08-06T09:21:41Z</time></trkpt>
    <trkpt lat="45.544674" lon="5.961159"><ele>293.8</ele><time>2026-08-06T09:22:11Z</time></trkpt>
    <trkpt lat="45.548193" lon="5.959015"><ele>290.2</ele><time>2026-08-06T09:23:07Z</time></trkpt>
    <trkpt lat="45.550577" lon="5.958109"><ele>289.0</ele><time>2026-08-06T09:23:45Z</time></trkpt>
    <trkpt lat="45.551292" lon="5.957577"><ele>288.0</ele><time>2026-08-06T09:23:56Z</time></trkpt>
    <trkpt lat="45.552422" lon="5.956065"><ele>288.6</ele><time>2026-08-06T09:24:19Z</time></trkpt>
    <trkpt lat="45.554154" lon="5.954378"><ele>287.6</ele><time>2026-08-06T09:24:53Z</time></trkpt>
    <trkpt lat="45.553979" lon="5.954116"><ele>287.4</ele><time>2026-08-06T09:25:00Z</time></trkpt>
    <trkpt lat="45.553770" lon="5.954304"><ele>287.8</ele><time>2026-08-06T09:25:06Z</time></trkpt>
    <trkpt lat="45.553532" lon="5.954131"><ele>288.8</ele><time>2026-08-06T09:25:15Z</time></trkpt>
    <trkpt lat="45.553660" lon="5.953679"><ele>288.6</ele><time>2026-08-06T09:25:25Z</time></trkpt>
    <trkpt lat="45.557593" lon="5.948874"><ele>285.6</ele><time>2026-08-06T09:26:56Z</time></trkpt>
    <trkpt lat="45.557647" lon="5.948496"><ele>286.4</ele><time>2026-08-06T09:27:04Z</time></trkpt>
    <trkpt lat="45.558659" lon="5.947913"><ele>285.6</ele><time>2026-08-06T09:27:26Z</time></trkpt>
    <trkpt lat="45.558910" lon="5.946908"><ele>283.4</ele><time>2026-08-06T09:27:38Z</time></trkpt>
    <trkpt lat="45.559457" lon="5.945791"><ele>283.4</ele><time>2026-08-06T09:27:53Z</time></trkpt>
    <trkpt lat="45.560658" lon="5.945296"><ele>282.8</ele><time>2026-08-06T09:28:13Z</time></trkpt>
    <trkpt lat="45.561056" lon="5.943910"><ele>283.0</ele><time>2026-08-06T09:28:30Z</time></trkpt>
    <trkpt lat="45.561120" lon="5.942283"><ele>282.0</ele><time>2026-08-06T09:28:48Z</time></trkpt>
    <trkpt lat="45.561301" lon="5.941286"><ele>283.8</ele><time>2026-08-06T09:29:06Z</time></trkpt>
    <trkpt lat="45.561916" lon="5.940599"><ele>282.8</ele><time>2026-08-06T09:29:22Z</time></trkpt>
    <trkpt lat="45.562370" lon="5.940725"><ele>282.2</ele><time>2026-08-06T09:29:32Z</time></trkpt>
    <trkpt lat="45.563064" lon="5.940506"><ele>282.2</ele><time>2026-08-06T09:29:45Z</time></trkpt>
    <trkpt lat="45.565051" lon="5.938368"><ele>281.0</ele><time>2026-08-06T09:30:35Z</time></trkpt>
    <trkpt lat="45.565102" lon="5.937981"><ele>281.2</ele><time>2026-08-06T09:30:41Z</time></trkpt>
    <trkpt lat="45.564895" lon="5.937541"><ele>282.4</ele><time>2026-08-06T09:30:51Z</time></trkpt>
    <trkpt lat="45.565241" lon="5.936519"><ele>281.4</ele><time>2026-08-06T09:31:07Z</time></trkpt>
    <trkpt lat="45.565212" lon="5.936196"><ele>281.4</ele><time>2026-08-06T09:31:12Z</time></trkpt>
    <trkpt lat="45.566029" lon="5.934085"><ele>281.2</ele><time>2026-08-06T09:31:57Z</time></trkpt>
    <trkpt lat="45.563976" lon="5.932054"><ele>277.6</ele><time>2026-08-06T09:32:46Z</time></trkpt>
    <trkpt lat="45.563741" lon="5.931660"><ele>276.6</ele><time>2026-08-06T09:32:53Z</time></trkpt>
    <trkpt lat="45.563161" lon="5.930046"><ele>277.6</ele><time>2026-08-06T09:33:17Z</time></trkpt>
    <trkpt lat="45.563452" lon="5.928195"><ele>276.0</ele><time>2026-08-06T09:33:47Z</time></trkpt>
    <trkpt lat="45.563301" lon="5.928219"><ele>275.8</ele><time>2026-08-06T09:33:51Z</time></trkpt>
    <trkpt lat="45.562994" lon="5.929022"><ele>278.6</ele><time>2026-08-06T09:34:11Z</time></trkpt>
    <trkpt lat="45.562886" lon="5.929932"><ele>283.6</ele><time>2026-08-06T09:34:38Z</time></trkpt>
    <trkpt lat="45.562308" lon="5.930606"><ele>288.6</ele><time>2026-08-06T09:35:11Z</time></trkpt>
    <trkpt lat="45.560831" lon="5.930796"><ele>300.6</ele><time>2026-08-06T09:36:16Z</time></trkpt>
    <trkpt lat="45.560835" lon="5.930524"><ele>302.8</ele><time>2026-08-06T09:36:25Z</time></trkpt>
    <trkpt lat="45.561123" lon="5.930296"><ele>305.6</ele><time>2026-08-06T09:36:40Z</time></trkpt>
    <trkpt lat="45.561380" lon="5.929707"><ele>309.4</ele><time>2026-08-06T09:37:01Z</time></trkpt>
    <trkpt lat="45.561877" lon="5.929085"><ele>315.0</ele><time>2026-08-06T09:37:32Z</time></trkpt>
    <trkpt lat="45.561812" lon="5.927730"><ele>321.8</ele><time>2026-08-06T09:38:14Z</time></trkpt>
    <trkpt lat="45.560574" lon="5.925836"><ele>336.2</ele><time>2026-08-06T09:39:36Z</time></trkpt>
    <trkpt lat="45.559895" lon="5.924175"><ele>346.0</ele><time>2026-08-06T09:40:39Z</time></trkpt>
    <trkpt lat="45.559612" lon="5.923066"><ele>352.6</ele><time>2026-08-06T09:41:18Z</time></trkpt>
    <trkpt lat="45.559077" lon="5.922216"><ele>359.4</ele><time>2026-08-06T09:41:55Z</time></trkpt>
    <trkpt lat="45.554851" lon="5.921673"><ele>387.8</ele><time>2026-08-06T09:44:54Z</time></trkpt>
    <trkpt lat="45.553650" lon="5.921678"><ele>395.2</ele><time>2026-08-06T09:45:42Z</time></trkpt>
    <trkpt lat="45.553326" lon="5.921377"><ele>398.2</ele><time>2026-08-06T09:45:58Z</time></trkpt>
    <trkpt lat="45.552891" lon="5.921467"><ele>400.2</ele><time>2026-08-06T09:46:16Z</time></trkpt>
    <trkpt lat="45.552882" lon="5.921313"><ele>401.4</ele><time>2026-08-06T09:46:27Z</time></trkpt>
    <trkpt lat="45.552651" lon="5.921481"><ele>400.8</ele><time>2026-08-06T09:53:39Z</time></trkpt>
    <trkpt lat="45.550799" lon="5.921262"><ele>412.6</ele><time>2026-08-06T09:54:58Z</time></trkpt>
    <trkpt lat="45.548171" lon="5.921251"><ele>432.2</ele><time>2026-08-06T09:56:53Z</time></trkpt>
    <trkpt lat="45.546169" lon="5.920600"><ele>442.4</ele><time>2026-08-06T09:58:04Z</time></trkpt>
    <trkpt lat="45.544544" lon="5.920779"><ele>437.4</ele><time>2026-08-06T09:58:29Z</time></trkpt>
    <trkpt lat="45.544371" lon="5.920652"><ele>437.6</ele><time>2026-08-06T09:58:32Z</time></trkpt>
    <trkpt lat="45.544341" lon="5.920311"><ele>439.2</ele><time>2026-08-06T09:58:37Z</time></trkpt>
    <trkpt lat="45.545253" lon="5.919005"><ele>449.0</ele><time>2026-08-06T09:59:22Z</time></trkpt>
    <trkpt lat="45.545471" lon="5.918177"><ele>453.0</ele><time>2026-08-06T09:59:47Z</time></trkpt>
    <trkpt lat="45.545342" lon="5.917219"><ele>458.8</ele><time>2026-08-06T10:00:13Z</time></trkpt>
    <trkpt lat="45.544770" lon="5.916244"><ele>465.8</ele><time>2026-08-06T10:00:47Z</time></trkpt>
    <trkpt lat="45.544034" lon="5.916184"><ele>469.4</ele><time>2026-08-06T10:01:14Z</time></trkpt>
    <trkpt lat="45.541875" lon="5.917099"><ele>482.4</ele><time>2026-08-06T10:02:31Z</time></trkpt>
    <trkpt lat="45.540040" lon="5.917318"><ele>494.6</ele><time>2026-08-06T10:03:36Z</time></trkpt>
    <trkpt lat="45.538901" lon="5.916456"><ele>505.0</ele><time>2026-08-06T10:04:27Z</time></trkpt>
    <trkpt lat="45.536071" lon="5.915872"><ele>530.8</ele><time>2026-08-06T10:06:45Z</time></trkpt>
    <trkpt lat="45.534725" lon="5.915803"><ele>545.0</ele><time>2026-08-06T10:07:57Z</time></trkpt>
    <trkpt lat="45.533010" lon="5.915094"><ele>563.8</ele><time>2026-08-06T10:09:40Z</time></trkpt>
    <trkpt lat="45.532440" lon="5.914344"><ele>566.4</ele><time>2026-08-06T10:10:08Z</time></trkpt>
    <trkpt lat="45.531444" lon="5.913716"><ele>569.4</ele><time>2026-08-06T10:10:39Z</time></trkpt>
    <trkpt lat="45.530828" lon="5.912675"><ele>572.2</ele><time>2026-08-06T10:11:09Z</time></trkpt>
    <trkpt lat="45.528661" lon="5.912198"><ele>589.8</ele><time>2026-08-06T10:12:37Z</time></trkpt>
    <trkpt lat="45.528347" lon="5.912346"><ele>591.0</ele><time>2026-08-06T10:12:50Z</time></trkpt>
    <trkpt lat="45.527730" lon="5.913613"><ele>600.6</ele><time>2026-08-06T10:13:36Z</time></trkpt>
    <trkpt lat="45.526756" lon="5.914451"><ele>608.4</ele><time>2026-08-06T10:14:22Z</time></trkpt>
    <trkpt lat="45.526417" lon="5.915121"><ele>613.4</ele><time>2026-08-06T10:14:45Z</time></trkpt>
    <trkpt lat="45.525307" lon="5.915910"><ele>621.6</ele><time>2026-08-06T10:15:37Z</time></trkpt>
    <trkpt lat="45.523916" lon="5.915938"><ele>631.4</ele><time>2026-08-06T10:16:35Z</time></trkpt>
    <trkpt lat="45.522430" lon="5.915033"><ele>640.6</ele><time>2026-08-06T10:17:40Z</time></trkpt>
    <trkpt lat="45.521038" lon="5.914938"><ele>647.8</ele><time>2026-08-06T10:18:32Z</time></trkpt>
    <trkpt lat="45.518471" lon="5.915308"><ele>661.2</ele><time>2026-08-06T10:20:02Z</time></trkpt>
    <trkpt lat="45.517346" lon="5.915948"><ele>666.2</ele><time>2026-08-06T10:20:39Z</time></trkpt>
    <trkpt lat="45.516387" lon="5.916201"><ele>672.2</ele><time>2026-08-06T10:21:10Z</time></trkpt>
    <trkpt lat="45.515286" lon="5.916149"><ele>677.2</ele><time>2026-08-06T10:21:46Z</time></trkpt>
    <trkpt lat="45.514582" lon="5.916589"><ele>680.2</ele><time>2026-08-06T10:22:11Z</time></trkpt>
    <trkpt lat="45.513372" lon="5.915979"><ele>686.4</ele><time>2026-08-06T10:22:52Z</time></trkpt>
    <trkpt lat="45.512796" lon="5.915862"><ele>688.6</ele><time>2026-08-06T10:23:10Z</time></trkpt>
    <trkpt lat="45.512578" lon="5.915982"><ele>689.8</ele><time>2026-08-06T10:23:18Z</time></trkpt>
    <trkpt lat="45.512521" lon="5.916369"><ele>690.8</ele><time>2026-08-06T10:23:26Z</time></trkpt>
    <trkpt lat="45.513036" lon="5.917664"><ele>696.8</ele><time>2026-08-06T10:23:57Z</time></trkpt>
    <trkpt lat="45.513337" lon="5.919110"><ele>702.0</ele><time>2026-08-06T10:24:28Z</time></trkpt>
    <trkpt lat="45.513775" lon="5.920067"><ele>707.4</ele><time>2026-08-06T10:24:55Z</time></trkpt>
    <trkpt lat="45.514333" lon="5.920867"><ele>711.6</ele><time>2026-08-06T10:25:22Z</time></trkpt>
    <trkpt lat="45.514432" lon="5.921831"><ele>715.4</ele><time>2026-08-06T10:25:46Z</time></trkpt>
    <trkpt lat="45.514811" lon="5.922628"><ele>719.4</ele><time>2026-08-06T10:26:09Z</time></trkpt>
    <trkpt lat="45.517327" lon="5.925543"><ele>741.4</ele><time>2026-08-06T10:28:16Z</time></trkpt>
    <trkpt lat="45.520383" lon="5.926047"><ele>762.0</ele><time>2026-08-06T10:30:12Z</time></trkpt>
    <trkpt lat="45.520905" lon="5.926398"><ele>765.6</ele><time>2026-08-06T10:30:35Z</time></trkpt>
    <trkpt lat="45.520903" lon="5.926563"><ele>766.2</ele><time>2026-08-06T10:30:40Z</time></trkpt>
    <trkpt lat="45.520419" lon="5.926196"><ele>770.2</ele><time>2026-08-06T10:31:01Z</time></trkpt>
    <trkpt lat="45.519985" lon="5.926143"><ele>773.0</ele><time>2026-08-06T10:31:18Z</time></trkpt>
    <trkpt lat="45.517215" lon="5.926698"><ele>797.0</ele><time>2026-08-06T10:33:27Z</time></trkpt>
    <trkpt lat="45.515575" lon="5.925525"><ele>815.2</ele><time>2026-08-06T10:34:58Z</time></trkpt>
    <trkpt lat="45.515171" lon="5.925490"><ele>818.6</ele><time>2026-08-06T10:35:15Z</time></trkpt>
    <trkpt lat="45.513577" lon="5.924702"><ele>829.6</ele><time>2026-08-06T10:36:26Z</time></trkpt>
    <trkpt lat="45.513432" lon="5.924868"><ele>832.8</ele><time>2026-08-06T10:36:34Z</time></trkpt>
    <trkpt lat="45.513466" lon="5.925117"><ele>834.8</ele><time>2026-08-06T10:36:40Z</time></trkpt>
    <trkpt lat="45.512574" lon="5.926123"><ele>840.8</ele><time>2026-08-06T10:37:20Z</time></trkpt>
    <trkpt lat="45.511850" lon="5.926296"><ele>845.0</ele><time>2026-08-06T10:38:55Z</time></trkpt>
    <trkpt lat="45.511175" lon="5.926233"><ele>849.4</ele><time>2026-08-06T10:39:17Z</time></trkpt>
    <trkpt lat="45.509757" lon="5.925350"><ele>858.2</ele><time>2026-08-06T10:40:08Z</time></trkpt>
    <trkpt lat="45.509311" lon="5.924676"><ele>862.0</ele><time>2026-08-06T10:40:30Z</time></trkpt>
    <trkpt lat="45.508892" lon="5.923488"><ele>865.2</ele><time>2026-08-06T10:40:58Z</time></trkpt>
    <trkpt lat="45.508618" lon="5.923232"><ele>865.8</ele><time>2026-08-06T10:41:06Z</time></trkpt>
    <trkpt lat="45.508045" lon="5.923134"><ele>867.2</ele><time>2026-08-06T10:41:19Z</time></trkpt>
    <trkpt lat="45.507382" lon="5.923985"><ele>868.6</ele><time>2026-08-06T10:41:37Z</time></trkpt>
    <trkpt lat="45.506891" lon="5.923929"><ele>869.6</ele><time>2026-08-06T10:41:47Z</time></trkpt>
    <trkpt lat="45.506287" lon="5.923148"><ele>869.8</ele><time>2026-08-06T10:42:00Z</time></trkpt>
    <trkpt lat="45.505815" lon="5.921298"><ele>869.8</ele><time>2026-08-06T10:42:22Z</time></trkpt>
    <trkpt lat="45.505212" lon="5.920127"><ele>872.0</ele><time>2026-08-06T10:42:40Z</time></trkpt>
    <trkpt lat="45.504779" lon="5.919762"><ele>874.4</ele><time>2026-08-06T10:42:51Z</time></trkpt>
    <trkpt lat="45.504226" lon="5.919859"><ele>876.4</ele><time>2026-08-06T10:43:06Z</time></trkpt>
    <trkpt lat="45.503235" lon="5.918520"><ele>884.2</ele><time>2026-08-06T10:43:54Z</time></trkpt>
    <trkpt lat="45.502787" lon="5.918239"><ele>886.4</ele><time>2026-08-06T10:44:14Z</time></trkpt>
    <trkpt lat="45.502514" lon="5.917604"><ele>890.2</ele><time>2026-08-06T10:44:33Z</time></trkpt>
    <trkpt lat="45.502152" lon="5.917280"><ele>892.2</ele><time>2026-08-06T10:44:49Z</time></trkpt>
    <trkpt lat="45.501733" lon="5.916336"><ele>896.2</ele><time>2026-08-06T10:45:18Z</time></trkpt>
    <trkpt lat="45.500959" lon="5.915201"><ele>902.2</ele><time>2026-08-06T10:46:01Z</time></trkpt>
    <trkpt lat="45.500674" lon="5.914211"><ele>906.0</ele><time>2026-08-06T10:46:28Z</time></trkpt>
    <trkpt lat="45.500492" lon="5.914047"><ele>906.8</ele><time>2026-08-06T10:46:36Z</time></trkpt>
    <trkpt lat="45.500278" lon="5.914154"><ele>907.2</ele><time>2026-08-06T10:46:44Z</time></trkpt>
    <trkpt lat="45.499966" lon="5.915511"><ele>914.6</ele><time>2026-08-06T10:47:23Z</time></trkpt>
    <trkpt lat="45.499797" lon="5.918332"><ele>929.2</ele><time>2026-08-06T10:48:55Z</time></trkpt>
    <trkpt lat="45.500056" lon="5.920358"><ele>940.6</ele><time>2026-08-06T10:50:06Z</time></trkpt>
    <trkpt lat="45.499738" lon="5.920774"><ele>942.8</ele><time>2026-08-06T10:50:28Z</time></trkpt>
    <trkpt lat="45.499085" lon="5.920555"><ele>947.0</ele><time>2026-08-06T10:51:00Z</time></trkpt>
    <trkpt lat="45.498608" lon="5.919056"><ele>956.2</ele><time>2026-08-06T10:51:59Z</time></trkpt>
    <trkpt lat="45.498233" lon="5.918487"><ele>960.0</ele><time>2026-08-06T10:52:24Z</time></trkpt>
    <trkpt lat="45.497902" lon="5.917471"><ele>967.6</ele><time>2026-08-06T10:53:09Z</time></trkpt>
    <trkpt lat="45.496891" lon="5.917965"><ele>978.0</ele><time>2026-08-06T10:54:07Z</time></trkpt>
    <trkpt lat="45.495464" lon="5.917982"><ele>990.6</ele><time>2026-08-06T10:55:28Z</time></trkpt>
    <trkpt lat="45.494506" lon="5.917197"><ele>1000.4</ele><time>2026-08-06T10:56:26Z</time></trkpt>
    <trkpt lat="45.494003" lon="5.917296"><ele>1005.4</ele><time>2026-08-06T10:56:52Z</time></trkpt>
    <trkpt lat="45.493674" lon="5.917135"><ele>1008.2</ele><time>2026-08-06T10:57:11Z</time></trkpt>
    <trkpt lat="45.492981" lon="5.915977"><ele>1017.2</ele><time>2026-08-06T10:57:59Z</time></trkpt>
    <trkpt lat="45.492437" lon="5.916248"><ele>1019.4</ele><time>2026-08-06T10:58:20Z</time></trkpt>
    <trkpt lat="45.491579" lon="5.915670"><ele>1022.8</ele><time>2026-08-06T10:58:48Z</time></trkpt>
    <trkpt lat="45.491085" lon="5.915980"><ele>1024.0</ele><time>2026-08-06T10:59:03Z</time></trkpt>
    <trkpt lat="45.491222" lon="5.917444"><ele>1030.6</ele><time>2026-08-06T10:59:38Z</time></trkpt>
    <trkpt lat="45.490514" lon="5.919348"><ele>1042.4</ele><time>2026-08-06T11:00:39Z</time></trkpt>
    <trkpt lat="45.490406" lon="5.920172"><ele>1046.6</ele><time>2026-08-06T11:01:06Z</time></trkpt>
    <trkpt lat="45.489934" lon="5.921253"><ele>1052.8</ele><time>2026-08-06T11:01:46Z</time></trkpt>
    <trkpt lat="45.489500" lon="5.921834"><ele>1057.6</ele><time>2026-08-06T11:02:13Z</time></trkpt>
    <trkpt lat="45.489117" lon="5.921449"><ele>1060.4</ele><time>2026-08-06T11:02:32Z</time></trkpt>
    <trkpt lat="45.488688" lon="5.921438"><ele>1062.2</ele><time>2026-08-06T11:02:49Z</time></trkpt>
    <trkpt lat="45.488523" lon="5.921276"><ele>1064.2</ele><time>2026-08-06T11:02:58Z</time></trkpt>
    <trkpt lat="45.488255" lon="5.920217"><ele>1070.4</ele><time>2026-08-06T11:03:34Z</time></trkpt>
    <trkpt lat="45.487769" lon="5.919073"><ele>1079.4</ele><time>2026-08-06T11:04:16Z</time></trkpt>
    <trkpt lat="45.486414" lon="5.917448"><ele>1094.4</ele><time>2026-08-06T11:05:36Z</time></trkpt>
    <trkpt lat="45.485194" lon="5.917307"><ele>1104.8</ele><time>2026-08-06T11:06:36Z</time></trkpt>
    <trkpt lat="45.483803" lon="5.916238"><ele>1116.8</ele><time>2026-08-06T11:07:51Z</time></trkpt>
    <trkpt lat="45.483096" lon="5.916166"><ele>1121.6</ele><time>2026-08-06T11:08:21Z</time></trkpt>
    <trkpt lat="45.481484" lon="5.915047"><ele>1132.8</ele><time>2026-08-06T11:09:27Z</time></trkpt>
    <trkpt lat="45.480902" lon="5.915110"><ele>1133.2</ele><time>2026-08-06T11:12:53Z</time></trkpt>
    <trkpt lat="45.480421" lon="5.914882"><ele>1135.4</ele><time>2026-08-06T11:13:29Z</time></trkpt>
    <trkpt lat="45.480334" lon="5.915064"><ele>1136.2</ele><time>2026-08-06T12:39:33Z</time></trkpt>
    <trkpt lat="45.479808" lon="5.914022"><ele>1132.2</ele><time>2026-08-06T12:40:01Z</time></trkpt>
    <trkpt lat="45.478599" lon="5.912263"><ele>1124.0</ele><time>2026-08-06T12:40:23Z</time></trkpt>
    <trkpt lat="45.477771" lon="5.910148"><ele>1111.4</ele><time>2026-08-06T12:40:37Z</time></trkpt>
    <trkpt lat="45.477181" lon="5.909675"><ele>1105.2</ele><time>2026-08-06T12:40:43Z</time></trkpt>
    <trkpt lat="45.476848" lon="5.909000"><ele>1100.4</ele><time>2026-08-06T12:40:48Z</time></trkpt>
    <trkpt lat="45.475698" lon="5.907609"><ele>1088.0</ele><time>2026-08-06T12:41:00Z</time></trkpt>
    <trkpt lat="45.475137" lon="5.906329"><ele>1078.8</ele><time>2026-08-06T12:41:10Z</time></trkpt>
    <trkpt lat="45.474895" lon="5.906271"><ele>1076.8</ele><time>2026-08-06T12:41:13Z</time></trkpt>
    <trkpt lat="45.474149" lon="5.906807"><ele>1071.8</ele><time>2026-08-06T12:41:23Z</time></trkpt>
    <trkpt lat="45.473706" lon="5.906740"><ele>1070.4</ele><time>2026-08-06T12:41:28Z</time></trkpt>
    <trkpt lat="45.472603" lon="5.905780"><ele>1069.2</ele><time>2026-08-06T12:41:43Z</time></trkpt>
    <trkpt lat="45.471900" lon="5.905401"><ele>1066.6</ele><time>2026-08-06T12:41:51Z</time></trkpt>
    <trkpt lat="45.470863" lon="5.904275"><ele>1060.2</ele><time>2026-08-06T12:42:03Z</time></trkpt>
    <trkpt lat="45.470471" lon="5.903075"><ele>1055.2</ele><time>2026-08-06T12:42:11Z</time></trkpt>
    <trkpt lat="45.469357" lon="5.902588"><ele>1045.8</ele><time>2026-08-06T12:42:21Z</time></trkpt>
    <trkpt lat="45.468327" lon="5.901608"><ele>1036.8</ele><time>2026-08-06T12:42:31Z</time></trkpt>
    <trkpt lat="45.467395" lon="5.900405"><ele>1027.0</ele><time>2026-08-06T12:42:41Z</time></trkpt>
    <trkpt lat="45.466485" lon="5.899886"><ele>1019.0</ele><time>2026-08-06T12:42:49Z</time></trkpt>
    <trkpt lat="45.465753" lon="5.900173"><ele>1012.8</ele><time>2026-08-06T12:42:56Z</time></trkpt>
    <trkpt lat="45.465269" lon="5.899765"><ele>1007.4</ele><time>2026-08-06T12:43:01Z</time></trkpt>
    <trkpt lat="45.463820" lon="5.899430"><ele>996.4</ele><time>2026-08-06T12:43:12Z</time></trkpt>
    <trkpt lat="45.463009" lon="5.897652"><ele>988.8</ele><time>2026-08-06T12:43:26Z</time></trkpt>
    <trkpt lat="45.463166" lon="5.897580"><ele>987.6</ele><time>2026-08-06T12:43:29Z</time></trkpt>
    <trkpt lat="45.463627" lon="5.898083"><ele>983.0</ele><time>2026-08-06T12:43:36Z</time></trkpt>
    <trkpt lat="45.464101" lon="5.898275"><ele>979.8</ele><time>2026-08-06T12:43:42Z</time></trkpt>
    <trkpt lat="45.464142" lon="5.898035"><ele>978.2</ele><time>2026-08-06T12:43:45Z</time></trkpt>
    <trkpt lat="45.463781" lon="5.897470"><ele>973.2</ele><time>2026-08-06T12:43:51Z</time></trkpt>
    <trkpt lat="45.462657" lon="5.896310"><ele>961.4</ele><time>2026-08-06T12:44:04Z</time></trkpt>
    <trkpt lat="45.461578" lon="5.896274"><ele>953.4</ele><time>2026-08-06T12:44:13Z</time></trkpt>
    <trkpt lat="45.461098" lon="5.895993"><ele>949.6</ele><time>2026-08-06T12:44:17Z</time></trkpt>
    <trkpt lat="45.460064" lon="5.894547"><ele>939.0</ele><time>2026-08-06T12:44:29Z</time></trkpt>
    <trkpt lat="45.459543" lon="5.894359"><ele>934.6</ele><time>2026-08-06T12:44:34Z</time></trkpt>
    <trkpt lat="45.456718" lon="5.890640"><ele>910.2</ele><time>2026-08-06T12:45:07Z</time></trkpt>
    <trkpt lat="45.456123" lon="5.889102"><ele>901.2</ele><time>2026-08-06T12:45:16Z</time></trkpt>
    <trkpt lat="45.455987" lon="5.887788"><ele>894.6</ele><time>2026-08-06T12:45:23Z</time></trkpt>
    <trkpt lat="45.455602" lon="5.886688"><ele>888.6</ele><time>2026-08-06T12:45:30Z</time></trkpt>
    <trkpt lat="45.455554" lon="5.885632"><ele>884.6</ele><time>2026-08-06T12:45:37Z</time></trkpt>
    <trkpt lat="45.454236" lon="5.884207"><ele>871.2</ele><time>2026-08-06T12:45:52Z</time></trkpt>
    <trkpt lat="45.453956" lon="5.884101"><ele>869.0</ele><time>2026-08-06T12:45:55Z</time></trkpt>
    <trkpt lat="45.453170" lon="5.884315"><ele>862.4</ele><time>2026-08-06T12:46:05Z</time></trkpt>
    <trkpt lat="45.452427" lon="5.883910"><ele>857.2</ele><time>2026-08-06T12:46:19Z</time></trkpt>
    <trkpt lat="45.451641" lon="5.883853"><ele>852.8</ele><time>2026-08-06T12:46:29Z</time></trkpt>
    <trkpt lat="45.450405" lon="5.883232"><ele>850.0</ele><time>2026-08-06T12:46:48Z</time></trkpt>
    <trkpt lat="45.447212" lon="5.880233"><ele>843.4</ele><time>2026-08-06T12:47:51Z</time></trkpt>
    <trkpt lat="45.446039" lon="5.880239"><ele>839.8</ele><time>2026-08-06T12:48:06Z</time></trkpt>
    <trkpt lat="45.444758" lon="5.879877"><ele>834.2</ele><time>2026-08-06T12:48:21Z</time></trkpt>
    <trkpt lat="45.443830" lon="5.880488"><ele>826.4</ele><time>2026-08-06T12:48:31Z</time></trkpt>
    <trkpt lat="45.440822" lon="5.879397"><ele>799.4</ele><time>2026-08-06T12:48:54Z</time></trkpt>
    <trkpt lat="45.437978" lon="5.877377"><ele>779.0</ele><time>2026-08-06T12:49:16Z</time></trkpt>
    <trkpt lat="45.436848" lon="5.877371"><ele>774.2</ele><time>2026-08-06T12:49:25Z</time></trkpt>
    <trkpt lat="45.436441" lon="5.876969"><ele>772.4</ele><time>2026-08-06T12:49:30Z</time></trkpt>
    <trkpt lat="45.434778" lon="5.876410"><ele>764.2</ele><time>2026-08-06T12:49:46Z</time></trkpt>
    <trkpt lat="45.434118" lon="5.875060"><ele>758.0</ele><time>2026-08-06T12:49:57Z</time></trkpt>
    <trkpt lat="45.433812" lon="5.873865"><ele>752.4</ele><time>2026-08-06T12:50:06Z</time></trkpt>
    <trkpt lat="45.433746" lon="5.872825"><ele>749.4</ele><time>2026-08-06T12:50:13Z</time></trkpt>
    <trkpt lat="45.433565" lon="5.872354"><ele>748.4</ele><time>2026-08-06T12:50:17Z</time></trkpt>
    <trkpt lat="45.432749" lon="5.871964"><ele>746.8</ele><time>2026-08-06T12:50:27Z</time></trkpt>
    <trkpt lat="45.432082" lon="5.870923"><ele>739.4</ele><time>2026-08-06T12:50:38Z</time></trkpt>
    <trkpt lat="45.430476" lon="5.870091"><ele>725.0</ele><time>2026-08-06T12:50:52Z</time></trkpt>
    <trkpt lat="45.430015" lon="5.869471"><ele>720.2</ele><time>2026-08-06T12:50:58Z</time></trkpt>
    <trkpt lat="45.428525" lon="5.869291"><ele>709.2</ele><time>2026-08-06T12:51:12Z</time></trkpt>
    <trkpt lat="45.428272" lon="5.868841"><ele>706.0</ele><time>2026-08-06T12:51:16Z</time></trkpt>
    <trkpt lat="45.428155" lon="5.867788"><ele>702.2</ele><time>2026-08-06T12:51:24Z</time></trkpt>
    <trkpt lat="45.427889" lon="5.867673"><ele>702.8</ele><time>2026-08-06T12:51:28Z</time></trkpt>
    <trkpt lat="45.427739" lon="5.867356"><ele>702.6</ele><time>2026-08-06T12:51:32Z</time></trkpt>
    <trkpt lat="45.426199" lon="5.866756"><ele>690.8</ele><time>2026-08-06T12:51:49Z</time></trkpt>
    <trkpt lat="45.425375" lon="5.866743"><ele>688.4</ele><time>2026-08-06T12:51:57Z</time></trkpt>
    <trkpt lat="45.425184" lon="5.866388"><ele>687.2</ele><time>2026-08-06T12:52:00Z</time></trkpt>
    <trkpt lat="45.425043" lon="5.864735"><ele>681.4</ele><time>2026-08-06T12:52:11Z</time></trkpt>
    <trkpt lat="45.424359" lon="5.864033"><ele>679.0</ele><time>2026-08-06T12:52:20Z</time></trkpt>
    <trkpt lat="45.423967" lon="5.862999"><ele>678.6</ele><time>2026-08-06T12:52:30Z</time></trkpt>
    <trkpt lat="45.422977" lon="5.861797"><ele>675.6</ele><time>2026-08-06T12:52:51Z</time></trkpt>
    <trkpt lat="45.421292" lon="5.861135"><ele>669.2</ele><time>2026-08-06T12:53:16Z</time></trkpt>
    <trkpt lat="45.421156" lon="5.860768"><ele>668.6</ele><time>2026-08-06T12:53:20Z</time></trkpt>
    <trkpt lat="45.421231" lon="5.859181"><ele>666.4</ele><time>2026-08-06T12:53:35Z</time></trkpt>
    <trkpt lat="45.421128" lon="5.858725"><ele>665.4</ele><time>2026-08-06T12:53:40Z</time></trkpt>
    <trkpt lat="45.419613" lon="5.857676"><ele>660.6</ele><time>2026-08-06T12:54:02Z</time></trkpt>
    <trkpt lat="45.417814" lon="5.854893"><ele>656.8</ele><time>2026-08-06T12:54:41Z</time></trkpt>
    <trkpt lat="45.416801" lon="5.854582"><ele>655.8</ele><time>2026-08-06T12:55:00Z</time></trkpt>
    <trkpt lat="45.416484" lon="5.854288"><ele>656.4</ele><time>2026-08-06T12:55:08Z</time></trkpt>
    <trkpt lat="45.415455" lon="5.854678"><ele>657.6</ele><time>2026-08-06T12:55:29Z</time></trkpt>
    <trkpt lat="45.414201" lon="5.854615"><ele>660.2</ele><time>2026-08-06T12:56:01Z</time></trkpt>
    <trkpt lat="45.413786" lon="5.854460"><ele>660.4</ele><time>2026-08-06T12:56:11Z</time></trkpt>
    <trkpt lat="45.413102" lon="5.853823"><ele>663.6</ele><time>2026-08-06T12:56:35Z</time></trkpt>
    <trkpt lat="45.412111" lon="5.853391"><ele>668.6</ele><time>2026-08-06T12:57:14Z</time></trkpt>
    <trkpt lat="45.411887" lon="5.853822"><ele>670.2</ele><time>2026-08-06T12:57:30Z</time></trkpt>
    <trkpt lat="45.412413" lon="5.854329"><ele>676.4</ele><time>2026-08-06T12:58:05Z</time></trkpt>
    <trkpt lat="45.412686" lon="5.854991"><ele>681.0</ele><time>2026-08-06T12:58:35Z</time></trkpt>
    <trkpt lat="45.412647" lon="5.855310"><ele>683.6</ele><time>2026-08-06T12:58:47Z</time></trkpt>
    <trkpt lat="45.411322" lon="5.856308"><ele>697.8</ele><time>2026-08-06T13:00:10Z</time></trkpt>
    <trkpt lat="45.410639" lon="5.857043"><ele>707.6</ele><time>2026-08-06T13:00:58Z</time></trkpt>
    <trkpt lat="45.410310" lon="5.857081"><ele>709.4</ele><time>2026-08-06T13:01:16Z</time></trkpt>
    <trkpt lat="45.410212" lon="5.856907"><ele>711.8</ele><time>2026-08-06T13:01:25Z</time></trkpt>
    <trkpt lat="45.410534" lon="5.856445"><ele>715.2</ele><time>2026-08-06T13:01:46Z</time></trkpt>
    <trkpt lat="45.410618" lon="5.855930"><ele>717.6</ele><time>2026-08-06T13:02:03Z</time></trkpt>
    <trkpt lat="45.410176" lon="5.855935"><ele>720.8</ele><time>2026-08-06T13:02:23Z</time></trkpt>
    <trkpt lat="45.409875" lon="5.855322"><ele>726.4</ele><time>2026-08-06T13:02:48Z</time></trkpt>
    <trkpt lat="45.408866" lon="5.854510"><ele>735.8</ele><time>2026-08-06T13:03:46Z</time></trkpt>
    <trkpt lat="45.408741" lon="5.854746"><ele>738.0</ele><time>2026-08-06T13:03:57Z</time></trkpt>
    <trkpt lat="45.409178" lon="5.856074"><ele>747.4</ele><time>2026-08-06T13:04:45Z</time></trkpt>
    <trkpt lat="45.408578" lon="5.856300"><ele>751.8</ele><time>2026-08-06T13:05:09Z</time></trkpt>
    <trkpt lat="45.407151" lon="5.857380"><ele>759.6</ele><time>2026-08-06T13:06:04Z</time></trkpt>
    <trkpt lat="45.406839" lon="5.857307"><ele>760.8</ele><time>2026-08-06T13:06:14Z</time></trkpt>
    <trkpt lat="45.406237" lon="5.856497"><ele>763.6</ele><time>2026-08-06T13:06:38Z</time></trkpt>
    <trkpt lat="45.405939" lon="5.856317"><ele>765.8</ele><time>2026-08-06T13:06:48Z</time></trkpt>
    <trkpt lat="45.404333" lon="5.856454"><ele>775.2</ele><time>2026-08-06T13:07:46Z</time></trkpt>
    <trkpt lat="45.403843" lon="5.856710"><ele>778.2</ele><time>2026-08-06T13:08:05Z</time></trkpt>
    <trkpt lat="45.403188" lon="5.856733"><ele>782.8</ele><time>2026-08-06T13:08:32Z</time></trkpt>
    <trkpt lat="45.402845" lon="5.857826"><ele>789.8</ele><time>2026-08-06T13:09:10Z</time></trkpt>
    <trkpt lat="45.402516" lon="5.858077"><ele>794.0</ele><time>2026-08-06T13:09:29Z</time></trkpt>
    <trkpt lat="45.400596" lon="5.857059"><ele>813.4</ele><time>2026-08-06T13:11:05Z</time></trkpt>
    <trkpt lat="45.399798" lon="5.857062"><ele>820.8</ele><time>2026-08-06T13:11:45Z</time></trkpt>
    <trkpt lat="45.398102" lon="5.856449"><ele>836.0</ele><time>2026-08-06T13:12:51Z</time></trkpt>
    <trkpt lat="45.397123" lon="5.856488"><ele>842.8</ele><time>2026-08-06T13:13:28Z</time></trkpt>
    <trkpt lat="45.396352" lon="5.855730"><ele>849.2</ele><time>2026-08-06T13:14:00Z</time></trkpt>
    <trkpt lat="45.394918" lon="5.855288"><ele>861.2</ele><time>2026-08-06T13:14:54Z</time></trkpt>
    <trkpt lat="45.394234" lon="5.855286"><ele>867.4</ele><time>2026-08-06T13:15:16Z</time></trkpt>
    <trkpt lat="45.393157" lon="5.854425"><ele>870.6</ele><time>2026-08-06T13:15:43Z</time></trkpt>
    <trkpt lat="45.391612" lon="5.853813"><ele>881.0</ele><time>2026-08-06T13:16:28Z</time></trkpt>
    <trkpt lat="45.390704" lon="5.853638"><ele>886.8</ele><time>2026-08-06T13:16:57Z</time></trkpt>
    <trkpt lat="45.389872" lon="5.853713"><ele>891.2</ele><time>2026-08-06T13:17:27Z</time></trkpt>
    <trkpt lat="45.388186" lon="5.852857"><ele>897.8</ele><time>2026-08-06T13:18:22Z</time></trkpt>
    <trkpt lat="45.385859" lon="5.852653"><ele>911.0</ele><time>2026-08-06T13:19:38Z</time></trkpt>
    <trkpt lat="45.384719" lon="5.853051"><ele>920.2</ele><time>2026-08-06T13:20:28Z</time></trkpt>
    <trkpt lat="45.384239" lon="5.853536"><ele>923.4</ele><time>2026-08-06T13:20:52Z</time></trkpt>
    <trkpt lat="45.381923" lon="5.855026"><ele>927.4</ele><time>2026-08-06T13:21:54Z</time></trkpt>
    <trkpt lat="45.381101" lon="5.855122"><ele>924.2</ele><time>2026-08-06T13:22:03Z</time></trkpt>
    <trkpt lat="45.380531" lon="5.855646"><ele>920.8</ele><time>2026-08-06T13:22:09Z</time></trkpt>
    <trkpt lat="45.379594" lon="5.855591"><ele>916.2</ele><time>2026-08-06T13:22:17Z</time></trkpt>
    <trkpt lat="45.379070" lon="5.855955"><ele>912.6</ele><time>2026-08-06T13:22:22Z</time></trkpt>
    <trkpt lat="45.378728" lon="5.855892"><ele>910.8</ele><time>2026-08-06T13:22:25Z</time></trkpt>
    <trkpt lat="45.378678" lon="5.855522"><ele>910.0</ele><time>2026-08-06T13:22:28Z</time></trkpt>
    <trkpt lat="45.379113" lon="5.854086"><ele>915.6</ele><time>2026-08-06T13:22:41Z</time></trkpt>
    <trkpt lat="45.379936" lon="5.853557"><ele>922.8</ele><time>2026-08-06T13:22:59Z</time></trkpt>
    <trkpt lat="45.380953" lon="5.851894"><ele>933.0</ele><time>2026-08-06T13:23:48Z</time></trkpt>
    <trkpt lat="45.380971" lon="5.851523"><ele>933.0</ele><time>2026-08-06T13:23:56Z</time></trkpt>
    <trkpt lat="45.380632" lon="5.850538"><ele>931.6</ele><time>2026-08-06T13:24:11Z</time></trkpt>
    <trkpt lat="45.380100" lon="5.849878"><ele>929.4</ele><time>2026-08-06T13:24:21Z</time></trkpt>
    <trkpt lat="45.379065" lon="5.849442"><ele>935.6</ele><time>2026-08-06T13:24:42Z</time></trkpt>
    <trkpt lat="45.378074" lon="5.848253"><ele>949.0</ele><time>2026-08-06T13:25:36Z</time></trkpt>
    <trkpt lat="45.375411" lon="5.846248"><ele>978.8</ele><time>2026-08-06T13:28:05Z</time></trkpt>
    <trkpt lat="45.373842" lon="5.844067"><ele>999.4</ele><time>2026-08-06T13:29:55Z</time></trkpt>
    <trkpt lat="45.370611" lon="5.841216"><ele>1038.0</ele><time>2026-08-06T13:32:58Z</time></trkpt>
    <trkpt lat="45.370334" lon="5.840682"><ele>1043.6</ele><time>2026-08-06T13:33:20Z</time></trkpt>
    <trkpt lat="45.370085" lon="5.839297"><ele>1054.0</ele><time>2026-08-06T13:34:13Z</time></trkpt>
    <trkpt lat="45.370483" lon="5.838959"><ele>1058.2</ele><time>2026-08-06T13:34:39Z</time></trkpt>
    <trkpt lat="45.371148" lon="5.838967"><ele>1064.4</ele><time>2026-08-06T13:35:16Z</time></trkpt>
    <trkpt lat="45.371454" lon="5.838601"><ele>1067.6</ele><time>2026-08-06T13:35:37Z</time></trkpt>
    <trkpt lat="45.371403" lon="5.838324"><ele>1069.8</ele><time>2026-08-06T13:35:48Z</time></trkpt>
    <trkpt lat="45.370865" lon="5.838467"><ele>1076.4</ele><time>2026-08-06T13:36:20Z</time></trkpt>
    <trkpt lat="45.369755" lon="5.836893"><ele>1092.8</ele><time>2026-08-06T13:37:51Z</time></trkpt>
    <trkpt lat="45.368431" lon="5.836261"><ele>1106.8</ele><time>2026-08-06T13:39:10Z</time></trkpt>
    <trkpt lat="45.367637" lon="5.834883"><ele>1122.2</ele><time>2026-08-06T13:40:20Z</time></trkpt>
    <trkpt lat="45.367133" lon="5.834574"><ele>1127.6</ele><time>2026-08-06T13:40:48Z</time></trkpt>
    <trkpt lat="45.365564" lon="5.834260"><ele>1142.2</ele><time>2026-08-06T13:42:22Z</time></trkpt>
    <trkpt lat="45.364144" lon="5.832884"><ele>1134.0</ele><time>2026-08-06T13:49:40Z</time></trkpt>
    <trkpt lat="45.363634" lon="5.831840"><ele>1126.2</ele><time>2026-08-06T13:49:47Z</time></trkpt>
    <trkpt lat="45.362064" lon="5.830171"><ele>1111.8</ele><time>2026-08-06T13:50:01Z</time></trkpt>
    <trkpt lat="45.360036" lon="5.829721"><ele>1093.2</ele><time>2026-08-06T13:50:16Z</time></trkpt>
    <trkpt lat="45.358707" lon="5.829959"><ele>1077.8</ele><time>2026-08-06T13:50:27Z</time></trkpt>
    <trkpt lat="45.358101" lon="5.829146"><ele>1067.2</ele><time>2026-08-06T13:50:34Z</time></trkpt>
    <trkpt lat="45.357778" lon="5.827566"><ele>1055.6</ele><time>2026-08-06T13:50:42Z</time></trkpt>
    <trkpt lat="45.357053" lon="5.826353"><ele>1044.0</ele><time>2026-08-06T13:50:50Z</time></trkpt>
    <trkpt lat="45.356948" lon="5.825616"><ele>1037.0</ele><time>2026-08-06T13:50:55Z</time></trkpt>
    <trkpt lat="45.355434" lon="5.824700"><ele>1018.2</ele><time>2026-08-06T13:51:09Z</time></trkpt>
    <trkpt lat="45.354321" lon="5.823615"><ele>1004.4</ele><time>2026-08-06T13:51:19Z</time></trkpt>
    <trkpt lat="45.353642" lon="5.822650"><ele>994.2</ele><time>2026-08-06T13:51:26Z</time></trkpt>
    <trkpt lat="45.352993" lon="5.822442"><ele>987.8</ele><time>2026-08-06T13:51:31Z</time></trkpt>
    <trkpt lat="45.352270" lon="5.821863"><ele>980.0</ele><time>2026-08-06T13:51:38Z</time></trkpt>
    <trkpt lat="45.351475" lon="5.820829"><ele>969.0</ele><time>2026-08-06T13:51:46Z</time></trkpt>
    <trkpt lat="45.350931" lon="5.819605"><ele>959.0</ele><time>2026-08-06T13:51:54Z</time></trkpt>
    <trkpt lat="45.350088" lon="5.819492"><ele>953.4</ele><time>2026-08-06T13:52:03Z</time></trkpt>
    <trkpt lat="45.348896" lon="5.819011"><ele>945.8</ele><time>2026-08-06T13:52:15Z</time></trkpt>
    <trkpt lat="45.348545" lon="5.818656"><ele>943.2</ele><time>2026-08-06T13:52:19Z</time></trkpt>
    <trkpt lat="45.347676" lon="5.817147"><ele>932.0</ele><time>2026-08-06T13:52:31Z</time></trkpt>
    <trkpt lat="45.346607" lon="5.816808"><ele>923.4</ele><time>2026-08-06T13:52:43Z</time></trkpt>
    <trkpt lat="45.345888" lon="5.816894"><ele>922.0</ele><time>2026-08-06T13:52:54Z</time></trkpt>
    <trkpt lat="45.345824" lon="5.816260"><ele>916.4</ele><time>2026-08-06T13:53:05Z</time></trkpt>
    <trkpt lat="45.344556" lon="5.816032"><ele>908.8</ele><time>2026-08-06T13:53:25Z</time></trkpt>
    <trkpt lat="45.344168" lon="5.815742"><ele>906.0</ele><time>2026-08-06T13:53:31Z</time></trkpt>
    <trkpt lat="45.343575" lon="5.815040"><ele>901.6</ele><time>2026-08-06T13:53:45Z</time></trkpt>
    <trkpt lat="45.343405" lon="5.814268"><ele>897.6</ele><time>2026-08-06T13:54:27Z</time></trkpt>
    <trkpt lat="45.343161" lon="5.814249"><ele>896.4</ele><time>2026-08-06T13:54:34Z</time></trkpt>
    <trkpt lat="45.342940" lon="5.814545"><ele>895.8</ele><time>2026-08-06T13:54:43Z</time></trkpt>
    <trkpt lat="45.342403" lon="5.813799"><ele>890.8</ele><time>2026-08-06T14:07:58Z</time></trkpt>
    <trkpt lat="45.342072" lon="5.813981"><ele>888.8</ele><time>2026-08-06T14:11:13Z</time></trkpt>
    <trkpt lat="45.341851" lon="5.813504"><ele>886.4</ele><time>2026-08-06T14:11:21Z</time></trkpt>
    <trkpt lat="45.341269" lon="5.812941"><ele>881.2</ele><time>2026-08-06T14:11:32Z</time></trkpt>
    <trkpt lat="45.341312" lon="5.812068"><ele>874.8</ele><time>2026-08-06T14:11:41Z</time></trkpt>
    <trkpt lat="45.341190" lon="5.811838"><ele>873.0</ele><time>2026-08-06T14:11:44Z</time></trkpt>
    <trkpt lat="45.340881" lon="5.812002"><ele>870.2</ele><time>2026-08-06T14:11:49Z</time></trkpt>
    <trkpt lat="45.340852" lon="5.812766"><ele>865.8</ele><time>2026-08-06T14:11:55Z</time></trkpt>
    <trkpt lat="45.341010" lon="5.813734"><ele>858.4</ele><time>2026-08-06T14:12:04Z</time></trkpt>
    <trkpt lat="45.340882" lon="5.814050"><ele>855.4</ele><time>2026-08-06T14:12:08Z</time></trkpt>
    <trkpt lat="45.340691" lon="5.814012"><ele>852.6</ele><time>2026-08-06T14:12:11Z</time></trkpt>
    <trkpt lat="45.340247" lon="5.810997"><ele>832.2</ele><time>2026-08-06T14:12:33Z</time></trkpt>
    <trkpt lat="45.339934" lon="5.810245"><ele>826.0</ele><time>2026-08-06T14:12:41Z</time></trkpt>
    <trkpt lat="45.340447" lon="5.809505"><ele>819.0</ele><time>2026-08-06T14:12:51Z</time></trkpt>
    <trkpt lat="45.340495" lon="5.809196"><ele>817.4</ele><time>2026-08-06T14:12:54Z</time></trkpt>
    <trkpt lat="45.339827" lon="5.807770"><ele>808.4</ele><time>2026-08-06T14:13:11Z</time></trkpt>
    <trkpt lat="45.337747" lon="5.807157"><ele>808.8</ele><time>2026-08-06T14:13:57Z</time></trkpt>
    <trkpt lat="45.336654" lon="5.807053"><ele>812.6</ele><time>2026-08-06T14:14:30Z</time></trkpt>
    <trkpt lat="45.334742" lon="5.807502"><ele>817.8</ele><time>2026-08-06T14:15:29Z</time></trkpt>
    <trkpt lat="45.333726" lon="5.807095"><ele>819.4</ele><time>2026-08-06T14:15:58Z</time></trkpt>
    <trkpt lat="45.332325" lon="5.805934"><ele>827.8</ele><time>2026-08-06T14:17:02Z</time></trkpt>
    <trkpt lat="45.331241" lon="5.805572"><ele>838.2</ele><time>2026-08-06T14:18:10Z</time></trkpt>
    <trkpt lat="45.328861" lon="5.803226"><ele>859.6</ele><time>2026-08-06T14:21:03Z</time></trkpt>
    <trkpt lat="45.328263" lon="5.801804"><ele>869.0</ele><time>2026-08-06T14:22:09Z</time></trkpt>
    <trkpt lat="45.327084" lon="5.800322"><ele>879.2</ele><time>2026-08-06T14:23:36Z</time></trkpt>
    <trkpt lat="45.326795" lon="5.798202"><ele>886.8</ele><time>2026-08-06T14:24:41Z</time></trkpt>
    <trkpt lat="45.326600" lon="5.797598"><ele>887.8</ele><time>2026-08-06T14:24:58Z</time></trkpt>
    <trkpt lat="45.325663" lon="5.796839"><ele>892.2</ele><time>2026-08-06T14:25:40Z</time></trkpt>
    <trkpt lat="45.324235" lon="5.794922"><ele>903.6</ele><time>2026-08-06T14:26:56Z</time></trkpt>
    <trkpt lat="45.323784" lon="5.793999"><ele>907.2</ele><time>2026-08-06T14:27:26Z</time></trkpt>
    <trkpt lat="45.323375" lon="5.794047"><ele>908.4</ele><time>2026-08-06T14:27:43Z</time></trkpt>
    <trkpt lat="45.323070" lon="5.795062"><ele>915.4</ele><time>2026-08-06T14:28:16Z</time></trkpt>
    <trkpt lat="45.322700" lon="5.795643"><ele>919.4</ele><time>2026-08-06T14:28:40Z</time></trkpt>
    <trkpt lat="45.322136" lon="5.795825"><ele>923.2</ele><time>2026-08-06T14:29:07Z</time></trkpt>
    <trkpt lat="45.321675" lon="5.795505"><ele>925.0</ele><time>2026-08-06T14:29:30Z</time></trkpt>
    <trkpt lat="45.321504" lon="5.795134"><ele>926.2</ele><time>2026-08-06T14:29:43Z</time></trkpt>
    <trkpt lat="45.321441" lon="5.794337"><ele>929.0</ele><time>2026-08-06T14:30:07Z</time></trkpt>
    <trkpt lat="45.321004" lon="5.793725"><ele>931.6</ele><time>2026-08-06T14:30:33Z</time></trkpt>
    <trkpt lat="45.320657" lon="5.792292"><ele>938.4</ele><time>2026-08-06T14:31:18Z</time></trkpt>
    <trkpt lat="45.319065" lon="5.789130"><ele>955.0</ele><time>2026-08-06T14:33:18Z</time></trkpt>
    <trkpt lat="45.318218" lon="5.787582"><ele>963.8</ele><time>2026-08-06T14:34:21Z</time></trkpt>
    <trkpt lat="45.317668" lon="5.787447"><ele>968.8</ele><time>2026-08-06T14:34:47Z</time></trkpt>
    <trkpt lat="45.316549" lon="5.785780"><ele>978.6</ele><time>2026-08-06T14:36:08Z</time></trkpt>
    <trkpt lat="45.316374" lon="5.785358"><ele>980.8</ele><time>2026-08-06T14:36:26Z</time></trkpt>
    <trkpt lat="45.316338" lon="5.784353"><ele>986.4</ele><time>2026-08-06T14:37:01Z</time></trkpt>
    <trkpt lat="45.315666" lon="5.784580"><ele>994.0</ele><time>2026-08-06T14:37:36Z</time></trkpt>
    <trkpt lat="45.314911" lon="5.783872"><ele>1001.6</ele><time>2026-08-06T14:38:20Z</time></trkpt>
    <trkpt lat="45.314485" lon="5.781716"><ele>1013.2</ele><time>2026-08-06T14:39:40Z</time></trkpt>
    <trkpt lat="45.313636" lon="5.779529"><ele>1026.2</ele><time>2026-08-06T14:41:09Z</time></trkpt>
    <trkpt lat="45.313179" lon="5.778794"><ele>1032.2</ele><time>2026-08-06T14:41:44Z</time></trkpt>
    <trkpt lat="45.311801" lon="5.777266"><ele>1047.0</ele><time>2026-08-06T14:43:22Z</time></trkpt>
    <trkpt lat="45.311688" lon="5.776817"><ele>1049.2</ele><time>2026-08-06T14:43:38Z</time></trkpt>
    <trkpt lat="45.311747" lon="5.775910"><ele>1056.6</ele><time>2026-08-06T14:44:13Z</time></trkpt>
    <trkpt lat="45.312514" lon="5.774937"><ele>1065.0</ele><time>2026-08-06T14:45:10Z</time></trkpt>
    <trkpt lat="45.312602" lon="5.774212"><ele>1068.6</ele><time>2026-08-06T14:45:40Z</time></trkpt>
    <trkpt lat="45.311480" lon="5.771190"><ele>1092.0</ele><time>2026-08-06T14:47:49Z</time></trkpt>
    <trkpt lat="45.310225" lon="5.770049"><ele>1108.2</ele><time>2026-08-06T14:49:14Z</time></trkpt>
    <trkpt lat="45.309784" lon="5.769342"><ele>1114.0</ele><time>2026-08-06T14:49:46Z</time></trkpt>
    <trkpt lat="45.309519" lon="5.769526"><ele>1116.4</ele><time>2026-08-06T14:50:01Z</time></trkpt>
    <trkpt lat="45.309549" lon="5.771106"><ele>1126.0</ele><time>2026-08-06T14:50:54Z</time></trkpt>
    <trkpt lat="45.309939" lon="5.772090"><ele>1134.0</ele><time>2026-08-06T14:51:34Z</time></trkpt>
    <trkpt lat="45.309278" lon="5.773050"><ele>1143.2</ele><time>2026-08-06T14:52:29Z</time></trkpt>
    <trkpt lat="45.308589" lon="5.773233"><ele>1149.8</ele><time>2026-08-06T14:53:07Z</time></trkpt>
    <trkpt lat="45.307614" lon="5.772425"><ele>1161.8</ele><time>2026-08-06T14:54:08Z</time></trkpt>
    <trkpt lat="45.306509" lon="5.772044"><ele>1173.4</ele><time>2026-08-06T14:55:16Z</time></trkpt>
    <trkpt lat="45.305951" lon="5.771187"><ele>1181.6</ele><time>2026-08-06T14:56:07Z</time></trkpt>
    <trkpt lat="45.305777" lon="5.770149"><ele>1188.8</ele><time>2026-08-06T14:56:51Z</time></trkpt>
    <trkpt lat="45.305192" lon="5.768975"><ele>1200.0</ele><time>2026-08-06T14:57:50Z</time></trkpt>
    <trkpt lat="45.304314" lon="5.768039"><ele>1209.8</ele><time>2026-08-06T14:58:48Z</time></trkpt>
    <trkpt lat="45.303504" lon="5.768051"><ele>1211.8</ele><time>2026-08-06T14:59:18Z</time></trkpt>
    <trkpt lat="45.302559" lon="5.768378"><ele>1215.2</ele><time>2026-08-06T14:59:52Z</time></trkpt>
    <trkpt lat="45.302033" lon="5.769504"><ele>1220.8</ele><time>2026-08-06T15:00:29Z</time></trkpt>
    <trkpt lat="45.302109" lon="5.770709"><ele>1229.4</ele><time>2026-08-06T15:01:17Z</time></trkpt>
    <trkpt lat="45.301754" lon="5.771035"><ele>1235.0</ele><time>2026-08-06T15:01:44Z</time></trkpt>
    <trkpt lat="45.299266" lon="5.769789"><ele>1262.2</ele><time>2026-08-06T15:04:27Z</time></trkpt>
    <trkpt lat="45.296778" lon="5.769521"><ele>1286.2</ele><time>2026-08-06T15:06:53Z</time></trkpt>
    <trkpt lat="45.295439" lon="5.768213"><ele>1295.2</ele><time>2026-08-06T15:08:10Z</time></trkpt>
    <trkpt lat="45.294698" lon="5.768241"><ele>1299.8</ele><time>2026-08-06T15:08:43Z</time></trkpt>
    <trkpt lat="45.293902" lon="5.767802"><ele>1306.4</ele><time>2026-08-06T15:09:24Z</time></trkpt>
    <trkpt lat="45.293053" lon="5.767698"><ele>1312.6</ele><time>2026-08-06T15:10:06Z</time></trkpt>
    <trkpt lat="45.291982" lon="5.767045"><ele>1321.2</ele><time>2026-08-06T15:11:04Z</time></trkpt>
    <trkpt lat="45.289776" lon="5.766947"><ele>1332.4</ele><time>2026-08-06T15:19:38Z</time></trkpt>
    <trkpt lat="45.288854" lon="5.766528"><ele>1329.4</ele><time>2026-08-06T15:20:13Z</time></trkpt>
    <trkpt lat="45.287821" lon="5.766319"><ele>1321.8</ele><time>2026-08-06T15:20:24Z</time></trkpt>
    <trkpt lat="45.287606" lon="5.766027"><ele>1319.4</ele><time>2026-08-06T15:20:27Z</time></trkpt>
    <trkpt lat="45.287512" lon="5.765145"><ele>1315.0</ele><time>2026-08-06T15:20:33Z</time></trkpt>
    <trkpt lat="45.287208" lon="5.764680"><ele>1312.6</ele><time>2026-08-06T15:20:37Z</time></trkpt>
    <trkpt lat="45.285094" lon="5.763786"><ele>1296.8</ele><time>2026-08-06T15:20:53Z</time></trkpt>
    <trkpt lat="45.284396" lon="5.763657"><ele>1291.8</ele><time>2026-08-06T15:20:59Z</time></trkpt>
    <trkpt lat="45.283263" lon="5.764113"><ele>1283.2</ele><time>2026-08-06T15:21:09Z</time></trkpt>
    <trkpt lat="45.282223" lon="5.763529"><ele>1274.4</ele><time>2026-08-06T15:21:19Z</time></trkpt>
    <trkpt lat="45.282081" lon="5.763738"><ele>1273.2</ele><time>2026-08-06T15:21:22Z</time></trkpt>
    <trkpt lat="45.282424" lon="5.764320"><ele>1270.8</ele><time>2026-08-06T15:21:28Z</time></trkpt>
    <trkpt lat="45.282464" lon="5.764750"><ele>1268.8</ele><time>2026-08-06T15:21:31Z</time></trkpt>
    <trkpt lat="45.282360" lon="5.765699"><ele>1263.0</ele><time>2026-08-06T15:21:37Z</time></trkpt>
    <trkpt lat="45.282427" lon="5.766358"><ele>1259.6</ele><time>2026-08-06T15:21:41Z</time></trkpt>
    <trkpt lat="45.282169" lon="5.766705"><ele>1257.2</ele><time>2026-08-06T15:21:45Z</time></trkpt>
    <trkpt lat="45.281043" lon="5.766141"><ele>1249.2</ele><time>2026-08-06T15:21:58Z</time></trkpt>
    <trkpt lat="45.279967" lon="5.766213"><ele>1241.6</ele><time>2026-08-06T15:22:10Z</time></trkpt>
    <trkpt lat="45.278712" lon="5.765981"><ele>1232.4</ele><time>2026-08-06T15:22:26Z</time></trkpt>
    <trkpt lat="45.277309" lon="5.766454"><ele>1221.4</ele><time>2026-08-06T15:22:41Z</time></trkpt>
    <trkpt lat="45.276102" lon="5.765847"><ele>1212.0</ele><time>2026-08-06T15:22:52Z</time></trkpt>
    <trkpt lat="45.275240" lon="5.765774"><ele>1205.6</ele><time>2026-08-06T15:23:00Z</time></trkpt>
    <trkpt lat="45.274924" lon="5.766019"><ele>1202.6</ele><time>2026-08-06T15:23:04Z</time></trkpt>
    <trkpt lat="45.274792" lon="5.767107"><ele>1196.2</ele><time>2026-08-06T15:23:12Z</time></trkpt>
    <trkpt lat="45.274610" lon="5.767392"><ele>1193.8</ele><time>2026-08-06T15:23:16Z</time></trkpt>
    <trkpt lat="45.274034" lon="5.766881"><ele>1189.8</ele><time>2026-08-06T15:23:25Z</time></trkpt>
    <trkpt lat="45.273485" lon="5.765905"><ele>1182.8</ele><time>2026-08-06T15:23:34Z</time></trkpt>
    <trkpt lat="45.272937" lon="5.765412"><ele>1177.4</ele><time>2026-08-06T15:23:41Z</time></trkpt>
    <trkpt lat="45.272726" lon="5.765443"><ele>1175.8</ele><time>2026-08-06T15:23:44Z</time></trkpt>
    <trkpt lat="45.272455" lon="5.766480"><ele>1172.4</ele><time>2026-08-06T15:23:53Z</time></trkpt>
    <trkpt lat="45.271845" lon="5.767135"><ele>1166.6</ele><time>2026-08-06T15:24:01Z</time></trkpt>
    <trkpt lat="45.271165" lon="5.769975"><ele>1150.0</ele><time>2026-08-06T15:24:23Z</time></trkpt>
    <trkpt lat="45.267548" lon="5.772034"><ele>1123.0</ele><time>2026-08-06T15:24:54Z</time></trkpt>
    <trkpt lat="45.266993" lon="5.772711"><ele>1116.6</ele><time>2026-08-06T15:25:00Z</time></trkpt>
    <trkpt lat="45.265704" lon="5.773081"><ele>1105.0</ele><time>2026-08-06T15:25:11Z</time></trkpt>
    <trkpt lat="45.264730" lon="5.774169"><ele>1093.6</ele><time>2026-08-06T15:25:24Z</time></trkpt>
    <trkpt lat="45.264606" lon="5.774510"><ele>1091.2</ele><time>2026-08-06T15:25:28Z</time></trkpt>
    <trkpt lat="45.264656" lon="5.774777"><ele>1090.4</ele><time>2026-08-06T15:25:31Z</time></trkpt>
    <trkpt lat="45.264989" lon="5.774950"><ele>1087.8</ele><time>2026-08-06T15:25:36Z</time></trkpt>
    <trkpt lat="45.265529" lon="5.775917"><ele>1080.4</ele><time>2026-08-06T15:25:46Z</time></trkpt>
    <trkpt lat="45.265488" lon="5.776743"><ele>1075.8</ele><time>2026-08-06T15:25:52Z</time></trkpt>
    <trkpt lat="45.265252" lon="5.777283"><ele>1072.4</ele><time>2026-08-06T15:25:57Z</time></trkpt>
    <trkpt lat="45.264370" lon="5.777576"><ele>1064.4</ele><time>2026-08-06T15:26:07Z</time></trkpt>
    <trkpt lat="45.261970" lon="5.777932"><ele>1044.6</ele><time>2026-08-06T15:26:33Z</time></trkpt>
    <trkpt lat="45.261116" lon="5.777352"><ele>1035.8</ele><time>2026-08-06T15:26:44Z</time></trkpt>
    <trkpt lat="45.259625" lon="5.777229"><ele>1023.2</ele><time>2026-08-06T15:27:08Z</time></trkpt>
    <trkpt lat="45.256256" lon="5.775205"><ele>991.6</ele><time>2026-08-06T15:27:48Z</time></trkpt>
    <trkpt lat="45.255864" lon="5.774815"><ele>988.2</ele><time>2026-08-06T15:27:52Z</time></trkpt>
    <trkpt lat="45.255443" lon="5.774136"><ele>984.8</ele><time>2026-08-06T15:27:58Z</time></trkpt>
    <trkpt lat="45.254802" lon="5.772350"><ele>978.4</ele><time>2026-08-06T15:28:11Z</time></trkpt>
    <trkpt lat="45.254608" lon="5.769861"><ele>969.4</ele><time>2026-08-06T15:28:27Z</time></trkpt>
    <trkpt lat="45.254191" lon="5.768233"><ele>966.0</ele><time>2026-08-06T15:28:38Z</time></trkpt>
    <trkpt lat="45.253969" lon="5.767932"><ele>965.2</ele><time>2026-08-06T15:28:41Z</time></trkpt>
    <trkpt lat="45.252134" lon="5.766649"><ele>959.0</ele><time>2026-08-06T15:29:03Z</time></trkpt>
    <trkpt lat="45.251113" lon="5.766773"><ele>955.4</ele><time>2026-08-06T15:29:14Z</time></trkpt>
    <trkpt lat="45.250510" lon="5.766532"><ele>952.8</ele><time>2026-08-06T15:29:20Z</time></trkpt>
    <trkpt lat="45.249345" lon="5.765452"><ele>944.2</ele><time>2026-08-06T15:29:33Z</time></trkpt>
    <trkpt lat="45.247294" lon="5.764035"><ele>924.6</ele><time>2026-08-06T15:29:54Z</time></trkpt>
    <trkpt lat="45.246892" lon="5.764067"><ele>920.4</ele><time>2026-08-06T15:29:58Z</time></trkpt>
    <trkpt lat="45.245988" lon="5.764815"><ele>910.8</ele><time>2026-08-06T15:30:09Z</time></trkpt>
    <trkpt lat="45.245145" lon="5.764263"><ele>899.8</ele><time>2026-08-06T15:30:17Z</time></trkpt>
    <trkpt lat="45.244593" lon="5.763467"><ele>892.8</ele><time>2026-08-06T15:30:23Z</time></trkpt>
    <trkpt lat="45.244173" lon="5.762325"><ele>883.2</ele><time>2026-08-06T15:30:30Z</time></trkpt>
    <trkpt lat="45.243736" lon="5.758534"><ele>854.6</ele><time>2026-08-06T15:30:59Z</time></trkpt>
    <trkpt lat="45.242214" lon="5.756165"><ele>840.6</ele><time>2026-08-06T15:31:26Z</time></trkpt>
    <trkpt lat="45.242106" lon="5.755338"><ele>835.4</ele><time>2026-08-06T15:31:32Z</time></trkpt>
    <trkpt lat="45.241439" lon="5.753773"><ele>825.2</ele><time>2026-08-06T15:31:44Z</time></trkpt>
    <trkpt lat="45.238529" lon="5.751932"><ele>811.0</ele><time>2026-08-06T15:32:11Z</time></trkpt>
    <trkpt lat="45.237238" lon="5.751338"><ele>808.8</ele><time>2026-08-06T15:32:25Z</time></trkpt>
    <trkpt lat="45.236305" lon="5.751234"><ele>805.8</ele><time>2026-08-06T15:32:35Z</time></trkpt>
    <trkpt lat="45.235284" lon="5.750810"><ele>801.8</ele><time>2026-08-06T15:32:46Z</time></trkpt>
    <trkpt lat="45.234140" lon="5.751133"><ele>794.4</ele><time>2026-08-06T15:32:58Z</time></trkpt>
    <trkpt lat="45.231962" lon="5.751127"><ele>775.6</ele><time>2026-08-06T15:33:18Z</time></trkpt>
    <trkpt lat="45.231407" lon="5.751436"><ele>769.6</ele><time>2026-08-06T15:33:24Z</time></trkpt>
    <trkpt lat="45.230375" lon="5.752799"><ele>756.4</ele><time>2026-08-06T15:33:47Z</time></trkpt>
    <trkpt lat="45.230501" lon="5.753715"><ele>749.6</ele><time>2026-08-06T15:33:55Z</time></trkpt>
    <trkpt lat="45.230365" lon="5.754256"><ele>745.0</ele><time>2026-08-06T15:33:59Z</time></trkpt>
    <trkpt lat="45.230126" lon="5.754500"><ele>741.6</ele><time>2026-08-06T15:34:02Z</time></trkpt>
    <trkpt lat="45.229354" lon="5.754750"><ele>733.2</ele><time>2026-08-06T15:34:11Z</time></trkpt>
    <trkpt lat="45.229483" lon="5.755878"><ele>725.0</ele><time>2026-08-06T15:34:20Z</time></trkpt>
    <trkpt lat="45.229181" lon="5.756926"><ele>716.4</ele><time>2026-08-06T15:34:29Z</time></trkpt>
    <trkpt lat="45.228841" lon="5.757567"><ele>710.2</ele><time>2026-08-06T15:34:34Z</time></trkpt>
    <trkpt lat="45.228426" lon="5.758170"><ele>704.6</ele><time>2026-08-06T15:34:39Z</time></trkpt>
    <trkpt lat="45.227666" lon="5.758671"><ele>697.6</ele><time>2026-08-06T15:34:46Z</time></trkpt>
    <trkpt lat="45.226376" lon="5.759076"><ele>683.6</ele><time>2026-08-06T15:34:58Z</time></trkpt>
    <trkpt lat="45.226019" lon="5.760517"><ele>671.6</ele><time>2026-08-06T15:35:09Z</time></trkpt>
    <trkpt lat="45.225058" lon="5.761665"><ele>658.2</ele><time>2026-08-06T15:35:22Z</time></trkpt>
    <trkpt lat="45.224933" lon="5.763068"><ele>648.4</ele><time>2026-08-06T15:35:32Z</time></trkpt>
    <trkpt lat="45.225275" lon="5.764583"><ele>636.2</ele><time>2026-08-06T15:35:44Z</time></trkpt>
    <trkpt lat="45.225927" lon="5.765175"><ele>627.8</ele><time>2026-08-06T15:35:52Z</time></trkpt>
    <trkpt lat="45.227250" lon="5.765670"><ele>614.8</ele><time>2026-08-06T15:36:06Z</time></trkpt>
    <trkpt lat="45.227730" lon="5.767403"><ele>600.8</ele><time>2026-08-06T15:36:18Z</time></trkpt>
    <trkpt lat="45.228267" lon="5.768407"><ele>593.0</ele><time>2026-08-06T15:36:28Z</time></trkpt>
    <trkpt lat="45.228160" lon="5.769056"><ele>587.8</ele><time>2026-08-06T15:36:34Z</time></trkpt>
    <trkpt lat="45.227472" lon="5.769027"><ele>580.6</ele><time>2026-08-06T15:36:42Z</time></trkpt>
    <trkpt lat="45.226911" lon="5.768405"><ele>573.8</ele><time>2026-08-06T15:36:50Z</time></trkpt>
    <trkpt lat="45.226218" lon="5.768563"><ele>567.0</ele><time>2026-08-06T15:36:58Z</time></trkpt>
    <trkpt lat="45.224939" lon="5.768234"><ele>554.2</ele><time>2026-08-06T15:37:12Z</time></trkpt>
    <trkpt lat="45.224354" lon="5.767874"><ele>547.4</ele><time>2026-08-06T15:37:19Z</time></trkpt>
    <trkpt lat="45.223118" lon="5.767870"><ele>534.8</ele><time>2026-08-06T15:37:37Z</time></trkpt>
    <trkpt lat="45.222851" lon="5.767606"><ele>532.4</ele><time>2026-08-06T15:37:41Z</time></trkpt>
    <trkpt lat="45.222129" lon="5.766021"><ele>519.8</ele><time>2026-08-06T15:37:56Z</time></trkpt>
    <trkpt lat="45.221338" lon="5.765333"><ele>512.0</ele><time>2026-08-06T15:38:07Z</time></trkpt>
    <trkpt lat="45.221123" lon="5.764593"><ele>506.4</ele><time>2026-08-06T15:38:15Z</time></trkpt>
    <trkpt lat="45.219768" lon="5.762284"><ele>488.2</ele><time>2026-08-06T15:38:44Z</time></trkpt>
    <trkpt lat="45.219126" lon="5.761629"><ele>480.4</ele><time>2026-08-06T15:38:54Z</time></trkpt>
    <trkpt lat="45.218831" lon="5.760392"><ele>471.4</ele><time>2026-08-06T15:39:08Z</time></trkpt>
    <trkpt lat="45.218589" lon="5.760314"><ele>469.2</ele><time>2026-08-06T15:39:11Z</time></trkpt>
    <trkpt lat="45.217797" lon="5.760583"><ele>461.0</ele><time>2026-08-06T15:39:22Z</time></trkpt>
    <trkpt lat="45.217334" lon="5.760390"><ele>456.0</ele><time>2026-08-06T15:39:29Z</time></trkpt>
    <trkpt lat="45.217400" lon="5.760191"><ele>454.8</ele><time>2026-08-06T15:39:32Z</time></trkpt>
    <trkpt lat="45.217996" lon="5.759856"><ele>450.4</ele><time>2026-08-06T15:39:41Z</time></trkpt>
    <trkpt lat="45.218342" lon="5.759250"><ele>444.8</ele><time>2026-08-06T15:39:48Z</time></trkpt>
    <trkpt lat="45.218386" lon="5.758918"><ele>442.2</ele><time>2026-08-06T15:39:51Z</time></trkpt>
    <trkpt lat="45.216770" lon="5.755229"><ele>413.8</ele><time>2026-08-06T15:40:27Z</time></trkpt>
    <trkpt lat="45.216754" lon="5.754977"><ele>412.2</ele><time>2026-08-06T15:40:30Z</time></trkpt>
    <trkpt lat="45.217077" lon="5.754526"><ele>408.4</ele><time>2026-08-06T15:40:36Z</time></trkpt>
    <trkpt lat="45.217200" lon="5.754054"><ele>405.0</ele><time>2026-08-06T15:40:40Z</time></trkpt>
    <trkpt lat="45.217055" lon="5.753621"><ele>401.6</ele><time>2026-08-06T15:40:44Z</time></trkpt>
    <trkpt lat="45.216535" lon="5.753458"><ele>397.4</ele><time>2026-08-06T15:40:51Z</time></trkpt>
    <trkpt lat="45.216349" lon="5.753177"><ele>395.0</ele><time>2026-08-06T15:40:56Z</time></trkpt>
    <trkpt lat="45.216381" lon="5.752804"><ele>392.6</ele><time>2026-08-06T15:41:00Z</time></trkpt>
    <trkpt lat="45.216761" lon="5.752321"><ele>388.2</ele><time>2026-08-06T15:41:07Z</time></trkpt>
    <trkpt lat="45.216769" lon="5.751853"><ele>385.4</ele><time>2026-08-06T15:41:11Z</time></trkpt>
    <trkpt lat="45.216264" lon="5.750026"><ele>374.4</ele><time>2026-08-06T15:41:27Z</time></trkpt>
    <trkpt lat="45.215586" lon="5.749380"><ele>367.4</ele><time>2026-08-06T15:41:36Z</time></trkpt>
    <trkpt lat="45.215297" lon="5.748451"><ele>361.2</ele><time>2026-08-06T15:41:45Z</time></trkpt>
    <trkpt lat="45.214838" lon="5.748239"><ele>357.2</ele><time>2026-08-06T15:41:52Z</time></trkpt>
    <trkpt lat="45.214357" lon="5.747488"><ele>351.0</ele><time>2026-08-06T15:42:02Z</time></trkpt>
    <trkpt lat="45.213390" lon="5.747359"><ele>342.6</ele><time>2026-08-06T15:42:14Z</time></trkpt>
    <trkpt lat="45.211410" lon="5.746454"><ele>321.2</ele><time>2026-08-06T15:42:59Z</time></trkpt>
    <trkpt lat="45.210050" lon="5.743873"><ele>308.4</ele><time>2026-08-06T15:43:38Z</time></trkpt>
    <trkpt lat="45.209647" lon="5.743363"><ele>303.2</ele><time>2026-08-06T15:43:46Z</time></trkpt>
    <trkpt lat="45.209252" lon="5.742226"><ele>294.6</ele><time>2026-08-06T15:43:58Z</time></trkpt>
    <trkpt lat="45.207970" lon="5.741652"><ele>283.0</ele><time>2026-08-06T15:44:16Z</time></trkpt>
    <trkpt lat="45.207346" lon="5.740999"><ele>275.6</ele><time>2026-08-06T15:44:27Z</time></trkpt>
    <trkpt lat="45.205494" lon="5.738930"><ele>246.2</ele><time>2026-08-06T15:48:56Z</time></trkpt>
    <trkpt lat="45.201913" lon="5.734159"><ele>225.4</ele><time>2026-08-06T15:50:16Z</time></trkpt>
    <trkpt lat="45.197851" lon="5.732613"><ele>223.6</ele><time>2026-08-06T15:51:34Z</time></trkpt>
    <trkpt lat="45.196492" lon="5.731521"><ele>221.8</ele><time>2026-08-06T15:52:25Z</time></trkpt>
    <trkpt lat="45.194625" lon="5.728581"><ele>221.2</ele><time>2026-08-06T15:53:28Z</time></trkpt>
    <trkpt lat="45.193545" lon="5.723951"><ele>221.8</ele><time>2026-08-06T15:54:41Z</time></trkpt>
    <trkpt lat="45.191762" lon="5.724417"><ele>219.2</ele><time>2026-08-06T15:55:22Z</time></trkpt>
    <trkpt lat="45.191618" lon="5.723922"><ele>218.8</ele><time>2026-08-06T15:55:35Z</time></trkpt>
    <trkpt lat="45.190929" lon="5.724177"><ele>219.0</ele><time>2026-08-06T15:55:54Z</time></trkpt>
    <trkpt lat="45.190449" lon="5.724700"><ele>220.0</ele><time>2026-08-06T15:56:10Z</time></trkpt>
    <trkpt lat="45.189190" lon="5.722565"><ele>220.4</ele><time>2026-08-06T15:57:16Z</time></trkpt>
    <trkpt lat="45.184406" lon="5.725789"><ele>220.2</ele><time>2026-08-06T15:59:52Z</time></trkpt>
    <trkpt lat="45.184752" lon="5.725473"><ele>220.8</ele><time>2026-08-06T16:00:15Z</time></trkpt>
    <trkpt lat="45.184733" lon="5.725248"><ele>219.6</ele><time>2026-08-06T16:00:31Z</time></trkpt>
    </trkseg>
  </trk>
</gpx>
