<?xml version="1.0" encoding="UTF-8"?>
<gpx version="1.1" creator="tripplanner (converted from Garmin TCX)" xmlns="http://www.topografix.com/GPX/1/1">
  <metadata>
    <name>Castellane → Barcelonnette</name>
    <time>2026-08-02T06:31:42Z</time>
  </metadata>
  <trk>
    <name>Castellane → Barcelonnette</name>
    <trkseg>
    <trkpt lat="43.846169" lon="6.514397"><ele>727.4</ele><time>2026-08-02T06:31:42Z</time></trkpt>
    <trkpt lat="43.845989" lon="6.514432"><ele>727.6</ele><time>2026-08-02T06:31:57Z</time></trkpt>
    <trkpt lat="43.845844" lon="6.513996"><ele>727.4</ele><time>2026-08-02T06:32:12Z</time></trkpt>
    <trkpt lat="43.846024" lon="6.512722"><ele>726.2</ele><time>2026-08-02T06:32:51Z</time></trkpt>
    <trkpt lat="43.846520" lon="6.512630"><ele>725.8</ele><time>2026-08-02T06:33:12Z</time></trkpt>
    <trkpt lat="43.846360" lon="6.513417"><ele>726.0</ele><time>2026-08-02T06:33:29Z</time></trkpt>
    <trkpt lat="43.846766" lon="6.513763"><ele>727.2</ele><time>2026-08-02T06:33:45Z</time></trkpt>
    <trkpt lat="43.846669" lon="6.513876"><ele>727.8</ele><time>2026-08-02T06:35:48Z</time></trkpt>
    <trkpt lat="43.846280" lon="6.513603"><ele>727.0</ele><time>2026-08-02T06:36:05Z</time></trkpt>
    <trkpt lat="43.846458" lon="6.512590"><ele>726.4</ele><time>2026-08-02T06:36:34Z</time></trkpt>
    <trkpt lat="43.847523" lon="6.512050"><ele>726.2</ele><time>2026-08-02T06:37:05Z</time></trkpt>
    <trkpt lat="43.847727" lon="6.511943"><ele>727.6</ele><time>2026-08-02T06:37:12Z</time></trkpt>
    <trkpt lat="43.848176" lon="6.510759"><ele>731.0</ele><time>2026-08-02T06:37:41Z</time></trkpt>
    <trkpt lat="43.848932" lon="6.509330"><ele>735.6</ele><time>2026-08-02T06:38:18Z</time></trkpt>
    <trkpt lat="43.851226" lon="6.508058"><ele>747.8</ele><time>2026-08-02T06:39:36Z</time></trkpt>
    <trkpt lat="43.853012" lon="6.508651"><ele>753.2</ele><time>2026-08-02T06:40:33Z</time></trkpt>
    <trkpt lat="43.854914" lon="6.508066"><ele>763.8</ele><time>2026-08-02T06:42:23Z</time></trkpt>
    <trkpt lat="43.856089" lon="6.508927"><ele>770.2</ele><time>2026-08-02T06:43:04Z</time></trkpt>
    <trkpt lat="43.856497" lon="6.509764"><ele>774.0</ele><time>2026-08-02T06:43:31Z</time></trkpt>
    <trkpt lat="43.857298" lon="6.509445"><ele>779.2</ele><time>2026-08-02T06:44:04Z</time></trkpt>
    <trkpt lat="43.857866" lon="6.509599"><ele>782.8</ele><time>2026-08-02T06:44:31Z</time></trkpt>
    <trkpt lat="43.858026" lon="6.509829"><ele>784.0</ele><time>2026-08-02T06:44:41Z</time></trkpt>
    <trkpt lat="43.858003" lon="6.510608"><ele>787.4</ele><time>2026-08-02T06:45:05Z</time></trkpt>
    <trkpt lat="43.858153" lon="6.510920"><ele>789.2</ele><time>2026-08-02T06:45:16Z</time></trkpt>
    <trkpt lat="43.858460" lon="6.511027"><ele>791.6</ele><time>2026-08-02T06:45:30Z</time></trkpt>
    <trkpt lat="43.859392" lon="6.511044"><ele>796.2</ele><time>2026-08-02T06:46:09Z</time></trkpt>
    <trkpt lat="43.860619" lon="6.512722"><ele>805.0</ele><time>2026-08-02T06:47:36Z</time></trkpt>
    <trkpt lat="43.861614" lon="6.512372"><ele>809.6</ele><time>2026-08-02T06:48:20Z</time></trkpt>
    <trkpt lat="43.862493" lon="6.512356"><ele>813.8</ele><time>2026-08-02T06:48:57Z</time></trkpt>
    <trkpt lat="43.864343" lon="6.510467"><ele>824.4</ele><time>2026-08-02T06:50:32Z</time></trkpt>
    <trkpt lat="43.864904" lon="6.510119"><ele>827.4</ele><time>2026-08-02T06:50:59Z</time></trkpt>
    <trkpt lat="43.865550" lon="6.508944"><ele>831.6</ele><time>2026-08-02T06:51:44Z</time></trkpt>
    <trkpt lat="43.866566" lon="6.508325"><ele>837.0</ele><time>2026-08-02T06:52:31Z</time></trkpt>
    <trkpt lat="43.866880" lon="6.507946"><ele>839.2</ele><time>2026-08-02T06:52:49Z</time></trkpt>
    <trkpt lat="43.867617" lon="6.505081"><ele>851.0</ele><time>2026-08-02T06:54:24Z</time></trkpt>
    <trkpt lat="43.867476" lon="6.503402"><ele>857.0</ele><time>2026-08-02T06:55:16Z</time></trkpt>
    <trkpt lat="43.867631" lon="6.503171"><ele>857.8</ele><time>2026-08-02T06:55:26Z</time></trkpt>
    <trkpt lat="43.867822" lon="6.503192"><ele>858.8</ele><time>2026-08-02T06:55:34Z</time></trkpt>
    <trkpt lat="43.867962" lon="6.503538"><ele>859.8</ele><time>2026-08-02T06:55:46Z</time></trkpt>
    <trkpt lat="43.867865" lon="6.504145"><ele>861.4</ele><time>2026-08-02T06:56:05Z</time></trkpt>
    <trkpt lat="43.868033" lon="6.505131"><ele>864.2</ele><time>2026-08-02T06:56:34Z</time></trkpt>
    <trkpt lat="43.867999" lon="6.506083"><ele>868.2</ele><time>2026-08-02T06:57:04Z</time></trkpt>
    <trkpt lat="43.869041" lon="6.507980"><ele>876.6</ele><time>2026-08-02T06:58:13Z</time></trkpt>
    <trkpt lat="43.869545" lon="6.510782"><ele>887.2</ele><time>2026-08-02T06:59:36Z</time></trkpt>
    <trkpt lat="43.871071" lon="6.512310"><ele>894.4</ele><time>2026-08-02T07:02:02Z</time></trkpt>
    <trkpt lat="43.871107" lon="6.512338"><ele>894.6</ele><time>2026-08-02T07:02:03Z</time></trkpt>
    <trkpt lat="43.872054" lon="6.512848"><ele>893.8</ele><time>2026-08-02T07:02:26Z</time></trkpt>
    <trkpt lat="43.873351" lon="6.514150"><ele>893.2</ele><time>2026-08-02T07:03:00Z</time></trkpt>
    <trkpt lat="43.873546" lon="6.514564"><ele>892.4</ele><time>2026-08-02T07:03:07Z</time></trkpt>
    <trkpt lat="43.873660" lon="6.515551"><ele>891.6</ele><time>2026-08-02T07:03:21Z</time></trkpt>
    <trkpt lat="43.873830" lon="6.518756"><ele>884.2</ele><time>2026-08-02T07:03:56Z</time></trkpt>
    <trkpt lat="43.873866" lon="6.519473"><ele>884.2</ele><time>2026-08-02T07:04:03Z</time></trkpt>
    <trkpt lat="43.873737" lon="6.522108"><ele>885.2</ele><time>2026-08-02T07:04:33Z</time></trkpt>
    <trkpt lat="43.873967" lon="6.523942"><ele>885.8</ele><time>2026-08-02T07:04:55Z</time></trkpt>
    <trkpt lat="43.874728" lon="6.526451"><ele>887.4</ele><time>2026-08-02T07:05:29Z</time></trkpt>
    <trkpt lat="43.874859" lon="6.527814"><ele>887.2</ele><time>2026-08-02T07:05:46Z</time></trkpt>
    <trkpt lat="43.875302" lon="6.529261"><ele>887.4</ele><time>2026-08-02T07:06:05Z</time></trkpt>
    <trkpt lat="43.875262" lon="6.530161"><ele>887.2</ele><time>2026-08-02T07:06:16Z</time></trkpt>
    <trkpt lat="43.875839" lon="6.531482"><ele>887.4</ele><time>2026-08-02T07:06:34Z</time></trkpt>
    <trkpt lat="43.875773" lon="6.532496"><ele>887.0</ele><time>2026-08-02T07:06:46Z</time></trkpt>
    <trkpt lat="43.876428" lon="6.533060"><ele>886.4</ele><time>2026-08-02T07:06:58Z</time></trkpt>
    <trkpt lat="43.876810" lon="6.534358"><ele>886.2</ele><time>2026-08-02T07:07:13Z</time></trkpt>
    <trkpt lat="43.876935" lon="6.535350"><ele>886.2</ele><time>2026-08-02T07:07:24Z</time></trkpt>
    <trkpt lat="43.877566" lon="6.536553"><ele>886.8</ele><time>2026-08-02T07:07:40Z</time></trkpt>
    <trkpt lat="43.878194" lon="6.536790"><ele>886.6</ele><time>2026-08-02T07:07:50Z</time></trkpt>
    <trkpt lat="43.878507" lon="6.537289"><ele>886.2</ele><time>2026-08-02T07:07:58Z</time></trkpt>
    <trkpt lat="43.878473" lon="6.537923"><ele>886.2</ele><time>2026-08-02T07:08:06Z</time></trkpt>
    <trkpt lat="43.878021" lon="6.538662"><ele>886.0</ele><time>2026-08-02T07:08:17Z</time></trkpt>
    <trkpt lat="43.878544" lon="6.539836"><ele>886.2</ele><time>2026-08-02T07:08:34Z</time></trkpt>
    <trkpt lat="43.878483" lon="6.540888"><ele>887.2</ele><time>2026-08-02T07:08:48Z</time></trkpt>
    <trkpt lat="43.878236" lon="6.541823"><ele>889.6</ele><time>2026-08-02T07:09:03Z</time></trkpt>
    <trkpt lat="43.878365" lon="6.542194"><ele>889.8</ele><time>2026-08-02T07:09:09Z</time></trkpt>
    <trkpt lat="43.878629" lon="6.542104"><ele>890.6</ele><time>2026-08-02T07:09:15Z</time></trkpt>
    <trkpt lat="43.879710" lon="6.540802"><ele>891.4</ele><time>2026-08-02T07:09:42Z</time></trkpt>
    <trkpt lat="43.879966" lon="6.540730"><ele>891.6</ele><time>2026-08-02T07:09:47Z</time></trkpt>
    <trkpt lat="43.880429" lon="6.541135"><ele>891.6</ele><time>2026-08-02T07:09:58Z</time></trkpt>
    <trkpt lat="43.880608" lon="6.542171"><ele>892.0</ele><time>2026-08-02T07:10:13Z</time></trkpt>
    <trkpt lat="43.880949" lon="6.542305"><ele>892.4</ele><time>2026-08-02T07:10:20Z</time></trkpt>
    <trkpt lat="43.881661" lon="6.541153"><ele>892.2</ele><time>2026-08-02T07:10:39Z</time></trkpt>
    <trkpt lat="43.882421" lon="6.540402"><ele>892.6</ele><time>2026-08-02T07:10:56Z</time></trkpt>
    <trkpt lat="43.882727" lon="6.540328"><ele>892.6</ele><time>2026-08-02T07:11:02Z</time></trkpt>
    <trkpt lat="43.883378" lon="6.540606"><ele>892.8</ele><time>2026-08-02T07:11:15Z</time></trkpt>
    <trkpt lat="43.883788" lon="6.540041"><ele>892.6</ele><time>2026-08-02T07:11:26Z</time></trkpt>
    <trkpt lat="43.884322" lon="6.539783"><ele>892.6</ele><time>2026-08-02T07:11:36Z</time></trkpt>
    <trkpt lat="43.885106" lon="6.538204"><ele>892.8</ele><time>2026-08-02T07:12:00Z</time></trkpt>
    <trkpt lat="43.885984" lon="6.537309"><ele>892.6</ele><time>2026-08-02T07:12:18Z</time></trkpt>
    <trkpt lat="43.887366" lon="6.537008"><ele>892.8</ele><time>2026-08-02T07:12:40Z</time></trkpt>
    <trkpt lat="43.887880" lon="6.538348"><ele>892.8</ele><time>2026-08-02T07:12:58Z</time></trkpt>
    <trkpt lat="43.888077" lon="6.538517"><ele>892.8</ele><time>2026-08-02T07:13:02Z</time></trkpt>
    <trkpt lat="43.888646" lon="6.538111"><ele>893.6</ele><time>2026-08-02T07:13:14Z</time></trkpt>
    <trkpt lat="43.890238" lon="6.538044"><ele>894.0</ele><time>2026-08-02T07:13:42Z</time></trkpt>
    <trkpt lat="43.891112" lon="6.536118"><ele>893.8</ele><time>2026-08-02T07:14:09Z</time></trkpt>
    <trkpt lat="43.891754" lon="6.535405"><ele>893.2</ele><time>2026-08-02T07:14:25Z</time></trkpt>
    <trkpt lat="43.891754" lon="6.535405"><ele>893.2</ele><time>2026-08-02T07:14:26Z</time></trkpt>
    <trkpt lat="43.892536" lon="6.535764"><ele>893.4</ele><time>2026-08-02T07:14:34Z</time></trkpt>
    <trkpt lat="43.893111" lon="6.536283"><ele>894.0</ele><time>2026-08-02T07:14:45Z</time></trkpt>
    <trkpt lat="43.893889" lon="6.538099"><ele>895.2</ele><time>2026-08-02T07:15:11Z</time></trkpt>
    <trkpt lat="43.894742" lon="6.539190"><ele>895.2</ele><time>2026-08-02T07:15:30Z</time></trkpt>
    <trkpt lat="43.895468" lon="6.540526"><ele>895.6</ele><time>2026-08-02T07:15:50Z</time></trkpt>
    <trkpt lat="43.895756" lon="6.540510"><ele>896.0</ele><time>2026-08-02T07:15:55Z</time></trkpt>
    <trkpt lat="43.895934" lon="6.540147"><ele>896.0</ele><time>2026-08-02T07:16:00Z</time></trkpt>
    <trkpt lat="43.895638" lon="6.538296"><ele>899.6</ele><time>2026-08-02T07:16:27Z</time></trkpt>
    <trkpt lat="43.895704" lon="6.537937"><ele>900.0</ele><time>2026-08-02T07:16:33Z</time></trkpt>
    <trkpt lat="43.895945" lon="6.537871"><ele>900.6</ele><time>2026-08-02T07:16:39Z</time></trkpt>
    <trkpt lat="43.896436" lon="6.538416"><ele>903.2</ele><time>2026-08-02T07:16:55Z</time></trkpt>
    <trkpt lat="43.897065" lon="6.538206"><ele>905.8</ele><time>2026-08-02T07:17:14Z</time></trkpt>
    <trkpt lat="43.897994" lon="6.538844"><ele>908.6</ele><time>2026-08-02T07:17:44Z</time></trkpt>
    <trkpt lat="43.899301" lon="6.539432"><ele>910.6</ele><time>2026-08-02T07:18:21Z</time></trkpt>
    <trkpt lat="43.900101" lon="6.540706"><ele>912.8</ele><time>2026-08-02T07:18:55Z</time></trkpt>
    <trkpt lat="43.901071" lon="6.540619"><ele>914.0</ele><time>2026-08-02T07:19:51Z</time></trkpt>
    <trkpt lat="43.901628" lon="6.542256"><ele>915.6</ele><time>2026-08-02T07:20:17Z</time></trkpt>
    <trkpt lat="43.902089" lon="6.542743"><ele>917.2</ele><time>2026-08-02T07:20:29Z</time></trkpt>
    <trkpt lat="43.902474" lon="6.542565"><ele>917.6</ele><time>2026-08-02T07:20:39Z</time></trkpt>
    <trkpt lat="43.902771" lon="6.541608"><ele>918.6</ele><time>2026-08-02T07:20:56Z</time></trkpt>
    <trkpt lat="43.903499" lon="6.541384"><ele>919.6</ele><time>2026-08-02T07:21:14Z</time></trkpt>
    <trkpt lat="43.904532" lon="6.542080"><ele>920.4</ele><time>2026-08-02T07:21:41Z</time></trkpt>
    <trkpt lat="43.904943" lon="6.542652"><ele>921.2</ele><time>2026-08-02T07:21:53Z</time></trkpt>
    <trkpt lat="43.905812" lon="6.542574"><ele>922.8</ele><time>2026-08-02T07:22:11Z</time></trkpt>
    <trkpt lat="43.906201" lon="6.543179"><ele>924.0</ele><time>2026-08-02T07:22:25Z</time></trkpt>
    <trkpt lat="43.907503" lon="6.544395"><ele>925.8</ele><time>2026-08-02T07:22:59Z</time></trkpt>
    <trkpt lat="43.907549" lon="6.544432"><ele>926.0</ele><time>2026-08-02T07:23:00Z</time></trkpt>
    <trkpt lat="43.908424" lon="6.544687"><ele>925.4</ele><time>2026-08-02T07:23:15Z</time></trkpt>
    <trkpt lat="43.909448" lon="6.546791"><ele>919.8</ele><time>2026-08-02T07:23:37Z</time></trkpt>
    <trkpt lat="43.909991" lon="6.547585"><ele>917.6</ele><time>2026-08-02T07:23:45Z</time></trkpt>
    <trkpt lat="43.910177" lon="6.548504"><ele>914.4</ele><time>2026-08-02T07:23:52Z</time></trkpt>
    <trkpt lat="43.910603" lon="6.549268"><ele>912.0</ele><time>2026-08-02T07:23:59Z</time></trkpt>
    <trkpt lat="43.910584" lon="6.550431"><ele>908.6</ele><time>2026-08-02T07:24:07Z</time></trkpt>
    <trkpt lat="43.911961" lon="6.551477"><ele>902.6</ele><time>2026-08-02T07:24:21Z</time></trkpt>
    <trkpt lat="43.912740" lon="6.552513"><ele>901.4</ele><time>2026-08-02T07:24:32Z</time></trkpt>
    <trkpt lat="43.913014" lon="6.552243"><ele>901.4</ele><time>2026-08-02T07:24:36Z</time></trkpt>
    <trkpt lat="43.913065" lon="6.552000"><ele>901.4</ele><time>2026-08-02T07:24:38Z</time></trkpt>
    <trkpt lat="43.913184" lon="6.550924"><ele>904.2</ele><time>2026-08-02T07:24:49Z</time></trkpt>
    <trkpt lat="43.913018" lon="6.550502"><ele>906.0</ele><time>2026-08-02T07:24:55Z</time></trkpt>
    <trkpt lat="43.912537" lon="6.550133"><ele>908.4</ele><time>2026-08-02T07:25:07Z</time></trkpt>
    <trkpt lat="43.912474" lon="6.549724"><ele>909.8</ele><time>2026-08-02T07:25:15Z</time></trkpt>
    <trkpt lat="43.912679" lon="6.548738"><ele>913.0</ele><time>2026-08-02T07:25:37Z</time></trkpt>
    <trkpt lat="43.913136" lon="6.548004"><ele>916.8</ele><time>2026-08-02T07:25:58Z</time></trkpt>
    <trkpt lat="43.913116" lon="6.547333"><ele>918.6</ele><time>2026-08-02T07:26:12Z</time></trkpt>
    <trkpt lat="43.913471" lon="6.546478"><ele>922.0</ele><time>2026-08-02T07:26:36Z</time></trkpt>
    <trkpt lat="43.913679" lon="6.545177"><ele>926.0</ele><time>2026-08-02T07:27:09Z</time></trkpt>
    <trkpt lat="43.913866" lon="6.545016"><ele>927.6</ele><time>2026-08-02T07:27:20Z</time></trkpt>
    <trkpt lat="43.914013" lon="6.544963"><ele>927.4</ele><time>2026-08-02T07:27:31Z</time></trkpt>
    <trkpt lat="43.914749" lon="6.543727"><ele>922.0</ele><time>2026-08-02T07:28:17Z</time></trkpt>
    <trkpt lat="43.915137" lon="6.542475"><ele>918.0</ele><time>2026-08-02T07:28:27Z</time></trkpt>
    <trkpt lat="43.915274" lon="6.542128"><ele>918.0</ele><time>2026-08-02T07:28:30Z</time></trkpt>
    <trkpt lat="43.915774" lon="6.541363"><ele>918.8</ele><time>2026-08-02T07:28:39Z</time></trkpt>
    <trkpt lat="43.917445" lon="6.540197"><ele>919.4</ele><time>2026-08-02T07:29:04Z</time></trkpt>
    <trkpt lat="43.919078" lon="6.539349"><ele>916.6</ele><time>2026-08-02T07:29:26Z</time></trkpt>
    <trkpt lat="43.919214" lon="6.538890"><ele>916.4</ele><time>2026-08-02T07:29:31Z</time></trkpt>
    <trkpt lat="43.918979" lon="6.537901"><ele>916.0</ele><time>2026-08-02T07:29:41Z</time></trkpt>
    <trkpt lat="43.918971" lon="6.536625"><ele>914.8</ele><time>2026-08-02T07:29:53Z</time></trkpt>
    <trkpt lat="43.919220" lon="6.536240"><ele>914.4</ele><time>2026-08-02T07:29:58Z</time></trkpt>
    <trkpt lat="43.919807" lon="6.535975"><ele>913.2</ele><time>2026-08-02T07:30:06Z</time></trkpt>
    <trkpt lat="43.919929" lon="6.535826"><ele>913.0</ele><time>2026-08-02T07:30:08Z</time></trkpt>
    <trkpt lat="43.920175" lon="6.535349"><ele>911.4</ele><time>2026-08-02T07:30:13Z</time></trkpt>
    <trkpt lat="43.922152" lon="6.534800"><ele>905.2</ele><time>2026-08-02T07:30:36Z</time></trkpt>
    <trkpt lat="43.922721" lon="6.534385"><ele>903.4</ele><time>2026-08-02T07:30:43Z</time></trkpt>
    <trkpt lat="43.923654" lon="6.533326"><ele>899.2</ele><time>2026-08-02T07:30:55Z</time></trkpt>
    <trkpt lat="43.925297" lon="6.533195"><ele>894.0</ele><time>2026-08-02T07:31:11Z</time></trkpt>
    <trkpt lat="43.925893" lon="6.533387"><ele>891.4</ele><time>2026-08-02T07:31:17Z</time></trkpt>
    <trkpt lat="43.926280" lon="6.533413"><ele>890.6</ele><time>2026-08-02T07:31:21Z</time></trkpt>
    <trkpt lat="43.928027" lon="6.532828"><ele>888.0</ele><time>2026-08-02T07:31:40Z</time></trkpt>
    <trkpt lat="43.928831" lon="6.532310"><ele>887.6</ele><time>2026-08-02T07:31:51Z</time></trkpt>
    <trkpt lat="43.928976" lon="6.532271"><ele>887.4</ele><time>2026-08-02T07:31:53Z</time></trkpt>
    <trkpt lat="43.930286" lon="6.532058"><ele>887.6</ele><time>2026-08-02T07:32:12Z</time></trkpt>
    <trkpt lat="43.931182" lon="6.531603"><ele>887.6</ele><time>2026-08-02T07:32:26Z</time></trkpt>
    <trkpt lat="43.932750" lon="6.531139"><ele>887.6</ele><time>2026-08-02T07:32:51Z</time></trkpt>
    <trkpt lat="43.933628" lon="6.531122"><ele>887.6</ele><time>2026-08-02T07:33:05Z</time></trkpt>
    <trkpt lat="43.935901" lon="6.531733"><ele>887.8</ele><time>2026-08-02T07:33:42Z</time></trkpt>
    <trkpt lat="43.936347" lon="6.531079"><ele>887.8</ele><time>2026-08-02T07:33:52Z</time></trkpt>
    <trkpt lat="43.938119" lon="6.529691"><ele>887.8</ele><time>2026-08-02T07:34:24Z</time></trkpt>
    <trkpt lat="43.938045" lon="6.529386"><ele>887.8</ele><time>2026-08-02T07:34:26Z</time></trkpt>
    <trkpt lat="43.938252" lon="6.528725"><ele>887.8</ele><time>2026-08-02T07:34:33Z</time></trkpt>
    <trkpt lat="43.938163" lon="6.527238"><ele>887.2</ele><time>2026-08-02T07:34:49Z</time></trkpt>
    <trkpt lat="43.938153" lon="6.526796"><ele>888.6</ele><time>2026-08-02T07:34:55Z</time></trkpt>
    <trkpt lat="43.938399" lon="6.524797"><ele>893.4</ele><time>2026-08-02T07:35:26Z</time></trkpt>
    <trkpt lat="43.938425" lon="6.524720"><ele>893.4</ele><time>2026-08-02T07:35:27Z</time></trkpt>
    <trkpt lat="43.939248" lon="6.523214"><ele>891.4</ele><time>2026-08-02T07:35:48Z</time></trkpt>
    <trkpt lat="43.941131" lon="6.521024"><ele>887.8</ele><time>2026-08-02T07:36:21Z</time></trkpt>
    <trkpt lat="43.941507" lon="6.519055"><ele>887.2</ele><time>2026-08-02T07:36:40Z</time></trkpt>
    <trkpt lat="43.941873" lon="6.518167"><ele>887.2</ele><time>2026-08-02T07:36:50Z</time></trkpt>
    <trkpt lat="43.942518" lon="6.517405"><ele>887.2</ele><time>2026-08-02T07:37:02Z</time></trkpt>
    <trkpt lat="43.944370" lon="6.516123"><ele>887.0</ele><time>2026-08-02T07:37:31Z</time></trkpt>
    <trkpt lat="43.946784" lon="6.514459"><ele>894.6</ele><time>2026-08-02T07:38:22Z</time></trkpt>
    <trkpt lat="43.947804" lon="6.512533"><ele>900.0</ele><time>2026-08-02T07:39:04Z</time></trkpt>
    <trkpt lat="43.949375" lon="6.512661"><ele>905.8</ele><time>2026-08-02T07:39:46Z</time></trkpt>
    <trkpt lat="43.950051" lon="6.511559"><ele>909.2</ele><time>2026-08-02T07:40:15Z</time></trkpt>
    <trkpt lat="43.951370" lon="6.511080"><ele>914.2</ele><time>2026-08-02T07:40:54Z</time></trkpt>
    <trkpt lat="43.952014" lon="6.510829"><ele>912.4</ele><time>2026-08-02T07:41:08Z</time></trkpt>
    <trkpt lat="43.952216" lon="6.510675"><ele>911.2</ele><time>2026-08-02T07:41:11Z</time></trkpt>
    <trkpt lat="43.952623" lon="6.510158"><ele>907.4</ele><time>2026-08-02T07:41:17Z</time></trkpt>
    <trkpt lat="43.953605" lon="6.509796"><ele>899.4</ele><time>2026-08-02T07:41:26Z</time></trkpt>
    <trkpt lat="43.954467" lon="6.509105"><ele>893.2</ele><time>2026-08-02T07:41:34Z</time></trkpt>
    <trkpt lat="43.955357" lon="6.508723"><ele>887.4</ele><time>2026-08-02T07:41:41Z</time></trkpt>
    <trkpt lat="43.955571" lon="6.508551"><ele>886.6</ele><time>2026-08-02T07:41:43Z</time></trkpt>
    <trkpt lat="43.956373" lon="6.507747"><ele>887.0</ele><time>2026-08-02T07:41:52Z</time></trkpt>
    <trkpt lat="43.958787" lon="6.506286"><ele>888.8</ele><time>2026-08-02T07:42:25Z</time></trkpt>
    <trkpt lat="43.964423" lon="6.506819"><ele>895.6</ele><time>2026-08-02T07:43:57Z</time></trkpt>
    <trkpt lat="43.965000" lon="6.506519"><ele>897.4</ele><time>2026-08-02T07:44:10Z</time></trkpt>
    <trkpt lat="43.967236" lon="6.507153"><ele>900.2</ele><time>2026-08-02T07:44:56Z</time></trkpt>
    <trkpt lat="43.967425" lon="6.507057"><ele>900.8</ele><time>2026-08-02T07:45:03Z</time></trkpt>
    <trkpt lat="43.967216" lon="6.507173"><ele>900.8</ele><time>2026-08-02T07:45:10Z</time></trkpt>
    <trkpt lat="43.966983" lon="6.508371"><ele>897.8</ele><time>2026-08-02T07:45:32Z</time></trkpt>
    <trkpt lat="43.967283" lon="6.508404"><ele>898.2</ele><time>2026-08-02T07:46:48Z</time></trkpt>
    <trkpt lat="43.967398" lon="6.508716"><ele>897.6</ele><time>2026-08-02T07:47:15Z</time></trkpt>
    <trkpt lat="43.967299" lon="6.508308"><ele>897.6</ele><time>2026-08-02T08:02:42Z</time></trkpt>
    <trkpt lat="43.967440" lon="6.507979"><ele>898.0</ele><time>2026-08-02T08:02:52Z</time></trkpt>
    <trkpt lat="43.968016" lon="6.508188"><ele>898.4</ele><time>2026-08-02T08:03:12Z</time></trkpt>
    <trkpt lat="43.968170" lon="6.507612"><ele>899.8</ele><time>2026-08-02T08:03:28Z</time></trkpt>
    <trkpt lat="43.967965" lon="6.507449"><ele>900.0</ele><time>2026-08-02T08:03:35Z</time></trkpt>
    <trkpt lat="43.967983" lon="6.507302"><ele>900.6</ele><time>2026-08-02T08:03:39Z</time></trkpt>
    <trkpt lat="43.968714" lon="6.507628"><ele>901.8</ele><time>2026-08-02T08:04:03Z</time></trkpt>
    <trkpt lat="43.969328" lon="6.508195"><ele>902.8</ele><time>2026-08-02T08:04:21Z</time></trkpt>
    <trkpt lat="43.969773" lon="6.508813"><ele>903.0</ele><time>2026-08-02T08:04:35Z</time></trkpt>
    <trkpt lat="43.970158" lon="6.509714"><ele>902.2</ele><time>2026-08-02T08:04:50Z</time></trkpt>
    <trkpt lat="43.970561" lon="6.511685"><ele>900.4</ele><time>2026-08-02T08:05:15Z</time></trkpt>
    <trkpt lat="43.970786" lon="6.512335"><ele>900.6</ele><time>2026-08-02T08:05:24Z</time></trkpt>
    <trkpt lat="43.970866" lon="6.512540"><ele>900.8</ele><time>2026-08-02T08:05:27Z</time></trkpt>
    <trkpt lat="43.971516" lon="6.513535"><ele>903.0</ele><time>2026-08-02T08:05:46Z</time></trkpt>
    <trkpt lat="43.974637" lon="6.516221"><ele>911.2</ele><time>2026-08-02T08:07:09Z</time></trkpt>
    <trkpt lat="43.978426" lon="6.519151"><ele>927.0</ele><time>2026-08-02T08:09:07Z</time></trkpt>
    <trkpt lat="43.979897" lon="6.522654"><ele>939.2</ele><time>2026-08-02T08:10:37Z</time></trkpt>
    <trkpt lat="43.980870" lon="6.523941"><ele>945.2</ele><time>2026-08-02T08:11:20Z</time></trkpt>
    <trkpt lat="43.981582" lon="6.524498"><ele>948.4</ele><time>2026-08-02T08:11:45Z</time></trkpt>
    <trkpt lat="43.982158" lon="6.526200"><ele>953.2</ele><time>2026-08-02T08:12:26Z</time></trkpt>
    <trkpt lat="43.983480" lon="6.527402"><ele>958.0</ele><time>2026-08-02T08:13:08Z</time></trkpt>
    <trkpt lat="43.983730" lon="6.527721"><ele>959.2</ele><time>2026-08-02T08:13:17Z</time></trkpt>
    <trkpt lat="43.983913" lon="6.527993"><ele>959.8</ele><time>2026-08-02T08:13:24Z</time></trkpt>
    <trkpt lat="43.984554" lon="6.529267"><ele>959.8</ele><time>2026-08-02T08:13:48Z</time></trkpt>
    <trkpt lat="43.985035" lon="6.530975"><ele>959.2</ele><time>2026-08-02T08:14:10Z</time></trkpt>
    <trkpt lat="43.986060" lon="6.532283"><ele>959.4</ele><time>2026-08-02T08:16:06Z</time></trkpt>
    <trkpt lat="43.987079" lon="6.533046"><ele>960.6</ele><time>2026-08-02T08:16:37Z</time></trkpt>
    <trkpt lat="43.987534" lon="6.533575"><ele>964.6</ele><time>2026-08-02T08:16:53Z</time></trkpt>
    <trkpt lat="43.988172" lon="6.533908"><ele>965.0</ele><time>2026-08-02T08:17:07Z</time></trkpt>
    <trkpt lat="43.988695" lon="6.534497"><ele>967.0</ele><time>2026-08-02T08:17:20Z</time></trkpt>
    <trkpt lat="43.990212" lon="6.535392"><ele>977.8</ele><time>2026-08-02T08:18:09Z</time></trkpt>
    <trkpt lat="43.990840" lon="6.535505"><ele>980.0</ele><time>2026-08-02T08:18:28Z</time></trkpt>
    <trkpt lat="43.991031" lon="6.536382"><ele>984.0</ele><time>2026-08-02T08:18:50Z</time></trkpt>
    <trkpt lat="43.991696" lon="6.536982"><ele>988.0</ele><time>2026-08-02T08:19:13Z</time></trkpt>
    <trkpt lat="43.992183" lon="6.537068"><ele>989.8</ele><time>2026-08-02T08:19:27Z</time></trkpt>
    <trkpt lat="43.993661" lon="6.538559"><ele>998.2</ele><time>2026-08-02T08:20:19Z</time></trkpt>
    <trkpt lat="43.994139" lon="6.538680"><ele>1000.6</ele><time>2026-08-02T08:20:33Z</time></trkpt>
    <trkpt lat="43.994187" lon="6.538755"><ele>1000.8</ele><time>2026-08-02T08:20:35Z</time></trkpt>
    <trkpt lat="43.994737" lon="6.540208"><ele>998.6</ele><time>2026-08-02T08:20:56Z</time></trkpt>
    <trkpt lat="43.995512" lon="6.541041"><ele>993.6</ele><time>2026-08-02T08:21:07Z</time></trkpt>
    <trkpt lat="43.996087" lon="6.541348"><ele>991.0</ele><time>2026-08-02T08:21:13Z</time></trkpt>
    <trkpt lat="43.996841" lon="6.541359"><ele>988.6</ele><time>2026-08-02T08:21:20Z</time></trkpt>
    <trkpt lat="43.997632" lon="6.541794"><ele>987.2</ele><time>2026-08-02T08:21:28Z</time></trkpt>
    <trkpt lat="43.998240" lon="6.541874"><ele>986.4</ele><time>2026-08-02T08:21:34Z</time></trkpt>
    <trkpt lat="43.998740" lon="6.542088"><ele>984.6</ele><time>2026-08-02T08:21:39Z</time></trkpt>
    <trkpt lat="44.000498" lon="6.543180"><ele>977.6</ele><time>2026-08-02T08:21:56Z</time></trkpt>
    <trkpt lat="44.001278" lon="6.543920"><ele>973.6</ele><time>2026-08-02T08:22:04Z</time></trkpt>
    <trkpt lat="44.002365" lon="6.546882"><ele>963.4</ele><time>2026-08-02T08:22:24Z</time></trkpt>
    <trkpt lat="44.003061" lon="6.548098"><ele>962.2</ele><time>2026-08-02T08:22:34Z</time></trkpt>
    <trkpt lat="44.004613" lon="6.550472"><ele>964.8</ele><time>2026-08-02T08:23:03Z</time></trkpt>
    <trkpt lat="44.005537" lon="6.553240"><ele>965.0</ele><time>2026-08-02T08:23:36Z</time></trkpt>
    <trkpt lat="44.006160" lon="6.556067"><ele>965.8</ele><time>2026-08-02T08:24:10Z</time></trkpt>
    <trkpt lat="44.006622" lon="6.557735"><ele>970.6</ele><time>2026-08-02T08:24:36Z</time></trkpt>
    <trkpt lat="44.007548" lon="6.559033"><ele>975.8</ele><time>2026-08-02T08:25:16Z</time></trkpt>
    <trkpt lat="44.008049" lon="6.559462"><ele>978.6</ele><time>2026-08-02T08:25:34Z</time></trkpt>
    <trkpt lat="44.009103" lon="6.559875"><ele>981.0</ele><time>2026-08-02T08:26:02Z</time></trkpt>
    <trkpt lat="44.010551" lon="6.560033"><ele>987.4</ele><time>2026-08-02T08:26:45Z</time></trkpt>
    <trkpt lat="44.012127" lon="6.559560"><ele>993.8</ele><time>2026-08-02T08:27:34Z</time></trkpt>
    <trkpt lat="44.013206" lon="6.559738"><ele>998.6</ele><time>2026-08-02T08:28:06Z</time></trkpt>
    <trkpt lat="44.014323" lon="6.560207"><ele>1002.6</ele><time>2026-08-02T08:28:39Z</time></trkpt>
    <trkpt lat="44.015027" lon="6.559682"><ele>1003.6</ele><time>2026-08-02T08:28:57Z</time></trkpt>
    <trkpt lat="44.016229" lon="6.558610"><ele>1004.6</ele><time>2026-08-02T08:29:26Z</time></trkpt>
    <trkpt lat="44.016602" lon="6.558212"><ele>1005.0</ele><time>2026-08-02T08:29:36Z</time></trkpt>
    <trkpt lat="44.017920" lon="6.556777"><ele>998.8</ele><time>2026-08-02T08:29:59Z</time></trkpt>
    <trkpt lat="44.019036" lon="6.556120"><ele>994.8</ele><time>2026-08-02T08:30:12Z</time></trkpt>
    <trkpt lat="44.020216" lon="6.555868"><ele>994.2</ele><time>2026-08-02T08:30:26Z</time></trkpt>
    <trkpt lat="44.020729" lon="6.555295"><ele>992.0</ele><time>2026-08-02T08:30:33Z</time></trkpt>
    <trkpt lat="44.021019" lon="6.555277"><ele>990.4</ele><time>2026-08-02T08:30:36Z</time></trkpt>
    <trkpt lat="44.021589" lon="6.555732"><ele>990.0</ele><time>2026-08-02T08:30:43Z</time></trkpt>
    <trkpt lat="44.021729" lon="6.555791"><ele>990.0</ele><time>2026-08-02T08:30:45Z</time></trkpt>
    <trkpt lat="44.021991" lon="6.555819"><ele>992.2</ele><time>2026-08-02T08:30:50Z</time></trkpt>
    <trkpt lat="44.022808" lon="6.554917"><ele>998.0</ele><time>2026-08-02T08:32:22Z</time></trkpt>
    <trkpt lat="44.023299" lon="6.554581"><ele>1000.4</ele><time>2026-08-02T08:32:36Z</time></trkpt>
    <trkpt lat="44.023777" lon="6.554361"><ele>1001.0</ele><time>2026-08-02T08:32:47Z</time></trkpt>
    <trkpt lat="44.027395" lon="6.553887"><ele>1002.4</ele><time>2026-08-02T08:33:49Z</time></trkpt>
    <trkpt lat="44.028118" lon="6.554396"><ele>1002.4</ele><time>2026-08-02T08:34:01Z</time></trkpt>
    <trkpt lat="44.028839" lon="6.555067"><ele>1005.0</ele><time>2026-08-02T08:34:17Z</time></trkpt>
    <trkpt lat="44.029450" lon="6.555372"><ele>1007.0</ele><time>2026-08-02T08:34:29Z</time></trkpt>
    <trkpt lat="44.030792" lon="6.556808"><ele>1012.6</ele><time>2026-08-02T08:35:07Z</time></trkpt>
    <trkpt lat="44.031518" lon="6.557645"><ele>1013.2</ele><time>2026-08-02T08:35:25Z</time></trkpt>
    <trkpt lat="44.032869" lon="6.559549"><ele>1013.2</ele><time>2026-08-02T08:35:58Z</time></trkpt>
    <trkpt lat="44.035090" lon="6.560635"><ele>1015.8</ele><time>2026-08-02T08:36:38Z</time></trkpt>
    <trkpt lat="44.035390" lon="6.560705"><ele>1015.8</ele><time>2026-08-02T08:36:43Z</time></trkpt>
    <trkpt lat="44.035843" lon="6.560793"><ele>1013.4</ele><time>2026-08-02T08:36:49Z</time></trkpt>
    <trkpt lat="44.036583" lon="6.561888"><ele>1008.2</ele><time>2026-08-02T08:37:01Z</time></trkpt>
    <trkpt lat="44.037326" lon="6.562238"><ele>1004.4</ele><time>2026-08-02T08:37:09Z</time></trkpt>
    <trkpt lat="44.037363" lon="6.562441"><ele>1004.2</ele><time>2026-08-02T08:37:11Z</time></trkpt>
    <trkpt lat="44.037063" lon="6.563326"><ele>1003.4</ele><time>2026-08-02T08:37:21Z</time></trkpt>
    <trkpt lat="44.037079" lon="6.563513"><ele>1003.4</ele><time>2026-08-02T08:37:23Z</time></trkpt>
    <trkpt lat="44.037200" lon="6.563699"><ele>1004.0</ele><time>2026-08-02T08:37:26Z</time></trkpt>
    <trkpt lat="44.038761" lon="6.563767"><ele>1010.8</ele><time>2026-08-02T08:38:00Z</time></trkpt>
    <trkpt lat="44.039866" lon="6.564355"><ele>1015.0</ele><time>2026-08-02T08:38:32Z</time></trkpt>
    <trkpt lat="44.039970" lon="6.564379"><ele>1015.0</ele><time>2026-08-02T08:38:35Z</time></trkpt>
    <trkpt lat="44.041270" lon="6.564169"><ele>1017.6</ele><time>2026-08-02T08:39:15Z</time></trkpt>
    <trkpt lat="44.042990" lon="6.564796"><ele>1017.4</ele><time>2026-08-02T08:40:32Z</time></trkpt>
    <trkpt lat="44.043838" lon="6.566045"><ele>1021.6</ele><time>2026-08-02T08:41:00Z</time></trkpt>
    <trkpt lat="44.043905" lon="6.566085"><ele>1022.0</ele><time>2026-08-02T08:41:02Z</time></trkpt>
    <trkpt lat="44.046523" lon="6.567175"><ele>1018.8</ele><time>2026-08-02T08:41:45Z</time></trkpt>
    <trkpt lat="44.047957" lon="6.568443"><ele>1017.6</ele><time>2026-08-02T08:42:09Z</time></trkpt>
    <trkpt lat="44.048477" lon="6.568760"><ele>1017.8</ele><time>2026-08-02T08:42:18Z</time></trkpt>
    <trkpt lat="44.050350" lon="6.570101"><ele>1023.2</ele><time>2026-08-02T08:42:58Z</time></trkpt>
    <trkpt lat="44.051684" lon="6.571778"><ele>1028.8</ele><time>2026-08-02T08:43:37Z</time></trkpt>
    <trkpt lat="44.052716" lon="6.572610"><ele>1031.4</ele><time>2026-08-02T08:44:02Z</time></trkpt>
    <trkpt lat="44.052884" lon="6.572754"><ele>1031.4</ele><time>2026-08-02T08:44:06Z</time></trkpt>
    <trkpt lat="44.053466" lon="6.573018"><ele>1032.2</ele><time>2026-08-02T08:44:18Z</time></trkpt>
    <trkpt lat="44.054854" lon="6.573053"><ele>1034.2</ele><time>2026-08-02T08:44:46Z</time></trkpt>
    <trkpt lat="44.055643" lon="6.573298"><ele>1035.2</ele><time>2026-08-02T08:45:03Z</time></trkpt>
    <trkpt lat="44.056341" lon="6.573674"><ele>1036.0</ele><time>2026-08-02T08:45:19Z</time></trkpt>
    <trkpt lat="44.056918" lon="6.574394"><ele>1038.2</ele><time>2026-08-02T08:45:37Z</time></trkpt>
    <trkpt lat="44.058130" lon="6.574656"><ele>1040.4</ele><time>2026-08-02T08:46:06Z</time></trkpt>
    <trkpt lat="44.058665" lon="6.575000"><ele>1041.4</ele><time>2026-08-02T08:46:19Z</time></trkpt>
    <trkpt lat="44.059504" lon="6.575951"><ele>1043.4</ele><time>2026-08-02T08:46:44Z</time></trkpt>
    <trkpt lat="44.060257" lon="6.576244"><ele>1045.2</ele><time>2026-08-02T08:47:02Z</time></trkpt>
    <trkpt lat="44.061026" lon="6.575991"><ele>1046.4</ele><time>2026-08-02T08:48:19Z</time></trkpt>
    <trkpt lat="44.061766" lon="6.576081"><ele>1046.8</ele><time>2026-08-02T08:48:36Z</time></trkpt>
    <trkpt lat="44.062375" lon="6.575764"><ele>1047.8</ele><time>2026-08-02T08:48:55Z</time></trkpt>
    <trkpt lat="44.062972" lon="6.575778"><ele>1048.8</ele><time>2026-08-02T08:49:11Z</time></trkpt>
    <trkpt lat="44.064441" lon="6.574742"><ele>1051.6</ele><time>2026-08-02T08:49:52Z</time></trkpt>
    <trkpt lat="44.066949" lon="6.574892"><ele>1057.0</ele><time>2026-08-02T08:50:50Z</time></trkpt>
    <trkpt lat="44.067728" lon="6.574436"><ele>1059.2</ele><time>2026-08-02T08:51:09Z</time></trkpt>
    <trkpt lat="44.068642" lon="6.573986"><ele>1059.8</ele><time>2026-08-02T08:51:30Z</time></trkpt>
    <trkpt lat="44.069522" lon="6.573303"><ele>1060.4</ele><time>2026-08-02T08:51:51Z</time></trkpt>
    <trkpt lat="44.070421" lon="6.572921"><ele>1060.8</ele><time>2026-08-02T08:53:08Z</time></trkpt>
    <trkpt lat="44.071906" lon="6.573479"><ele>1061.8</ele><time>2026-08-02T08:53:34Z</time></trkpt>
    <trkpt lat="44.073141" lon="6.573041"><ele>1061.0</ele><time>2026-08-02T08:53:52Z</time></trkpt>
    <trkpt lat="44.074250" lon="6.572407"><ele>1061.2</ele><time>2026-08-02T08:54:10Z</time></trkpt>
    <trkpt lat="44.075181" lon="6.571096"><ele>1061.2</ele><time>2026-08-02T08:54:29Z</time></trkpt>
    <trkpt lat="44.075617" lon="6.570626"><ele>1061.4</ele><time>2026-08-02T08:54:37Z</time></trkpt>
    <trkpt lat="44.076364" lon="6.569888"><ele>1063.8</ele><time>2026-08-02T08:54:52Z</time></trkpt>
    <trkpt lat="44.077397" lon="6.569556"><ele>1067.8</ele><time>2026-08-02T08:55:14Z</time></trkpt>
    <trkpt lat="44.078817" lon="6.568537"><ele>1073.0</ele><time>2026-08-02T08:55:50Z</time></trkpt>
    <trkpt lat="44.081756" lon="6.567929"><ele>1083.8</ele><time>2026-08-02T08:56:58Z</time></trkpt>
    <trkpt lat="44.083107" lon="6.567146"><ele>1089.2</ele><time>2026-08-02T08:57:34Z</time></trkpt>
    <trkpt lat="44.085514" lon="6.567741"><ele>1098.2</ele><time>2026-08-02T08:58:34Z</time></trkpt>
    <trkpt lat="44.088084" lon="6.566698"><ele>1107.6</ele><time>2026-08-02T08:59:43Z</time></trkpt>
    <trkpt lat="44.088791" lon="6.566631"><ele>1110.6</ele><time>2026-08-02T09:00:04Z</time></trkpt>
    <trkpt lat="44.089770" lon="6.566680"><ele>1108.2</ele><time>2026-08-02T09:01:55Z</time></trkpt>
    <trkpt lat="44.090093" lon="6.566621"><ele>1106.6</ele><time>2026-08-02T09:01:59Z</time></trkpt>
    <trkpt lat="44.091767" lon="6.565491"><ele>1098.8</ele><time>2026-08-02T09:02:18Z</time></trkpt>
    <trkpt lat="44.092928" lon="6.565504"><ele>1092.4</ele><time>2026-08-02T09:02:28Z</time></trkpt>
    <trkpt lat="44.094047" lon="6.564651"><ele>1086.4</ele><time>2026-08-02T09:02:38Z</time></trkpt>
    <trkpt lat="44.094587" lon="6.564635"><ele>1083.4</ele><time>2026-08-02T09:02:42Z</time></trkpt>
    <trkpt lat="44.096184" lon="6.565057"><ele>1079.8</ele><time>2026-08-02T09:02:55Z</time></trkpt>
    <trkpt lat="44.096359" lon="6.565226"><ele>1079.8</ele><time>2026-08-02T09:02:57Z</time></trkpt>
    <trkpt lat="44.097686" lon="6.566754"><ele>1085.4</ele><time>2026-08-02T09:03:18Z</time></trkpt>
    <trkpt lat="44.098650" lon="6.567334"><ele>1086.6</ele><time>2026-08-02T09:03:33Z</time></trkpt>
    <trkpt lat="44.099564" lon="6.567930"><ele>1087.0</ele><time>2026-08-02T09:03:48Z</time></trkpt>
    <trkpt lat="44.100456" lon="6.568857"><ele>1088.0</ele><time>2026-08-02T09:04:05Z</time></trkpt>
    <trkpt lat="44.101467" lon="6.569085"><ele>1089.0</ele><time>2026-08-02T09:04:23Z</time></trkpt>
    <trkpt lat="44.102640" lon="6.568949"><ele>1089.4</ele><time>2026-08-02T09:04:42Z</time></trkpt>
    <trkpt lat="44.103148" lon="6.569260"><ele>1089.6</ele><time>2026-08-02T09:04:51Z</time></trkpt>
    <trkpt lat="44.104370" lon="6.570824"><ele>1090.8</ele><time>2026-08-02T09:05:19Z</time></trkpt>
    <trkpt lat="44.106895" lon="6.573536"><ele>1092.6</ele><time>2026-08-02T09:06:09Z</time></trkpt>
    <trkpt lat="44.108150" lon="6.575268"><ele>1095.2</ele><time>2026-08-02T09:06:39Z</time></trkpt>
    <trkpt lat="44.109826" lon="6.578139"><ele>1099.0</ele><time>2026-08-02T09:07:25Z</time></trkpt>
    <trkpt lat="44.110932" lon="6.579119"><ele>1100.8</ele><time>2026-08-02T09:07:49Z</time></trkpt>
    <trkpt lat="44.111972" lon="6.579337"><ele>1102.2</ele><time>2026-08-02T09:08:08Z</time></trkpt>
    <trkpt lat="44.114456" lon="6.579393"><ele>1104.4</ele><time>2026-08-02T09:08:51Z</time></trkpt>
    <trkpt lat="44.119809" lon="6.579589"><ele>1113.0</ele><time>2026-08-02T09:10:23Z</time></trkpt>
    <trkpt lat="44.121886" lon="6.580462"><ele>1116.6</ele><time>2026-08-02T09:11:01Z</time></trkpt>
    <trkpt lat="44.129129" lon="6.580656"><ele>1127.2</ele><time>2026-08-02T09:13:11Z</time></trkpt>
    <trkpt lat="44.131508" lon="6.581294"><ele>1132.2</ele><time>2026-08-02T09:14:00Z</time></trkpt>
    <trkpt lat="44.133661" lon="6.583474"><ele>1134.8</ele><time>2026-08-02T09:14:48Z</time></trkpt>
    <trkpt lat="44.135699" lon="6.586398"><ele>1140.2</ele><time>2026-08-02T09:15:43Z</time></trkpt>
    <trkpt lat="44.138387" lon="6.589268"><ele>1145.4</ele><time>2026-08-02T09:16:49Z</time></trkpt>
    <trkpt lat="44.138544" lon="6.589876"><ele>1149.0</ele><time>2026-08-02T10:22:27Z</time></trkpt>
    <trkpt lat="44.138809" lon="6.589626"><ele>1149.2</ele><time>2026-08-02T10:23:39Z</time></trkpt>
    <trkpt lat="44.146683" lon="6.596840"><ele>1166.4</ele><time>2026-08-02T10:27:46Z</time></trkpt>
    <trkpt lat="44.147870" lon="6.597628"><ele>1168.0</ele><time>2026-08-02T10:28:14Z</time></trkpt>
    <trkpt lat="44.149549" lon="6.598350"><ele>1170.8</ele><time>2026-08-02T10:28:53Z</time></trkpt>
    <trkpt lat="44.150965" lon="6.598548"><ele>1172.0</ele><time>2026-08-02T10:29:25Z</time></trkpt>
    <trkpt lat="44.152866" lon="6.598433"><ele>1174.6</ele><time>2026-08-02T10:30:11Z</time></trkpt>
    <trkpt lat="44.153696" lon="6.598613"><ele>1176.2</ele><time>2026-08-02T10:30:31Z</time></trkpt>
    <trkpt lat="44.154578" lon="6.599050"><ele>1178.4</ele><time>2026-08-02T10:30:54Z</time></trkpt>
    <trkpt lat="44.159068" lon="6.603583"><ele>1186.4</ele><time>2026-08-02T10:32:52Z</time></trkpt>
    <trkpt lat="44.160927" lon="6.606347"><ele>1190.0</ele><time>2026-08-02T10:33:50Z</time></trkpt>
    <trkpt lat="44.161701" lon="6.607583"><ele>1192.4</ele><time>2026-08-02T10:34:16Z</time></trkpt>
    <trkpt lat="44.162505" lon="6.608430"><ele>1197.4</ele><time>2026-08-02T10:34:42Z</time></trkpt>
    <trkpt lat="44.165210" lon="6.609917"><ele>1209.0</ele><time>2026-08-02T10:36:07Z</time></trkpt>
    <trkpt lat="44.168978" lon="6.611853"><ele>1207.6</ele><time>2026-08-02T10:37:32Z</time></trkpt>
    <trkpt lat="44.171194" lon="6.613029"><ele>1215.6</ele><time>2026-08-02T10:38:24Z</time></trkpt>
    <trkpt lat="44.176156" lon="6.617866"><ele>1227.0</ele><time>2026-08-02T10:40:38Z</time></trkpt>
    <trkpt lat="44.177685" lon="6.618466"><ele>1230.2</ele><time>2026-08-02T10:41:14Z</time></trkpt>
    <trkpt lat="44.178218" lon="6.618886"><ele>1231.4</ele><time>2026-08-02T10:41:27Z</time></trkpt>
    <trkpt lat="44.179560" lon="6.620694"><ele>1234.8</ele><time>2026-08-02T10:42:07Z</time></trkpt>
    <trkpt lat="44.180098" lon="6.622001"><ele>1237.2</ele><time>2026-08-02T10:42:31Z</time></trkpt>
    <trkpt lat="44.180058" lon="6.623593"><ele>1241.0</ele><time>2026-08-02T10:42:58Z</time></trkpt>
    <trkpt lat="44.180054" lon="6.623875"><ele>1241.0</ele><time>2026-08-02T10:43:02Z</time></trkpt>
    <trkpt lat="44.179587" lon="6.624507"><ele>1240.0</ele><time>2026-08-02T10:43:14Z</time></trkpt>
    <trkpt lat="44.179473" lon="6.625062"><ele>1240.4</ele><time>2026-08-02T10:43:24Z</time></trkpt>
    <trkpt lat="44.179672" lon="6.625662"><ele>1242.6</ele><time>2026-08-02T10:51:43Z</time></trkpt>
    <trkpt lat="44.180468" lon="6.626006"><ele>1244.4</ele><time>2026-08-02T10:52:08Z</time></trkpt>
    <trkpt lat="44.180744" lon="6.627003"><ele>1246.8</ele><time>2026-08-02T10:52:30Z</time></trkpt>
    <trkpt lat="44.181182" lon="6.627663"><ele>1247.2</ele><time>2026-08-02T10:52:49Z</time></trkpt>
    <trkpt lat="44.182086" lon="6.627633"><ele>1248.4</ele><time>2026-08-02T10:53:12Z</time></trkpt>
    <trkpt lat="44.182238" lon="6.627783"><ele>1248.4</ele><time>2026-08-02T10:53:17Z</time></trkpt>
    <trkpt lat="44.182212" lon="6.628064"><ele>1248.6</ele><time>2026-08-02T10:53:22Z</time></trkpt>
    <trkpt lat="44.181846" lon="6.628481"><ele>1248.6</ele><time>2026-08-02T10:53:32Z</time></trkpt>
    <trkpt lat="44.181651" lon="6.628909"><ele>1249.8</ele><time>2026-08-02T10:53:41Z</time></trkpt>
    <trkpt lat="44.181599" lon="6.630097"><ele>1253.4</ele><time>2026-08-02T10:54:07Z</time></trkpt>
    <trkpt lat="44.181729" lon="6.630506"><ele>1256.4</ele><time>2026-08-02T10:54:18Z</time></trkpt>
    <trkpt lat="44.182352" lon="6.630611"><ele>1261.4</ele><time>2026-08-02T10:54:41Z</time></trkpt>
    <trkpt lat="44.183481" lon="6.630022"><ele>1270.6</ele><time>2026-08-02T10:55:27Z</time></trkpt>
    <trkpt lat="44.183713" lon="6.630321"><ele>1272.4</ele><time>2026-08-02T10:55:40Z</time></trkpt>
    <trkpt lat="44.184109" lon="6.631549"><ele>1279.8</ele><time>2026-08-02T10:56:21Z</time></trkpt>
    <trkpt lat="44.184242" lon="6.631723"><ele>1280.4</ele><time>2026-08-02T10:56:28Z</time></trkpt>
    <trkpt lat="44.186398" lon="6.631796"><ele>1282.6</ele><time>2026-08-02T10:57:18Z</time></trkpt>
    <trkpt lat="44.187289" lon="6.632521"><ele>1282.2</ele><time>2026-08-02T10:57:37Z</time></trkpt>
    <trkpt lat="44.189058" lon="6.634813"><ele>1285.4</ele><time>2026-08-02T10:58:21Z</time></trkpt>
    <trkpt lat="44.190945" lon="6.635206"><ele>1287.2</ele><time>2026-08-02T10:58:56Z</time></trkpt>
    <trkpt lat="44.191000" lon="6.635203"><ele>1287.2</ele><time>2026-08-02T10:58:57Z</time></trkpt>
    <trkpt lat="44.192329" lon="6.634803"><ele>1293.0</ele><time>2026-08-02T10:59:28Z</time></trkpt>
    <trkpt lat="44.192848" lon="6.634820"><ele>1295.4</ele><time>2026-08-02T10:59:44Z</time></trkpt>
    <trkpt lat="44.193306" lon="6.635021"><ele>1298.8</ele><time>2026-08-02T11:00:01Z</time></trkpt>
    <trkpt lat="44.194591" lon="6.636073"><ele>1306.2</ele><time>2026-08-02T11:00:59Z</time></trkpt>
    <trkpt lat="44.195315" lon="6.636137"><ele>1310.4</ele><time>2026-08-02T11:01:26Z</time></trkpt>
    <trkpt lat="44.196854" lon="6.635811"><ele>1317.4</ele><time>2026-08-02T11:02:19Z</time></trkpt>
    <trkpt lat="44.197209" lon="6.636223"><ele>1317.4</ele><time>2026-08-02T11:02:35Z</time></trkpt>
    <trkpt lat="44.198484" lon="6.636954"><ele>1320.0</ele><time>2026-08-02T11:03:05Z</time></trkpt>
    <trkpt lat="44.198926" lon="6.636753"><ele>1322.6</ele><time>2026-08-02T11:03:17Z</time></trkpt>
    <trkpt lat="44.199472" lon="6.635892"><ele>1325.6</ele><time>2026-08-02T11:03:41Z</time></trkpt>
    <trkpt lat="44.200556" lon="6.635616"><ele>1331.0</ele><time>2026-08-02T11:04:10Z</time></trkpt>
    <trkpt lat="44.202718" lon="6.636700"><ele>1332.2</ele><time>2026-08-02T11:12:49Z</time></trkpt>
    <trkpt lat="44.203609" lon="6.636393"><ele>1332.2</ele><time>2026-08-02T11:13:05Z</time></trkpt>
    <trkpt lat="44.205429" lon="6.636865"><ele>1332.0</ele><time>2026-08-02T11:13:33Z</time></trkpt>
    <trkpt lat="44.206577" lon="6.636700"><ele>1332.6</ele><time>2026-08-02T11:13:49Z</time></trkpt>
    <trkpt lat="44.208049" lon="6.637670"><ele>1334.0</ele><time>2026-08-02T11:14:14Z</time></trkpt>
    <trkpt lat="44.208216" lon="6.637748"><ele>1334.4</ele><time>2026-08-02T11:14:17Z</time></trkpt>
    <trkpt lat="44.208716" lon="6.637880"><ele>1335.8</ele><time>2026-08-02T11:14:26Z</time></trkpt>
    <trkpt lat="44.209630" lon="6.637769"><ele>1338.8</ele><time>2026-08-02T11:14:43Z</time></trkpt>
    <trkpt lat="44.212540" lon="6.637156"><ele>1344.8</ele><time>2026-08-02T11:15:38Z</time></trkpt>
    <trkpt lat="44.214711" lon="6.636051"><ele>1350.2</ele><time>2026-08-02T11:16:21Z</time></trkpt>
    <trkpt lat="44.215603" lon="6.636045"><ele>1351.8</ele><time>2026-08-02T11:16:38Z</time></trkpt>
    <trkpt lat="44.216547" lon="6.635077"><ele>1353.2</ele><time>2026-08-02T11:16:59Z</time></trkpt>
    <trkpt lat="44.217147" lon="6.634758"><ele>1354.2</ele><time>2026-08-02T11:17:10Z</time></trkpt>
    <trkpt lat="44.225485" lon="6.633421"><ele>1372.6</ele><time>2026-08-02T11:19:46Z</time></trkpt>
    <trkpt lat="44.226694" lon="6.632743"><ele>1378.0</ele><time>2026-08-02T11:20:22Z</time></trkpt>
    <trkpt lat="44.227539" lon="6.631666"><ele>1381.6</ele><time>2026-08-02T11:20:57Z</time></trkpt>
    <trkpt lat="44.227901" lon="6.631229"><ele>1384.4</ele><time>2026-08-02T11:21:12Z</time></trkpt>
    <trkpt lat="44.230150" lon="6.629692"><ele>1397.8</ele><time>2026-08-02T11:22:32Z</time></trkpt>
    <trkpt lat="44.231314" lon="6.629419"><ele>1405.6</ele><time>2026-08-02T11:23:19Z</time></trkpt>
    <trkpt lat="44.231421" lon="6.629381"><ele>1406.4</ele><time>2026-08-02T11:23:23Z</time></trkpt>
    <trkpt lat="44.232404" lon="6.628932"><ele>1408.2</ele><time>2026-08-02T11:23:51Z</time></trkpt>
    <trkpt lat="44.234101" lon="6.629302"><ele>1408.4</ele><time>2026-08-02T11:24:27Z</time></trkpt>
    <trkpt lat="44.235524" lon="6.629305"><ele>1409.6</ele><time>2026-08-02T11:24:53Z</time></trkpt>
    <trkpt lat="44.236678" lon="6.628818"><ele>1411.8</ele><time>2026-08-02T11:25:18Z</time></trkpt>
    <trkpt lat="44.237577" lon="6.628962"><ele>1412.8</ele><time>2026-08-02T11:25:39Z</time></trkpt>
    <trkpt lat="44.237983" lon="6.628875"><ele>1414.6</ele><time>2026-08-02T11:25:50Z</time></trkpt>
    <trkpt lat="44.239100" lon="6.629654"><ele>1419.8</ele><time>2026-08-02T11:26:24Z</time></trkpt>
    <trkpt lat="44.240078" lon="6.629792"><ele>1425.6</ele><time>2026-08-02T11:26:58Z</time></trkpt>
    <trkpt lat="44.241078" lon="6.628440"><ele>1433.2</ele><time>2026-08-02T11:27:59Z</time></trkpt>
    <trkpt lat="44.241332" lon="6.628397"><ele>1435.0</ele><time>2026-08-02T11:28:11Z</time></trkpt>
    <trkpt lat="44.241496" lon="6.627767"><ele>1438.6</ele><time>2026-08-02T11:33:00Z</time></trkpt>
    <trkpt lat="44.241754" lon="6.627382"><ele>1440.8</ele><time>2026-08-02T11:33:14Z</time></trkpt>
    <trkpt lat="44.242523" lon="6.626131"><ele>1441.6</ele><time>2026-08-02T11:33:46Z</time></trkpt>
    <trkpt lat="44.244426" lon="6.624794"><ele>1443.2</ele><time>2026-08-02T11:34:36Z</time></trkpt>
    <trkpt lat="44.245149" lon="6.624613"><ele>1442.8</ele><time>2026-08-02T11:34:50Z</time></trkpt>
    <trkpt lat="44.245391" lon="6.624015"><ele>1441.4</ele><time>2026-08-02T11:34:58Z</time></trkpt>
    <trkpt lat="44.245653" lon="6.622846"><ele>1440.6</ele><time>2026-08-02T11:35:11Z</time></trkpt>
    <trkpt lat="44.245620" lon="6.622695"><ele>1440.6</ele><time>2026-08-02T11:35:13Z</time></trkpt>
    <trkpt lat="44.245387" lon="6.622196"><ele>1441.4</ele><time>2026-08-02T11:35:21Z</time></trkpt>
    <trkpt lat="44.245238" lon="6.621205"><ele>1443.0</ele><time>2026-08-02T11:35:37Z</time></trkpt>
    <trkpt lat="44.244849" lon="6.620470"><ele>1445.0</ele><time>2026-08-02T11:35:52Z</time></trkpt>
    <trkpt lat="44.244736" lon="6.619725"><ele>1446.8</ele><time>2026-08-02T11:36:04Z</time></trkpt>
    <trkpt lat="44.244792" lon="6.618854"><ele>1447.8</ele><time>2026-08-02T11:36:17Z</time></trkpt>
    <trkpt lat="44.245158" lon="6.618347"><ele>1449.0</ele><time>2026-08-02T11:36:28Z</time></trkpt>
    <trkpt lat="44.245291" lon="6.617561"><ele>1449.8</ele><time>2026-08-02T11:36:41Z</time></trkpt>
    <trkpt lat="44.244831" lon="6.616610"><ele>1449.6</ele><time>2026-08-02T11:36:57Z</time></trkpt>
    <trkpt lat="44.244732" lon="6.615613"><ele>1450.0</ele><time>2026-08-02T11:37:10Z</time></trkpt>
    <trkpt lat="44.244823" lon="6.614827"><ele>1451.0</ele><time>2026-08-02T11:37:22Z</time></trkpt>
    <trkpt lat="44.244939" lon="6.614100"><ele>1455.2</ele><time>2026-08-02T11:37:37Z</time></trkpt>
    <trkpt lat="44.245872" lon="6.611646"><ele>1465.4</ele><time>2026-08-02T11:38:45Z</time></trkpt>
    <trkpt lat="44.246321" lon="6.609652"><ele>1475.8</ele><time>2026-08-02T11:39:46Z</time></trkpt>
    <trkpt lat="44.246920" lon="6.607884"><ele>1484.4</ele><time>2026-08-02T11:40:36Z</time></trkpt>
    <trkpt lat="44.247025" lon="6.607013"><ele>1487.8</ele><time>2026-08-02T11:40:58Z</time></trkpt>
    <trkpt lat="44.246895" lon="6.605873"><ele>1491.4</ele><time>2026-08-02T11:41:26Z</time></trkpt>
    <trkpt lat="44.247010" lon="6.605322"><ele>1492.4</ele><time>2026-08-02T11:41:39Z</time></trkpt>
    <trkpt lat="44.248872" lon="6.603106"><ele>1507.0</ele><time>2026-08-02T11:43:01Z</time></trkpt>
    <trkpt lat="44.249031" lon="6.602365"><ele>1510.4</ele><time>2026-08-02T11:43:19Z</time></trkpt>
    <trkpt lat="44.249498" lon="6.601590"><ele>1513.6</ele><time>2026-08-02T11:43:42Z</time></trkpt>
    <trkpt lat="44.251498" lon="6.600252"><ele>1523.6</ele><time>2026-08-02T11:44:51Z</time></trkpt>
    <trkpt lat="44.251881" lon="6.599329"><ele>1526.8</ele><time>2026-08-02T11:45:14Z</time></trkpt>
    <trkpt lat="44.252767" lon="6.598262"><ele>1533.0</ele><time>2026-08-02T11:45:51Z</time></trkpt>
    <trkpt lat="44.254101" lon="6.596188"><ele>1543.4</ele><time>2026-08-02T11:46:59Z</time></trkpt>
    <trkpt lat="44.254520" lon="6.595994"><ele>1546.0</ele><time>2026-08-02T11:47:14Z</time></trkpt>
    <trkpt lat="44.254975" lon="6.595477"><ele>1548.4</ele><time>2026-08-02T11:47:33Z</time></trkpt>
    <trkpt lat="44.256420" lon="6.593281"><ele>1557.6</ele><time>2026-08-02T11:48:39Z</time></trkpt>
    <trkpt lat="44.256980" lon="6.592105"><ele>1563.6</ele><time>2026-08-02T11:49:11Z</time></trkpt>
    <trkpt lat="44.258210" lon="6.590358"><ele>1571.6</ele><time>2026-08-02T11:50:05Z</time></trkpt>
    <trkpt lat="44.258573" lon="6.589112"><ele>1575.6</ele><time>2026-08-02T11:50:38Z</time></trkpt>
    <trkpt lat="44.258864" lon="6.588792"><ele>1578.0</ele><time>2026-08-02T11:50:53Z</time></trkpt>
    <trkpt lat="44.259438" lon="6.588670"><ele>1583.0</ele><time>2026-08-02T11:51:14Z</time></trkpt>
    <trkpt lat="44.259748" lon="6.588413"><ele>1585.2</ele><time>2026-08-02T11:51:27Z</time></trkpt>
    <trkpt lat="44.260239" lon="6.587009"><ele>1594.0</ele><time>2026-08-02T11:52:15Z</time></trkpt>
    <trkpt lat="44.260799" lon="6.586505"><ele>1598.8</ele><time>2026-08-02T11:52:41Z</time></trkpt>
    <trkpt lat="44.261355" lon="6.585677"><ele>1603.6</ele><time>2026-08-02T11:53:13Z</time></trkpt>
    <trkpt lat="44.262490" lon="6.584824"><ele>1612.2</ele><time>2026-08-02T11:54:07Z</time></trkpt>
    <trkpt lat="44.263246" lon="6.583960"><ele>1617.6</ele><time>2026-08-02T12:01:35Z</time></trkpt>
    <trkpt lat="44.263320" lon="6.583727"><ele>1618.6</ele><time>2026-08-02T12:01:43Z</time></trkpt>
    <trkpt lat="44.263253" lon="6.583510"><ele>1619.2</ele><time>2026-08-02T12:01:49Z</time></trkpt>
    <trkpt lat="44.263185" lon="6.583163"><ele>1621.2</ele><time>2026-08-02T12:01:58Z</time></trkpt>
    <trkpt lat="44.263281" lon="6.582935"><ele>1622.6</ele><time>2026-08-02T12:02:04Z</time></trkpt>
    <trkpt lat="44.265043" lon="6.582343"><ele>1637.6</ele><time>2026-08-02T12:03:06Z</time></trkpt>
    <trkpt lat="44.265205" lon="6.582276"><ele>1638.2</ele><time>2026-08-02T12:03:12Z</time></trkpt>
    <trkpt lat="44.267348" lon="6.580798"><ele>1653.6</ele><time>2026-08-02T12:04:46Z</time></trkpt>
    <trkpt lat="44.271498" lon="6.580082"><ele>1679.8</ele><time>2026-08-02T12:07:26Z</time></trkpt>
    <trkpt lat="44.272506" lon="6.579133"><ele>1687.8</ele><time>2026-08-02T12:08:14Z</time></trkpt>
    <trkpt lat="44.272824" lon="6.579150"><ele>1690.6</ele><time>2026-08-02T12:08:27Z</time></trkpt>
    <trkpt lat="44.272899" lon="6.579187"><ele>1691.2</ele><time>2026-08-02T12:08:30Z</time></trkpt>
    <trkpt lat="44.273389" lon="6.579623"><ele>1693.6</ele><time>2026-08-02T12:08:52Z</time></trkpt>
    <trkpt lat="44.273778" lon="6.579736"><ele>1695.4</ele><time>2026-08-02T12:09:05Z</time></trkpt>
    <trkpt lat="44.274519" lon="6.579544"><ele>1696.8</ele><time>2026-08-02T12:09:26Z</time></trkpt>
    <trkpt lat="44.275326" lon="6.578688"><ele>1699.6</ele><time>2026-08-02T12:09:55Z</time></trkpt>
    <trkpt lat="44.276280" lon="6.579224"><ele>1707.4</ele><time>2026-08-02T12:10:33Z</time></trkpt>
    <trkpt lat="44.276632" lon="6.578602"><ele>1709.6</ele><time>2026-08-02T12:10:57Z</time></trkpt>
    <trkpt lat="44.277240" lon="6.578450"><ele>1712.4</ele><time>2026-08-02T12:11:20Z</time></trkpt>
    <trkpt lat="44.277925" lon="6.577819"><ele>1716.6</ele><time>2026-08-02T12:11:50Z</time></trkpt>
    <trkpt lat="44.278334" lon="6.577033"><ele>1720.2</ele><time>2026-08-02T12:12:15Z</time></trkpt>
    <trkpt lat="44.279380" lon="6.575460"><ele>1730.0</ele><time>2026-08-02T12:13:12Z</time></trkpt>
    <trkpt lat="44.280624" lon="6.574270"><ele>1740.6</ele><time>2026-08-02T12:14:11Z</time></trkpt>
    <trkpt lat="44.282755" lon="6.573451"><ele>1756.6</ele><time>2026-08-02T12:15:37Z</time></trkpt>
    <trkpt lat="44.283218" lon="6.573351"><ele>1757.6</ele><time>2026-08-02T12:15:54Z</time></trkpt>
    <trkpt lat="44.284038" lon="6.573473"><ele>1761.2</ele><time>2026-08-02T12:16:22Z</time></trkpt>
    <trkpt lat="44.284340" lon="6.574291"><ele>1765.4</ele><time>2026-08-02T12:16:47Z</time></trkpt>
    <trkpt lat="44.284640" lon="6.574352"><ele>1766.8</ele><time>2026-08-02T12:16:58Z</time></trkpt>
    <trkpt lat="44.285028" lon="6.573894"><ele>1768.4</ele><time>2026-08-02T12:17:16Z</time></trkpt>
    <trkpt lat="44.285377" lon="6.573843"><ele>1769.8</ele><time>2026-08-02T12:17:28Z</time></trkpt>
    <trkpt lat="44.285708" lon="6.573503"><ele>1771.0</ele><time>2026-08-02T12:17:41Z</time></trkpt>
    <trkpt lat="44.286172" lon="6.573211"><ele>1774.2</ele><time>2026-08-02T12:17:58Z</time></trkpt>
    <trkpt lat="44.287383" lon="6.572985"><ele>1780.8</ele><time>2026-08-02T12:18:38Z</time></trkpt>
    <trkpt lat="44.289059" lon="6.572323"><ele>1788.2</ele><time>2026-08-02T12:19:32Z</time></trkpt>
    <trkpt lat="44.289412" lon="6.572370"><ele>1790.8</ele><time>2026-08-02T12:19:44Z</time></trkpt>
    <trkpt lat="44.290561" lon="6.571827"><ele>1798.0</ele><time>2026-08-02T12:20:28Z</time></trkpt>
    <trkpt lat="44.292016" lon="6.570180"><ele>1812.0</ele><time>2026-08-02T12:21:47Z</time></trkpt>
    <trkpt lat="44.292741" lon="6.570106"><ele>1818.4</ele><time>2026-08-02T12:22:21Z</time></trkpt>
    <trkpt lat="44.293211" lon="6.569520"><ele>1822.6</ele><time>2026-08-02T12:22:48Z</time></trkpt>
    <trkpt lat="44.293624" lon="6.569542"><ele>1825.6</ele><time>2026-08-02T12:23:05Z</time></trkpt>
    <trkpt lat="44.294953" lon="6.569493"><ele>1831.6</ele><time>2026-08-02T12:35:08Z</time></trkpt>
    <trkpt lat="44.295675" lon="6.569242"><ele>1837.0</ele><time>2026-08-02T12:35:43Z</time></trkpt>
    <trkpt lat="44.296139" lon="6.569687"><ele>1840.0</ele><time>2026-08-02T12:36:07Z</time></trkpt>
    <trkpt lat="44.296417" lon="6.569667"><ele>1842.2</ele><time>2026-08-02T12:36:20Z</time></trkpt>
    <trkpt lat="44.297719" lon="6.568877"><ele>1854.2</ele><time>2026-08-02T12:37:33Z</time></trkpt>
    <trkpt lat="44.299093" lon="6.567778"><ele>1866.4</ele><time>2026-08-02T12:38:57Z</time></trkpt>
    <trkpt lat="44.299497" lon="6.567221"><ele>1870.6</ele><time>2026-08-02T12:39:27Z</time></trkpt>
    <trkpt lat="44.299584" lon="6.567431"><ele>1871.8</ele><time>2026-08-02T12:39:36Z</time></trkpt>
    <trkpt lat="44.299511" lon="6.567879"><ele>1874.2</ele><time>2026-08-02T12:39:53Z</time></trkpt>
    <trkpt lat="44.299491" lon="6.568006"><ele>1875.4</ele><time>2026-08-02T12:39:58Z</time></trkpt>
    <trkpt lat="44.299134" lon="6.568861"><ele>1881.6</ele><time>2026-08-02T12:40:35Z</time></trkpt>
    <trkpt lat="44.298501" lon="6.569731"><ele>1888.8</ele><time>2026-08-02T12:41:18Z</time></trkpt>
    <trkpt lat="44.297791" lon="6.572291"><ele>1907.0</ele><time>2026-08-02T12:43:00Z</time></trkpt>
    <trkpt lat="44.297297" lon="6.572658"><ele>1911.2</ele><time>2026-08-02T12:43:27Z</time></trkpt>
    <trkpt lat="44.297362" lon="6.572772"><ele>1912.2</ele><time>2026-08-02T12:43:32Z</time></trkpt>
    <trkpt lat="44.297965" lon="6.572661"><ele>1918.2</ele><time>2026-08-02T12:44:01Z</time></trkpt>
    <trkpt lat="44.297980" lon="6.572739"><ele>1919.0</ele><time>2026-08-02T12:44:04Z</time></trkpt>
    <trkpt lat="44.297896" lon="6.572830"><ele>1919.4</ele><time>2026-08-02T12:44:10Z</time></trkpt>
    <trkpt lat="44.297501" lon="6.572937"><ele>1922.4</ele><time>2026-08-02T12:44:29Z</time></trkpt>
    <trkpt lat="44.297566" lon="6.573163"><ele>1923.8</ele><time>2026-08-02T12:44:39Z</time></trkpt>
    <trkpt lat="44.298139" lon="6.573043"><ele>1927.6</ele><time>2026-08-02T12:45:09Z</time></trkpt>
    <trkpt lat="44.298331" lon="6.572632"><ele>1930.4</ele><time>2026-08-02T12:45:27Z</time></trkpt>
    <trkpt lat="44.298434" lon="6.572699"><ele>1932.4</ele><time>2026-08-02T12:45:33Z</time></trkpt>
    <trkpt lat="44.298237" lon="6.573273"><ele>1935.6</ele><time>2026-08-02T12:45:57Z</time></trkpt>
    <trkpt lat="44.297853" lon="6.573684"><ele>1939.4</ele><time>2026-08-02T12:46:23Z</time></trkpt>
    <trkpt lat="44.298269" lon="6.575016"><ele>1947.8</ele><time>2026-08-02T12:47:15Z</time></trkpt>
    <trkpt lat="44.297945" lon="6.576994"><ele>1959.8</ele><time>2026-08-02T12:48:28Z</time></trkpt>
    <trkpt lat="44.298145" lon="6.576971"><ele>1961.4</ele><time>2026-08-02T12:48:40Z</time></trkpt>
    <trkpt lat="44.298176" lon="6.576504"><ele>1964.0</ele><time>2026-08-02T12:48:56Z</time></trkpt>
    <trkpt lat="44.298627" lon="6.575479"><ele>1970.2</ele><time>2026-08-02T12:49:45Z</time></trkpt>
    <trkpt lat="44.298801" lon="6.574297"><ele>1977.2</ele><time>2026-08-02T12:50:34Z</time></trkpt>
    <trkpt lat="44.298924" lon="6.574284"><ele>1978.4</ele><time>2026-08-02T12:50:42Z</time></trkpt>
    <trkpt lat="44.299271" lon="6.579601"><ele>2014.0</ele><time>2026-08-02T12:54:19Z</time></trkpt>
    <trkpt lat="44.299266" lon="6.579741"><ele>2014.2</ele><time>2026-08-02T12:54:24Z</time></trkpt>
    <trkpt lat="44.299375" lon="6.579851"><ele>2014.2</ele><time>2026-08-02T12:54:31Z</time></trkpt>
    <trkpt lat="44.299507" lon="6.578404"><ele>2021.8</ele><time>2026-08-02T12:55:25Z</time></trkpt>
    <trkpt lat="44.299985" lon="6.576164"><ele>2037.4</ele><time>2026-08-02T12:57:04Z</time></trkpt>
    <trkpt lat="44.300384" lon="6.575611"><ele>2040.6</ele><time>2026-08-02T12:57:39Z</time></trkpt>
    <trkpt lat="44.300131" lon="6.576457"><ele>2045.8</ele><time>2026-08-02T12:58:13Z</time></trkpt>
    <trkpt lat="44.300391" lon="6.579312"><ele>2063.6</ele><time>2026-08-02T13:00:08Z</time></trkpt>
    <trkpt lat="44.300562" lon="6.579919"><ele>2067.4</ele><time>2026-08-02T13:00:32Z</time></trkpt>
    <trkpt lat="44.301238" lon="6.580866"><ele>2076.4</ele><time>2026-08-02T13:01:24Z</time></trkpt>
    <trkpt lat="44.302026" lon="6.581505"><ele>2083.8</ele><time>2026-08-02T13:02:15Z</time></trkpt>
    <trkpt lat="44.302657" lon="6.581734"><ele>2088.4</ele><time>2026-08-02T13:02:53Z</time></trkpt>
    <trkpt lat="44.302737" lon="6.581928"><ele>2089.0</ele><time>2026-08-02T13:03:02Z</time></trkpt>
    <trkpt lat="44.302208" lon="6.582332"><ele>2092.6</ele><time>2026-08-02T13:03:32Z</time></trkpt>
    <trkpt lat="44.301831" lon="6.582958"><ele>2097.6</ele><time>2026-08-02T13:04:02Z</time></trkpt>
    <trkpt lat="44.301528" lon="6.583076"><ele>2100.2</ele><time>2026-08-02T13:04:21Z</time></trkpt>
    <trkpt lat="44.301031" lon="6.583718"><ele>2105.4</ele><time>2026-08-02T13:05:00Z</time></trkpt>
    <trkpt lat="44.300802" lon="6.584264"><ele>2110.2</ele><time>2026-08-02T13:05:25Z</time></trkpt>
    <trkpt lat="44.300874" lon="6.585396"><ele>2116.8</ele><time>2026-08-02T13:06:10Z</time></trkpt>
    <trkpt lat="44.300586" lon="6.585618"><ele>2119.0</ele><time>2026-08-02T13:06:26Z</time></trkpt>
    <trkpt lat="44.300501" lon="6.586031"><ele>2120.6</ele><time>2026-08-02T13:06:44Z</time></trkpt>
    <trkpt lat="44.299974" lon="6.586867"><ele>2127.4</ele><time>2026-08-02T13:07:29Z</time></trkpt>
    <trkpt lat="44.299373" lon="6.587449"><ele>2132.8</ele><time>2026-08-02T13:08:08Z</time></trkpt>
    <trkpt lat="44.299034" lon="6.587574"><ele>2133.2</ele><time>2026-08-02T13:08:23Z</time></trkpt>
    <trkpt lat="44.299146" lon="6.587718"><ele>2134.8</ele><time>2026-08-02T13:08:31Z</time></trkpt>
    <trkpt lat="44.299411" lon="6.587529"><ele>2136.4</ele><time>2026-08-02T13:08:44Z</time></trkpt>
    <trkpt lat="44.300616" lon="6.586702"><ele>2148.2</ele><time>2026-08-02T13:09:56Z</time></trkpt>
    <trkpt lat="44.301528" lon="6.586396"><ele>2156.6</ele><time>2026-08-02T13:10:44Z</time></trkpt>
    <trkpt lat="44.301902" lon="6.585989"><ele>2160.8</ele><time>2026-08-02T13:11:09Z</time></trkpt>
    <trkpt lat="44.302247" lon="6.584751"><ele>2168.6</ele><time>2026-08-02T13:11:57Z</time></trkpt>
    <trkpt lat="44.302372" lon="6.584709"><ele>2168.6</ele><time>2026-08-02T13:12:03Z</time></trkpt>
    <trkpt lat="44.302427" lon="6.584912"><ele>2169.6</ele><time>2026-08-02T13:12:10Z</time></trkpt>
    <trkpt lat="44.302229" lon="6.585447"><ele>2172.0</ele><time>2026-08-02T13:12:29Z</time></trkpt>
    <trkpt lat="44.302175" lon="6.586151"><ele>2176.8</ele><time>2026-08-02T13:12:53Z</time></trkpt>
    <trkpt lat="44.301789" lon="6.586846"><ele>2181.6</ele><time>2026-08-02T13:13:24Z</time></trkpt>
    <trkpt lat="44.301172" lon="6.587369"><ele>2187.0</ele><time>2026-08-02T13:14:01Z</time></trkpt>
    <trkpt lat="44.300829" lon="6.587464"><ele>2189.8</ele><time>2026-08-02T13:14:19Z</time></trkpt>
    <trkpt lat="44.300417" lon="6.588210"><ele>2195.6</ele><time>2026-08-02T13:14:55Z</time></trkpt>
    <trkpt lat="44.300103" lon="6.588338"><ele>2198.2</ele><time>2026-08-02T13:15:10Z</time></trkpt>
    <trkpt lat="44.299900" lon="6.588717"><ele>2201.0</ele><time>2026-08-02T13:15:27Z</time></trkpt>
    <trkpt lat="44.298786" lon="6.589597"><ele>2212.0</ele><time>2026-08-02T13:16:37Z</time></trkpt>
    <trkpt lat="44.298644" lon="6.590536"><ele>2217.2</ele><time>2026-08-02T13:17:13Z</time></trkpt>
    <trkpt lat="44.298525" lon="6.590771"><ele>2218.6</ele><time>2026-08-02T13:17:24Z</time></trkpt>
    <trkpt lat="44.298020" lon="6.591474"><ele>2225.4</ele><time>2026-08-02T13:18:00Z</time></trkpt>
    <trkpt lat="44.298074" lon="6.591735"><ele>2227.6</ele><time>2026-08-02T13:18:13Z</time></trkpt>
    <trkpt lat="44.298506" lon="6.592181"><ele>2231.4</ele><time>2026-08-02T13:18:42Z</time></trkpt>
    <trkpt lat="44.298503" lon="6.592552"><ele>2233.6</ele><time>2026-08-02T13:18:54Z</time></trkpt>
    <trkpt lat="44.298015" lon="6.593147"><ele>2237.0</ele><time>2026-08-02T13:19:16Z</time></trkpt>
    <trkpt lat="44.297275" lon="6.593595"><ele>2241.2</ele><time>2026-08-02T13:19:39Z</time></trkpt>
    <trkpt lat="44.297219" lon="6.593801"><ele>2245.6</ele><time>2026-08-02T13:33:53Z</time></trkpt>
    <trkpt lat="44.297220" lon="6.594308"><ele>2244.4</ele><time>2026-08-02T13:34:13Z</time></trkpt>
    <trkpt lat="44.296709" lon="6.594661"><ele>2240.8</ele><time>2026-08-02T13:34:27Z</time></trkpt>
    <trkpt lat="44.296659" lon="6.594804"><ele>2240.0</ele><time>2026-08-02T13:34:29Z</time></trkpt>
    <trkpt lat="44.296812" lon="6.595216"><ele>2237.2</ele><time>2026-08-02T13:34:35Z</time></trkpt>
    <trkpt lat="44.297435" lon="6.595759"><ele>2229.4</ele><time>2026-08-02T13:35:18Z</time></trkpt>
    <trkpt lat="44.297718" lon="6.595909"><ele>2229.6</ele><time>2026-08-02T13:35:35Z</time></trkpt>
    <trkpt lat="44.297435" lon="6.595769"><ele>2227.0</ele><time>2026-08-02T14:01:39Z</time></trkpt>
    <trkpt lat="44.297601" lon="6.595954"><ele>2226.6</ele><time>2026-08-02T14:01:45Z</time></trkpt>
    <trkpt lat="44.297734" lon="6.596088"><ele>2225.6</ele><time>2026-08-02T14:01:48Z</time></trkpt>
    <trkpt lat="44.298451" lon="6.596360"><ele>2220.4</ele><time>2026-08-02T14:02:01Z</time></trkpt>
    <trkpt lat="44.299792" lon="6.595760"><ele>2211.4</ele><time>2026-08-02T14:02:22Z</time></trkpt>
    <trkpt lat="44.300423" lon="6.595907"><ele>2206.2</ele><time>2026-08-02T14:02:31Z</time></trkpt>
    <trkpt lat="44.301102" lon="6.596339"><ele>2202.0</ele><time>2026-08-02T14:02:41Z</time></trkpt>
    <trkpt lat="44.301505" lon="6.596619"><ele>2198.8</ele><time>2026-08-02T14:02:46Z</time></trkpt>
    <trkpt lat="44.302068" lon="6.596584"><ele>2194.8</ele><time>2026-08-02T14:02:52Z</time></trkpt>
    <trkpt lat="44.303277" lon="6.595888"><ele>2184.6</ele><time>2026-08-02T14:03:06Z</time></trkpt>
    <trkpt lat="44.303880" lon="6.595230"><ele>2180.8</ele><time>2026-08-02T14:03:15Z</time></trkpt>
    <trkpt lat="44.304974" lon="6.595104"><ele>2172.2</ele><time>2026-08-02T14:03:28Z</time></trkpt>
    <trkpt lat="44.305442" lon="6.594500"><ele>2167.2</ele><time>2026-08-02T14:03:36Z</time></trkpt>
    <trkpt lat="44.306001" lon="6.594378"><ele>2162.4</ele><time>2026-08-02T14:03:43Z</time></trkpt>
    <trkpt lat="44.306581" lon="6.594761"><ele>2157.4</ele><time>2026-08-02T14:03:50Z</time></trkpt>
    <trkpt lat="44.307253" lon="6.595905"><ele>2150.2</ele><time>2026-08-02T14:04:01Z</time></trkpt>
    <trkpt lat="44.307914" lon="6.596283"><ele>2145.2</ele><time>2026-08-02T14:04:08Z</time></trkpt>
    <trkpt lat="44.308415" lon="6.596352"><ele>2141.6</ele><time>2026-08-02T14:04:13Z</time></trkpt>
    <trkpt lat="44.308984" lon="6.596959"><ele>2136.0</ele><time>2026-08-02T14:04:20Z</time></trkpt>
    <trkpt lat="44.309785" lon="6.597447"><ele>2129.2</ele><time>2026-08-02T14:04:29Z</time></trkpt>
    <trkpt lat="44.310323" lon="6.597567"><ele>2125.2</ele><time>2026-08-02T14:04:35Z</time></trkpt>
    <trkpt lat="44.310583" lon="6.597399"><ele>2123.6</ele><time>2026-08-02T14:04:39Z</time></trkpt>
    <trkpt lat="44.310615" lon="6.597099"><ele>2122.4</ele><time>2026-08-02T14:04:42Z</time></trkpt>
    <trkpt lat="44.310064" lon="6.594637"><ele>2108.8</ele><time>2026-08-02T14:05:03Z</time></trkpt>
    <trkpt lat="44.310190" lon="6.592937"><ele>2098.0</ele><time>2026-08-02T14:05:17Z</time></trkpt>
    <trkpt lat="44.310480" lon="6.592466"><ele>2095.8</ele><time>2026-08-02T14:05:22Z</time></trkpt>
    <trkpt lat="44.311222" lon="6.592345"><ele>2090.8</ele><time>2026-08-02T14:05:29Z</time></trkpt>
    <trkpt lat="44.312720" lon="6.593170"><ele>2079.2</ele><time>2026-08-02T14:05:44Z</time></trkpt>
    <trkpt lat="44.313412" lon="6.593312"><ele>2073.8</ele><time>2026-08-02T14:05:52Z</time></trkpt>
    <trkpt lat="44.313752" lon="6.593262"><ele>2071.8</ele><time>2026-08-02T14:05:56Z</time></trkpt>
    <trkpt lat="44.314962" lon="6.592445"><ele>2063.0</ele><time>2026-08-02T14:06:10Z</time></trkpt>
    <trkpt lat="44.316929" lon="6.592655"><ele>2048.2</ele><time>2026-08-02T14:06:31Z</time></trkpt>
    <trkpt lat="44.317257" lon="6.593081"><ele>2044.2</ele><time>2026-08-02T14:06:37Z</time></trkpt>
    <trkpt lat="44.317816" lon="6.593188"><ele>2039.4</ele><time>2026-08-02T14:06:45Z</time></trkpt>
    <trkpt lat="44.318072" lon="6.593386"><ele>2037.4</ele><time>2026-08-02T14:06:49Z</time></trkpt>
    <trkpt lat="44.318203" lon="6.593802"><ele>2035.0</ele><time>2026-08-02T14:06:55Z</time></trkpt>
    <trkpt lat="44.317659" lon="6.593442"><ele>2029.0</ele><time>2026-08-02T14:07:05Z</time></trkpt>
    <trkpt lat="44.317198" lon="6.593645"><ele>2025.6</ele><time>2026-08-02T14:07:12Z</time></trkpt>
    <trkpt lat="44.316748" lon="6.593271"><ele>2021.0</ele><time>2026-08-02T14:07:20Z</time></trkpt>
    <trkpt lat="44.316164" lon="6.593405"><ele>2015.6</ele><time>2026-08-02T14:07:27Z</time></trkpt>
    <trkpt lat="44.316021" lon="6.593458"><ele>2014.4</ele><time>2026-08-02T14:07:29Z</time></trkpt>
    <trkpt lat="44.315362" lon="6.593703"><ele>2011.2</ele><time>2026-08-02T14:07:38Z</time></trkpt>
    <trkpt lat="44.315170" lon="6.594286"><ele>2009.8</ele><time>2026-08-02T14:07:44Z</time></trkpt>
    <trkpt lat="44.314643" lon="6.594693"><ele>2008.2</ele><time>2026-08-02T14:07:52Z</time></trkpt>
    <trkpt lat="44.314646" lon="6.594876"><ele>2007.8</ele><time>2026-08-02T14:07:55Z</time></trkpt>
    <trkpt lat="44.315304" lon="6.594474"><ele>2002.2</ele><time>2026-08-02T14:08:05Z</time></trkpt>
    <trkpt lat="44.315493" lon="6.593957"><ele>2000.6</ele><time>2026-08-02T14:08:13Z</time></trkpt>
    <trkpt lat="44.315906" lon="6.594116"><ele>1998.4</ele><time>2026-08-02T14:08:21Z</time></trkpt>
    <trkpt lat="44.316499" lon="6.594099"><ele>1993.6</ele><time>2026-08-02T14:08:29Z</time></trkpt>
    <trkpt lat="44.317870" lon="6.595661"><ele>1979.2</ele><time>2026-08-02T14:08:51Z</time></trkpt>
    <trkpt lat="44.318261" lon="6.596660"><ele>1973.8</ele><time>2026-08-02T14:09:00Z</time></trkpt>
    <trkpt lat="44.318334" lon="6.597617"><ele>1968.0</ele><time>2026-08-02T14:09:12Z</time></trkpt>
    <trkpt lat="44.319256" lon="6.597924"><ele>1959.6</ele><time>2026-08-02T14:09:26Z</time></trkpt>
    <trkpt lat="44.320100" lon="6.597838"><ele>1953.6</ele><time>2026-08-02T14:09:37Z</time></trkpt>
    <trkpt lat="44.320337" lon="6.600405"><ele>1938.2</ele><time>2026-08-02T14:10:05Z</time></trkpt>
    <trkpt lat="44.320362" lon="6.600468"><ele>1934.4</ele><time>2026-08-02T14:11:45Z</time></trkpt>
    <trkpt lat="44.320543" lon="6.600805"><ele>1933.0</ele><time>2026-08-02T14:11:54Z</time></trkpt>
    <trkpt lat="44.321782" lon="6.601024"><ele>1924.0</ele><time>2026-08-02T14:12:14Z</time></trkpt>
    <trkpt lat="44.321836" lon="6.601101"><ele>1923.8</ele><time>2026-08-02T14:12:15Z</time></trkpt>
    <trkpt lat="44.321918" lon="6.601985"><ele>1918.6</ele><time>2026-08-02T14:12:23Z</time></trkpt>
    <trkpt lat="44.322659" lon="6.602648"><ele>1911.4</ele><time>2026-08-02T14:12:33Z</time></trkpt>
    <trkpt lat="44.323725" lon="6.603014"><ele>1903.0</ele><time>2026-08-02T14:12:45Z</time></trkpt>
    <trkpt lat="44.324081" lon="6.604006"><ele>1897.6</ele><time>2026-08-02T14:12:56Z</time></trkpt>
    <trkpt lat="44.325278" lon="6.603962"><ele>1888.2</ele><time>2026-08-02T14:13:11Z</time></trkpt>
    <trkpt lat="44.326143" lon="6.603119"><ele>1879.6</ele><time>2026-08-02T14:13:23Z</time></trkpt>
    <trkpt lat="44.326690" lon="6.601639"><ele>1871.2</ele><time>2026-08-02T14:13:37Z</time></trkpt>
    <trkpt lat="44.327138" lon="6.601121"><ele>1866.6</ele><time>2026-08-02T14:13:43Z</time></trkpt>
    <trkpt lat="44.327318" lon="6.600375"><ele>1862.4</ele><time>2026-08-02T14:13:50Z</time></trkpt>
    <trkpt lat="44.327962" lon="6.600112"><ele>1857.8</ele><time>2026-08-02T14:13:59Z</time></trkpt>
    <trkpt lat="44.327931" lon="6.599107"><ele>1851.8</ele><time>2026-08-02T14:14:08Z</time></trkpt>
    <trkpt lat="44.328330" lon="6.598216"><ele>1846.4</ele><time>2026-08-02T14:14:17Z</time></trkpt>
    <trkpt lat="44.328387" lon="6.597059"><ele>1839.6</ele><time>2026-08-02T14:14:27Z</time></trkpt>
    <trkpt lat="44.328050" lon="6.596605"><ele>1835.8</ele><time>2026-08-02T14:14:34Z</time></trkpt>
    <trkpt lat="44.328238" lon="6.594635"><ele>1825.2</ele><time>2026-08-02T14:14:51Z</time></trkpt>
    <trkpt lat="44.328135" lon="6.593480"><ele>1819.6</ele><time>2026-08-02T14:15:01Z</time></trkpt>
    <trkpt lat="44.327977" lon="6.593064"><ele>1816.4</ele><time>2026-08-02T14:15:06Z</time></trkpt>
    <trkpt lat="44.327788" lon="6.592478"><ele>1813.4</ele><time>2026-08-02T14:15:14Z</time></trkpt>
    <trkpt lat="44.328333" lon="6.591879"><ele>1808.4</ele><time>2026-08-02T14:15:30Z</time></trkpt>
    <trkpt lat="44.328581" lon="6.591129"><ele>1803.6</ele><time>2026-08-02T14:15:38Z</time></trkpt>
    <trkpt lat="44.328588" lon="6.590685"><ele>1800.8</ele><time>2026-08-02T14:15:44Z</time></trkpt>
    <trkpt lat="44.328754" lon="6.590580"><ele>1799.2</ele><time>2026-08-02T14:15:47Z</time></trkpt>
    <trkpt lat="44.328908" lon="6.590885"><ele>1797.0</ele><time>2026-08-02T14:15:51Z</time></trkpt>
    <trkpt lat="44.328954" lon="6.591559"><ele>1793.6</ele><time>2026-08-02T14:15:57Z</time></trkpt>
    <trkpt lat="44.328883" lon="6.592367"><ele>1789.4</ele><time>2026-08-02T14:16:04Z</time></trkpt>
    <trkpt lat="44.328651" lon="6.593064"><ele>1784.8</ele><time>2026-08-02T14:16:12Z</time></trkpt>
    <trkpt lat="44.328727" lon="6.593250"><ele>1783.6</ele><time>2026-08-02T14:16:15Z</time></trkpt>
    <trkpt lat="44.328891" lon="6.593180"><ele>1782.0</ele><time>2026-08-02T14:16:18Z</time></trkpt>
    <trkpt lat="44.329231" lon="6.592765"><ele>1778.0</ele><time>2026-08-02T14:16:24Z</time></trkpt>
    <trkpt lat="44.329193" lon="6.592285"><ele>1775.2</ele><time>2026-08-02T14:16:30Z</time></trkpt>
    <trkpt lat="44.329440" lon="6.591869"><ele>1771.6</ele><time>2026-08-02T14:16:35Z</time></trkpt>
    <trkpt lat="44.329852" lon="6.590388"><ele>1764.0</ele><time>2026-08-02T14:16:49Z</time></trkpt>
    <trkpt lat="44.331069" lon="6.589594"><ele>1756.4</ele><time>2026-08-02T14:17:06Z</time></trkpt>
    <trkpt lat="44.331114" lon="6.588841"><ele>1753.0</ele><time>2026-08-02T14:17:14Z</time></trkpt>
    <trkpt lat="44.330565" lon="6.588135"><ele>1747.6</ele><time>2026-08-02T14:17:24Z</time></trkpt>
    <trkpt lat="44.330141" lon="6.587901"><ele>1745.2</ele><time>2026-08-02T14:17:32Z</time></trkpt>
    <trkpt lat="44.330159" lon="6.587639"><ele>1743.8</ele><time>2026-08-02T14:17:36Z</time></trkpt>
    <trkpt lat="44.331190" lon="6.586995"><ele>1736.2</ele><time>2026-08-02T14:17:51Z</time></trkpt>
    <trkpt lat="44.331349" lon="6.586338"><ele>1732.4</ele><time>2026-08-02T14:17:57Z</time></trkpt>
    <trkpt lat="44.331974" lon="6.585247"><ele>1727.2</ele><time>2026-08-02T14:18:09Z</time></trkpt>
    <trkpt lat="44.331833" lon="6.584699"><ele>1724.6</ele><time>2026-08-02T14:18:16Z</time></trkpt>
    <trkpt lat="44.331952" lon="6.584403"><ele>1723.2</ele><time>2026-08-02T14:18:20Z</time></trkpt>
    <trkpt lat="44.332353" lon="6.584568"><ele>1720.4</ele><time>2026-08-02T14:18:26Z</time></trkpt>
    <trkpt lat="44.332508" lon="6.584908"><ele>1718.8</ele><time>2026-08-02T14:18:30Z</time></trkpt>
    <trkpt lat="44.332759" lon="6.585166"><ele>1716.6</ele><time>2026-08-02T14:18:34Z</time></trkpt>
    <trkpt lat="44.333555" lon="6.585042"><ele>1709.6</ele><time>2026-08-02T14:18:44Z</time></trkpt>
    <trkpt lat="44.334248" lon="6.584536"><ele>1704.0</ele><time>2026-08-02T14:18:53Z</time></trkpt>
    <trkpt lat="44.334634" lon="6.584527"><ele>1701.2</ele><time>2026-08-02T14:18:57Z</time></trkpt>
    <trkpt lat="44.334890" lon="6.584439"><ele>1700.0</ele><time>2026-08-02T14:19:00Z</time></trkpt>
    <trkpt lat="44.335564" lon="6.583278"><ele>1696.4</ele><time>2026-08-02T14:19:14Z</time></trkpt>
    <trkpt lat="44.336383" lon="6.582908"><ele>1692.4</ele><time>2026-08-02T14:19:26Z</time></trkpt>
    <trkpt lat="44.336493" lon="6.583323"><ele>1691.6</ele><time>2026-08-02T14:19:31Z</time></trkpt>
    <trkpt lat="44.336237" lon="6.583931"><ele>1688.0</ele><time>2026-08-02T14:19:39Z</time></trkpt>
    <trkpt lat="44.336148" lon="6.585120"><ele>1683.8</ele><time>2026-08-02T14:19:50Z</time></trkpt>
    <trkpt lat="44.335102" lon="6.587297"><ele>1673.0</ele><time>2026-08-02T14:20:11Z</time></trkpt>
    <trkpt lat="44.334831" lon="6.589380"><ele>1666.8</ele><time>2026-08-02T14:20:27Z</time></trkpt>
    <trkpt lat="44.334953" lon="6.590262"><ele>1664.0</ele><time>2026-08-02T14:20:34Z</time></trkpt>
    <trkpt lat="44.335270" lon="6.591046"><ele>1660.2</ele><time>2026-08-02T14:20:42Z</time></trkpt>
    <trkpt lat="44.335898" lon="6.591341"><ele>1656.2</ele><time>2026-08-02T14:20:52Z</time></trkpt>
    <trkpt lat="44.335991" lon="6.591635"><ele>1655.2</ele><time>2026-08-02T14:20:57Z</time></trkpt>
    <trkpt lat="44.335864" lon="6.591957"><ele>1653.0</ele><time>2026-08-02T14:21:02Z</time></trkpt>
    <trkpt lat="44.335198" lon="6.592569"><ele>1649.4</ele><time>2026-08-02T14:21:14Z</time></trkpt>
    <trkpt lat="44.335015" lon="6.594026"><ele>1642.8</ele><time>2026-08-02T14:21:28Z</time></trkpt>
    <trkpt lat="44.335342" lon="6.595268"><ele>1638.2</ele><time>2026-08-02T14:21:43Z</time></trkpt>
    <trkpt lat="44.335058" lon="6.596183"><ele>1634.8</ele><time>2026-08-02T14:21:52Z</time></trkpt>
    <trkpt lat="44.335124" lon="6.597089"><ele>1631.2</ele><time>2026-08-02T14:22:02Z</time></trkpt>
    <trkpt lat="44.334828" lon="6.597703"><ele>1628.4</ele><time>2026-08-02T14:22:10Z</time></trkpt>
    <trkpt lat="44.334788" lon="6.598165"><ele>1626.6</ele><time>2026-08-02T14:22:15Z</time></trkpt>
    <trkpt lat="44.334171" lon="6.598797"><ele>1620.8</ele><time>2026-08-02T14:22:26Z</time></trkpt>
    <trkpt lat="44.334087" lon="6.599018"><ele>1620.4</ele><time>2026-08-02T14:22:29Z</time></trkpt>
    <trkpt lat="44.334106" lon="6.599891"><ele>1617.2</ele><time>2026-08-02T14:22:38Z</time></trkpt>
    <trkpt lat="44.334389" lon="6.600198"><ele>1615.4</ele><time>2026-08-02T14:22:43Z</time></trkpt>
    <trkpt lat="44.334753" lon="6.600307"><ele>1613.6</ele><time>2026-08-02T14:22:48Z</time></trkpt>
    <trkpt lat="44.335250" lon="6.600043"><ele>1611.4</ele><time>2026-08-02T14:22:55Z</time></trkpt>
    <trkpt lat="44.336001" lon="6.600284"><ele>1610.4</ele><time>2026-08-02T14:23:06Z</time></trkpt>
    <trkpt lat="44.336335" lon="6.599962"><ele>1610.4</ele><time>2026-08-02T14:23:13Z</time></trkpt>
    <trkpt lat="44.336555" lon="6.600133"><ele>1610.4</ele><time>2026-08-02T14:23:17Z</time></trkpt>
    <trkpt lat="44.336569" lon="6.600387"><ele>1610.2</ele><time>2026-08-02T14:23:20Z</time></trkpt>
    <trkpt lat="44.336242" lon="6.601359"><ele>1607.6</ele><time>2026-08-02T14:23:32Z</time></trkpt>
    <trkpt lat="44.335944" lon="6.601751"><ele>1606.2</ele><time>2026-08-02T14:23:39Z</time></trkpt>
    <trkpt lat="44.335931" lon="6.601848"><ele>1606.0</ele><time>2026-08-02T14:23:40Z</time></trkpt>
    <trkpt lat="44.335592" lon="6.604075"><ele>1597.0</ele><time>2026-08-02T14:24:00Z</time></trkpt>
    <trkpt lat="44.335366" lon="6.604452"><ele>1595.2</ele><time>2026-08-02T14:24:05Z</time></trkpt>
    <trkpt lat="44.335165" lon="6.605587"><ele>1591.8</ele><time>2026-08-02T14:24:20Z</time></trkpt>
    <trkpt lat="44.334773" lon="6.605951"><ele>1588.0</ele><time>2026-08-02T14:24:27Z</time></trkpt>
    <trkpt lat="44.334820" lon="6.607196"><ele>1582.8</ele><time>2026-08-02T14:24:40Z</time></trkpt>
    <trkpt lat="44.334545" lon="6.607528"><ele>1581.2</ele><time>2026-08-02T14:24:45Z</time></trkpt>
    <trkpt lat="44.334136" lon="6.607617"><ele>1578.8</ele><time>2026-08-02T14:24:51Z</time></trkpt>
    <trkpt lat="44.333889" lon="6.608557"><ele>1574.2</ele><time>2026-08-02T14:25:00Z</time></trkpt>
    <trkpt lat="44.333579" lon="6.608692"><ele>1572.0</ele><time>2026-08-02T14:25:05Z</time></trkpt>
    <trkpt lat="44.333234" lon="6.609461"><ele>1567.6</ele><time>2026-08-02T14:25:13Z</time></trkpt>
    <trkpt lat="44.332978" lon="6.609716"><ele>1567.2</ele><time>2026-08-02T14:25:18Z</time></trkpt>
    <trkpt lat="44.332987" lon="6.609962"><ele>1566.0</ele><time>2026-08-02T14:25:21Z</time></trkpt>
    <trkpt lat="44.333034" lon="6.610041"><ele>1565.4</ele><time>2026-08-02T14:25:22Z</time></trkpt>
    <trkpt lat="44.333585" lon="6.610391"><ele>1560.2</ele><time>2026-08-02T14:25:29Z</time></trkpt>
    <trkpt lat="44.334360" lon="6.611412"><ele>1550.6</ele><time>2026-08-02T14:25:39Z</time></trkpt>
    <trkpt lat="44.335825" lon="6.611420"><ele>1538.6</ele><time>2026-08-02T14:25:52Z</time></trkpt>
    <trkpt lat="44.337526" lon="6.612164"><ele>1523.8</ele><time>2026-08-02T14:26:08Z</time></trkpt>
    <trkpt lat="44.338977" lon="6.612303"><ele>1513.4</ele><time>2026-08-02T14:26:22Z</time></trkpt>
    <trkpt lat="44.339449" lon="6.612896"><ele>1509.0</ele><time>2026-08-02T14:26:28Z</time></trkpt>
    <trkpt lat="44.339820" lon="6.613783"><ele>1503.0</ele><time>2026-08-02T14:26:35Z</time></trkpt>
    <trkpt lat="44.339915" lon="6.613973"><ele>1501.8</ele><time>2026-08-02T14:26:37Z</time></trkpt>
    <trkpt lat="44.340978" lon="6.614492"><ele>1493.6</ele><time>2026-08-02T14:26:49Z</time></trkpt>
    <trkpt lat="44.341166" lon="6.615027"><ele>1489.8</ele><time>2026-08-02T14:26:55Z</time></trkpt>
    <trkpt lat="44.341609" lon="6.615352"><ele>1485.6</ele><time>2026-08-02T14:27:01Z</time></trkpt>
    <trkpt lat="44.342081" lon="6.615293"><ele>1481.2</ele><time>2026-08-02T14:27:07Z</time></trkpt>
    <trkpt lat="44.342357" lon="6.615508"><ele>1477.8</ele><time>2026-08-02T14:27:11Z</time></trkpt>
    <trkpt lat="44.342922" lon="6.615593"><ele>1472.6</ele><time>2026-08-02T14:27:17Z</time></trkpt>
    <trkpt lat="44.343941" lon="6.616399"><ele>1464.4</ele><time>2026-08-02T14:27:30Z</time></trkpt>
    <trkpt lat="44.344622" lon="6.615985"><ele>1458.8</ele><time>2026-08-02T14:27:39Z</time></trkpt>
    <trkpt lat="44.345115" lon="6.616220"><ele>1454.6</ele><time>2026-08-02T14:27:46Z</time></trkpt>
    <trkpt lat="44.345289" lon="6.616562"><ele>1452.6</ele><time>2026-08-02T14:27:50Z</time></trkpt>
    <trkpt lat="44.346207" lon="6.616857"><ele>1444.8</ele><time>2026-08-02T14:28:01Z</time></trkpt>
    <trkpt lat="44.347774" lon="6.616186"><ele>1433.4</ele><time>2026-08-02T14:28:17Z</time></trkpt>
    <trkpt lat="44.348322" lon="6.616358"><ele>1428.6</ele><time>2026-08-02T14:28:23Z</time></trkpt>
    <trkpt lat="44.350434" lon="6.615986"><ele>1412.6</ele><time>2026-08-02T14:28:42Z</time></trkpt>
    <trkpt lat="44.350628" lon="6.615842"><ele>1410.8</ele><time>2026-08-02T14:28:45Z</time></trkpt>
    <trkpt lat="44.350685" lon="6.615277"><ele>1407.2</ele><time>2026-08-02T14:28:50Z</time></trkpt>
    <trkpt lat="44.351001" lon="6.614439"><ele>1401.0</ele><time>2026-08-02T14:28:58Z</time></trkpt>
    <trkpt lat="44.351810" lon="6.614204"><ele>1394.2</ele><time>2026-08-02T14:29:07Z</time></trkpt>
    <trkpt lat="44.352143" lon="6.614162"><ele>1392.0</ele><time>2026-08-02T14:29:11Z</time></trkpt>
    <trkpt lat="44.352599" lon="6.614919"><ele>1388.6</ele><time>2026-08-02T14:29:21Z</time></trkpt>
    <trkpt lat="44.352677" lon="6.615909"><ele>1384.4</ele><time>2026-08-02T14:29:30Z</time></trkpt>
    <trkpt lat="44.352724" lon="6.616014"><ele>1384.0</ele><time>2026-08-02T14:29:31Z</time></trkpt>
    <trkpt lat="44.353275" lon="6.617037"><ele>1376.8</ele><time>2026-08-02T14:29:40Z</time></trkpt>
    <trkpt lat="44.354627" lon="6.618044"><ele>1363.2</ele><time>2026-08-02T14:29:54Z</time></trkpt>
    <trkpt lat="44.356104" lon="6.620202"><ele>1345.2</ele><time>2026-08-02T14:30:14Z</time></trkpt>
    <trkpt lat="44.356513" lon="6.620197"><ele>1341.2</ele><time>2026-08-02T14:30:18Z</time></trkpt>
    <trkpt lat="44.356808" lon="6.619834"><ele>1337.4</ele><time>2026-08-02T14:30:22Z</time></trkpt>
    <trkpt lat="44.357094" lon="6.619423"><ele>1335.2</ele><time>2026-08-02T14:30:28Z</time></trkpt>
    <trkpt lat="44.357943" lon="6.620534"><ele>1325.8</ele><time>2026-08-02T14:30:43Z</time></trkpt>
    <trkpt lat="44.358354" lon="6.621510"><ele>1319.2</ele><time>2026-08-02T14:30:51Z</time></trkpt>
    <trkpt lat="44.359249" lon="6.621861"><ele>1311.8</ele><time>2026-08-02T14:31:01Z</time></trkpt>
    <trkpt lat="44.359785" lon="6.622489"><ele>1306.0</ele><time>2026-08-02T14:31:15Z</time></trkpt>
    <trkpt lat="44.359783" lon="6.622485"><ele>1306.0</ele><time>2026-08-02T14:31:16Z</time></trkpt>
    <trkpt lat="44.359792" lon="6.622378"><ele>1293.6</ele><time>2026-08-02T14:34:34Z</time></trkpt>
    <trkpt lat="44.360169" lon="6.621987"><ele>1291.2</ele><time>2026-08-02T14:34:44Z</time></trkpt>
    <trkpt lat="44.360422" lon="6.622434"><ele>1288.8</ele><time>2026-08-02T14:34:52Z</time></trkpt>
    <trkpt lat="44.360575" lon="6.622596"><ele>1287.0</ele><time>2026-08-02T14:34:55Z</time></trkpt>
    <trkpt lat="44.361347" lon="6.622712"><ele>1279.8</ele><time>2026-08-02T14:35:04Z</time></trkpt>
    <trkpt lat="44.361866" lon="6.622426"><ele>1275.4</ele><time>2026-08-02T14:35:10Z</time></trkpt>
    <trkpt lat="44.362818" lon="6.622592"><ele>1267.6</ele><time>2026-08-02T14:35:20Z</time></trkpt>
    <trkpt lat="44.363041" lon="6.623064"><ele>1264.4</ele><time>2026-08-02T14:35:25Z</time></trkpt>
    <trkpt lat="44.363465" lon="6.623684"><ele>1259.4</ele><time>2026-08-02T14:35:31Z</time></trkpt>
    <trkpt lat="44.365213" lon="6.624201"><ele>1243.4</ele><time>2026-08-02T14:35:46Z</time></trkpt>
    <trkpt lat="44.365409" lon="6.624313"><ele>1241.4</ele><time>2026-08-02T14:35:48Z</time></trkpt>
    <trkpt lat="44.366666" lon="6.625068"><ele>1231.4</ele><time>2026-08-02T14:36:06Z</time></trkpt>
    <trkpt lat="44.367450" lon="6.625054"><ele>1223.2</ele><time>2026-08-02T14:36:13Z</time></trkpt>
    <trkpt lat="44.368828" lon="6.624357"><ele>1212.0</ele><time>2026-08-02T14:36:24Z</time></trkpt>
    <trkpt lat="44.371099" lon="6.624240"><ele>1193.2</ele><time>2026-08-02T14:36:40Z</time></trkpt>
    <trkpt lat="44.371885" lon="6.623616"><ele>1184.8</ele><time>2026-08-02T14:36:46Z</time></trkpt>
    <trkpt lat="44.372531" lon="6.622729"><ele>1178.0</ele><time>2026-08-02T14:36:52Z</time></trkpt>
    <trkpt lat="44.372816" lon="6.622267"><ele>1176.6</ele><time>2026-08-02T14:36:56Z</time></trkpt>
    <trkpt lat="44.373120" lon="6.622235"><ele>1176.0</ele><time>2026-08-02T14:37:00Z</time></trkpt>
    <trkpt lat="44.374304" lon="6.623372"><ele>1166.8</ele><time>2026-08-02T14:37:16Z</time></trkpt>
    <trkpt lat="44.374723" lon="6.624003"><ele>1162.6</ele><time>2026-08-02T14:37:22Z</time></trkpt>
    <trkpt lat="44.374780" lon="6.624128"><ele>1162.2</ele><time>2026-08-02T14:37:23Z</time></trkpt>
    <trkpt lat="44.375251" lon="6.626905"><ele>1164.0</ele><time>2026-08-02T14:37:49Z</time></trkpt>
    <trkpt lat="44.375271" lon="6.627006"><ele>1163.8</ele><time>2026-08-02T14:37:50Z</time></trkpt>
    <trkpt lat="44.375525" lon="6.627534"><ele>1161.8</ele><time>2026-08-02T14:37:56Z</time></trkpt>
    <trkpt lat="44.379591" lon="6.628923"><ele>1149.6</ele><time>2026-08-02T14:38:43Z</time></trkpt>
    <trkpt lat="44.380867" lon="6.629756"><ele>1145.2</ele><time>2026-08-02T14:38:58Z</time></trkpt>
    <trkpt lat="44.382117" lon="6.631327"><ele>1141.4</ele><time>2026-08-02T14:39:14Z</time></trkpt>
    <trkpt lat="44.382866" lon="6.633903"><ele>1141.6</ele><time>2026-08-02T14:39:36Z</time></trkpt>
    <trkpt lat="44.383042" lon="6.636951"><ele>1142.8</ele><time>2026-08-02T14:40:05Z</time></trkpt>
    <trkpt lat="44.384410" lon="6.646213"><ele>1145.2</ele><time>2026-08-02T14:41:42Z</time></trkpt>
    <trkpt lat="44.384533" lon="6.647447"><ele>1147.0</ele><time>2026-08-02T14:41:58Z</time></trkpt>
    <trkpt lat="44.384471" lon="6.648416"><ele>1149.2</ele><time>2026-08-02T14:42:14Z</time></trkpt>
    <trkpt lat="44.384765" lon="6.648660"><ele>1150.0</ele><time>2026-08-02T14:42:26Z</time></trkpt>
    <trkpt lat="44.385153" lon="6.649031"><ele>1145.8</ele><time>2026-08-02T14:45:28Z</time></trkpt>
    <trkpt lat="44.385872" lon="6.650743"><ele>1143.6</ele><time>2026-08-02T14:46:05Z</time></trkpt>
    <trkpt lat="44.386837" lon="6.650433"><ele>1143.4</ele><time>2026-08-02T14:46:38Z</time></trkpt>
    <trkpt lat="44.386281" lon="6.647081"><ele>1140.4</ele><time>2026-08-02T14:47:29Z</time></trkpt>
    <trkpt lat="44.386297" lon="6.644701"><ele>1140.4</ele><time>2026-08-02T14:48:02Z</time></trkpt>
    <trkpt lat="44.386555" lon="6.644708"><ele>1140.8</ele><time>2026-08-02T14:48:19Z</time></trkpt>
    </trkseg>
  </trk>
</gpx>
