<?xml version="1.0" encoding="UTF-8"?>
<gpx version="1.1" creator="tripplanner (converted from Garmin TCX)" xmlns="http://www.topografix.com/GPX/1/1">
  <metadata>
    <name>Le Bourg-d'Oisans → Albertville</name>
    <time>2026-08-05T06:48:02Z</time>
  </metadata>
  <trk>
    <name>Le Bourg-d'Oisans → Albertville</name>
    <trkseg>
    <trkpt lat="45.058230" lon="6.028070"><ele>722.6</ele><time>2026-08-05T06:48:02Z</time></trkpt>
    <trkpt lat="45.058481" lon="6.028028"><ele>722.2</ele><time>2026-08-05T06:49:10Z</time></trkpt>
    <trkpt lat="45.058698" lon="6.028273"><ele>722.2</ele><time>2026-08-05T06:49:22Z</time></trkpt>
    <trkpt lat="45.061506" lon="6.026081"><ele>722.6</ele><time>2026-08-05T06:50:45Z</time></trkpt>
    <trkpt lat="45.063153" lon="6.025016"><ele>722.6</ele><time>2026-08-05T06:51:27Z</time></trkpt>
    <trkpt lat="45.062432" lon="6.025466"><ele>722.0</ele><time>2026-08-05T06:51:43Z</time></trkpt>
    <trkpt lat="45.062367" lon="6.025695"><ele>722.0</ele><time>2026-08-05T06:51:46Z</time></trkpt>
    <trkpt lat="45.062431" lon="6.026068"><ele>721.2</ele><time>2026-08-05T06:51:50Z</time></trkpt>
    <trkpt lat="45.063293" lon="6.027546"><ele>721.8</ele><time>2026-08-05T06:52:11Z</time></trkpt>
    <trkpt lat="45.064110" lon="6.026564"><ele>722.0</ele><time>2026-08-05T06:52:40Z</time></trkpt>
    <trkpt lat="45.064712" lon="6.028163"><ele>723.0</ele><time>2026-08-05T06:53:11Z</time></trkpt>
    <trkpt lat="45.065078" lon="6.028094"><ele>722.8</ele><time>2026-08-05T06:53:22Z</time></trkpt>
    <trkpt lat="45.065183" lon="6.028312"><ele>724.8</ele><time>2026-08-05T06:53:33Z</time></trkpt>
    <trkpt lat="45.066592" lon="6.027163"><ele>725.2</ele><time>2026-08-05T06:54:10Z</time></trkpt>
    <trkpt lat="45.068442" lon="6.026150"><ele>724.6</ele><time>2026-08-05T06:54:50Z</time></trkpt>
    <trkpt lat="45.074344" lon="6.024450"><ele>723.4</ele><time>2026-08-05T06:56:47Z</time></trkpt>
    <trkpt lat="45.077621" lon="6.023044"><ele>722.6</ele><time>2026-08-05T06:57:43Z</time></trkpt>
    <trkpt lat="45.081048" lon="6.020790"><ele>723.6</ele><time>2026-08-05T06:58:42Z</time></trkpt>
    <trkpt lat="45.081014" lon="6.020380"><ele>724.8</ele><time>2026-08-05T06:58:55Z</time></trkpt>
    <trkpt lat="45.081041" lon="6.020332"><ele>724.6</ele><time>2026-08-05T06:58:56Z</time></trkpt>
    <trkpt lat="45.084082" lon="6.018396"><ele>722.6</ele><time>2026-08-05T06:59:45Z</time></trkpt>
    <trkpt lat="45.084250" lon="6.017876"><ele>723.0</ele><time>2026-08-05T07:00:00Z</time></trkpt>
    <trkpt lat="45.093559" lon="6.018365"><ele>719.4</ele><time>2026-08-05T07:02:07Z</time></trkpt>
    <trkpt lat="45.102623" lon="6.020983"><ele>718.2</ele><time>2026-08-05T07:04:16Z</time></trkpt>
    <trkpt lat="45.105939" lon="6.021021"><ele>718.0</ele><time>2026-08-05T07:05:01Z</time></trkpt>
    <trkpt lat="45.107489" lon="6.020774"><ele>717.8</ele><time>2026-08-05T07:05:21Z</time></trkpt>
    <trkpt lat="45.109000" lon="6.020219"><ele>717.2</ele><time>2026-08-05T07:05:41Z</time></trkpt>
    <trkpt lat="45.112305" lon="6.018274"><ele>716.4</ele><time>2026-08-05T07:06:27Z</time></trkpt>
    <trkpt lat="45.113499" lon="6.016868"><ele>716.4</ele><time>2026-08-05T07:06:47Z</time></trkpt>
    <trkpt lat="45.115504" lon="6.013130"><ele>716.6</ele><time>2026-08-05T07:07:34Z</time></trkpt>
    <trkpt lat="45.116883" lon="6.014596"><ele>714.8</ele><time>2026-08-05T07:08:03Z</time></trkpt>
    <trkpt lat="45.118796" lon="6.016926"><ele>715.2</ele><time>2026-08-05T07:08:41Z</time></trkpt>
    <trkpt lat="45.119272" lon="6.017550"><ele>715.8</ele><time>2026-08-05T07:08:51Z</time></trkpt>
    <trkpt lat="45.120794" lon="6.020862"><ele>718.8</ele><time>2026-08-05T07:09:38Z</time></trkpt>
    <trkpt lat="45.121127" lon="6.022165"><ele>720.0</ele><time>2026-08-05T07:09:55Z</time></trkpt>
    <trkpt lat="45.121434" lon="6.022576"><ele>721.2</ele><time>2026-08-05T07:10:03Z</time></trkpt>
    <trkpt lat="45.121985" lon="6.022825"><ele>721.6</ele><time>2026-08-05T07:10:13Z</time></trkpt>
    <trkpt lat="45.122276" lon="6.023168"><ele>721.4</ele><time>2026-08-05T07:10:19Z</time></trkpt>
    <trkpt lat="45.122523" lon="6.024115"><ele>720.0</ele><time>2026-08-05T07:10:29Z</time></trkpt>
    <trkpt lat="45.125068" lon="6.030671"><ele>722.6</ele><time>2026-08-05T07:11:48Z</time></trkpt>
    <trkpt lat="45.125619" lon="6.031750"><ele>723.4</ele><time>2026-08-05T07:12:02Z</time></trkpt>
    <trkpt lat="45.127855" lon="6.037305"><ele>727.0</ele><time>2026-08-05T07:13:07Z</time></trkpt>
    <trkpt lat="45.127886" lon="6.038284"><ele>727.4</ele><time>2026-08-05T07:13:17Z</time></trkpt>
    <trkpt lat="45.128697" lon="6.040151"><ele>729.4</ele><time>2026-08-05T07:14:01Z</time></trkpt>
    <trkpt lat="45.129197" lon="6.041296"><ele>732.4</ele><time>2026-08-05T07:14:25Z</time></trkpt>
    <trkpt lat="45.129188" lon="6.041852"><ele>732.8</ele><time>2026-08-05T07:14:34Z</time></trkpt>
    <trkpt lat="45.128383" lon="6.043487"><ele>742.2</ele><time>2026-08-05T07:15:19Z</time></trkpt>
    <trkpt lat="45.128000" lon="6.043835"><ele>745.4</ele><time>2026-08-05T07:15:34Z</time></trkpt>
    <trkpt lat="45.128024" lon="6.044125"><ele>746.6</ele><time>2026-08-05T07:15:41Z</time></trkpt>
    <trkpt lat="45.128286" lon="6.044056"><ele>747.8</ele><time>2026-08-05T07:15:50Z</time></trkpt>
    <trkpt lat="45.130305" lon="6.041511"><ele>768.6</ele><time>2026-08-05T07:17:41Z</time></trkpt>
    <trkpt lat="45.130553" lon="6.040866"><ele>772.0</ele><time>2026-08-05T07:18:02Z</time></trkpt>
    <trkpt lat="45.130717" lon="6.040899"><ele>773.0</ele><time>2026-08-05T07:18:08Z</time></trkpt>
    <trkpt lat="45.130742" lon="6.040989"><ele>773.2</ele><time>2026-08-05T07:18:10Z</time></trkpt>
    <trkpt lat="45.130711" lon="6.041128"><ele>773.2</ele><time>2026-08-05T07:18:13Z</time></trkpt>
    <trkpt lat="45.128074" lon="6.045409"><ele>773.2</ele><time>2026-08-05T07:19:26Z</time></trkpt>
    <trkpt lat="45.129358" lon="6.047625"><ele>775.0</ele><time>2026-08-05T07:20:01Z</time></trkpt>
    <trkpt lat="45.129671" lon="6.047875"><ele>775.4</ele><time>2026-08-05T07:20:07Z</time></trkpt>
    <trkpt lat="45.132181" lon="6.048663"><ele>777.6</ele><time>2026-08-05T07:20:48Z</time></trkpt>
    <trkpt lat="45.136034" lon="6.049577"><ele>778.8</ele><time>2026-08-05T07:21:49Z</time></trkpt>
    <trkpt lat="45.136476" lon="6.049453"><ele>779.2</ele><time>2026-08-05T07:21:57Z</time></trkpt>
    <trkpt lat="45.136686" lon="6.049288"><ele>779.4</ele><time>2026-08-05T07:22:01Z</time></trkpt>
    <trkpt lat="45.137962" lon="6.048459"><ele>778.2</ele><time>2026-08-05T07:22:23Z</time></trkpt>
    <trkpt lat="45.139476" lon="6.049008"><ele>775.6</ele><time>2026-08-05T07:22:44Z</time></trkpt>
    <trkpt lat="45.141091" lon="6.049163"><ele>774.8</ele><time>2026-08-05T07:23:06Z</time></trkpt>
    <trkpt lat="45.142822" lon="6.050172"><ele>775.8</ele><time>2026-08-05T07:23:33Z</time></trkpt>
    <trkpt lat="45.143051" lon="6.050339"><ele>776.0</ele><time>2026-08-05T07:23:37Z</time></trkpt>
    <trkpt lat="45.144485" lon="6.051573"><ele>785.0</ele><time>2026-08-05T07:24:13Z</time></trkpt>
    <trkpt lat="45.144576" lon="6.051923"><ele>786.2</ele><time>2026-08-05T07:24:20Z</time></trkpt>
    <trkpt lat="45.144375" lon="6.052889"><ele>790.6</ele><time>2026-08-05T07:24:44Z</time></trkpt>
    <trkpt lat="45.144470" lon="6.053608"><ele>794.6</ele><time>2026-08-05T07:25:01Z</time></trkpt>
    <trkpt lat="45.144650" lon="6.054225"><ele>798.0</ele><time>2026-08-05T07:25:18Z</time></trkpt>
    <trkpt lat="45.145018" lon="6.054512"><ele>801.2</ele><time>2026-08-05T07:25:34Z</time></trkpt>
    <trkpt lat="45.145517" lon="6.054316"><ele>804.6</ele><time>2026-08-05T07:25:52Z</time></trkpt>
    <trkpt lat="45.145710" lon="6.053949"><ele>806.8</ele><time>2026-08-05T07:26:03Z</time></trkpt>
    <trkpt lat="45.146090" lon="6.051755"><ele>815.6</ele><time>2026-08-05T07:26:58Z</time></trkpt>
    <trkpt lat="45.146135" lon="6.051676"><ele>815.6</ele><time>2026-08-05T07:27:00Z</time></trkpt>
    <trkpt lat="45.146703" lon="6.050979"><ele>815.4</ele><time>2026-08-05T07:27:21Z</time></trkpt>
    <trkpt lat="45.147213" lon="6.050840"><ele>814.4</ele><time>2026-08-05T07:27:31Z</time></trkpt>
    <trkpt lat="45.147333" lon="6.050772"><ele>813.8</ele><time>2026-08-05T07:27:33Z</time></trkpt>
    <trkpt lat="45.148004" lon="6.049867"><ele>808.2</ele><time>2026-08-05T07:27:45Z</time></trkpt>
    <trkpt lat="45.148235" lon="6.048974"><ele>803.2</ele><time>2026-08-05T07:27:55Z</time></trkpt>
    <trkpt lat="45.148098" lon="6.048759"><ele>802.2</ele><time>2026-08-05T07:28:04Z</time></trkpt>
    <trkpt lat="45.148229" lon="6.048843"><ele>798.6</ele><time>2026-08-05T07:33:15Z</time></trkpt>
    <trkpt lat="45.148914" lon="6.048420"><ele>795.8</ele><time>2026-08-05T07:33:29Z</time></trkpt>
    <trkpt lat="45.149187" lon="6.048360"><ele>794.6</ele><time>2026-08-05T07:33:33Z</time></trkpt>
    <trkpt lat="45.150011" lon="6.048167"><ele>793.8</ele><time>2026-08-05T07:33:45Z</time></trkpt>
    <trkpt lat="45.151519" lon="6.047238"><ele>792.4</ele><time>2026-08-05T07:34:08Z</time></trkpt>
    <trkpt lat="45.152163" lon="6.046543"><ele>791.6</ele><time>2026-08-05T07:34:18Z</time></trkpt>
    <trkpt lat="45.152728" lon="6.046296"><ele>791.6</ele><time>2026-08-05T07:34:26Z</time></trkpt>
    <trkpt lat="45.152786" lon="6.046258"><ele>791.8</ele><time>2026-08-05T07:34:27Z</time></trkpt>
    <trkpt lat="45.153471" lon="6.045614"><ele>795.6</ele><time>2026-08-05T07:34:42Z</time></trkpt>
    <trkpt lat="45.155306" lon="6.045186"><ele>814.6</ele><time>2026-08-05T07:36:08Z</time></trkpt>
    <trkpt lat="45.155781" lon="6.044659"><ele>822.2</ele><time>2026-08-05T07:36:41Z</time></trkpt>
    <trkpt lat="45.157304" lon="6.043538"><ele>842.0</ele><time>2026-08-05T07:38:19Z</time></trkpt>
    <trkpt lat="45.159247" lon="6.042856"><ele>865.0</ele><time>2026-08-05T07:40:10Z</time></trkpt>
    <trkpt lat="45.159644" lon="6.042654"><ele>869.8</ele><time>2026-08-05T07:40:33Z</time></trkpt>
    <trkpt lat="45.160777" lon="6.042055"><ele>878.8</ele><time>2026-08-05T07:41:29Z</time></trkpt>
    <trkpt lat="45.162478" lon="6.042242"><ele>888.4</ele><time>2026-08-05T07:42:38Z</time></trkpt>
    <trkpt lat="45.164230" lon="6.042169"><ele>898.6</ele><time>2026-08-05T07:43:47Z</time></trkpt>
    <trkpt lat="45.167415" lon="6.041616"><ele>926.0</ele><time>2026-08-05T07:46:22Z</time></trkpt>
    <trkpt lat="45.168313" lon="6.041146"><ele>934.8</ele><time>2026-08-05T07:47:08Z</time></trkpt>
    <trkpt lat="45.168866" lon="6.040163"><ele>939.6</ele><time>2026-08-05T07:47:41Z</time></trkpt>
    <trkpt lat="45.169196" lon="6.039843"><ele>942.0</ele><time>2026-08-05T07:47:56Z</time></trkpt>
    <trkpt lat="45.169321" lon="6.039782"><ele>943.0</ele><time>2026-08-05T07:48:02Z</time></trkpt>
    <trkpt lat="45.169833" lon="6.039667"><ele>948.8</ele><time>2026-08-05T07:48:27Z</time></trkpt>
    <trkpt lat="45.172136" lon="6.038140"><ele>972.8</ele><time>2026-08-05T07:50:27Z</time></trkpt>
    <trkpt lat="45.173784" lon="6.037776"><ele>991.0</ele><time>2026-08-05T07:51:59Z</time></trkpt>
    <trkpt lat="45.174800" lon="6.037099"><ele>1003.6</ele><time>2026-08-05T07:52:57Z</time></trkpt>
    <trkpt lat="45.175020" lon="6.037073"><ele>1005.4</ele><time>2026-08-05T07:53:07Z</time></trkpt>
    <trkpt lat="45.176382" lon="6.036901"><ele>1011.2</ele><time>2026-08-05T07:54:01Z</time></trkpt>
    <trkpt lat="45.177058" lon="6.036319"><ele>1012.8</ele><time>2026-08-05T07:54:27Z</time></trkpt>
    <trkpt lat="45.177219" lon="6.036344"><ele>1013.4</ele><time>2026-08-05T07:54:33Z</time></trkpt>
    <trkpt lat="45.177821" lon="6.036754"><ele>1020.4</ele><time>2026-08-05T07:55:07Z</time></trkpt>
    <trkpt lat="45.178318" lon="6.036557"><ele>1025.8</ele><time>2026-08-05T07:55:34Z</time></trkpt>
    <trkpt lat="45.178929" lon="6.036617"><ele>1032.8</ele><time>2026-08-05T07:56:08Z</time></trkpt>
    <trkpt lat="45.179917" lon="6.035887"><ele>1045.6</ele><time>2026-08-05T07:57:12Z</time></trkpt>
    <trkpt lat="45.181745" lon="6.035059"><ele>1067.6</ele><time>2026-08-05T07:59:04Z</time></trkpt>
    <trkpt lat="45.185590" lon="6.034493"><ele>1111.2</ele><time>2026-08-05T08:02:44Z</time></trkpt>
    <trkpt lat="45.186995" lon="6.033808"><ele>1128.0</ele><time>2026-08-05T08:04:12Z</time></trkpt>
    <trkpt lat="45.188736" lon="6.034982"><ele>1147.6</ele><time>2026-08-05T08:06:03Z</time></trkpt>
    <trkpt lat="45.190229" lon="6.035733"><ele>1165.6</ele><time>2026-08-05T08:07:34Z</time></trkpt>
    <trkpt lat="45.192946" lon="6.036684"><ele>1197.2</ele><time>2026-08-05T08:10:08Z</time></trkpt>
    <trkpt lat="45.193605" lon="6.037386"><ele>1207.2</ele><time>2026-08-05T08:10:58Z</time></trkpt>
    <trkpt lat="45.194498" lon="6.037881"><ele>1217.2</ele><time>2026-08-05T08:11:55Z</time></trkpt>
    <trkpt lat="45.195230" lon="6.038031"><ele>1225.2</ele><time>2026-08-05T08:12:31Z</time></trkpt>
    <trkpt lat="45.196081" lon="6.038715"><ele>1235.2</ele><time>2026-08-05T08:13:23Z</time></trkpt>
    <trkpt lat="45.197547" lon="6.038964"><ele>1249.6</ele><time>2026-08-05T08:14:41Z</time></trkpt>
    <trkpt lat="45.198674" lon="6.039374"><ele>1259.6</ele><time>2026-08-05T08:15:43Z</time></trkpt>
    <trkpt lat="45.198693" lon="6.039377"><ele>1259.6</ele><time>2026-08-05T08:15:44Z</time></trkpt>
    <trkpt lat="45.199909" lon="6.039131"><ele>1263.8</ele><time>2026-08-05T08:46:13Z</time></trkpt>
    <trkpt lat="45.200948" lon="6.039528"><ele>1265.4</ele><time>2026-08-05T08:46:55Z</time></trkpt>
    <trkpt lat="45.201595" lon="6.039571"><ele>1266.2</ele><time>2026-08-05T08:47:14Z</time></trkpt>
    <trkpt lat="45.202366" lon="6.040336"><ele>1269.0</ele><time>2026-08-05T08:47:46Z</time></trkpt>
    <trkpt lat="45.203082" lon="6.040276"><ele>1272.0</ele><time>2026-08-05T08:48:13Z</time></trkpt>
    <trkpt lat="45.204116" lon="6.041383"><ele>1278.8</ele><time>2026-08-05T08:49:08Z</time></trkpt>
    <trkpt lat="45.204472" lon="6.041809"><ele>1278.6</ele><time>2026-08-05T08:49:21Z</time></trkpt>
    <trkpt lat="45.205008" lon="6.043129"><ele>1280.2</ele><time>2026-08-05T08:49:50Z</time></trkpt>
    <trkpt lat="45.205290" lon="6.043474"><ele>1281.2</ele><time>2026-08-05T08:50:02Z</time></trkpt>
    <trkpt lat="45.206196" lon="6.043871"><ele>1280.8</ele><time>2026-08-05T08:50:27Z</time></trkpt>
    <trkpt lat="45.207070" lon="6.044669"><ele>1281.8</ele><time>2026-08-05T08:50:52Z</time></trkpt>
    <trkpt lat="45.208086" lon="6.044870"><ele>1282.4</ele><time>2026-08-05T08:51:16Z</time></trkpt>
    <trkpt lat="45.208557" lon="6.045522"><ele>1283.4</ele><time>2026-08-05T08:51:32Z</time></trkpt>
    <trkpt lat="45.209182" lon="6.045250"><ele>1283.2</ele><time>2026-08-05T08:51:46Z</time></trkpt>
    <trkpt lat="45.209377" lon="6.045318"><ele>1282.6</ele><time>2026-08-05T08:51:50Z</time></trkpt>
    <trkpt lat="45.209488" lon="6.046506"><ele>1282.8</ele><time>2026-08-05T08:52:08Z</time></trkpt>
    <trkpt lat="45.209914" lon="6.046623"><ele>1283.6</ele><time>2026-08-05T08:52:17Z</time></trkpt>
    <trkpt lat="45.211227" lon="6.047606"><ele>1283.0</ele><time>2026-08-05T08:52:47Z</time></trkpt>
    <trkpt lat="45.211254" lon="6.047679"><ele>1282.8</ele><time>2026-08-05T08:52:48Z</time></trkpt>
    <trkpt lat="45.211205" lon="6.047976"><ele>1281.8</ele><time>2026-08-05T08:52:52Z</time></trkpt>
    <trkpt lat="45.210872" lon="6.048391"><ele>1279.6</ele><time>2026-08-05T08:52:59Z</time></trkpt>
    <trkpt lat="45.210780" lon="6.049003"><ele>1277.8</ele><time>2026-08-05T08:53:05Z</time></trkpt>
    <trkpt lat="45.210792" lon="6.049587"><ele>1275.4</ele><time>2026-08-05T08:53:11Z</time></trkpt>
    <trkpt lat="45.211183" lon="6.050385"><ele>1271.6</ele><time>2026-08-05T08:53:20Z</time></trkpt>
    <trkpt lat="45.210767" lon="6.051266"><ele>1267.2</ele><time>2026-08-05T08:53:29Z</time></trkpt>
    <trkpt lat="45.210939" lon="6.052806"><ele>1261.0</ele><time>2026-08-05T08:53:40Z</time></trkpt>
    <trkpt lat="45.210936" lon="6.053102"><ele>1260.0</ele><time>2026-08-05T08:53:42Z</time></trkpt>
    <trkpt lat="45.210839" lon="6.056110"><ele>1255.2</ele><time>2026-08-05T08:54:55Z</time></trkpt>
    <trkpt lat="45.210852" lon="6.056777"><ele>1250.4</ele><time>2026-08-05T08:55:02Z</time></trkpt>
    <trkpt lat="45.210741" lon="6.056841"><ele>1248.8</ele><time>2026-08-05T08:55:05Z</time></trkpt>
    <trkpt lat="45.210569" lon="6.055595"><ele>1239.6</ele><time>2026-08-05T08:55:16Z</time></trkpt>
    <trkpt lat="45.210441" lon="6.055484"><ele>1238.0</ele><time>2026-08-05T08:55:19Z</time></trkpt>
    <trkpt lat="45.210348" lon="6.055918"><ele>1235.0</ele><time>2026-08-05T08:55:24Z</time></trkpt>
    <trkpt lat="45.210173" lon="6.057197"><ele>1222.2</ele><time>2026-08-05T08:55:34Z</time></trkpt>
    <trkpt lat="45.210068" lon="6.057253"><ele>1220.0</ele><time>2026-08-05T08:55:37Z</time></trkpt>
    <trkpt lat="45.209763" lon="6.055986"><ele>1207.2</ele><time>2026-08-05T08:55:47Z</time></trkpt>
    <trkpt lat="45.209831" lon="6.055137"><ele>1200.8</ele><time>2026-08-05T08:55:54Z</time></trkpt>
    <trkpt lat="45.209591" lon="6.055234"><ele>1198.8</ele><time>2026-08-05T08:55:59Z</time></trkpt>
    <trkpt lat="45.209328" lon="6.056748"><ele>1187.2</ele><time>2026-08-05T08:56:09Z</time></trkpt>
    <trkpt lat="45.209229" lon="6.057253"><ele>1185.6</ele><time>2026-08-05T08:56:12Z</time></trkpt>
    <trkpt lat="45.208798" lon="6.057799"><ele>1185.6</ele><time>2026-08-05T08:56:18Z</time></trkpt>
    <trkpt lat="45.208587" lon="6.058421"><ele>1195.8</ele><time>2026-08-05T08:56:32Z</time></trkpt>
    <trkpt lat="45.208551" lon="6.058636"><ele>1198.2</ele><time>2026-08-05T08:56:39Z</time></trkpt>
    <trkpt lat="45.208149" lon="6.061099"><ele>1225.0</ele><time>2026-08-05T08:58:40Z</time></trkpt>
    <trkpt lat="45.207859" lon="6.063007"><ele>1242.6</ele><time>2026-08-05T09:00:09Z</time></trkpt>
    <trkpt lat="45.207844" lon="6.063846"><ele>1250.8</ele><time>2026-08-05T09:00:49Z</time></trkpt>
    <trkpt lat="45.207627" lon="6.064615"><ele>1258.6</ele><time>2026-08-05T09:01:29Z</time></trkpt>
    <trkpt lat="45.205854" lon="6.068031"><ele>1291.0</ele><time>2026-08-05T09:04:14Z</time></trkpt>
    <trkpt lat="45.205667" lon="6.068870"><ele>1298.6</ele><time>2026-08-05T09:04:46Z</time></trkpt>
    <trkpt lat="45.205443" lon="6.069456"><ele>1303.4</ele><time>2026-08-05T09:05:06Z</time></trkpt>
    <trkpt lat="45.204808" lon="6.071178"><ele>1309.0</ele><time>2026-08-05T09:05:52Z</time></trkpt>
    <trkpt lat="45.204768" lon="6.071287"><ele>1308.4</ele><time>2026-08-05T09:05:54Z</time></trkpt>
    <trkpt lat="45.204645" lon="6.071984"><ele>1306.0</ele><time>2026-08-05T09:06:03Z</time></trkpt>
    <trkpt lat="45.204285" lon="6.072632"><ele>1303.2</ele><time>2026-08-05T09:06:11Z</time></trkpt>
    <trkpt lat="45.204363" lon="6.073460"><ele>1303.0</ele><time>2026-08-05T09:06:19Z</time></trkpt>
    <trkpt lat="45.204340" lon="6.073546"><ele>1304.8</ele><time>2026-08-05T09:06:21Z</time></trkpt>
    <trkpt lat="45.203915" lon="6.074271"><ele>1318.0</ele><time>2026-08-05T09:07:00Z</time></trkpt>
    <trkpt lat="45.203818" lon="6.074441"><ele>1320.0</ele><time>2026-08-05T09:07:09Z</time></trkpt>
    <trkpt lat="45.203696" lon="6.075035"><ele>1325.2</ele><time>2026-08-05T09:07:33Z</time></trkpt>
    <trkpt lat="45.202390" lon="6.076612"><ele>1346.2</ele><time>2026-08-05T09:09:12Z</time></trkpt>
    <trkpt lat="45.201880" lon="6.076649"><ele>1352.4</ele><time>2026-08-05T09:09:42Z</time></trkpt>
    <trkpt lat="45.201830" lon="6.076729"><ele>1352.8</ele><time>2026-08-05T09:09:46Z</time></trkpt>
    <trkpt lat="45.202037" lon="6.076994"><ele>1354.8</ele><time>2026-08-05T09:10:03Z</time></trkpt>
    <trkpt lat="45.202406" lon="6.077098"><ele>1360.0</ele><time>2026-08-05T09:10:29Z</time></trkpt>
    <trkpt lat="45.203719" lon="6.076394"><ele>1375.4</ele><time>2026-08-05T09:12:08Z</time></trkpt>
    <trkpt lat="45.201554" lon="6.078749"><ele>1403.2</ele><time>2026-08-05T09:15:01Z</time></trkpt>
    <trkpt lat="45.201173" lon="6.081120"><ele>1420.6</ele><time>2026-08-05T09:16:44Z</time></trkpt>
    <trkpt lat="45.201296" lon="6.082876"><ele>1433.8</ele><time>2026-08-05T09:17:50Z</time></trkpt>
    <trkpt lat="45.201008" lon="6.084385"><ele>1444.4</ele><time>2026-08-05T09:18:55Z</time></trkpt>
    <trkpt lat="45.201277" lon="6.085301"><ele>1451.0</ele><time>2026-08-05T09:19:32Z</time></trkpt>
    <trkpt lat="45.201367" lon="6.085503"><ele>1453.0</ele><time>2026-08-05T09:19:41Z</time></trkpt>
    <trkpt lat="45.201717" lon="6.086145"><ele>1456.0</ele><time>2026-08-05T09:20:08Z</time></trkpt>
    <trkpt lat="45.203384" lon="6.088178"><ele>1466.4</ele><time>2026-08-05T09:21:31Z</time></trkpt>
    <trkpt lat="45.203813" lon="6.089527"><ele>1470.6</ele><time>2026-08-05T09:22:09Z</time></trkpt>
    <trkpt lat="45.203804" lon="6.089910"><ele>1472.2</ele><time>2026-08-05T09:22:20Z</time></trkpt>
    <trkpt lat="45.203743" lon="6.090687"><ele>1478.0</ele><time>2026-08-05T09:22:45Z</time></trkpt>
    <trkpt lat="45.204000" lon="6.091300"><ele>1483.0</ele><time>2026-08-05T09:23:11Z</time></trkpt>
    <trkpt lat="45.204705" lon="6.094492"><ele>1507.6</ele><time>2026-08-05T09:25:27Z</time></trkpt>
    <trkpt lat="45.204571" lon="6.097395"><ele>1529.0</ele><time>2026-08-05T09:27:35Z</time></trkpt>
    <trkpt lat="45.204328" lon="6.098934"><ele>1542.0</ele><time>2026-08-05T09:28:42Z</time></trkpt>
    <trkpt lat="45.204560" lon="6.101885"><ele>1562.0</ele><time>2026-08-05T09:31:09Z</time></trkpt>
    <trkpt lat="45.205205" lon="6.103541"><ele>1575.4</ele><time>2026-08-05T09:32:13Z</time></trkpt>
    <trkpt lat="45.205687" lon="6.105367"><ele>1587.4</ele><time>2026-08-05T09:33:25Z</time></trkpt>
    <trkpt lat="45.206341" lon="6.106953"><ele>1600.0</ele><time>2026-08-05T09:34:33Z</time></trkpt>
    <trkpt lat="45.206487" lon="6.107334"><ele>1602.0</ele><time>2026-08-05T09:34:49Z</time></trkpt>
    <trkpt lat="45.206757" lon="6.108908"><ele>1610.2</ele><time>2026-08-05T09:35:45Z</time></trkpt>
    <trkpt lat="45.206892" lon="6.108933"><ele>1611.0</ele><time>2026-08-05T09:35:51Z</time></trkpt>
    <trkpt lat="45.206939" lon="6.108716"><ele>1611.6</ele><time>2026-08-05T09:35:57Z</time></trkpt>
    <trkpt lat="45.206508" lon="6.105630"><ele>1628.8</ele><time>2026-08-05T09:37:36Z</time></trkpt>
    <trkpt lat="45.205975" lon="6.103906"><ele>1639.8</ele><time>2026-08-05T09:38:47Z</time></trkpt>
    <trkpt lat="45.205699" lon="6.103243"><ele>1642.2</ele><time>2026-08-05T09:39:12Z</time></trkpt>
    <trkpt lat="45.205801" lon="6.103209"><ele>1642.8</ele><time>2026-08-05T09:39:17Z</time></trkpt>
    <trkpt lat="45.206337" lon="6.104737"><ele>1646.6</ele><time>2026-08-05T09:40:04Z</time></trkpt>
    <trkpt lat="45.206350" lon="6.104775"><ele>1646.8</ele><time>2026-08-05T09:40:05Z</time></trkpt>
    <trkpt lat="45.206840" lon="6.105546"><ele>1653.2</ele><time>2026-08-05T09:40:39Z</time></trkpt>
    <trkpt lat="45.207409" lon="6.107252"><ele>1667.0</ele><time>2026-08-05T09:41:53Z</time></trkpt>
    <trkpt lat="45.207504" lon="6.108080"><ele>1671.6</ele><time>2026-08-05T09:42:21Z</time></trkpt>
    <trkpt lat="45.207878" lon="6.109410"><ele>1680.0</ele><time>2026-08-05T09:43:15Z</time></trkpt>
    <trkpt lat="45.207832" lon="6.109866"><ele>1683.2</ele><time>2026-08-05T09:43:33Z</time></trkpt>
    <trkpt lat="45.207718" lon="6.111836"><ele>1690.8</ele><time>2026-08-05T09:44:44Z</time></trkpt>
    <trkpt lat="45.207911" lon="6.112962"><ele>1695.0</ele><time>2026-08-05T09:45:38Z</time></trkpt>
    <trkpt lat="45.207856" lon="6.113651"><ele>1698.4</ele><time>2026-08-05T09:45:55Z</time></trkpt>
    <trkpt lat="45.208461" lon="6.116222"><ele>1708.2</ele><time>2026-08-05T09:47:00Z</time></trkpt>
    <trkpt lat="45.208484" lon="6.116660"><ele>1709.2</ele><time>2026-08-05T09:47:08Z</time></trkpt>
    <trkpt lat="45.208428" lon="6.118290"><ele>1709.0</ele><time>2026-08-05T09:47:33Z</time></trkpt>
    <trkpt lat="45.208625" lon="6.119146"><ele>1709.2</ele><time>2026-08-05T09:47:45Z</time></trkpt>
    <trkpt lat="45.208581" lon="6.119831"><ele>1709.2</ele><time>2026-08-05T09:47:54Z</time></trkpt>
    <trkpt lat="45.208403" lon="6.120189"><ele>1708.8</ele><time>2026-08-05T09:48:10Z</time></trkpt>
    <trkpt lat="45.208564" lon="6.119929"><ele>1706.2</ele><time>2026-08-05T10:12:46Z</time></trkpt>
    <trkpt lat="45.208749" lon="6.121073"><ele>1707.2</ele><time>2026-08-05T10:13:19Z</time></trkpt>
    <trkpt lat="45.209002" lon="6.121959"><ele>1711.4</ele><time>2026-08-05T10:13:43Z</time></trkpt>
    <trkpt lat="45.209868" lon="6.124059"><ele>1719.8</ele><time>2026-08-05T10:14:50Z</time></trkpt>
    <trkpt lat="45.210406" lon="6.126042"><ele>1728.2</ele><time>2026-08-05T10:15:47Z</time></trkpt>
    <trkpt lat="45.210987" lon="6.127231"><ele>1733.4</ele><time>2026-08-05T10:16:23Z</time></trkpt>
    <trkpt lat="45.211777" lon="6.127852"><ele>1738.2</ele><time>2026-08-05T10:16:56Z</time></trkpt>
    <trkpt lat="45.212241" lon="6.128731"><ele>1742.6</ele><time>2026-08-05T10:17:24Z</time></trkpt>
    <trkpt lat="45.214444" lon="6.131111"><ele>1757.0</ele><time>2026-08-05T10:19:01Z</time></trkpt>
    <trkpt lat="45.215573" lon="6.131744"><ele>1764.2</ele><time>2026-08-05T10:19:40Z</time></trkpt>
    <trkpt lat="45.220030" lon="6.135509"><ele>1788.8</ele><time>2026-08-05T10:22:25Z</time></trkpt>
    <trkpt lat="45.220320" lon="6.135702"><ele>1790.0</ele><time>2026-08-05T10:22:34Z</time></trkpt>
    <trkpt lat="45.221984" lon="6.136778"><ele>1788.0</ele><time>2026-08-05T10:23:45Z</time></trkpt>
    <trkpt lat="45.222305" lon="6.137180"><ele>1787.2</ele><time>2026-08-05T10:23:52Z</time></trkpt>
    <trkpt lat="45.223011" lon="6.138749"><ele>1780.8</ele><time>2026-08-05T10:24:11Z</time></trkpt>
    <trkpt lat="45.223397" lon="6.138881"><ele>1780.6</ele><time>2026-08-05T10:24:16Z</time></trkpt>
    <trkpt lat="45.224004" lon="6.138570"><ele>1778.6</ele><time>2026-08-05T10:24:24Z</time></trkpt>
    <trkpt lat="45.224281" lon="6.138769"><ele>1777.2</ele><time>2026-08-05T10:24:29Z</time></trkpt>
    <trkpt lat="45.224842" lon="6.140163"><ele>1771.0</ele><time>2026-08-05T10:24:56Z</time></trkpt>
    <trkpt lat="45.224862" lon="6.140215"><ele>1770.6</ele><time>2026-08-05T10:24:57Z</time></trkpt>
    <trkpt lat="45.225275" lon="6.141910"><ele>1764.2</ele><time>2026-08-05T10:25:19Z</time></trkpt>
    <trkpt lat="45.225757" lon="6.143135"><ele>1758.0</ele><time>2026-08-05T10:26:47Z</time></trkpt>
    <trkpt lat="45.226432" lon="6.145116"><ele>1749.2</ele><time>2026-08-05T10:27:06Z</time></trkpt>
    <trkpt lat="45.226627" lon="6.146828"><ele>1742.8</ele><time>2026-08-05T10:27:19Z</time></trkpt>
    <trkpt lat="45.226686" lon="6.149054"><ele>1734.4</ele><time>2026-08-05T10:27:35Z</time></trkpt>
    <trkpt lat="45.227304" lon="6.150027"><ele>1731.2</ele><time>2026-08-05T10:27:45Z</time></trkpt>
    <trkpt lat="45.227430" lon="6.150993"><ele>1726.2</ele><time>2026-08-05T10:27:52Z</time></trkpt>
    <trkpt lat="45.227462" lon="6.151126"><ele>1725.8</ele><time>2026-08-05T10:27:53Z</time></trkpt>
    <trkpt lat="45.227902" lon="6.151751"><ele>1725.4</ele><time>2026-08-05T10:28:00Z</time></trkpt>
    <trkpt lat="45.227993" lon="6.152274"><ele>1725.4</ele><time>2026-08-05T10:28:05Z</time></trkpt>
    <trkpt lat="45.228362" lon="6.153339"><ele>1730.8</ele><time>2026-08-05T10:28:29Z</time></trkpt>
    <trkpt lat="45.228563" lon="6.154249"><ele>1735.8</ele><time>2026-08-05T10:29:01Z</time></trkpt>
    <trkpt lat="45.228466" lon="6.155347"><ele>1742.4</ele><time>2026-08-05T10:32:13Z</time></trkpt>
    <trkpt lat="45.229633" lon="6.157455"><ele>1757.8</ele><time>2026-08-05T10:33:33Z</time></trkpt>
    <trkpt lat="45.230085" lon="6.159085"><ele>1767.6</ele><time>2026-08-05T10:34:27Z</time></trkpt>
    <trkpt lat="45.230592" lon="6.159646"><ele>1772.0</ele><time>2026-08-05T10:34:52Z</time></trkpt>
    <trkpt lat="45.231281" lon="6.161075"><ele>1780.0</ele><time>2026-08-05T10:35:39Z</time></trkpt>
    <trkpt lat="45.231700" lon="6.161602"><ele>1785.0</ele><time>2026-08-05T10:36:02Z</time></trkpt>
    <trkpt lat="45.233196" lon="6.167519"><ele>1819.4</ele><time>2026-08-05T10:39:23Z</time></trkpt>
    <trkpt lat="45.234665" lon="6.171654"><ele>1846.6</ele><time>2026-08-05T10:41:57Z</time></trkpt>
    <trkpt lat="45.234926" lon="6.172121"><ele>1850.4</ele><time>2026-08-05T10:42:17Z</time></trkpt>
    <trkpt lat="45.235600" lon="6.172575"><ele>1855.4</ele><time>2026-08-05T10:42:51Z</time></trkpt>
    <trkpt lat="45.235989" lon="6.173366"><ele>1860.8</ele><time>2026-08-05T10:43:24Z</time></trkpt>
    <trkpt lat="45.236361" lon="6.173645"><ele>1864.2</ele><time>2026-08-05T10:43:46Z</time></trkpt>
    <trkpt lat="45.236782" lon="6.174660"><ele>1872.0</ele><time>2026-08-05T10:44:32Z</time></trkpt>
    <trkpt lat="45.238424" lon="6.175732"><ele>1891.8</ele><time>2026-08-05T10:46:18Z</time></trkpt>
    <trkpt lat="45.238679" lon="6.177141"><ele>1900.0</ele><time>2026-08-05T10:47:17Z</time></trkpt>
    <trkpt lat="45.238757" lon="6.177491"><ele>1903.0</ele><time>2026-08-05T10:47:32Z</time></trkpt>
    <trkpt lat="45.238713" lon="6.177481"><ele>1908.0</ele><time>2026-08-05T10:54:31Z</time></trkpt>
    <trkpt lat="45.238659" lon="6.177532"><ele>1908.2</ele><time>2026-08-05T10:54:52Z</time></trkpt>
    <trkpt lat="45.238704" lon="6.177837"><ele>1909.0</ele><time>2026-08-05T10:55:05Z</time></trkpt>
    <trkpt lat="45.238850" lon="6.177791"><ele>1909.6</ele><time>2026-08-05T10:55:14Z</time></trkpt>
    <trkpt lat="45.239014" lon="6.176689"><ele>1916.8</ele><time>2026-08-05T10:55:56Z</time></trkpt>
    <trkpt lat="45.239562" lon="6.175491"><ele>1926.0</ele><time>2026-08-05T10:56:52Z</time></trkpt>
    <trkpt lat="45.239924" lon="6.175589"><ele>1926.0</ele><time>2026-08-05T11:10:10Z</time></trkpt>
    <trkpt lat="45.240244" lon="6.175723"><ele>1923.4</ele><time>2026-08-05T11:10:17Z</time></trkpt>
    <trkpt lat="45.241020" lon="6.176465"><ele>1912.6</ele><time>2026-08-05T11:10:31Z</time></trkpt>
    <trkpt lat="45.241522" lon="6.176707"><ele>1907.4</ele><time>2026-08-05T11:10:38Z</time></trkpt>
    <trkpt lat="45.242503" lon="6.177737"><ele>1894.0</ele><time>2026-08-05T11:10:54Z</time></trkpt>
    <trkpt lat="45.242695" lon="6.178172"><ele>1891.0</ele><time>2026-08-05T11:10:59Z</time></trkpt>
    <trkpt lat="45.242834" lon="6.178147"><ele>1890.4</ele><time>2026-08-05T11:11:02Z</time></trkpt>
    <trkpt lat="45.242792" lon="6.177901"><ele>1889.2</ele><time>2026-08-05T11:11:05Z</time></trkpt>
    <trkpt lat="45.241491" lon="6.174038"><ele>1855.2</ele><time>2026-08-05T11:11:41Z</time></trkpt>
    <trkpt lat="45.241521" lon="6.173783"><ele>1853.4</ele><time>2026-08-05T11:11:44Z</time></trkpt>
    <trkpt lat="45.241664" lon="6.173744"><ele>1852.2</ele><time>2026-08-05T11:11:47Z</time></trkpt>
    <trkpt lat="45.241873" lon="6.174336"><ele>1847.4</ele><time>2026-08-05T11:11:53Z</time></trkpt>
    <trkpt lat="45.242544" lon="6.174796"><ele>1837.2</ele><time>2026-08-05T11:12:02Z</time></trkpt>
    <trkpt lat="45.242831" lon="6.175593"><ele>1828.6</ele><time>2026-08-05T11:12:11Z</time></trkpt>
    <trkpt lat="45.242970" lon="6.175599"><ele>1827.2</ele><time>2026-08-05T11:12:14Z</time></trkpt>
    <trkpt lat="45.242892" lon="6.174938"><ele>1822.8</ele><time>2026-08-05T11:12:22Z</time></trkpt>
    <trkpt lat="45.242873" lon="6.174755"><ele>1820.8</ele><time>2026-08-05T11:12:24Z</time></trkpt>
    <trkpt lat="45.242460" lon="6.174091"><ele>1812.6</ele><time>2026-08-05T11:12:32Z</time></trkpt>
    <trkpt lat="45.242161" lon="6.172613"><ele>1799.0</ele><time>2026-08-05T11:12:45Z</time></trkpt>
    <trkpt lat="45.242341" lon="6.172220"><ele>1794.8</ele><time>2026-08-05T11:12:50Z</time></trkpt>
    <trkpt lat="45.242305" lon="6.171305"><ele>1787.2</ele><time>2026-08-05T11:12:57Z</time></trkpt>
    <trkpt lat="45.242474" lon="6.170497"><ele>1779.8</ele><time>2026-08-05T11:13:03Z</time></trkpt>
    <trkpt lat="45.242574" lon="6.170237"><ele>1777.2</ele><time>2026-08-05T11:13:08Z</time></trkpt>
    <trkpt lat="45.242594" lon="6.171207"><ele>1769.6</ele><time>2026-08-05T11:13:18Z</time></trkpt>
    <trkpt lat="45.242619" lon="6.171478"><ele>1767.4</ele><time>2026-08-05T11:13:20Z</time></trkpt>
    <trkpt lat="45.242849" lon="6.172508"><ele>1757.6</ele><time>2026-08-05T11:13:27Z</time></trkpt>
    <trkpt lat="45.243283" lon="6.173502"><ele>1748.0</ele><time>2026-08-05T11:13:34Z</time></trkpt>
    <trkpt lat="45.243699" lon="6.173925"><ele>1742.4</ele><time>2026-08-05T11:13:39Z</time></trkpt>
    <trkpt lat="45.244053" lon="6.174642"><ele>1735.8</ele><time>2026-08-05T11:13:45Z</time></trkpt>
    <trkpt lat="45.244600" lon="6.175116"><ele>1728.2</ele><time>2026-08-05T11:13:51Z</time></trkpt>
    <trkpt lat="45.244782" lon="6.175432"><ele>1724.6</ele><time>2026-08-05T11:13:54Z</time></trkpt>
    <trkpt lat="45.245313" lon="6.176130"><ele>1716.0</ele><time>2026-08-05T11:14:03Z</time></trkpt>
    <trkpt lat="45.246515" lon="6.176953"><ele>1699.0</ele><time>2026-08-05T11:14:20Z</time></trkpt>
    <trkpt lat="45.246574" lon="6.176999"><ele>1698.2</ele><time>2026-08-05T11:14:21Z</time></trkpt>
    <trkpt lat="45.246807" lon="6.177340"><ele>1693.8</ele><time>2026-08-05T11:14:27Z</time></trkpt>
    <trkpt lat="45.246906" lon="6.177178"><ele>1692.6</ele><time>2026-08-05T11:14:31Z</time></trkpt>
    <trkpt lat="45.246355" lon="6.175658"><ele>1679.4</ele><time>2026-08-05T11:14:47Z</time></trkpt>
    <trkpt lat="45.246409" lon="6.175518"><ele>1678.0</ele><time>2026-08-05T11:14:50Z</time></trkpt>
    <trkpt lat="45.247070" lon="6.175786"><ele>1669.4</ele><time>2026-08-05T11:15:01Z</time></trkpt>
    <trkpt lat="45.247720" lon="6.176594"><ele>1659.6</ele><time>2026-08-05T11:15:12Z</time></trkpt>
    <trkpt lat="45.248394" lon="6.177975"><ele>1647.0</ele><time>2026-08-05T11:15:25Z</time></trkpt>
    <trkpt lat="45.249309" lon="6.178749"><ele>1638.0</ele><time>2026-08-05T11:15:37Z</time></trkpt>
    <trkpt lat="45.249768" lon="6.179979"><ele>1632.0</ele><time>2026-08-05T11:15:48Z</time></trkpt>
    <trkpt lat="45.250631" lon="6.181290"><ele>1620.4</ele><time>2026-08-05T11:16:01Z</time></trkpt>
    <trkpt lat="45.250738" lon="6.181516"><ele>1619.2</ele><time>2026-08-05T11:16:03Z</time></trkpt>
    <trkpt lat="45.251768" lon="6.182291"><ele>1612.4</ele><time>2026-08-05T11:16:16Z</time></trkpt>
    <trkpt lat="45.252196" lon="6.183341"><ele>1607.2</ele><time>2026-08-05T11:16:26Z</time></trkpt>
    <trkpt lat="45.252430" lon="6.185270"><ele>1600.4</ele><time>2026-08-05T11:16:42Z</time></trkpt>
    <trkpt lat="45.252828" lon="6.185797"><ele>1596.6</ele><time>2026-08-05T11:16:48Z</time></trkpt>
    <trkpt lat="45.253466" lon="6.186256"><ele>1592.2</ele><time>2026-08-05T11:16:56Z</time></trkpt>
    <trkpt lat="45.253564" lon="6.186796"><ele>1590.4</ele><time>2026-08-05T11:17:01Z</time></trkpt>
    <trkpt lat="45.253882" lon="6.187110"><ele>1588.0</ele><time>2026-08-05T11:17:06Z</time></trkpt>
    <trkpt lat="45.254163" lon="6.188029"><ele>1582.8</ele><time>2026-08-05T11:17:14Z</time></trkpt>
    <trkpt lat="45.255292" lon="6.189492"><ele>1569.8</ele><time>2026-08-05T11:17:29Z</time></trkpt>
    <trkpt lat="45.256027" lon="6.190199"><ele>1562.0</ele><time>2026-08-05T11:17:37Z</time></trkpt>
    <trkpt lat="45.257683" lon="6.190778"><ele>1547.2</ele><time>2026-08-05T11:17:53Z</time></trkpt>
    <trkpt lat="45.258207" lon="6.191452"><ele>1540.8</ele><time>2026-08-05T11:18:00Z</time></trkpt>
    <trkpt lat="45.258762" lon="6.191967"><ele>1536.2</ele><time>2026-08-05T11:18:07Z</time></trkpt>
    <trkpt lat="45.258978" lon="6.192424"><ele>1533.0</ele><time>2026-08-05T11:18:11Z</time></trkpt>
    <trkpt lat="45.259058" lon="6.193204"><ele>1529.8</ele><time>2026-08-05T11:18:17Z</time></trkpt>
    <trkpt lat="45.259300" lon="6.193682"><ele>1526.6</ele><time>2026-08-05T11:18:22Z</time></trkpt>
    <trkpt lat="45.259579" lon="6.195294"><ele>1515.4</ele><time>2026-08-05T11:18:35Z</time></trkpt>
    <trkpt lat="45.260943" lon="6.194340"><ele>1500.4</ele><time>2026-08-05T11:18:55Z</time></trkpt>
    <trkpt lat="45.261087" lon="6.194591"><ele>1497.8</ele><time>2026-08-05T11:18:59Z</time></trkpt>
    <trkpt lat="45.261931" lon="6.196517"><ele>1479.2</ele><time>2026-08-05T11:19:16Z</time></trkpt>
    <trkpt lat="45.262614" lon="6.196201"><ele>1473.2</ele><time>2026-08-05T11:19:24Z</time></trkpt>
    <trkpt lat="45.262950" lon="6.195726"><ele>1467.6</ele><time>2026-08-05T11:19:31Z</time></trkpt>
    <trkpt lat="45.265218" lon="6.197145"><ele>1439.6</ele><time>2026-08-05T11:19:59Z</time></trkpt>
    <trkpt lat="45.265397" lon="6.197370"><ele>1436.8</ele><time>2026-08-05T11:20:03Z</time></trkpt>
    <trkpt lat="45.265481" lon="6.197227"><ele>1436.0</ele><time>2026-08-05T11:20:06Z</time></trkpt>
    <trkpt lat="45.265246" lon="6.196744"><ele>1432.8</ele><time>2026-08-05T11:20:13Z</time></trkpt>
    <trkpt lat="45.265502" lon="6.196130"><ele>1430.2</ele><time>2026-08-05T11:20:20Z</time></trkpt>
    <trkpt lat="45.265685" lon="6.196052"><ele>1429.4</ele><time>2026-08-05T11:20:23Z</time></trkpt>
    <trkpt lat="45.265909" lon="6.196168"><ele>1427.8</ele><time>2026-08-05T11:20:26Z</time></trkpt>
    <trkpt lat="45.266823" lon="6.196483"><ele>1417.4</ele><time>2026-08-05T11:20:37Z</time></trkpt>
    <trkpt lat="45.266865" lon="6.196924"><ele>1413.4</ele><time>2026-08-05T11:20:43Z</time></trkpt>
    <trkpt lat="45.267080" lon="6.197111"><ele>1410.8</ele><time>2026-08-05T11:20:46Z</time></trkpt>
    <trkpt lat="45.267773" lon="6.197202"><ele>1403.4</ele><time>2026-08-05T11:20:55Z</time></trkpt>
    <trkpt lat="45.267910" lon="6.197764"><ele>1397.2</ele><time>2026-08-05T11:21:02Z</time></trkpt>
    <trkpt lat="45.268090" lon="6.197954"><ele>1394.4</ele><time>2026-08-05T11:21:05Z</time></trkpt>
    <trkpt lat="45.269114" lon="6.197910"><ele>1383.2</ele><time>2026-08-05T11:21:19Z</time></trkpt>
    <trkpt lat="45.269687" lon="6.199228"><ele>1370.4</ele><time>2026-08-05T11:21:34Z</time></trkpt>
    <trkpt lat="45.269549" lon="6.199713"><ele>1366.2</ele><time>2026-08-05T11:21:40Z</time></trkpt>
    <trkpt lat="45.269626" lon="6.199946"><ele>1364.2</ele><time>2026-08-05T11:21:43Z</time></trkpt>
    <trkpt lat="45.269865" lon="6.200042"><ele>1361.8</ele><time>2026-08-05T11:21:46Z</time></trkpt>
    <trkpt lat="45.270523" lon="6.200210"><ele>1354.6</ele><time>2026-08-05T11:21:53Z</time></trkpt>
    <trkpt lat="45.271223" lon="6.200879"><ele>1345.8</ele><time>2026-08-05T11:22:02Z</time></trkpt>
    <trkpt lat="45.271665" lon="6.200383"><ele>1340.6</ele><time>2026-08-05T11:22:09Z</time></trkpt>
    <trkpt lat="45.271936" lon="6.200402"><ele>1338.4</ele><time>2026-08-05T11:22:12Z</time></trkpt>
    <trkpt lat="45.272282" lon="6.200766"><ele>1332.8</ele><time>2026-08-05T11:22:16Z</time></trkpt>
    <trkpt lat="45.272792" lon="6.201759"><ele>1323.6</ele><time>2026-08-05T11:22:24Z</time></trkpt>
    <trkpt lat="45.273097" lon="6.201903"><ele>1320.4</ele><time>2026-08-05T11:22:27Z</time></trkpt>
    <trkpt lat="45.273511" lon="6.201815"><ele>1316.2</ele><time>2026-08-05T11:22:32Z</time></trkpt>
    <trkpt lat="45.274369" lon="6.202824"><ele>1305.2</ele><time>2026-08-05T11:22:43Z</time></trkpt>
    <trkpt lat="45.275715" lon="6.205412"><ele>1285.4</ele><time>2026-08-05T11:23:06Z</time></trkpt>
    <trkpt lat="45.276078" lon="6.207223"><ele>1272.6</ele><time>2026-08-05T11:23:22Z</time></trkpt>
    <trkpt lat="45.278264" lon="6.209693"><ele>1245.0</ele><time>2026-08-05T11:23:50Z</time></trkpt>
    <trkpt lat="45.279741" lon="6.210636"><ele>1229.0</ele><time>2026-08-05T11:24:06Z</time></trkpt>
    <trkpt lat="45.279894" lon="6.210858"><ele>1227.4</ele><time>2026-08-05T11:24:08Z</time></trkpt>
    <trkpt lat="45.280736" lon="6.212068"><ele>1226.6</ele><time>2026-08-05T11:24:25Z</time></trkpt>
    <trkpt lat="45.281078" lon="6.213106"><ele>1224.2</ele><time>2026-08-05T11:24:47Z</time></trkpt>
    <trkpt lat="45.281398" lon="6.213217"><ele>1221.6</ele><time>2026-08-05T11:25:33Z</time></trkpt>
    <trkpt lat="45.281925" lon="6.213336"><ele>1215.8</ele><time>2026-08-05T11:26:20Z</time></trkpt>
    <trkpt lat="45.282605" lon="6.213949"><ele>1207.4</ele><time>2026-08-05T11:26:28Z</time></trkpt>
    <trkpt lat="45.283268" lon="6.214197"><ele>1201.0</ele><time>2026-08-05T11:26:34Z</time></trkpt>
    <trkpt lat="45.283998" lon="6.214992"><ele>1192.4</ele><time>2026-08-05T11:26:42Z</time></trkpt>
    <trkpt lat="45.286205" lon="6.216467"><ele>1171.2</ele><time>2026-08-05T11:27:04Z</time></trkpt>
    <trkpt lat="45.286997" lon="6.216565"><ele>1162.4</ele><time>2026-08-05T11:27:11Z</time></trkpt>
    <trkpt lat="45.287503" lon="6.217288"><ele>1155.8</ele><time>2026-08-05T11:27:17Z</time></trkpt>
    <trkpt lat="45.287539" lon="6.217617"><ele>1153.8</ele><time>2026-08-05T11:27:19Z</time></trkpt>
    <trkpt lat="45.287615" lon="6.218082"><ele>1153.0</ele><time>2026-08-05T11:27:22Z</time></trkpt>
    <trkpt lat="45.288442" lon="6.219696"><ele>1151.8</ele><time>2026-08-05T11:27:37Z</time></trkpt>
    <trkpt lat="45.288995" lon="6.220865"><ele>1144.6</ele><time>2026-08-05T11:27:47Z</time></trkpt>
    <trkpt lat="45.289792" lon="6.221184"><ele>1139.6</ele><time>2026-08-05T11:27:56Z</time></trkpt>
    <trkpt lat="45.290276" lon="6.220923"><ele>1135.2</ele><time>2026-08-05T11:28:05Z</time></trkpt>
    <trkpt lat="45.290234" lon="6.221093"><ele>1132.6</ele><time>2026-08-05T11:28:54Z</time></trkpt>
    <trkpt lat="45.290287" lon="6.221426"><ele>1133.8</ele><time>2026-08-05T11:29:12Z</time></trkpt>
    <trkpt lat="45.290232" lon="6.220974"><ele>1131.4</ele><time>2026-08-05T11:29:26Z</time></trkpt>
    <trkpt lat="45.290931" lon="6.220045"><ele>1125.0</ele><time>2026-08-05T11:29:49Z</time></trkpt>
    <trkpt lat="45.291216" lon="6.220023"><ele>1125.0</ele><time>2026-08-05T11:29:55Z</time></trkpt>
    <trkpt lat="45.291866" lon="6.220863"><ele>1123.6</ele><time>2026-08-05T11:31:13Z</time></trkpt>
    <trkpt lat="45.292562" lon="6.222226"><ele>1119.8</ele><time>2026-08-05T11:31:36Z</time></trkpt>
    <trkpt lat="45.293203" lon="6.223979"><ele>1116.6</ele><time>2026-08-05T11:31:55Z</time></trkpt>
    <trkpt lat="45.293463" lon="6.225461"><ele>1115.0</ele><time>2026-08-05T11:32:12Z</time></trkpt>
    <trkpt lat="45.293915" lon="6.226125"><ele>1113.6</ele><time>2026-08-05T11:32:38Z</time></trkpt>
    <trkpt lat="45.294707" lon="6.227875"><ele>1109.8</ele><time>2026-08-05T11:33:26Z</time></trkpt>
    <trkpt lat="45.295514" lon="6.228828"><ele>1107.6</ele><time>2026-08-05T11:33:41Z</time></trkpt>
    <trkpt lat="45.295753" lon="6.229343"><ele>1106.8</ele><time>2026-08-05T11:33:47Z</time></trkpt>
    <trkpt lat="45.296344" lon="6.230628"><ele>1106.6</ele><time>2026-08-05T11:34:04Z</time></trkpt>
    <trkpt lat="45.296728" lon="6.232166"><ele>1108.0</ele><time>2026-08-05T11:34:29Z</time></trkpt>
    <trkpt lat="45.296623" lon="6.234202"><ele>1108.4</ele><time>2026-08-05T11:35:25Z</time></trkpt>
    <trkpt lat="45.297189" lon="6.236648"><ele>1111.6</ele><time>2026-08-05T11:36:04Z</time></trkpt>
    <trkpt lat="45.297184" lon="6.237174"><ele>1111.6</ele><time>2026-08-05T11:36:12Z</time></trkpt>
    <trkpt lat="45.297108" lon="6.237988"><ele>1108.2</ele><time>2026-08-05T11:36:21Z</time></trkpt>
    <trkpt lat="45.297359" lon="6.238425"><ele>1105.8</ele><time>2026-08-05T11:36:27Z</time></trkpt>
    <trkpt lat="45.297356" lon="6.238543"><ele>1105.4</ele><time>2026-08-05T11:36:28Z</time></trkpt>
    <trkpt lat="45.297268" lon="6.238882"><ele>1103.6</ele><time>2026-08-05T11:36:31Z</time></trkpt>
    <trkpt lat="45.297503" lon="6.239300"><ele>1100.6</ele><time>2026-08-05T11:36:36Z</time></trkpt>
    <trkpt lat="45.297485" lon="6.240038"><ele>1097.4</ele><time>2026-08-05T11:36:42Z</time></trkpt>
    <trkpt lat="45.298056" lon="6.240888"><ele>1091.6</ele><time>2026-08-05T11:36:51Z</time></trkpt>
    <trkpt lat="45.298483" lon="6.240576"><ele>1089.0</ele><time>2026-08-05T11:36:57Z</time></trkpt>
    <trkpt lat="45.298678" lon="6.240673"><ele>1087.0</ele><time>2026-08-05T11:37:00Z</time></trkpt>
    <trkpt lat="45.298883" lon="6.241758"><ele>1080.2</ele><time>2026-08-05T11:37:09Z</time></trkpt>
    <trkpt lat="45.298524" lon="6.242561"><ele>1074.4</ele><time>2026-08-05T11:37:17Z</time></trkpt>
    <trkpt lat="45.298545" lon="6.242861"><ele>1072.0</ele><time>2026-08-05T11:37:20Z</time></trkpt>
    <trkpt lat="45.298853" lon="6.243032"><ele>1068.8</ele><time>2026-08-05T11:37:24Z</time></trkpt>
    <trkpt lat="45.299166" lon="6.242692"><ele>1065.2</ele><time>2026-08-05T11:37:29Z</time></trkpt>
    <trkpt lat="45.299703" lon="6.242969"><ele>1060.0</ele><time>2026-08-05T11:37:36Z</time></trkpt>
    <trkpt lat="45.299820" lon="6.243123"><ele>1058.2</ele><time>2026-08-05T11:37:38Z</time></trkpt>
    <trkpt lat="45.300001" lon="6.245480"><ele>1043.4</ele><time>2026-08-05T11:37:54Z</time></trkpt>
    <trkpt lat="45.300665" lon="6.246195"><ele>1036.2</ele><time>2026-08-05T11:38:02Z</time></trkpt>
    <trkpt lat="45.300982" lon="6.247325"><ele>1029.4</ele><time>2026-08-05T11:38:10Z</time></trkpt>
    <trkpt lat="45.301486" lon="6.247641"><ele>1025.6</ele><time>2026-08-05T11:38:16Z</time></trkpt>
    <trkpt lat="45.301443" lon="6.248509"><ele>1020.0</ele><time>2026-08-05T11:38:23Z</time></trkpt>
    <trkpt lat="45.301924" lon="6.249073"><ele>1014.8</ele><time>2026-08-05T11:38:30Z</time></trkpt>
    <trkpt lat="45.301835" lon="6.249959"><ele>1010.0</ele><time>2026-08-05T11:38:37Z</time></trkpt>
    <trkpt lat="45.302463" lon="6.251866"><ele>997.4</ele><time>2026-08-05T11:38:51Z</time></trkpt>
    <trkpt lat="45.302593" lon="6.251971"><ele>995.8</ele><time>2026-08-05T11:38:53Z</time></trkpt>
    <trkpt lat="45.303294" lon="6.251500"><ele>989.6</ele><time>2026-08-05T11:39:03Z</time></trkpt>
    <trkpt lat="45.303491" lon="6.252038"><ele>986.6</ele><time>2026-08-05T11:39:08Z</time></trkpt>
    <trkpt lat="45.303553" lon="6.252795"><ele>981.6</ele><time>2026-08-05T11:39:15Z</time></trkpt>
    <trkpt lat="45.304193" lon="6.252983"><ele>976.4</ele><time>2026-08-05T11:39:23Z</time></trkpt>
    <trkpt lat="45.304860" lon="6.253999"><ele>967.0</ele><time>2026-08-05T11:39:34Z</time></trkpt>
    <trkpt lat="45.306021" lon="6.255192"><ele>954.6</ele><time>2026-08-05T11:39:47Z</time></trkpt>
    <trkpt lat="45.306376" lon="6.255126"><ele>950.6</ele><time>2026-08-05T11:39:51Z</time></trkpt>
    <trkpt lat="45.306565" lon="6.254385"><ele>945.8</ele><time>2026-08-05T11:39:57Z</time></trkpt>
    <trkpt lat="45.306795" lon="6.254301"><ele>943.6</ele><time>2026-08-05T11:40:00Z</time></trkpt>
    <trkpt lat="45.307222" lon="6.254621"><ele>939.8</ele><time>2026-08-05T11:40:05Z</time></trkpt>
    <trkpt lat="45.307505" lon="6.255195"><ele>935.6</ele><time>2026-08-05T11:40:10Z</time></trkpt>
    <trkpt lat="45.307637" lon="6.255471"><ele>933.6</ele><time>2026-08-05T11:40:13Z</time></trkpt>
    <trkpt lat="45.308089" lon="6.255579"><ele>929.6</ele><time>2026-08-05T11:40:19Z</time></trkpt>
    <trkpt lat="45.308501" lon="6.256486"><ele>924.2</ele><time>2026-08-05T11:40:29Z</time></trkpt>
    <trkpt lat="45.309777" lon="6.256685"><ele>913.8</ele><time>2026-08-05T11:40:42Z</time></trkpt>
    <trkpt lat="45.310789" lon="6.257107"><ele>906.4</ele><time>2026-08-05T11:40:52Z</time></trkpt>
    <trkpt lat="45.310842" lon="6.258789"><ele>898.8</ele><time>2026-08-05T11:41:05Z</time></trkpt>
    <trkpt lat="45.310872" lon="6.259231"><ele>896.0</ele><time>2026-08-05T11:41:08Z</time></trkpt>
    <trkpt lat="45.310615" lon="6.260410"><ele>888.4</ele><time>2026-08-05T11:41:17Z</time></trkpt>
    <trkpt lat="45.310604" lon="6.261629"><ele>879.2</ele><time>2026-08-05T11:41:27Z</time></trkpt>
    <trkpt lat="45.311340" lon="6.262322"><ele>870.0</ele><time>2026-08-05T11:41:36Z</time></trkpt>
    <trkpt lat="45.312247" lon="6.262542"><ele>861.6</ele><time>2026-08-05T11:41:45Z</time></trkpt>
    <trkpt lat="45.312351" lon="6.262587"><ele>861.0</ele><time>2026-08-05T11:41:46Z</time></trkpt>
    <trkpt lat="45.312709" lon="6.262572"><ele>858.6</ele><time>2026-08-05T11:41:50Z</time></trkpt>
    <trkpt lat="45.312862" lon="6.262208"><ele>856.8</ele><time>2026-08-05T11:41:54Z</time></trkpt>
    <trkpt lat="45.313097" lon="6.262118"><ele>855.6</ele><time>2026-08-05T11:41:57Z</time></trkpt>
    <trkpt lat="45.313254" lon="6.262381"><ele>855.0</ele><time>2026-08-05T11:42:00Z</time></trkpt>
    <trkpt lat="45.313250" lon="6.262960"><ele>853.4</ele><time>2026-08-05T11:42:05Z</time></trkpt>
    <trkpt lat="45.312974" lon="6.263530"><ele>849.8</ele><time>2026-08-05T11:42:12Z</time></trkpt>
    <trkpt lat="45.313010" lon="6.263750"><ele>848.6</ele><time>2026-08-05T11:42:14Z</time></trkpt>
    <trkpt lat="45.313150" lon="6.264192"><ele>845.6</ele><time>2026-08-05T11:42:18Z</time></trkpt>
    <trkpt lat="45.314936" lon="6.264422"><ele>830.2</ele><time>2026-08-05T11:42:37Z</time></trkpt>
    <trkpt lat="45.315421" lon="6.265007"><ele>824.2</ele><time>2026-08-05T11:42:44Z</time></trkpt>
    <trkpt lat="45.315976" lon="6.265299"><ele>818.6</ele><time>2026-08-05T11:42:52Z</time></trkpt>
    <trkpt lat="45.315917" lon="6.265403"><ele>817.6</ele><time>2026-08-05T11:42:54Z</time></trkpt>
    <trkpt lat="45.314258" lon="6.264806"><ele>802.8</ele><time>2026-08-05T11:43:13Z</time></trkpt>
    <trkpt lat="45.313256" lon="6.265064"><ele>794.2</ele><time>2026-08-05T11:43:22Z</time></trkpt>
    <trkpt lat="45.313102" lon="6.265021"><ele>792.6</ele><time>2026-08-05T11:43:24Z</time></trkpt>
    <trkpt lat="45.312928" lon="6.264875"><ele>790.8</ele><time>2026-08-05T11:43:27Z</time></trkpt>
    <trkpt lat="45.312888" lon="6.265118"><ele>789.2</ele><time>2026-08-05T11:43:31Z</time></trkpt>
    <trkpt lat="45.313921" lon="6.265228"><ele>782.2</ele><time>2026-08-05T11:43:43Z</time></trkpt>
    <trkpt lat="45.314745" lon="6.265820"><ele>776.2</ele><time>2026-08-05T11:43:52Z</time></trkpt>
    <trkpt lat="45.314844" lon="6.265882"><ele>775.2</ele><time>2026-08-05T11:43:53Z</time></trkpt>
    <trkpt lat="45.315446" lon="6.266686"><ele>767.2</ele><time>2026-08-05T11:44:00Z</time></trkpt>
    <trkpt lat="45.316883" lon="6.267664"><ele>751.0</ele><time>2026-08-05T11:44:12Z</time></trkpt>
    <trkpt lat="45.317373" lon="6.268337"><ele>745.6</ele><time>2026-08-05T11:44:17Z</time></trkpt>
    <trkpt lat="45.317712" lon="6.268800"><ele>743.4</ele><time>2026-08-05T11:44:21Z</time></trkpt>
    <trkpt lat="45.317880" lon="6.269274"><ele>741.2</ele><time>2026-08-05T11:44:25Z</time></trkpt>
    <trkpt lat="45.318785" lon="6.269783"><ele>734.6</ele><time>2026-08-05T11:44:35Z</time></trkpt>
    <trkpt lat="45.319424" lon="6.270772"><ele>728.2</ele><time>2026-08-05T11:44:44Z</time></trkpt>
    <trkpt lat="45.320118" lon="6.271341"><ele>722.6</ele><time>2026-08-05T11:44:51Z</time></trkpt>
    <trkpt lat="45.321572" lon="6.271983"><ele>711.0</ele><time>2026-08-05T11:45:04Z</time></trkpt>
    <trkpt lat="45.321987" lon="6.273100"><ele>704.0</ele><time>2026-08-05T11:45:12Z</time></trkpt>
    <trkpt lat="45.322715" lon="6.273915"><ele>696.4</ele><time>2026-08-05T11:45:21Z</time></trkpt>
    <trkpt lat="45.323640" lon="6.274159"><ele>689.4</ele><time>2026-08-05T11:45:31Z</time></trkpt>
    <trkpt lat="45.324066" lon="6.274855"><ele>684.8</ele><time>2026-08-05T11:45:37Z</time></trkpt>
    <trkpt lat="45.325286" lon="6.276394"><ele>671.6</ele><time>2026-08-05T11:45:51Z</time></trkpt>
    <trkpt lat="45.325539" lon="6.277501"><ele>663.8</ele><time>2026-08-05T11:45:58Z</time></trkpt>
    <trkpt lat="45.325421" lon="6.278224"><ele>659.2</ele><time>2026-08-05T11:46:03Z</time></trkpt>
    <trkpt lat="45.325572" lon="6.278832"><ele>655.0</ele><time>2026-08-05T11:46:08Z</time></trkpt>
    <trkpt lat="45.326592" lon="6.278907"><ele>646.6</ele><time>2026-08-05T11:46:19Z</time></trkpt>
    <trkpt lat="45.328380" lon="6.280654"><ele>629.8</ele><time>2026-08-05T11:46:38Z</time></trkpt>
    <trkpt lat="45.329795" lon="6.282530"><ele>614.8</ele><time>2026-08-05T11:46:53Z</time></trkpt>
    <trkpt lat="45.330140" lon="6.283452"><ele>609.4</ele><time>2026-08-05T11:46:59Z</time></trkpt>
    <trkpt lat="45.330859" lon="6.284671"><ele>598.4</ele><time>2026-08-05T11:47:09Z</time></trkpt>
    <trkpt lat="45.331165" lon="6.285053"><ele>595.8</ele><time>2026-08-05T11:47:13Z</time></trkpt>
    <trkpt lat="45.332682" lon="6.285887"><ele>583.6</ele><time>2026-08-05T11:47:29Z</time></trkpt>
    <trkpt lat="45.333587" lon="6.285802"><ele>576.2</ele><time>2026-08-05T11:47:39Z</time></trkpt>
    <trkpt lat="45.333641" lon="6.285974"><ele>575.2</ele><time>2026-08-05T11:47:41Z</time></trkpt>
    <trkpt lat="45.333368" lon="6.286690"><ele>569.6</ele><time>2026-08-05T11:47:48Z</time></trkpt>
    <trkpt lat="45.333465" lon="6.287644"><ele>563.2</ele><time>2026-08-05T11:47:55Z</time></trkpt>
    <trkpt lat="45.333646" lon="6.287928"><ele>561.0</ele><time>2026-08-05T11:47:58Z</time></trkpt>
    <trkpt lat="45.334963" lon="6.288099"><ele>550.6</ele><time>2026-08-05T11:48:11Z</time></trkpt>
    <trkpt lat="45.336127" lon="6.288513"><ele>539.8</ele><time>2026-08-05T11:48:24Z</time></trkpt>
    <trkpt lat="45.339993" lon="6.289858"><ele>514.2</ele><time>2026-08-05T11:49:13Z</time></trkpt>
    <trkpt lat="45.340380" lon="6.290015"><ele>511.6</ele><time>2026-08-05T11:49:18Z</time></trkpt>
    <trkpt lat="45.340929" lon="6.290274"><ele>509.6</ele><time>2026-08-05T11:49:25Z</time></trkpt>
    <trkpt lat="45.342161" lon="6.291225"><ele>502.0</ele><time>2026-08-05T11:49:46Z</time></trkpt>
    <trkpt lat="45.342220" lon="6.291352"><ele>501.8</ele><time>2026-08-05T11:49:52Z</time></trkpt>
    <trkpt lat="45.342237" lon="6.291442"><ele>491.6</ele><time>2026-08-05T12:01:23Z</time></trkpt>
    <trkpt lat="45.341139" lon="6.295629"><ele>491.6</ele><time>2026-08-05T12:02:26Z</time></trkpt>
    <trkpt lat="45.340970" lon="6.297197"><ele>490.2</ele><time>2026-08-05T12:02:44Z</time></trkpt>
    <trkpt lat="45.341004" lon="6.297281"><ele>490.2</ele><time>2026-08-05T12:02:45Z</time></trkpt>
    <trkpt lat="45.344144" lon="6.301142"><ele>476.4</ele><time>2026-08-05T12:03:36Z</time></trkpt>
    <trkpt lat="45.344943" lon="6.301792"><ele>472.8</ele><time>2026-08-05T12:03:46Z</time></trkpt>
    <trkpt lat="45.345986" lon="6.302223"><ele>469.2</ele><time>2026-08-05T12:04:00Z</time></trkpt>
    <trkpt lat="45.346546" lon="6.302656"><ele>466.4</ele><time>2026-08-05T12:04:08Z</time></trkpt>
    <trkpt lat="45.346908" lon="6.303179"><ele>463.6</ele><time>2026-08-05T12:04:16Z</time></trkpt>
    <trkpt lat="45.347216" lon="6.303824"><ele>462.2</ele><time>2026-08-05T12:04:26Z</time></trkpt>
    <trkpt lat="45.347175" lon="6.304356"><ele>461.4</ele><time>2026-08-05T12:04:35Z</time></trkpt>
    <trkpt lat="45.347292" lon="6.304595"><ele>461.0</ele><time>2026-08-05T12:04:40Z</time></trkpt>
    <trkpt lat="45.348221" lon="6.304172"><ele>460.2</ele><time>2026-08-05T12:05:02Z</time></trkpt>
    <trkpt lat="45.348459" lon="6.303839"><ele>460.2</ele><time>2026-08-05T12:05:10Z</time></trkpt>
    <trkpt lat="45.348826" lon="6.304091"><ele>460.6</ele><time>2026-08-05T12:05:25Z</time></trkpt>
    <trkpt lat="45.348827" lon="6.304096"><ele>460.6</ele><time>2026-08-05T12:05:27Z</time></trkpt>
    <trkpt lat="45.348802" lon="6.304229"><ele>454.8</ele><time>2026-08-05T13:14:33Z</time></trkpt>
    <trkpt lat="45.348581" lon="6.303942"><ele>453.0</ele><time>2026-08-05T13:14:44Z</time></trkpt>
    <trkpt lat="45.348088" lon="6.303378"><ele>452.4</ele><time>2026-08-05T13:15:04Z</time></trkpt>
    <trkpt lat="45.347681" lon="6.303923"><ele>452.4</ele><time>2026-08-05T13:15:18Z</time></trkpt>
    <trkpt lat="45.347227" lon="6.304195"><ele>452.8</ele><time>2026-08-05T13:15:30Z</time></trkpt>
    <trkpt lat="45.347741" lon="6.305495"><ele>453.4</ele><time>2026-08-05T13:15:51Z</time></trkpt>
    <trkpt lat="45.347962" lon="6.306661"><ele>452.8</ele><time>2026-08-05T13:16:09Z</time></trkpt>
    <trkpt lat="45.348394" lon="6.306606"><ele>452.4</ele><time>2026-08-05T13:16:18Z</time></trkpt>
    <trkpt lat="45.349281" lon="6.306112"><ele>455.6</ele><time>2026-08-05T13:16:41Z</time></trkpt>
    <trkpt lat="45.349851" lon="6.306578"><ele>457.2</ele><time>2026-08-05T13:16:56Z</time></trkpt>
    <trkpt lat="45.349944" lon="6.306623"><ele>456.6</ele><time>2026-08-05T13:16:58Z</time></trkpt>
    <trkpt lat="45.350343" lon="6.306555"><ele>455.4</ele><time>2026-08-05T13:17:05Z</time></trkpt>
    <trkpt lat="45.351262" lon="6.305437"><ele>450.0</ele><time>2026-08-05T13:17:23Z</time></trkpt>
    <trkpt lat="45.351738" lon="6.305294"><ele>449.6</ele><time>2026-08-05T13:17:32Z</time></trkpt>
    <trkpt lat="45.351919" lon="6.304632"><ele>449.6</ele><time>2026-08-05T13:17:41Z</time></trkpt>
    <trkpt lat="45.352704" lon="6.303950"><ele>448.4</ele><time>2026-08-05T13:17:57Z</time></trkpt>
    <trkpt lat="45.352903" lon="6.303542"><ele>448.4</ele><time>2026-08-05T13:18:03Z</time></trkpt>
    <trkpt lat="45.353172" lon="6.303097"><ele>449.6</ele><time>2026-08-05T13:18:12Z</time></trkpt>
    <trkpt lat="45.353732" lon="6.302826"><ele>452.6</ele><time>2026-08-05T13:18:29Z</time></trkpt>
    <trkpt lat="45.356677" lon="6.302344"><ele>465.4</ele><time>2026-08-05T13:19:59Z</time></trkpt>
    <trkpt lat="45.357043" lon="6.301461"><ele>468.8</ele><time>2026-08-05T13:20:23Z</time></trkpt>
    <trkpt lat="45.358121" lon="6.300581"><ele>473.0</ele><time>2026-08-05T13:21:01Z</time></trkpt>
    <trkpt lat="45.358709" lon="6.299945"><ele>472.4</ele><time>2026-08-05T13:21:19Z</time></trkpt>
    <trkpt lat="45.359708" lon="6.299371"><ele>472.0</ele><time>2026-08-05T13:21:43Z</time></trkpt>
    <trkpt lat="45.362207" lon="6.297375"><ele>472.0</ele><time>2026-08-05T13:22:46Z</time></trkpt>
    <trkpt lat="45.362245" lon="6.297353"><ele>472.2</ele><time>2026-08-05T13:22:47Z</time></trkpt>
    <trkpt lat="45.362366" lon="6.297431"><ele>472.6</ele><time>2026-08-05T13:22:51Z</time></trkpt>
    <trkpt lat="45.362495" lon="6.298189"><ele>474.8</ele><time>2026-08-05T13:23:08Z</time></trkpt>
    <trkpt lat="45.362406" lon="6.299229"><ele>477.4</ele><time>2026-08-05T13:23:31Z</time></trkpt>
    <trkpt lat="45.362262" lon="6.299555"><ele>479.4</ele><time>2026-08-05T13:25:24Z</time></trkpt>
    <trkpt lat="45.362385" lon="6.299316"><ele>479.4</ele><time>2026-08-05T13:25:29Z</time></trkpt>
    <trkpt lat="45.362510" lon="6.298269"><ele>476.0</ele><time>2026-08-05T13:25:41Z</time></trkpt>
    <trkpt lat="45.362305" lon="6.297340"><ele>473.6</ele><time>2026-08-05T13:25:53Z</time></trkpt>
    <trkpt lat="45.362317" lon="6.297189"><ele>473.6</ele><time>2026-08-05T13:25:59Z</time></trkpt>
    <trkpt lat="45.362587" lon="6.296998"><ele>474.0</ele><time>2026-08-05T13:26:23Z</time></trkpt>
    <trkpt lat="45.363295" lon="6.297687"><ele>474.8</ele><time>2026-08-05T13:26:52Z</time></trkpt>
    <trkpt lat="45.363356" lon="6.297538"><ele>474.8</ele><time>2026-08-05T13:26:56Z</time></trkpt>
    <trkpt lat="45.363620" lon="6.297028"><ele>473.8</ele><time>2026-08-05T13:27:09Z</time></trkpt>
    <trkpt lat="45.363173" lon="6.296821"><ele>472.2</ele><time>2026-08-05T13:27:22Z</time></trkpt>
    <trkpt lat="45.363193" lon="6.296517"><ele>470.8</ele><time>2026-08-05T13:27:27Z</time></trkpt>
    <trkpt lat="45.365252" lon="6.294586"><ele>467.2</ele><time>2026-08-05T13:28:16Z</time></trkpt>
    <trkpt lat="45.367666" lon="6.292519"><ele>456.6</ele><time>2026-08-05T13:28:59Z</time></trkpt>
    <trkpt lat="45.367718" lon="6.292435"><ele>456.2</ele><time>2026-08-05T13:29:00Z</time></trkpt>
    <trkpt lat="45.367809" lon="6.291996"><ele>454.6</ele><time>2026-08-05T13:29:04Z</time></trkpt>
    <trkpt lat="45.367623" lon="6.291571"><ele>452.8</ele><time>2026-08-05T13:29:08Z</time></trkpt>
    <trkpt lat="45.366625" lon="6.291210"><ele>448.2</ele><time>2026-08-05T13:29:18Z</time></trkpt>
    <trkpt lat="45.366124" lon="6.290803"><ele>445.0</ele><time>2026-08-05T13:29:23Z</time></trkpt>
    <trkpt lat="45.365998" lon="6.290344"><ele>443.2</ele><time>2026-08-05T13:29:26Z</time></trkpt>
    <trkpt lat="45.366196" lon="6.289960"><ele>441.8</ele><time>2026-08-05T13:29:29Z</time></trkpt>
    <trkpt lat="45.366869" lon="6.289483"><ele>438.6</ele><time>2026-08-05T13:29:36Z</time></trkpt>
    <trkpt lat="45.368217" lon="6.288559"><ele>437.6</ele><time>2026-08-05T13:29:53Z</time></trkpt>
    <trkpt lat="45.369941" lon="6.287883"><ele>435.8</ele><time>2026-08-05T13:30:18Z</time></trkpt>
    <trkpt lat="45.370424" lon="6.287545"><ele>434.6</ele><time>2026-08-05T13:30:25Z</time></trkpt>
    <trkpt lat="45.379689" lon="6.281171"><ele>427.0</ele><time>2026-08-05T13:33:20Z</time></trkpt>
    <trkpt lat="45.382559" lon="6.278929"><ele>425.0</ele><time>2026-08-05T13:34:20Z</time></trkpt>
    <trkpt lat="45.385474" lon="6.277121"><ele>424.0</ele><time>2026-08-05T13:35:18Z</time></trkpt>
    <trkpt lat="45.385742" lon="6.276999"><ele>424.0</ele><time>2026-08-05T13:35:23Z</time></trkpt>
    <trkpt lat="45.386506" lon="6.276844"><ele>427.2</ele><time>2026-08-05T13:35:41Z</time></trkpt>
    <trkpt lat="45.387383" lon="6.276928"><ele>429.0</ele><time>2026-08-05T13:36:07Z</time></trkpt>
    <trkpt lat="45.388041" lon="6.278334"><ele>433.0</ele><time>2026-08-05T13:36:47Z</time></trkpt>
    <trkpt lat="45.389648" lon="6.280392"><ele>434.0</ele><time>2026-08-05T13:37:34Z</time></trkpt>
    <trkpt lat="45.390069" lon="6.280637"><ele>434.4</ele><time>2026-08-05T13:37:43Z</time></trkpt>
    <trkpt lat="45.390305" lon="6.280668"><ele>434.4</ele><time>2026-08-05T13:37:47Z</time></trkpt>
    <trkpt lat="45.392238" lon="6.280796"><ele>430.4</ele><time>2026-08-05T13:38:12Z</time></trkpt>
    <trkpt lat="45.392597" lon="6.281008"><ele>430.0</ele><time>2026-08-05T13:38:17Z</time></trkpt>
    <trkpt lat="45.393702" lon="6.281624"><ele>421.4</ele><time>2026-08-05T13:38:29Z</time></trkpt>
    <trkpt lat="45.395366" lon="6.281013"><ele>415.0</ele><time>2026-08-05T13:38:45Z</time></trkpt>
    <trkpt lat="45.396049" lon="6.280774"><ele>414.6</ele><time>2026-08-05T13:38:53Z</time></trkpt>
    <trkpt lat="45.398281" lon="6.280851"><ele>413.8</ele><time>2026-08-05T13:39:23Z</time></trkpt>
    <trkpt lat="45.400123" lon="6.281805"><ele>412.8</ele><time>2026-08-05T13:39:53Z</time></trkpt>
    <trkpt lat="45.403164" lon="6.281708"><ele>411.6</ele><time>2026-08-05T13:40:40Z</time></trkpt>
    <trkpt lat="45.405294" lon="6.283166"><ele>410.2</ele><time>2026-08-05T13:41:18Z</time></trkpt>
    <trkpt lat="45.408048" lon="6.283741"><ele>409.2</ele><time>2026-08-05T13:42:04Z</time></trkpt>
    <trkpt lat="45.409002" lon="6.283349"><ele>416.8</ele><time>2026-08-05T13:42:31Z</time></trkpt>
    <trkpt lat="45.409846" lon="6.283301"><ele>425.2</ele><time>2026-08-05T13:43:18Z</time></trkpt>
    <trkpt lat="45.410937" lon="6.283537"><ele>434.6</ele><time>2026-08-05T13:44:12Z</time></trkpt>
    <trkpt lat="45.412089" lon="6.282444"><ele>441.6</ele><time>2026-08-05T13:45:05Z</time></trkpt>
    <trkpt lat="45.412912" lon="6.282161"><ele>448.2</ele><time>2026-08-05T13:45:36Z</time></trkpt>
    <trkpt lat="45.413043" lon="6.282018"><ele>449.6</ele><time>2026-08-05T13:45:43Z</time></trkpt>
    <trkpt lat="45.413839" lon="6.280916"><ele>452.8</ele><time>2026-08-05T13:46:19Z</time></trkpt>
    <trkpt lat="45.414470" lon="6.279740"><ele>454.8</ele><time>2026-08-05T13:46:51Z</time></trkpt>
    <trkpt lat="45.415769" lon="6.278621"><ele>457.6</ele><time>2026-08-05T13:47:31Z</time></trkpt>
    <trkpt lat="45.416480" lon="6.278461"><ele>460.0</ele><time>2026-08-05T13:47:54Z</time></trkpt>
    <trkpt lat="45.417099" lon="6.277949"><ele>461.0</ele><time>2026-08-05T13:48:13Z</time></trkpt>
    <trkpt lat="45.418170" lon="6.277587"><ele>462.6</ele><time>2026-08-05T13:48:41Z</time></trkpt>
    <trkpt lat="45.419129" lon="6.277663"><ele>465.4</ele><time>2026-08-05T13:49:09Z</time></trkpt>
    <trkpt lat="45.419357" lon="6.277656"><ele>465.4</ele><time>2026-08-05T13:49:15Z</time></trkpt>
    <trkpt lat="45.420543" lon="6.277092"><ele>463.2</ele><time>2026-08-05T13:49:41Z</time></trkpt>
    <trkpt lat="45.421104" lon="6.277052"><ele>463.0</ele><time>2026-08-05T13:49:54Z</time></trkpt>
    <trkpt lat="45.422719" lon="6.277697"><ele>465.6</ele><time>2026-08-05T13:50:35Z</time></trkpt>
    <trkpt lat="45.423864" lon="6.278233"><ele>461.6</ele><time>2026-08-05T13:50:58Z</time></trkpt>
    <trkpt lat="45.426224" lon="6.279698"><ele>455.2</ele><time>2026-08-05T13:51:37Z</time></trkpt>
    <trkpt lat="45.427184" lon="6.280530"><ele>453.2</ele><time>2026-08-05T13:51:53Z</time></trkpt>
    <trkpt lat="45.427481" lon="6.280571"><ele>451.8</ele><time>2026-08-05T13:51:57Z</time></trkpt>
    <trkpt lat="45.429417" lon="6.280831"><ele>436.8</ele><time>2026-08-05T13:52:16Z</time></trkpt>
    <trkpt lat="45.431507" lon="6.282902"><ele>425.4</ele><time>2026-08-05T13:52:41Z</time></trkpt>
    <trkpt lat="45.431604" lon="6.282968"><ele>424.8</ele><time>2026-08-05T13:52:42Z</time></trkpt>
    <trkpt lat="45.433496" lon="6.283856"><ele>409.0</ele><time>2026-08-05T13:52:58Z</time></trkpt>
    <trkpt lat="45.434549" lon="6.284843"><ele>400.8</ele><time>2026-08-05T13:53:08Z</time></trkpt>
    <trkpt lat="45.437360" lon="6.285835"><ele>381.6</ele><time>2026-08-05T13:53:31Z</time></trkpt>
    <trkpt lat="45.437662" lon="6.286001"><ele>380.8</ele><time>2026-08-05T13:53:34Z</time></trkpt>
    <trkpt lat="45.438955" lon="6.287093"><ele>379.6</ele><time>2026-08-05T13:53:52Z</time></trkpt>
    <trkpt lat="45.440382" lon="6.287963"><ele>378.0</ele><time>2026-08-05T13:54:16Z</time></trkpt>
    <trkpt lat="45.441565" lon="6.288835"><ele>376.6</ele><time>2026-08-05T13:54:37Z</time></trkpt>
    <trkpt lat="45.447869" lon="6.293397"><ele>374.4</ele><time>2026-08-05T13:56:29Z</time></trkpt>
    <trkpt lat="45.448653" lon="6.293560"><ele>373.8</ele><time>2026-08-05T13:56:41Z</time></trkpt>
    <trkpt lat="45.450403" lon="6.293259"><ele>372.4</ele><time>2026-08-05T13:57:07Z</time></trkpt>
    <trkpt lat="45.452873" lon="6.295111"><ele>373.4</ele><time>2026-08-05T13:58:01Z</time></trkpt>
    <trkpt lat="45.453395" lon="6.295108"><ele>374.0</ele><time>2026-08-05T13:58:10Z</time></trkpt>
    <trkpt lat="45.453770" lon="6.294898"><ele>375.0</ele><time>2026-08-05T13:58:18Z</time></trkpt>
    <trkpt lat="45.453987" lon="6.294624"><ele>375.0</ele><time>2026-08-05T13:58:23Z</time></trkpt>
    <trkpt lat="45.454620" lon="6.293557"><ele>370.6</ele><time>2026-08-05T13:58:37Z</time></trkpt>
    <trkpt lat="45.454875" lon="6.293396"><ele>370.0</ele><time>2026-08-05T13:58:41Z</time></trkpt>
    <trkpt lat="45.454938" lon="6.293386"><ele>369.8</ele><time>2026-08-05T13:58:42Z</time></trkpt>
    <trkpt lat="45.458154" lon="6.292899"><ele>371.8</ele><time>2026-08-05T13:59:47Z</time></trkpt>
    <trkpt lat="45.458896" lon="6.293114"><ele>369.6</ele><time>2026-08-05T13:59:58Z</time></trkpt>
    <trkpt lat="45.459998" lon="6.294103"><ele>370.8</ele><time>2026-08-05T14:00:21Z</time></trkpt>
    <trkpt lat="45.460328" lon="6.293785"><ele>371.8</ele><time>2026-08-05T14:00:29Z</time></trkpt>
    <trkpt lat="45.460496" lon="6.293034"><ele>373.6</ele><time>2026-08-05T14:00:43Z</time></trkpt>
    <trkpt lat="45.460621" lon="6.293008"><ele>373.6</ele><time>2026-08-05T14:00:46Z</time></trkpt>
    <trkpt lat="45.461688" lon="6.292643"><ele>366.2</ele><time>2026-08-05T14:01:00Z</time></trkpt>
    <trkpt lat="45.462010" lon="6.292571"><ele>365.6</ele><time>2026-08-05T14:01:04Z</time></trkpt>
    <trkpt lat="45.468113" lon="6.291408"><ele>364.2</ele><time>2026-08-05T14:02:33Z</time></trkpt>
    <trkpt lat="45.470382" lon="6.291152"><ele>360.8</ele><time>2026-08-05T14:03:04Z</time></trkpt>
    <trkpt lat="45.470755" lon="6.291263"><ele>361.0</ele><time>2026-08-05T14:03:10Z</time></trkpt>
    <trkpt lat="45.470903" lon="6.291854"><ele>361.6</ele><time>2026-08-05T14:03:19Z</time></trkpt>
    <trkpt lat="45.473390" lon="6.293395"><ele>359.2</ele><time>2026-08-05T14:04:05Z</time></trkpt>
    <trkpt lat="45.473640" lon="6.293820"><ele>359.2</ele><time>2026-08-05T14:04:11Z</time></trkpt>
    <trkpt lat="45.474145" lon="6.295434"><ele>358.6</ele><time>2026-08-05T14:04:29Z</time></trkpt>
    <trkpt lat="45.474837" lon="6.296332"><ele>358.2</ele><time>2026-08-05T14:04:43Z</time></trkpt>
    <trkpt lat="45.478701" lon="6.299539"><ele>356.6</ele><time>2026-08-05T14:05:51Z</time></trkpt>
    <trkpt lat="45.479423" lon="6.299663"><ele>356.0</ele><time>2026-08-05T14:06:02Z</time></trkpt>
    <trkpt lat="45.480294" lon="6.299714"><ele>356.0</ele><time>2026-08-05T14:06:16Z</time></trkpt>
    <trkpt lat="45.481204" lon="6.300234"><ele>359.0</ele><time>2026-08-05T14:06:34Z</time></trkpt>
    <trkpt lat="45.483486" lon="6.301005"><ele>361.6</ele><time>2026-08-05T14:07:18Z</time></trkpt>
    <trkpt lat="45.484089" lon="6.301335"><ele>361.8</ele><time>2026-08-05T14:07:29Z</time></trkpt>
    <trkpt lat="45.484675" lon="6.301691"><ele>358.2</ele><time>2026-08-05T14:07:37Z</time></trkpt>
    <trkpt lat="45.486001" lon="6.302787"><ele>354.2</ele><time>2026-08-05T14:07:55Z</time></trkpt>
    <trkpt lat="45.486194" lon="6.302807"><ele>354.2</ele><time>2026-08-05T14:08:00Z</time></trkpt>
    <trkpt lat="45.486707" lon="6.302289"><ele>351.8</ele><time>2026-08-05T14:08:09Z</time></trkpt>
    <trkpt lat="45.487188" lon="6.302405"><ele>351.0</ele><time>2026-08-05T14:08:16Z</time></trkpt>
    <trkpt lat="45.487371" lon="6.302518"><ele>350.6</ele><time>2026-08-05T14:08:19Z</time></trkpt>
    <trkpt lat="45.488845" lon="6.303529"><ele>350.4</ele><time>2026-08-05T14:08:47Z</time></trkpt>
    <trkpt lat="45.489861" lon="6.304822"><ele>350.6</ele><time>2026-08-05T14:09:10Z</time></trkpt>
    <trkpt lat="45.492348" lon="6.306465"><ele>357.0</ele><time>2026-08-05T14:10:07Z</time></trkpt>
    <trkpt lat="45.494266" lon="6.306315"><ele>354.4</ele><time>2026-08-05T14:10:44Z</time></trkpt>
    <trkpt lat="45.495581" lon="6.306436"><ele>356.4</ele><time>2026-08-05T14:11:08Z</time></trkpt>
    <trkpt lat="45.496510" lon="6.306684"><ele>358.8</ele><time>2026-08-05T14:11:30Z</time></trkpt>
    <trkpt lat="45.498741" lon="6.307086"><ele>351.0</ele><time>2026-08-05T14:12:05Z</time></trkpt>
    <trkpt lat="45.499609" lon="6.307845"><ele>348.0</ele><time>2026-08-05T14:12:20Z</time></trkpt>
    <trkpt lat="45.499652" lon="6.307911"><ele>347.8</ele><time>2026-08-05T14:12:21Z</time></trkpt>
    <trkpt lat="45.500384" lon="6.309181"><ele>349.6</ele><time>2026-08-05T14:12:43Z</time></trkpt>
    <trkpt lat="45.501302" lon="6.309777"><ele>346.0</ele><time>2026-08-05T14:12:59Z</time></trkpt>
    <trkpt lat="45.502109" lon="6.310612"><ele>345.4</ele><time>2026-08-05T14:13:14Z</time></trkpt>
    <trkpt lat="45.502901" lon="6.311637"><ele>346.4</ele><time>2026-08-05T14:13:33Z</time></trkpt>
    <trkpt lat="45.503468" lon="6.312700"><ele>347.0</ele><time>2026-08-05T14:13:49Z</time></trkpt>
    <trkpt lat="45.506671" lon="6.315161"><ele>342.0</ele><time>2026-08-05T14:14:45Z</time></trkpt>
    <trkpt lat="45.507832" lon="6.316255"><ele>342.8</ele><time>2026-08-05T14:15:09Z</time></trkpt>
    <trkpt lat="45.509352" lon="6.316392"><ele>340.8</ele><time>2026-08-05T14:15:35Z</time></trkpt>
    <trkpt lat="45.509493" lon="6.316353"><ele>340.6</ele><time>2026-08-05T14:15:37Z</time></trkpt>
    <trkpt lat="45.511562" lon="6.315734"><ele>341.8</ele><time>2026-08-05T14:16:10Z</time></trkpt>
    <trkpt lat="45.512482" lon="6.315210"><ele>343.8</ele><time>2026-08-05T14:16:27Z</time></trkpt>
    <trkpt lat="45.513370" lon="6.315150"><ele>344.8</ele><time>2026-08-05T14:16:45Z</time></trkpt>
    <trkpt lat="45.513532" lon="6.315447"><ele>345.0</ele><time>2026-08-05T14:16:50Z</time></trkpt>
    <trkpt lat="45.513548" lon="6.315615"><ele>345.2</ele><time>2026-08-05T14:16:52Z</time></trkpt>
    <trkpt lat="45.513621" lon="6.316990"><ele>350.8</ele><time>2026-08-05T14:17:16Z</time></trkpt>
    <trkpt lat="45.513343" lon="6.319577"><ele>362.0</ele><time>2026-08-05T14:18:07Z</time></trkpt>
    <trkpt lat="45.515243" lon="6.320677"><ele>369.8</ele><time>2026-08-05T14:18:55Z</time></trkpt>
    <trkpt lat="45.515853" lon="6.320592"><ele>370.6</ele><time>2026-08-05T14:19:10Z</time></trkpt>
    <trkpt lat="45.515893" lon="6.320569"><ele>370.6</ele><time>2026-08-05T14:19:11Z</time></trkpt>
    <trkpt lat="45.516426" lon="6.320185"><ele>367.6</ele><time>2026-08-05T14:19:22Z</time></trkpt>
    <trkpt lat="45.517531" lon="6.320400"><ele>362.2</ele><time>2026-08-05T14:19:36Z</time></trkpt>
    <trkpt lat="45.517632" lon="6.320368"><ele>361.6</ele><time>2026-08-05T14:19:37Z</time></trkpt>
    <trkpt lat="45.518458" lon="6.319467"><ele>354.4</ele><time>2026-08-05T14:19:46Z</time></trkpt>
    <trkpt lat="45.518677" lon="6.318515"><ele>351.0</ele><time>2026-08-05T14:19:52Z</time></trkpt>
    <trkpt lat="45.519047" lon="6.318117"><ele>349.0</ele><time>2026-08-05T14:19:56Z</time></trkpt>
    <trkpt lat="45.520053" lon="6.317558"><ele>341.2</ele><time>2026-08-05T14:20:04Z</time></trkpt>
    <trkpt lat="45.520192" lon="6.317508"><ele>340.6</ele><time>2026-08-05T14:20:05Z</time></trkpt>
    <trkpt lat="45.521423" lon="6.317249"><ele>338.6</ele><time>2026-08-05T14:20:15Z</time></trkpt>
    <trkpt lat="45.522469" lon="6.316690"><ele>337.4</ele><time>2026-08-05T14:20:25Z</time></trkpt>
    <trkpt lat="45.523178" lon="6.316551"><ele>336.0</ele><time>2026-08-05T14:20:32Z</time></trkpt>
    <trkpt lat="45.523745" lon="6.316665"><ele>335.6</ele><time>2026-08-05T14:20:38Z</time></trkpt>
    <trkpt lat="45.525541" lon="6.317827"><ele>334.2</ele><time>2026-08-05T14:21:05Z</time></trkpt>
    <trkpt lat="45.526536" lon="6.317927"><ele>333.2</ele><time>2026-08-05T14:21:20Z</time></trkpt>
    <trkpt lat="45.527501" lon="6.318012"><ele>333.0</ele><time>2026-08-05T14:21:35Z</time></trkpt>
    <trkpt lat="45.530422" lon="6.318082"><ele>332.2</ele><time>2026-08-05T14:22:31Z</time></trkpt>
    <trkpt lat="45.530814" lon="6.317838"><ele>331.2</ele><time>2026-08-05T14:23:32Z</time></trkpt>
    <trkpt lat="45.534317" lon="6.317491"><ele>330.6</ele><time>2026-08-05T14:24:32Z</time></trkpt>
    <trkpt lat="45.536748" lon="6.316836"><ele>330.8</ele><time>2026-08-05T14:25:11Z</time></trkpt>
    <trkpt lat="45.538831" lon="6.317094"><ele>330.6</ele><time>2026-08-05T14:25:43Z</time></trkpt>
    <trkpt lat="45.539545" lon="6.316758"><ele>330.8</ele><time>2026-08-05T14:25:55Z</time></trkpt>
    <trkpt lat="45.540273" lon="6.315847"><ele>329.2</ele><time>2026-08-05T14:26:08Z</time></trkpt>
    <trkpt lat="45.542092" lon="6.314530"><ele>329.0</ele><time>2026-08-05T14:26:35Z</time></trkpt>
    <trkpt lat="45.542296" lon="6.314072"><ele>328.8</ele><time>2026-08-05T14:26:40Z</time></trkpt>
    <trkpt lat="45.542595" lon="6.312199"><ele>328.8</ele><time>2026-08-05T14:26:57Z</time></trkpt>
    <trkpt lat="45.543752" lon="6.310959"><ele>331.4</ele><time>2026-08-05T14:27:23Z</time></trkpt>
    <trkpt lat="45.544575" lon="6.309670"><ele>327.4</ele><time>2026-08-05T14:27:42Z</time></trkpt>
    <trkpt lat="45.544577" lon="6.309365"><ele>327.4</ele><time>2026-08-05T14:27:46Z</time></trkpt>
    <trkpt lat="45.543959" lon="6.308367"><ele>327.2</ele><time>2026-08-05T14:28:03Z</time></trkpt>
    <trkpt lat="45.543853" lon="6.308277"><ele>327.2</ele><time>2026-08-05T14:28:05Z</time></trkpt>
    <trkpt lat="45.542885" lon="6.308969"><ele>330.8</ele><time>2026-08-05T14:28:25Z</time></trkpt>
    <trkpt lat="45.542497" lon="6.308555"><ele>331.4</ele><time>2026-08-05T14:28:35Z</time></trkpt>
    <trkpt lat="45.541915" lon="6.307729"><ele>325.6</ele><time>2026-08-05T14:28:49Z</time></trkpt>
    <trkpt lat="45.541843" lon="6.307738"><ele>325.4</ele><time>2026-08-05T14:28:51Z</time></trkpt>
    <trkpt lat="45.541384" lon="6.308179"><ele>325.2</ele><time>2026-08-05T14:29:04Z</time></trkpt>
    <trkpt lat="45.541260" lon="6.306989"><ele>325.2</ele><time>2026-08-05T14:29:25Z</time></trkpt>
    <trkpt lat="45.541406" lon="6.306365"><ele>325.0</ele><time>2026-08-05T14:29:36Z</time></trkpt>
    <trkpt lat="45.542408" lon="6.304418"><ele>324.6</ele><time>2026-08-05T14:30:27Z</time></trkpt>
    <trkpt lat="45.542440" lon="6.304051"><ele>324.2</ele><time>2026-08-05T14:46:45Z</time></trkpt>
    <trkpt lat="45.542471" lon="6.304016"><ele>323.8</ele><time>2026-08-05T14:46:58Z</time></trkpt>
    <trkpt lat="45.544530" lon="6.299193"><ele>323.8</ele><time>2026-08-05T14:48:17Z</time></trkpt>
    <trkpt lat="45.545622" lon="6.297603"><ele>323.8</ele><time>2026-08-05T14:48:45Z</time></trkpt>
    <trkpt lat="45.546454" lon="6.296848"><ele>323.6</ele><time>2026-08-05T14:49:02Z</time></trkpt>
    <trkpt lat="45.547118" lon="6.296478"><ele>323.6</ele><time>2026-08-05T14:49:14Z</time></trkpt>
    <trkpt lat="45.550621" lon="6.295103"><ele>329.8</ele><time>2026-08-05T14:50:16Z</time></trkpt>
    <trkpt lat="45.550852" lon="6.294989"><ele>329.2</ele><time>2026-08-05T14:50:20Z</time></trkpt>
    <trkpt lat="45.551834" lon="6.294114"><ele>325.4</ele><time>2026-08-05T14:50:36Z</time></trkpt>
    <trkpt lat="45.553441" lon="6.291889"><ele>321.2</ele><time>2026-08-05T14:51:03Z</time></trkpt>
    <trkpt lat="45.555704" lon="6.288667"><ele>320.2</ele><time>2026-08-05T14:51:49Z</time></trkpt>
    <trkpt lat="45.559236" lon="6.281072"><ele>317.0</ele><time>2026-08-05T14:53:29Z</time></trkpt>
    <trkpt lat="45.559504" lon="6.280056"><ele>318.2</ele><time>2026-08-05T14:53:43Z</time></trkpt>
    <trkpt lat="45.559546" lon="6.279067"><ele>319.8</ele><time>2026-08-05T14:53:56Z</time></trkpt>
    <trkpt lat="45.559209" lon="6.277072"><ele>320.8</ele><time>2026-08-05T14:54:21Z</time></trkpt>
    <trkpt lat="45.559055" lon="6.276105"><ele>320.2</ele><time>2026-08-05T14:54:32Z</time></trkpt>
    <trkpt lat="45.559116" lon="6.272848"><ele>314.4</ele><time>2026-08-05T14:55:01Z</time></trkpt>
    <trkpt lat="45.558686" lon="6.266968"><ele>310.2</ele><time>2026-08-05T14:55:54Z</time></trkpt>
    <trkpt lat="45.558509" lon="6.264879"><ele>309.8</ele><time>2026-08-05T14:56:13Z</time></trkpt>
    <trkpt lat="45.557873" lon="6.262052"><ele>310.8</ele><time>2026-08-05T14:56:42Z</time></trkpt>
    <trkpt lat="45.555737" lon="6.256298"><ele>310.0</ele><time>2026-08-05T14:57:49Z</time></trkpt>
    <trkpt lat="45.556498" lon="6.254798"><ele>310.6</ele><time>2026-08-05T14:58:11Z</time></trkpt>
    <trkpt lat="45.557036" lon="6.253906"><ele>308.8</ele><time>2026-08-05T14:58:23Z</time></trkpt>
    <trkpt lat="45.557521" lon="6.252675"><ele>307.8</ele><time>2026-08-05T14:58:39Z</time></trkpt>
    <trkpt lat="45.558778" lon="6.251033"><ele>305.6</ele><time>2026-08-05T14:59:02Z</time></trkpt>
    <trkpt lat="45.559941" lon="6.250825"><ele>305.4</ele><time>2026-08-05T14:59:20Z</time></trkpt>
    <trkpt lat="45.562480" lon="6.251110"><ele>303.6</ele><time>2026-08-05T14:59:59Z</time></trkpt>
    <trkpt lat="45.565189" lon="6.252557"><ele>301.4</ele><time>2026-08-05T15:00:36Z</time></trkpt>
    <trkpt lat="45.569224" lon="6.256851"><ele>299.6</ele><time>2026-08-05T15:01:43Z</time></trkpt>
    <trkpt lat="45.569911" lon="6.258252"><ele>298.8</ele><time>2026-08-05T15:01:57Z</time></trkpt>
    <trkpt lat="45.572863" lon="6.265216"><ele>300.0</ele><time>2026-08-05T15:03:10Z</time></trkpt>
    <trkpt lat="45.581767" lon="6.273963"><ele>299.4</ele><time>2026-08-05T15:05:36Z</time></trkpt>
    <trkpt lat="45.582096" lon="6.273899"><ele>299.4</ele><time>2026-08-05T15:05:41Z</time></trkpt>
    <trkpt lat="45.583059" lon="6.272104"><ele>301.2</ele><time>2026-08-05T15:06:10Z</time></trkpt>
    <trkpt lat="45.584103" lon="6.272991"><ele>300.0</ele><time>2026-08-05T15:06:31Z</time></trkpt>
    <trkpt lat="45.585359" lon="6.273702"><ele>300.4</ele><time>2026-08-05T15:06:49Z</time></trkpt>
    <trkpt lat="45.595322" lon="6.278155"><ele>301.8</ele><time>2026-08-05T15:09:03Z</time></trkpt>
    <trkpt lat="45.595870" lon="6.278669"><ele>302.6</ele><time>2026-08-05T15:09:12Z</time></trkpt>
    <trkpt lat="45.596376" lon="6.278643"><ele>303.0</ele><time>2026-08-05T15:09:19Z</time></trkpt>
    <trkpt lat="45.599715" lon="6.280073"><ele>304.4</ele><time>2026-08-05T15:10:05Z</time></trkpt>
    <trkpt lat="45.602543" lon="6.281798"><ele>304.8</ele><time>2026-08-05T15:10:46Z</time></trkpt>
    <trkpt lat="45.604861" lon="6.283795"><ele>305.8</ele><time>2026-08-05T15:11:20Z</time></trkpt>
    <trkpt lat="45.607054" lon="6.286356"><ele>307.4</ele><time>2026-08-05T15:11:56Z</time></trkpt>
    <trkpt lat="45.608285" lon="6.288400"><ele>306.2</ele><time>2026-08-05T15:12:17Z</time></trkpt>
    <trkpt lat="45.614968" lon="6.301536"><ele>308.4</ele><time>2026-08-05T15:15:14Z</time></trkpt>
    <trkpt lat="45.615174" lon="6.302211"><ele>308.4</ele><time>2026-08-05T15:15:22Z</time></trkpt>
    <trkpt lat="45.616344" lon="6.304543"><ele>308.6</ele><time>2026-08-05T15:15:53Z</time></trkpt>
    <trkpt lat="45.616382" lon="6.304917"><ele>309.2</ele><time>2026-08-05T15:15:58Z</time></trkpt>
    <trkpt lat="45.616913" lon="6.305564"><ele>309.8</ele><time>2026-08-05T15:16:10Z</time></trkpt>
    <trkpt lat="45.617805" lon="6.307381"><ele>310.2</ele><time>2026-08-05T15:16:34Z</time></trkpt>
    <trkpt lat="45.618808" lon="6.310166"><ele>310.6</ele><time>2026-08-05T15:17:07Z</time></trkpt>
    <trkpt lat="45.619509" lon="6.312959"><ele>312.2</ele><time>2026-08-05T15:17:38Z</time></trkpt>
    <trkpt lat="45.620554" lon="6.315103"><ele>313.4</ele><time>2026-08-05T15:18:11Z</time></trkpt>
    <trkpt lat="45.621612" lon="6.316218"><ele>312.8</ele><time>2026-08-05T15:18:30Z</time></trkpt>
    <trkpt lat="45.622067" lon="6.317138"><ele>312.0</ele><time>2026-08-05T15:18:40Z</time></trkpt>
    <trkpt lat="45.622909" lon="6.319365"><ele>312.8</ele><time>2026-08-05T15:19:06Z</time></trkpt>
    <trkpt lat="45.623576" lon="6.322060"><ele>313.2</ele><time>2026-08-05T15:19:38Z</time></trkpt>
    <trkpt lat="45.625088" lon="6.323545"><ele>313.6</ele><time>2026-08-05T15:20:09Z</time></trkpt>
    <trkpt lat="45.627886" lon="6.327326"><ele>314.6</ele><time>2026-08-05T15:21:09Z</time></trkpt>
    <trkpt lat="45.628536" lon="6.328474"><ele>315.2</ele><time>2026-08-05T15:21:26Z</time></trkpt>
    <trkpt lat="45.629058" lon="6.328748"><ele>315.2</ele><time>2026-08-05T15:21:35Z</time></trkpt>
    <trkpt lat="45.631400" lon="6.330840"><ele>315.6</ele><time>2026-08-05T15:22:15Z</time></trkpt>
    <trkpt lat="45.633656" lon="6.332194"><ele>315.8</ele><time>2026-08-05T15:22:48Z</time></trkpt>
    <trkpt lat="45.635379" lon="6.332879"><ele>316.6</ele><time>2026-08-05T15:23:14Z</time></trkpt>
    <trkpt lat="45.637528" lon="6.333324"><ele>316.8</ele><time>2026-08-05T15:23:46Z</time></trkpt>
    <trkpt lat="45.641941" lon="6.334164"><ele>319.0</ele><time>2026-08-05T15:24:53Z</time></trkpt>
    <trkpt lat="45.643365" lon="6.334301"><ele>320.0</ele><time>2026-08-05T15:25:15Z</time></trkpt>
    <trkpt lat="45.644677" lon="6.335797"><ele>321.2</ele><time>2026-08-05T15:25:42Z</time></trkpt>
    <trkpt lat="45.646331" lon="6.338275"><ele>322.8</ele><time>2026-08-05T15:26:20Z</time></trkpt>
    <trkpt lat="45.647806" lon="6.341696"><ele>323.8</ele><time>2026-08-05T15:27:03Z</time></trkpt>
    <trkpt lat="45.651753" lon="6.356758"><ele>328.0</ele><time>2026-08-05T15:29:55Z</time></trkpt>
    <trkpt lat="45.651998" lon="6.357233"><ele>327.6</ele><time>2026-08-05T15:30:04Z</time></trkpt>
    <trkpt lat="45.653198" lon="6.362120"><ele>328.0</ele><time>2026-08-05T15:31:07Z</time></trkpt>
    <trkpt lat="45.656804" lon="6.384734"><ele>334.2</ele><time>2026-08-05T15:35:11Z</time></trkpt>
    <trkpt lat="45.656738" lon="6.385144"><ele>336.2</ele><time>2026-08-05T15:35:38Z</time></trkpt>
    <trkpt lat="45.657779" lon="6.386298"><ele>338.2</ele><time>2026-08-05T15:36:07Z</time></trkpt>
    <trkpt lat="45.658226" lon="6.385983"><ele>338.8</ele><time>2026-08-05T15:36:17Z</time></trkpt>
    <trkpt lat="45.658691" lon="6.385457"><ele>338.4</ele><time>2026-08-05T15:36:28Z</time></trkpt>
    <trkpt lat="45.658926" lon="6.385465"><ele>338.2</ele><time>2026-08-05T15:36:32Z</time></trkpt>
    <trkpt lat="45.659358" lon="6.386366"><ele>335.4</ele><time>2026-08-05T15:36:42Z</time></trkpt>
    <trkpt lat="45.659922" lon="6.387061"><ele>335.4</ele><time>2026-08-05T15:36:56Z</time></trkpt>
    <trkpt lat="45.659992" lon="6.387550"><ele>335.2</ele><time>2026-08-05T15:38:01Z</time></trkpt>
    <trkpt lat="45.660299" lon="6.388091"><ele>335.2</ele><time>2026-08-05T15:38:28Z</time></trkpt>
    <trkpt lat="45.661471" lon="6.389506"><ele>335.6</ele><time>2026-08-05T15:39:06Z</time></trkpt>
    <trkpt lat="45.662088" lon="6.389889"><ele>335.2</ele><time>2026-08-05T15:39:24Z</time></trkpt>
    <trkpt lat="45.661492" lon="6.389505"><ele>335.4</ele><time>2026-08-05T15:42:03Z</time></trkpt>
    <trkpt lat="45.660304" lon="6.388070"><ele>335.2</ele><time>2026-08-05T15:42:30Z</time></trkpt>
    <trkpt lat="45.659700" lon="6.386950"><ele>335.0</ele><time>2026-08-05T15:42:48Z</time></trkpt>
    <trkpt lat="45.659665" lon="6.385553"><ele>334.4</ele><time>2026-08-05T15:43:16Z</time></trkpt>
    <trkpt lat="45.659299" lon="6.384131"><ele>334.4</ele><time>2026-08-05T15:43:34Z</time></trkpt>
    <trkpt lat="45.660636" lon="6.383080"><ele>334.6</ele><time>2026-08-05T15:44:00Z</time></trkpt>
    <trkpt lat="45.660765" lon="6.382495"><ele>334.8</ele><time>2026-08-05T15:44:08Z</time></trkpt>
    <trkpt lat="45.659374" lon="6.379278"><ele>333.4</ele><time>2026-08-05T15:44:50Z</time></trkpt>
    <trkpt lat="45.659055" lon="6.378871"><ele>333.4</ele><time>2026-08-05T15:44:57Z</time></trkpt>
    <trkpt lat="45.658442" lon="6.377265"><ele>333.0</ele><time>2026-08-05T15:45:20Z</time></trkpt>
    <trkpt lat="45.658111" lon="6.376888"><ele>331.8</ele><time>2026-08-05T15:45:30Z</time></trkpt>
    <trkpt lat="45.657858" lon="6.376864"><ele>331.8</ele><time>2026-08-05T15:45:41Z</time></trkpt>
    <trkpt lat="45.658115" lon="6.377302"><ele>333.2</ele><time>2026-08-05T15:46:08Z</time></trkpt>
    <trkpt lat="45.657898" lon="6.377303"><ele>333.6</ele><time>2026-08-05T15:46:27Z</time></trkpt>
    </trkseg>
  </trk>
</gpx>
