<?xml version="1.0" encoding="UTF-8"?>
<gpx version="1.1" creator="tripplanner (converted from Garmin TCX)" xmlns="http://www.topografix.com/GPX/1/1">
  <metadata>
    <name>Barcelonnette → Briançon</name>
    <time>2026-08-03T06:53:49Z</time>
  </metadata>
  <trk>
    <name>Barcelonnette → Briançon</name>
    <trkseg>
    <trkpt lat="44.386447" lon="6.644667"><ele>1135.6</ele><time>2026-08-03T06:53:49Z</time></trkpt>
    <trkpt lat="44.386257" lon="6.644795"><ele>1135.6</ele><time>2026-08-03T06:54:37Z</time></trkpt>
    <trkpt lat="44.386259" lon="6.647404"><ele>1135.6</ele><time>2026-08-03T06:55:34Z</time></trkpt>
    <trkpt lat="44.386747" lon="6.649899"><ele>1137.4</ele><time>2026-08-03T06:56:22Z</time></trkpt>
    <trkpt lat="44.385770" lon="6.650351"><ele>1137.6</ele><time>2026-08-03T06:56:54Z</time></trkpt>
    <trkpt lat="44.386140" lon="6.652422"><ele>1137.8</ele><time>2026-08-03T06:57:31Z</time></trkpt>
    <trkpt lat="44.385268" lon="6.652619"><ele>1140.0</ele><time>2026-08-03T06:57:55Z</time></trkpt>
    <trkpt lat="44.385044" lon="6.652890"><ele>1140.6</ele><time>2026-08-03T06:58:04Z</time></trkpt>
    <trkpt lat="44.385232" lon="6.654419"><ele>1141.2</ele><time>2026-08-03T06:58:39Z</time></trkpt>
    <trkpt lat="44.385191" lon="6.657603"><ele>1143.0</ele><time>2026-08-03T06:59:33Z</time></trkpt>
    <trkpt lat="44.385322" lon="6.657712"><ele>1143.2</ele><time>2026-08-03T06:59:38Z</time></trkpt>
    <trkpt lat="44.387610" lon="6.657244"><ele>1143.4</ele><time>2026-08-03T07:00:34Z</time></trkpt>
    <trkpt lat="44.387918" lon="6.657473"><ele>1143.6</ele><time>2026-08-03T07:00:44Z</time></trkpt>
    <trkpt lat="44.388144" lon="6.659444"><ele>1144.6</ele><time>2026-08-03T07:01:22Z</time></trkpt>
    <trkpt lat="44.388494" lon="6.662405"><ele>1147.8</ele><time>2026-08-03T07:02:15Z</time></trkpt>
    <trkpt lat="44.389066" lon="6.664077"><ele>1149.2</ele><time>2026-08-03T07:02:47Z</time></trkpt>
    <trkpt lat="44.389578" lon="6.665003"><ele>1150.8</ele><time>2026-08-03T07:03:07Z</time></trkpt>
    <trkpt lat="44.390092" lon="6.666360"><ele>1151.8</ele><time>2026-08-03T07:03:33Z</time></trkpt>
    <trkpt lat="44.389972" lon="6.667999"><ele>1153.2</ele><time>2026-08-03T07:04:01Z</time></trkpt>
    <trkpt lat="44.390335" lon="6.669505"><ele>1155.8</ele><time>2026-08-03T07:04:29Z</time></trkpt>
    <trkpt lat="44.391072" lon="6.670423"><ele>1156.2</ele><time>2026-08-03T07:04:51Z</time></trkpt>
    <trkpt lat="44.391339" lon="6.671096"><ele>1156.8</ele><time>2026-08-03T07:05:03Z</time></trkpt>
    <trkpt lat="44.391604" lon="6.682839"><ele>1169.4</ele><time>2026-08-03T07:08:27Z</time></trkpt>
    <trkpt lat="44.392304" lon="6.685679"><ele>1170.6</ele><time>2026-08-03T07:09:09Z</time></trkpt>
    <trkpt lat="44.392741" lon="6.686779"><ele>1171.0</ele><time>2026-08-03T07:09:26Z</time></trkpt>
    <trkpt lat="44.394651" lon="6.689833"><ele>1172.8</ele><time>2026-08-03T07:10:19Z</time></trkpt>
    <trkpt lat="44.395851" lon="6.691174"><ele>1174.4</ele><time>2026-08-03T07:10:46Z</time></trkpt>
    <trkpt lat="44.399402" lon="6.694242"><ele>1179.6</ele><time>2026-08-03T07:12:06Z</time></trkpt>
    <trkpt lat="44.401819" lon="6.700903"><ele>1186.8</ele><time>2026-08-03T07:13:53Z</time></trkpt>
    <trkpt lat="44.402185" lon="6.701407"><ele>1187.0</ele><time>2026-08-03T07:14:03Z</time></trkpt>
    <trkpt lat="44.403561" lon="6.702000"><ele>1185.4</ele><time>2026-08-03T07:14:26Z</time></trkpt>
    <trkpt lat="44.403950" lon="6.702502"><ele>1184.8</ele><time>2026-08-03T07:14:34Z</time></trkpt>
    <trkpt lat="44.404801" lon="6.705792"><ele>1183.2</ele><time>2026-08-03T07:15:10Z</time></trkpt>
    <trkpt lat="44.404820" lon="6.706523"><ele>1183.4</ele><time>2026-08-03T07:15:18Z</time></trkpt>
    <trkpt lat="44.404852" lon="6.711420"><ele>1192.8</ele><time>2026-08-03T07:16:27Z</time></trkpt>
    <trkpt lat="44.405847" lon="6.717932"><ele>1206.6</ele><time>2026-08-03T07:18:30Z</time></trkpt>
    <trkpt lat="44.406419" lon="6.719889"><ele>1211.2</ele><time>2026-08-03T07:19:09Z</time></trkpt>
    <trkpt lat="44.407121" lon="6.722160"><ele>1213.4</ele><time>2026-08-03T07:19:52Z</time></trkpt>
    <trkpt lat="44.409493" lon="6.727022"><ele>1215.8</ele><time>2026-08-03T07:21:10Z</time></trkpt>
    <trkpt lat="44.410146" lon="6.727874"><ele>1216.8</ele><time>2026-08-03T07:21:26Z</time></trkpt>
    <trkpt lat="44.410761" lon="6.728418"><ele>1216.6</ele><time>2026-08-03T07:21:38Z</time></trkpt>
    <trkpt lat="44.412480" lon="6.729055"><ele>1214.2</ele><time>2026-08-03T07:22:03Z</time></trkpt>
    <trkpt lat="44.413091" lon="6.729067"><ele>1214.4</ele><time>2026-08-03T07:22:13Z</time></trkpt>
    <trkpt lat="44.415285" lon="6.728245"><ele>1214.6</ele><time>2026-08-03T07:22:52Z</time></trkpt>
    <trkpt lat="44.416613" lon="6.728733"><ele>1214.2</ele><time>2026-08-03T07:23:14Z</time></trkpt>
    <trkpt lat="44.418168" lon="6.730923"><ele>1213.2</ele><time>2026-08-03T07:23:48Z</time></trkpt>
    <trkpt lat="44.418733" lon="6.733107"><ele>1213.4</ele><time>2026-08-03T07:24:14Z</time></trkpt>
    <trkpt lat="44.419239" lon="6.733572"><ele>1213.8</ele><time>2026-08-03T07:24:24Z</time></trkpt>
    <trkpt lat="44.419414" lon="6.733780"><ele>1214.2</ele><time>2026-08-03T07:24:28Z</time></trkpt>
    <trkpt lat="44.419942" lon="6.735027"><ele>1215.8</ele><time>2026-08-03T07:24:47Z</time></trkpt>
    <trkpt lat="44.420122" lon="6.736169"><ele>1217.2</ele><time>2026-08-03T07:25:04Z</time></trkpt>
    <trkpt lat="44.420435" lon="6.736637"><ele>1218.4</ele><time>2026-08-03T07:25:18Z</time></trkpt>
    <trkpt lat="44.422309" lon="6.737255"><ele>1221.6</ele><time>2026-08-03T07:26:38Z</time></trkpt>
    <trkpt lat="44.427181" lon="6.736980"><ele>1232.4</ele><time>2026-08-03T07:28:30Z</time></trkpt>
    <trkpt lat="44.428881" lon="6.736356"><ele>1234.0</ele><time>2026-08-03T07:29:05Z</time></trkpt>
    <trkpt lat="44.429649" lon="6.736566"><ele>1234.2</ele><time>2026-08-03T07:29:20Z</time></trkpt>
    <trkpt lat="44.430132" lon="6.737083"><ele>1234.8</ele><time>2026-08-03T07:29:31Z</time></trkpt>
    <trkpt lat="44.430791" lon="6.738262"><ele>1235.4</ele><time>2026-08-03T07:29:53Z</time></trkpt>
    <trkpt lat="44.431775" lon="6.738844"><ele>1236.6</ele><time>2026-08-03T07:30:16Z</time></trkpt>
    <trkpt lat="44.432602" lon="6.740329"><ele>1241.2</ele><time>2026-08-03T07:30:56Z</time></trkpt>
    <trkpt lat="44.433557" lon="6.741260"><ele>1242.4</ele><time>2026-08-03T07:31:29Z</time></trkpt>
    <trkpt lat="44.434276" lon="6.743647"><ele>1247.0</ele><time>2026-08-03T07:32:23Z</time></trkpt>
    <trkpt lat="44.434619" lon="6.744007"><ele>1249.2</ele><time>2026-08-03T07:32:38Z</time></trkpt>
    <trkpt lat="44.435536" lon="6.744102"><ele>1252.4</ele><time>2026-08-03T07:33:08Z</time></trkpt>
    <trkpt lat="44.435725" lon="6.744014"><ele>1252.8</ele><time>2026-08-03T07:33:14Z</time></trkpt>
    <trkpt lat="44.436218" lon="6.743717"><ele>1252.8</ele><time>2026-08-03T07:33:27Z</time></trkpt>
    <trkpt lat="44.437459" lon="6.744140"><ele>1254.8</ele><time>2026-08-03T07:33:58Z</time></trkpt>
    <trkpt lat="44.438143" lon="6.743902"><ele>1255.6</ele><time>2026-08-03T07:34:16Z</time></trkpt>
    <trkpt lat="44.438754" lon="6.743989"><ele>1257.0</ele><time>2026-08-03T07:34:32Z</time></trkpt>
    <trkpt lat="44.439228" lon="6.743699"><ele>1257.8</ele><time>2026-08-03T07:34:45Z</time></trkpt>
    <trkpt lat="44.439811" lon="6.742880"><ele>1258.2</ele><time>2026-08-03T07:35:04Z</time></trkpt>
    <trkpt lat="44.440614" lon="6.742787"><ele>1259.6</ele><time>2026-08-03T07:35:23Z</time></trkpt>
    <trkpt lat="44.441597" lon="6.742009"><ele>1260.8</ele><time>2026-08-03T07:35:49Z</time></trkpt>
    <trkpt lat="44.443196" lon="6.742212"><ele>1264.0</ele><time>2026-08-03T07:36:28Z</time></trkpt>
    <trkpt lat="44.444111" lon="6.742677"><ele>1265.2</ele><time>2026-08-03T07:36:51Z</time></trkpt>
    <trkpt lat="44.444656" lon="6.742626"><ele>1265.8</ele><time>2026-08-03T07:37:03Z</time></trkpt>
    <trkpt lat="44.445698" lon="6.741971"><ele>1267.2</ele><time>2026-08-03T07:37:28Z</time></trkpt>
    <trkpt lat="44.447262" lon="6.740428"><ele>1269.8</ele><time>2026-08-03T07:38:14Z</time></trkpt>
    <trkpt lat="44.447823" lon="6.740263"><ele>1270.0</ele><time>2026-08-03T07:38:27Z</time></trkpt>
    <trkpt lat="44.449866" lon="6.740796"><ele>1270.6</ele><time>2026-08-03T07:39:14Z</time></trkpt>
    <trkpt lat="44.451388" lon="6.742361"><ele>1272.0</ele><time>2026-08-03T07:39:59Z</time></trkpt>
    <trkpt lat="44.452571" lon="6.743151"><ele>1273.8</ele><time>2026-08-03T07:40:29Z</time></trkpt>
    <trkpt lat="44.453176" lon="6.743880"><ele>1274.2</ele><time>2026-08-03T07:40:48Z</time></trkpt>
    <trkpt lat="44.453347" lon="6.743920"><ele>1274.4</ele><time>2026-08-03T07:40:52Z</time></trkpt>
    <trkpt lat="44.454821" lon="6.743698"><ele>1277.8</ele><time>2026-08-03T07:41:28Z</time></trkpt>
    <trkpt lat="44.455930" lon="6.744128"><ele>1282.0</ele><time>2026-08-03T07:42:00Z</time></trkpt>
    <trkpt lat="44.456923" lon="6.744217"><ele>1285.4</ele><time>2026-08-03T07:42:28Z</time></trkpt>
    <trkpt lat="44.457956" lon="6.745071"><ele>1290.6</ele><time>2026-08-03T07:43:06Z</time></trkpt>
    <trkpt lat="44.457977" lon="6.745105"><ele>1290.6</ele><time>2026-08-03T07:43:07Z</time></trkpt>
    <trkpt lat="44.458246" lon="6.746448"><ele>1288.6</ele><time>2026-08-03T07:43:35Z</time></trkpt>
    <trkpt lat="44.458394" lon="6.746051"><ele>1289.2</ele><time>2026-08-03T07:44:06Z</time></trkpt>
    <trkpt lat="44.458220" lon="6.746203"><ele>1289.4</ele><time>2026-08-03T08:14:46Z</time></trkpt>
    <trkpt lat="44.458373" lon="6.746578"><ele>1289.4</ele><time>2026-08-03T08:14:55Z</time></trkpt>
    <trkpt lat="44.460216" lon="6.747209"><ele>1293.8</ele><time>2026-08-03T08:15:50Z</time></trkpt>
    <trkpt lat="44.460744" lon="6.747730"><ele>1295.0</ele><time>2026-08-03T08:16:10Z</time></trkpt>
    <trkpt lat="44.462274" lon="6.749905"><ele>1297.8</ele><time>2026-08-03T08:17:13Z</time></trkpt>
    <trkpt lat="44.463327" lon="6.750441"><ele>1297.6</ele><time>2026-08-03T08:17:43Z</time></trkpt>
    <trkpt lat="44.464585" lon="6.751929"><ele>1297.2</ele><time>2026-08-03T08:18:23Z</time></trkpt>
    <trkpt lat="44.465092" lon="6.752873"><ele>1296.6</ele><time>2026-08-03T08:18:42Z</time></trkpt>
    <trkpt lat="44.465255" lon="6.753479"><ele>1296.4</ele><time>2026-08-03T08:18:52Z</time></trkpt>
    <trkpt lat="44.464933" lon="6.756293"><ele>1298.2</ele><time>2026-08-03T08:19:43Z</time></trkpt>
    <trkpt lat="44.464998" lon="6.757118"><ele>1297.6</ele><time>2026-08-03T08:19:55Z</time></trkpt>
    <trkpt lat="44.465179" lon="6.757575"><ele>1297.6</ele><time>2026-08-03T08:20:02Z</time></trkpt>
    <trkpt lat="44.467309" lon="6.761669"><ele>1305.6</ele><time>2026-08-03T08:21:35Z</time></trkpt>
    <trkpt lat="44.470916" lon="6.763782"><ele>1312.4</ele><time>2026-08-03T08:23:26Z</time></trkpt>
    <trkpt lat="44.471101" lon="6.763831"><ele>1312.4</ele><time>2026-08-03T08:23:32Z</time></trkpt>
    <trkpt lat="44.471454" lon="6.763763"><ele>1312.4</ele><time>2026-08-03T08:23:42Z</time></trkpt>
    <trkpt lat="44.476855" lon="6.760422"><ele>1312.2</ele><time>2026-08-03T08:25:54Z</time></trkpt>
    <trkpt lat="44.477850" lon="6.758415"><ele>1313.0</ele><time>2026-08-03T08:26:32Z</time></trkpt>
    <trkpt lat="44.478159" lon="6.757878"><ele>1314.8</ele><time>2026-08-03T08:26:44Z</time></trkpt>
    <trkpt lat="44.479609" lon="6.756293"><ele>1323.6</ele><time>2026-08-03T08:27:45Z</time></trkpt>
    <trkpt lat="44.479922" lon="6.755834"><ele>1323.6</ele><time>2026-08-03T08:27:57Z</time></trkpt>
    <trkpt lat="44.480299" lon="6.754904"><ele>1324.2</ele><time>2026-08-03T08:28:15Z</time></trkpt>
    <trkpt lat="44.480662" lon="6.753311"><ele>1324.8</ele><time>2026-08-03T08:28:44Z</time></trkpt>
    <trkpt lat="44.481613" lon="6.751764"><ele>1327.4</ele><time>2026-08-03T08:30:36Z</time></trkpt>
    <trkpt lat="44.483508" lon="6.749699"><ele>1333.8</ele><time>2026-08-03T08:31:33Z</time></trkpt>
    <trkpt lat="44.484372" lon="6.748488"><ele>1335.8</ele><time>2026-08-03T08:32:00Z</time></trkpt>
    <trkpt lat="44.485225" lon="6.747832"><ele>1337.8</ele><time>2026-08-03T08:32:22Z</time></trkpt>
    <trkpt lat="44.486094" lon="6.747474"><ele>1340.0</ele><time>2026-08-03T08:32:44Z</time></trkpt>
    <trkpt lat="44.487067" lon="6.746130"><ele>1341.8</ele><time>2026-08-03T08:33:13Z</time></trkpt>
    <trkpt lat="44.487509" lon="6.745814"><ele>1342.4</ele><time>2026-08-03T08:33:24Z</time></trkpt>
    <trkpt lat="44.488308" lon="6.745247"><ele>1345.4</ele><time>2026-08-03T08:33:44Z</time></trkpt>
    <trkpt lat="44.489373" lon="6.743584"><ele>1352.0</ele><time>2026-08-03T08:34:25Z</time></trkpt>
    <trkpt lat="44.490458" lon="6.743094"><ele>1356.2</ele><time>2026-08-03T08:34:57Z</time></trkpt>
    <trkpt lat="44.491392" lon="6.742200"><ele>1361.0</ele><time>2026-08-03T08:35:31Z</time></trkpt>
    <trkpt lat="44.492772" lon="6.742108"><ele>1367.6</ele><time>2026-08-03T08:36:20Z</time></trkpt>
    <trkpt lat="44.493017" lon="6.742000"><ele>1369.2</ele><time>2026-08-03T08:36:29Z</time></trkpt>
    <trkpt lat="44.494039" lon="6.741409"><ele>1371.0</ele><time>2026-08-03T08:37:19Z</time></trkpt>
    <trkpt lat="44.495993" lon="6.740800"><ele>1375.0</ele><time>2026-08-03T08:38:08Z</time></trkpt>
    <trkpt lat="44.498229" lon="6.739297"><ele>1379.0</ele><time>2026-08-03T08:39:08Z</time></trkpt>
    <trkpt lat="44.499361" lon="6.739474"><ele>1379.6</ele><time>2026-08-03T08:39:31Z</time></trkpt>
    <trkpt lat="44.500882" lon="6.740550"><ele>1381.6</ele><time>2026-08-03T08:40:07Z</time></trkpt>
    <trkpt lat="44.502005" lon="6.740640"><ele>1383.8</ele><time>2026-08-03T08:40:32Z</time></trkpt>
    <trkpt lat="44.502371" lon="6.740829"><ele>1384.8</ele><time>2026-08-03T08:40:41Z</time></trkpt>
    <trkpt lat="44.502653" lon="6.741186"><ele>1385.6</ele><time>2026-08-03T08:40:50Z</time></trkpt>
    <trkpt lat="44.502737" lon="6.741386"><ele>1386.2</ele><time>2026-08-03T08:40:54Z</time></trkpt>
    <trkpt lat="44.503087" lon="6.742960"><ele>1395.4</ele><time>2026-08-03T08:41:40Z</time></trkpt>
    <trkpt lat="44.504303" lon="6.743557"><ele>1405.8</ele><time>2026-08-03T08:42:37Z</time></trkpt>
    <trkpt lat="44.504515" lon="6.743808"><ele>1407.8</ele><time>2026-08-03T08:42:49Z</time></trkpt>
    <trkpt lat="44.504526" lon="6.744576"><ele>1410.2</ele><time>2026-08-03T08:43:03Z</time></trkpt>
    <trkpt lat="44.504732" lon="6.744771"><ele>1412.4</ele><time>2026-08-03T08:43:16Z</time></trkpt>
    <trkpt lat="44.506376" lon="6.745547"><ele>1418.6</ele><time>2026-08-03T08:44:04Z</time></trkpt>
    <trkpt lat="44.507290" lon="6.745642"><ele>1422.4</ele><time>2026-08-03T08:44:32Z</time></trkpt>
    <trkpt lat="44.509806" lon="6.746738"><ele>1428.0</ele><time>2026-08-03T08:45:48Z</time></trkpt>
    <trkpt lat="44.510228" lon="6.746475"><ele>1432.0</ele><time>2026-08-03T08:46:09Z</time></trkpt>
    <trkpt lat="44.510513" lon="6.745255"><ele>1440.0</ele><time>2026-08-03T08:46:50Z</time></trkpt>
    <trkpt lat="44.510553" lon="6.745189"><ele>1440.6</ele><time>2026-08-03T08:46:53Z</time></trkpt>
    <trkpt lat="44.511290" lon="6.744315"><ele>1445.8</ele><time>2026-08-03T08:47:37Z</time></trkpt>
    <trkpt lat="44.515312" lon="6.744099"><ele>1463.0</ele><time>2026-08-03T08:49:50Z</time></trkpt>
    <trkpt lat="44.515439" lon="6.744142"><ele>1463.2</ele><time>2026-08-03T08:49:54Z</time></trkpt>
    <trkpt lat="44.515612" lon="6.744622"><ele>1463.4</ele><time>2026-08-03T08:50:05Z</time></trkpt>
    <trkpt lat="44.515278" lon="6.745732"><ele>1465.0</ele><time>2026-08-03T08:50:27Z</time></trkpt>
    <trkpt lat="44.514751" lon="6.746740"><ele>1466.4</ele><time>2026-08-03T08:50:48Z</time></trkpt>
    <trkpt lat="44.514584" lon="6.748668"><ele>1468.0</ele><time>2026-08-03T08:51:17Z</time></trkpt>
    <trkpt lat="44.514606" lon="6.748771"><ele>1468.4</ele><time>2026-08-03T08:51:19Z</time></trkpt>
    <trkpt lat="44.515168" lon="6.750053"><ele>1477.2</ele><time>2026-08-03T08:51:56Z</time></trkpt>
    <trkpt lat="44.515539" lon="6.750534"><ele>1481.4</ele><time>2026-08-03T08:52:17Z</time></trkpt>
    <trkpt lat="44.517355" lon="6.751331"><ele>1495.2</ele><time>2026-08-03T08:53:41Z</time></trkpt>
    <trkpt lat="44.517602" lon="6.751925"><ele>1498.8</ele><time>2026-08-03T08:54:02Z</time></trkpt>
    <trkpt lat="44.517658" lon="6.752657"><ele>1502.4</ele><time>2026-08-03T08:54:24Z</time></trkpt>
    <trkpt lat="44.517993" lon="6.752852"><ele>1505.2</ele><time>2026-08-03T08:54:41Z</time></trkpt>
    <trkpt lat="44.518107" lon="6.752084"><ele>1509.2</ele><time>2026-08-03T09:04:53Z</time></trkpt>
    <trkpt lat="44.518043" lon="6.751562"><ele>1511.0</ele><time>2026-08-03T09:05:09Z</time></trkpt>
    <trkpt lat="44.517188" lon="6.749065"><ele>1524.8</ele><time>2026-08-03T09:06:39Z</time></trkpt>
    <trkpt lat="44.517303" lon="6.747513"><ele>1536.2</ele><time>2026-08-03T09:07:34Z</time></trkpt>
    <trkpt lat="44.518205" lon="6.745738"><ele>1551.2</ele><time>2026-08-03T09:08:51Z</time></trkpt>
    <trkpt lat="44.519729" lon="6.744308"><ele>1568.6</ele><time>2026-08-03T09:10:22Z</time></trkpt>
    <trkpt lat="44.520261" lon="6.743607"><ele>1576.0</ele><time>2026-08-03T09:10:56Z</time></trkpt>
    <trkpt lat="44.520402" lon="6.742937"><ele>1579.4</ele><time>2026-08-03T09:11:18Z</time></trkpt>
    <trkpt lat="44.520125" lon="6.741209"><ele>1587.2</ele><time>2026-08-03T09:12:09Z</time></trkpt>
    <trkpt lat="44.520215" lon="6.740780"><ele>1590.4</ele><time>2026-08-03T09:12:23Z</time></trkpt>
    <trkpt lat="44.520533" lon="6.740546"><ele>1592.6</ele><time>2026-08-03T09:12:37Z</time></trkpt>
    <trkpt lat="44.521406" lon="6.740627"><ele>1596.2</ele><time>2026-08-03T09:13:08Z</time></trkpt>
    <trkpt lat="44.522060" lon="6.739619"><ele>1603.8</ele><time>2026-08-03T09:13:51Z</time></trkpt>
    <trkpt lat="44.522829" lon="6.739368"><ele>1610.4</ele><time>2026-08-03T09:14:27Z</time></trkpt>
    <trkpt lat="44.523081" lon="6.739019"><ele>1613.8</ele><time>2026-08-03T09:14:45Z</time></trkpt>
    <trkpt lat="44.523191" lon="6.738288"><ele>1619.0</ele><time>2026-08-03T09:15:13Z</time></trkpt>
    <trkpt lat="44.523000" lon="6.737309"><ele>1624.4</ele><time>2026-08-03T09:15:46Z</time></trkpt>
    <trkpt lat="44.523437" lon="6.735289"><ele>1636.2</ele><time>2026-08-03T09:16:52Z</time></trkpt>
    <trkpt lat="44.523315" lon="6.734400"><ele>1637.6</ele><time>2026-08-03T09:17:12Z</time></trkpt>
    <trkpt lat="44.523404" lon="6.733676"><ele>1641.6</ele><time>2026-08-03T09:17:33Z</time></trkpt>
    <trkpt lat="44.523825" lon="6.732916"><ele>1650.2</ele><time>2026-08-03T09:18:05Z</time></trkpt>
    <trkpt lat="44.523916" lon="6.732821"><ele>1650.6</ele><time>2026-08-03T09:18:10Z</time></trkpt>
    <trkpt lat="44.524916" lon="6.732197"><ele>1656.6</ele><time>2026-08-03T09:18:55Z</time></trkpt>
    <trkpt lat="44.525138" lon="6.730163"><ele>1661.6</ele><time>2026-08-03T09:19:42Z</time></trkpt>
    <trkpt lat="44.525113" lon="6.729733"><ele>1662.4</ele><time>2026-08-03T09:19:51Z</time></trkpt>
    <trkpt lat="44.525099" lon="6.728672"><ele>1663.2</ele><time>2026-08-03T09:20:10Z</time></trkpt>
    <trkpt lat="44.525445" lon="6.727194"><ele>1664.4</ele><time>2026-08-03T09:20:34Z</time></trkpt>
    <trkpt lat="44.525607" lon="6.726957"><ele>1665.2</ele><time>2026-08-03T09:20:40Z</time></trkpt>
    <trkpt lat="44.526119" lon="6.726827"><ele>1666.0</ele><time>2026-08-03T09:20:51Z</time></trkpt>
    <trkpt lat="44.526415" lon="6.726343"><ele>1666.0</ele><time>2026-08-03T09:21:00Z</time></trkpt>
    <trkpt lat="44.526337" lon="6.726084"><ele>1666.0</ele><time>2026-08-03T09:21:04Z</time></trkpt>
    <trkpt lat="44.525803" lon="6.725999"><ele>1665.4</ele><time>2026-08-03T09:21:14Z</time></trkpt>
    <trkpt lat="44.525638" lon="6.725803"><ele>1665.6</ele><time>2026-08-03T09:21:18Z</time></trkpt>
    <trkpt lat="44.525480" lon="6.725079"><ele>1666.6</ele><time>2026-08-03T09:21:28Z</time></trkpt>
    <trkpt lat="44.525413" lon="6.723757"><ele>1666.4</ele><time>2026-08-03T09:21:44Z</time></trkpt>
    <trkpt lat="44.525414" lon="6.723611"><ele>1666.8</ele><time>2026-08-03T09:21:46Z</time></trkpt>
    <trkpt lat="44.525818" lon="6.721502"><ele>1684.2</ele><time>2026-08-03T09:22:58Z</time></trkpt>
    <trkpt lat="44.526575" lon="6.719400"><ele>1703.6</ele><time>2026-08-03T09:24:29Z</time></trkpt>
    <trkpt lat="44.526740" lon="6.718506"><ele>1711.6</ele><time>2026-08-03T09:25:07Z</time></trkpt>
    <trkpt lat="44.527206" lon="6.718007"><ele>1719.0</ele><time>2026-08-03T09:25:43Z</time></trkpt>
    <trkpt lat="44.526910" lon="6.717329"><ele>1724.2</ele><time>2026-08-03T09:26:15Z</time></trkpt>
    <trkpt lat="44.526994" lon="6.715112"><ele>1743.2</ele><time>2026-08-03T09:27:51Z</time></trkpt>
    <trkpt lat="44.527130" lon="6.715094"><ele>1745.6</ele><time>2026-08-03T09:28:00Z</time></trkpt>
    <trkpt lat="44.527241" lon="6.715674"><ele>1750.8</ele><time>2026-08-03T09:28:26Z</time></trkpt>
    <trkpt lat="44.527595" lon="6.716508"><ele>1760.2</ele><time>2026-08-03T09:29:09Z</time></trkpt>
    <trkpt lat="44.528031" lon="6.717430"><ele>1768.4</ele><time>2026-08-03T09:29:55Z</time></trkpt>
    <trkpt lat="44.528090" lon="6.718421"><ele>1775.2</ele><time>2026-08-03T09:30:37Z</time></trkpt>
    <trkpt lat="44.528546" lon="6.720796"><ele>1794.8</ele><time>2026-08-03T09:32:25Z</time></trkpt>
    <trkpt lat="44.528633" lon="6.722133"><ele>1805.6</ele><time>2026-08-03T09:33:24Z</time></trkpt>
    <trkpt lat="44.528852" lon="6.722218"><ele>1807.4</ele><time>2026-08-03T09:33:37Z</time></trkpt>
    <trkpt lat="44.529461" lon="6.717068"><ele>1849.4</ele><time>2026-08-03T09:37:30Z</time></trkpt>
    <trkpt lat="44.529367" lon="6.716141"><ele>1856.6</ele><time>2026-08-03T09:38:15Z</time></trkpt>
    <trkpt lat="44.529682" lon="6.713593"><ele>1878.2</ele><time>2026-08-03T09:40:12Z</time></trkpt>
    <trkpt lat="44.529689" lon="6.713550"><ele>1878.4</ele><time>2026-08-03T09:40:14Z</time></trkpt>
    <trkpt lat="44.529557" lon="6.712715"><ele>1884.6</ele><time>2026-08-03T09:40:52Z</time></trkpt>
    <trkpt lat="44.529675" lon="6.711777"><ele>1891.6</ele><time>2026-08-03T09:41:37Z</time></trkpt>
    <trkpt lat="44.530605" lon="6.710023"><ele>1906.6</ele><time>2026-08-03T09:43:06Z</time></trkpt>
    <trkpt lat="44.530769" lon="6.709968"><ele>1908.0</ele><time>2026-08-03T09:43:16Z</time></trkpt>
    <trkpt lat="44.530792" lon="6.710264"><ele>1909.0</ele><time>2026-08-03T09:43:28Z</time></trkpt>
    <trkpt lat="44.530442" lon="6.710948"><ele>1913.0</ele><time>2026-08-03T09:43:55Z</time></trkpt>
    <trkpt lat="44.530397" lon="6.711618"><ele>1916.8</ele><time>2026-08-03T09:44:19Z</time></trkpt>
    <trkpt lat="44.530919" lon="6.712995"><ele>1927.8</ele><time>2026-08-03T09:45:22Z</time></trkpt>
    <trkpt lat="44.531338" lon="6.713056"><ele>1931.4</ele><time>2026-08-03T09:45:45Z</time></trkpt>
    <trkpt lat="44.531460" lon="6.712768"><ele>1933.2</ele><time>2026-08-03T09:45:57Z</time></trkpt>
    <trkpt lat="44.531150" lon="6.711596"><ele>1941.8</ele><time>2026-08-03T09:46:48Z</time></trkpt>
    <trkpt lat="44.531199" lon="6.710950"><ele>1946.6</ele><time>2026-08-03T09:47:17Z</time></trkpt>
    <trkpt lat="44.531228" lon="6.710852"><ele>1947.6</ele><time>2026-08-03T09:47:22Z</time></trkpt>
    <trkpt lat="44.531448" lon="6.710415"><ele>1952.6</ele><time>2026-08-03T09:47:45Z</time></trkpt>
    <trkpt lat="44.532364" lon="6.709538"><ele>1965.0</ele><time>2026-08-03T09:48:51Z</time></trkpt>
    <trkpt lat="44.532952" lon="6.708422"><ele>1975.8</ele><time>2026-08-03T09:49:45Z</time></trkpt>
    <trkpt lat="44.532942" lon="6.708022"><ele>1978.4</ele><time>2026-08-03T09:50:00Z</time></trkpt>
    <trkpt lat="44.532390" lon="6.707270"><ele>1984.8</ele><time>2026-08-03T09:50:39Z</time></trkpt>
    <trkpt lat="44.532353" lon="6.705432"><ele>1995.8</ele><time>2026-08-03T09:51:42Z</time></trkpt>
    <trkpt lat="44.532144" lon="6.704520"><ele>2001.8</ele><time>2026-08-03T09:52:14Z</time></trkpt>
    <trkpt lat="44.532227" lon="6.703055"><ele>2011.2</ele><time>2026-08-03T09:53:03Z</time></trkpt>
    <trkpt lat="44.531841" lon="6.701505"><ele>2022.0</ele><time>2026-08-03T09:54:00Z</time></trkpt>
    <trkpt lat="44.532060" lon="6.701586"><ele>2023.4</ele><time>2026-08-03T09:54:11Z</time></trkpt>
    <trkpt lat="44.533116" lon="6.704658"><ele>2044.8</ele><time>2026-08-03T09:56:02Z</time></trkpt>
    <trkpt lat="44.533416" lon="6.704780"><ele>2047.4</ele><time>2026-08-03T09:56:19Z</time></trkpt>
    <trkpt lat="44.534062" lon="6.704543"><ele>2054.8</ele><time>2026-08-03T09:56:52Z</time></trkpt>
    <trkpt lat="44.534834" lon="6.704910"><ele>2063.8</ele><time>2026-08-03T09:57:40Z</time></trkpt>
    <trkpt lat="44.535366" lon="6.704709"><ele>2068.8</ele><time>2026-08-03T09:58:12Z</time></trkpt>
    <trkpt lat="44.536182" lon="6.703482"><ele>2080.8</ele><time>2026-08-03T09:59:13Z</time></trkpt>
    <trkpt lat="44.537355" lon="6.703099"><ele>2091.2</ele><time>2026-08-03T10:00:13Z</time></trkpt>
    <trkpt lat="44.537540" lon="6.703053"><ele>2093.0</ele><time>2026-08-03T10:00:22Z</time></trkpt>
    <trkpt lat="44.538676" lon="6.702977"><ele>2105.4</ele><time>2026-08-03T10:01:07Z</time></trkpt>
    <trkpt lat="44.538862" lon="6.702785"><ele>2108.2</ele><time>2026-08-03T10:01:25Z</time></trkpt>
    <trkpt lat="44.539147" lon="6.702609"><ele>2115.0</ele><time>2026-08-03T11:11:26Z</time></trkpt>
    <trkpt lat="44.539314" lon="6.702471"><ele>2115.0</ele><time>2026-08-03T11:11:34Z</time></trkpt>
    <trkpt lat="44.539942" lon="6.702279"><ele>2112.8</ele><time>2026-08-03T11:11:49Z</time></trkpt>
    <trkpt lat="44.540143" lon="6.702310"><ele>2111.8</ele><time>2026-08-03T11:11:52Z</time></trkpt>
    <trkpt lat="44.540632" lon="6.702555"><ele>2107.0</ele><time>2026-08-03T11:11:57Z</time></trkpt>
    <trkpt lat="44.541582" lon="6.702594"><ele>2098.6</ele><time>2026-08-03T11:12:04Z</time></trkpt>
    <trkpt lat="44.541931" lon="6.702748"><ele>2096.2</ele><time>2026-08-03T11:12:07Z</time></trkpt>
    <trkpt lat="44.542405" lon="6.702963"><ele>2093.6</ele><time>2026-08-03T11:12:11Z</time></trkpt>
    <trkpt lat="44.544530" lon="6.702518"><ele>2086.2</ele><time>2026-08-03T11:12:30Z</time></trkpt>
    <trkpt lat="44.545441" lon="6.702207"><ele>2079.0</ele><time>2026-08-03T11:12:37Z</time></trkpt>
    <trkpt lat="44.546973" lon="6.702396"><ele>2070.6</ele><time>2026-08-03T11:12:49Z</time></trkpt>
    <trkpt lat="44.547817" lon="6.702836"><ele>2065.8</ele><time>2026-08-03T11:12:56Z</time></trkpt>
    <trkpt lat="44.548180" lon="6.702775"><ele>2063.6</ele><time>2026-08-03T11:12:59Z</time></trkpt>
    <trkpt lat="44.549313" lon="6.701907"><ele>2057.2</ele><time>2026-08-03T11:13:09Z</time></trkpt>
    <trkpt lat="44.551228" lon="6.700511"><ele>2038.0</ele><time>2026-08-03T11:13:25Z</time></trkpt>
    <trkpt lat="44.552455" lon="6.700454"><ele>2025.4</ele><time>2026-08-03T11:13:35Z</time></trkpt>
    <trkpt lat="44.552924" lon="6.699538"><ele>2018.2</ele><time>2026-08-03T11:13:42Z</time></trkpt>
    <trkpt lat="44.553401" lon="6.699188"><ele>2014.2</ele><time>2026-08-03T11:13:46Z</time></trkpt>
    <trkpt lat="44.554370" lon="6.698933"><ele>2008.8</ele><time>2026-08-03T11:13:53Z</time></trkpt>
    <trkpt lat="44.555034" lon="6.698772"><ele>2006.4</ele><time>2026-08-03T11:13:58Z</time></trkpt>
    <trkpt lat="44.555618" lon="6.698387"><ele>2004.8</ele><time>2026-08-03T11:14:03Z</time></trkpt>
    <trkpt lat="44.556385" lon="6.697319"><ele>2002.0</ele><time>2026-08-03T11:14:12Z</time></trkpt>
    <trkpt lat="44.557057" lon="6.695180"><ele>1999.6</ele><time>2026-08-03T11:14:33Z</time></trkpt>
    <trkpt lat="44.557458" lon="6.694394"><ele>1999.2</ele><time>2026-08-03T11:14:42Z</time></trkpt>
    <trkpt lat="44.558587" lon="6.693345"><ele>1996.6</ele><time>2026-08-03T11:14:58Z</time></trkpt>
    <trkpt lat="44.560030" lon="6.691998"><ele>1982.6</ele><time>2026-08-03T11:15:12Z</time></trkpt>
    <trkpt lat="44.560635" lon="6.690720"><ele>1970.0</ele><time>2026-08-03T11:15:20Z</time></trkpt>
    <trkpt lat="44.561145" lon="6.690280"><ele>1965.8</ele><time>2026-08-03T11:15:24Z</time></trkpt>
    <trkpt lat="44.561762" lon="6.689784"><ele>1964.0</ele><time>2026-08-03T11:15:29Z</time></trkpt>
    <trkpt lat="44.563009" lon="6.689290"><ele>1964.8</ele><time>2026-08-03T11:15:41Z</time></trkpt>
    <trkpt lat="44.563499" lon="6.688671"><ele>1964.8</ele><time>2026-08-03T11:15:48Z</time></trkpt>
    <trkpt lat="44.564026" lon="6.687901"><ele>1962.0</ele><time>2026-08-03T11:15:55Z</time></trkpt>
    <trkpt lat="44.565161" lon="6.687377"><ele>1952.8</ele><time>2026-08-03T11:16:04Z</time></trkpt>
    <trkpt lat="44.565657" lon="6.686730"><ele>1948.0</ele><time>2026-08-03T11:16:09Z</time></trkpt>
    <trkpt lat="44.566474" lon="6.685949"><ele>1946.0</ele><time>2026-08-03T11:16:20Z</time></trkpt>
    <trkpt lat="44.567097" lon="6.685036"><ele>1942.2</ele><time>2026-08-03T11:16:32Z</time></trkpt>
    <trkpt lat="44.567556" lon="6.685043"><ele>1940.0</ele><time>2026-08-03T11:16:37Z</time></trkpt>
    <trkpt lat="44.568184" lon="6.685044"><ele>1935.2</ele><time>2026-08-03T11:16:43Z</time></trkpt>
    <trkpt lat="44.569404" lon="6.684420"><ele>1924.8</ele><time>2026-08-03T11:16:55Z</time></trkpt>
    <trkpt lat="44.569476" lon="6.684194"><ele>1923.2</ele><time>2026-08-03T11:16:57Z</time></trkpt>
    <trkpt lat="44.569180" lon="6.683512"><ele>1916.4</ele><time>2026-08-03T11:17:03Z</time></trkpt>
    <trkpt lat="44.569233" lon="6.683186"><ele>1913.4</ele><time>2026-08-03T11:17:06Z</time></trkpt>
    <trkpt lat="44.569724" lon="6.682646"><ele>1908.0</ele><time>2026-08-03T11:17:13Z</time></trkpt>
    <trkpt lat="44.570671" lon="6.682820"><ele>1900.8</ele><time>2026-08-03T11:17:25Z</time></trkpt>
    <trkpt lat="44.571144" lon="6.682606"><ele>1896.2</ele><time>2026-08-03T11:17:30Z</time></trkpt>
    <trkpt lat="44.571669" lon="6.681894"><ele>1889.8</ele><time>2026-08-03T11:17:37Z</time></trkpt>
    <trkpt lat="44.571677" lon="6.680734"><ele>1881.8</ele><time>2026-08-03T11:17:46Z</time></trkpt>
    <trkpt lat="44.571690" lon="6.680611"><ele>1881.2</ele><time>2026-08-03T11:17:47Z</time></trkpt>
    <trkpt lat="44.572028" lon="6.680088"><ele>1877.0</ele><time>2026-08-03T11:17:53Z</time></trkpt>
    <trkpt lat="44.572806" lon="6.680131"><ele>1872.4</ele><time>2026-08-03T11:18:04Z</time></trkpt>
    <trkpt lat="44.573333" lon="6.681635"><ele>1862.6</ele><time>2026-08-03T11:18:18Z</time></trkpt>
    <trkpt lat="44.573622" lon="6.681973"><ele>1860.0</ele><time>2026-08-03T11:18:22Z</time></trkpt>
    <trkpt lat="44.574794" lon="6.681827"><ele>1848.8</ele><time>2026-08-03T11:19:15Z</time></trkpt>
    <trkpt lat="44.574964" lon="6.681855"><ele>1847.8</ele><time>2026-08-03T11:19:17Z</time></trkpt>
    <trkpt lat="44.575631" lon="6.682126"><ele>1841.6</ele><time>2026-08-03T11:19:24Z</time></trkpt>
    <trkpt lat="44.576432" lon="6.682094"><ele>1835.0</ele><time>2026-08-03T11:19:31Z</time></trkpt>
    <trkpt lat="44.577621" lon="6.682960"><ele>1824.4</ele><time>2026-08-03T11:19:42Z</time></trkpt>
    <trkpt lat="44.578299" lon="6.682908"><ele>1818.2</ele><time>2026-08-03T11:19:50Z</time></trkpt>
    <trkpt lat="44.579106" lon="6.684130"><ele>1810.4</ele><time>2026-08-03T11:20:02Z</time></trkpt>
    <trkpt lat="44.579349" lon="6.684289"><ele>1809.0</ele><time>2026-08-03T11:20:04Z</time></trkpt>
    <trkpt lat="44.580170" lon="6.684520"><ele>1801.6</ele><time>2026-08-03T11:20:10Z</time></trkpt>
    <trkpt lat="44.580677" lon="6.684430"><ele>1798.0</ele><time>2026-08-03T11:20:14Z</time></trkpt>
    <trkpt lat="44.582991" lon="6.682887"><ele>1782.8</ele><time>2026-08-03T11:20:33Z</time></trkpt>
    <trkpt lat="44.583497" lon="6.682878"><ele>1777.8</ele><time>2026-08-03T11:20:37Z</time></trkpt>
    <trkpt lat="44.584555" lon="6.683646"><ele>1769.8</ele><time>2026-08-03T11:20:46Z</time></trkpt>
    <trkpt lat="44.585800" lon="6.685298"><ele>1757.8</ele><time>2026-08-03T11:20:58Z</time></trkpt>
    <trkpt lat="44.586737" lon="6.686734"><ele>1745.0</ele><time>2026-08-03T11:21:08Z</time></trkpt>
    <trkpt lat="44.588740" lon="6.687758"><ele>1727.4</ele><time>2026-08-03T11:21:22Z</time></trkpt>
    <trkpt lat="44.590758" lon="6.687782"><ele>1707.8</ele><time>2026-08-03T11:21:38Z</time></trkpt>
    <trkpt lat="44.591005" lon="6.688016"><ele>1705.6</ele><time>2026-08-03T11:21:41Z</time></trkpt>
    <trkpt lat="44.591287" lon="6.688772"><ele>1700.0</ele><time>2026-08-03T11:21:47Z</time></trkpt>
    <trkpt lat="44.592124" lon="6.688923"><ele>1693.2</ele><time>2026-08-03T11:21:55Z</time></trkpt>
    <trkpt lat="44.592744" lon="6.689407"><ele>1686.8</ele><time>2026-08-03T11:22:02Z</time></trkpt>
    <trkpt lat="44.593759" lon="6.689471"><ele>1678.8</ele><time>2026-08-03T11:22:12Z</time></trkpt>
    <trkpt lat="44.593991" lon="6.689499"><ele>1677.8</ele><time>2026-08-03T11:22:15Z</time></trkpt>
    <trkpt lat="44.594684" lon="6.689937"><ele>1676.6</ele><time>2026-08-03T11:22:25Z</time></trkpt>
    <trkpt lat="44.595588" lon="6.689918"><ele>1675.6</ele><time>2026-08-03T11:22:38Z</time></trkpt>
    <trkpt lat="44.596523" lon="6.690041"><ele>1680.6</ele><time>2026-08-03T11:23:01Z</time></trkpt>
    <trkpt lat="44.597127" lon="6.689940"><ele>1683.8</ele><time>2026-08-03T11:23:17Z</time></trkpt>
    <trkpt lat="44.598160" lon="6.689806"><ele>1683.0</ele><time>2026-08-03T11:23:48Z</time></trkpt>
    <trkpt lat="44.598167" lon="6.689804"><ele>1683.0</ele><time>2026-08-03T11:23:50Z</time></trkpt>
    <trkpt lat="44.598095" lon="6.689686"><ele>1681.6</ele><time>2026-08-03T11:24:23Z</time></trkpt>
    <trkpt lat="44.598095" lon="6.689686"><ele>1681.6</ele><time>2026-08-03T11:24:24Z</time></trkpt>
    <trkpt lat="44.598129" lon="6.689803"><ele>1676.2</ele><time>2026-08-03T11:30:53Z</time></trkpt>
    <trkpt lat="44.598135" lon="6.689813"><ele>1676.2</ele><time>2026-08-03T11:30:56Z</time></trkpt>
    <trkpt lat="44.599763" lon="6.689925"><ele>1668.6</ele><time>2026-08-03T11:31:32Z</time></trkpt>
    <trkpt lat="44.601794" lon="6.689067"><ele>1664.4</ele><time>2026-08-03T11:31:53Z</time></trkpt>
    <trkpt lat="44.602209" lon="6.689027"><ele>1663.4</ele><time>2026-08-03T11:31:57Z</time></trkpt>
    <trkpt lat="44.602786" lon="6.689063"><ele>1660.0</ele><time>2026-08-03T11:32:02Z</time></trkpt>
    <trkpt lat="44.603474" lon="6.688629"><ele>1654.8</ele><time>2026-08-03T11:32:08Z</time></trkpt>
    <trkpt lat="44.604291" lon="6.688739"><ele>1649.6</ele><time>2026-08-03T11:32:14Z</time></trkpt>
    <trkpt lat="44.605133" lon="6.689404"><ele>1644.4</ele><time>2026-08-03T11:32:21Z</time></trkpt>
    <trkpt lat="44.606450" lon="6.688813"><ele>1642.2</ele><time>2026-08-03T11:32:32Z</time></trkpt>
    <trkpt lat="44.607529" lon="6.688407"><ele>1642.2</ele><time>2026-08-03T11:32:42Z</time></trkpt>
    <trkpt lat="44.609265" lon="6.688513"><ele>1647.4</ele><time>2026-08-03T11:33:07Z</time></trkpt>
    <trkpt lat="44.609852" lon="6.688519"><ele>1647.2</ele><time>2026-08-03T11:33:18Z</time></trkpt>
    <trkpt lat="44.610146" lon="6.688071"><ele>1647.2</ele><time>2026-08-03T11:33:26Z</time></trkpt>
    <trkpt lat="44.612165" lon="6.687198"><ele>1644.4</ele><time>2026-08-03T11:34:00Z</time></trkpt>
    <trkpt lat="44.613215" lon="6.686962"><ele>1644.6</ele><time>2026-08-03T11:34:14Z</time></trkpt>
    <trkpt lat="44.613273" lon="6.686922"><ele>1644.6</ele><time>2026-08-03T11:34:15Z</time></trkpt>
    <trkpt lat="44.614098" lon="6.685947"><ele>1649.4</ele><time>2026-08-03T11:34:35Z</time></trkpt>
    <trkpt lat="44.614809" lon="6.685728"><ele>1654.0</ele><time>2026-08-03T11:35:49Z</time></trkpt>
    <trkpt lat="44.615544" lon="6.685850"><ele>1659.6</ele><time>2026-08-03T11:36:17Z</time></trkpt>
    <trkpt lat="44.615651" lon="6.685843"><ele>1660.0</ele><time>2026-08-03T11:36:21Z</time></trkpt>
    <trkpt lat="44.616925" lon="6.685282"><ele>1661.6</ele><time>2026-08-03T11:36:56Z</time></trkpt>
    <trkpt lat="44.617953" lon="6.684343"><ele>1663.6</ele><time>2026-08-03T11:37:26Z</time></trkpt>
    <trkpt lat="44.618078" lon="6.684230"><ele>1663.2</ele><time>2026-08-03T11:37:29Z</time></trkpt>
    <trkpt lat="44.618575" lon="6.683975"><ele>1661.8</ele><time>2026-08-03T11:37:38Z</time></trkpt>
    <trkpt lat="44.619110" lon="6.683971"><ele>1660.0</ele><time>2026-08-03T11:37:46Z</time></trkpt>
    <trkpt lat="44.619656" lon="6.683655"><ele>1658.0</ele><time>2026-08-03T11:37:54Z</time></trkpt>
    <trkpt lat="44.619825" lon="6.683691"><ele>1657.2</ele><time>2026-08-03T11:37:56Z</time></trkpt>
    <trkpt lat="44.620925" lon="6.684151"><ele>1650.0</ele><time>2026-08-03T11:38:08Z</time></trkpt>
    <trkpt lat="44.621244" lon="6.683908"><ele>1648.2</ele><time>2026-08-03T11:38:13Z</time></trkpt>
    <trkpt lat="44.621595" lon="6.683239"><ele>1643.8</ele><time>2026-08-03T11:38:21Z</time></trkpt>
    <trkpt lat="44.621934" lon="6.683013"><ele>1640.4</ele><time>2026-08-03T11:38:25Z</time></trkpt>
    <trkpt lat="44.623040" lon="6.683170"><ele>1633.0</ele><time>2026-08-03T11:38:35Z</time></trkpt>
    <trkpt lat="44.623772" lon="6.683245"><ele>1632.6</ele><time>2026-08-03T11:38:42Z</time></trkpt>
    <trkpt lat="44.624240" lon="6.683515"><ele>1631.8</ele><time>2026-08-03T11:38:47Z</time></trkpt>
    <trkpt lat="44.624531" lon="6.683425"><ele>1631.6</ele><time>2026-08-03T11:38:50Z</time></trkpt>
    <trkpt lat="44.624857" lon="6.683188"><ele>1631.4</ele><time>2026-08-03T11:38:54Z</time></trkpt>
    <trkpt lat="44.625666" lon="6.681770"><ele>1631.6</ele><time>2026-08-03T11:39:12Z</time></trkpt>
    <trkpt lat="44.625613" lon="6.680952"><ele>1629.6</ele><time>2026-08-03T11:39:20Z</time></trkpt>
    <trkpt lat="44.625712" lon="6.680608"><ele>1629.0</ele><time>2026-08-03T11:39:23Z</time></trkpt>
    <trkpt lat="44.626430" lon="6.680097"><ele>1626.2</ele><time>2026-08-03T11:39:32Z</time></trkpt>
    <trkpt lat="44.627187" lon="6.680184"><ele>1625.4</ele><time>2026-08-03T11:39:41Z</time></trkpt>
    <trkpt lat="44.627670" lon="6.681042"><ele>1621.4</ele><time>2026-08-03T11:39:50Z</time></trkpt>
    <trkpt lat="44.627942" lon="6.681147"><ele>1620.0</ele><time>2026-08-03T11:39:53Z</time></trkpt>
    <trkpt lat="44.628032" lon="6.681104"><ele>1619.4</ele><time>2026-08-03T11:39:54Z</time></trkpt>
    <trkpt lat="44.628755" lon="6.680313"><ele>1612.4</ele><time>2026-08-03T11:40:02Z</time></trkpt>
    <trkpt lat="44.629379" lon="6.678968"><ele>1601.2</ele><time>2026-08-03T11:40:12Z</time></trkpt>
    <trkpt lat="44.630666" lon="6.677576"><ele>1587.4</ele><time>2026-08-03T11:40:25Z</time></trkpt>
    <trkpt lat="44.631344" lon="6.677340"><ele>1582.8</ele><time>2026-08-03T11:40:31Z</time></trkpt>
    <trkpt lat="44.631932" lon="6.676667"><ele>1575.8</ele><time>2026-08-03T11:40:37Z</time></trkpt>
    <trkpt lat="44.633298" lon="6.676730"><ele>1564.8</ele><time>2026-08-03T11:40:47Z</time></trkpt>
    <trkpt lat="44.634512" lon="6.675144"><ele>1551.0</ele><time>2026-08-03T11:40:59Z</time></trkpt>
    <trkpt lat="44.634725" lon="6.674436"><ele>1546.8</ele><time>2026-08-03T11:41:03Z</time></trkpt>
    <trkpt lat="44.634578" lon="6.673177"><ele>1539.2</ele><time>2026-08-03T11:41:10Z</time></trkpt>
    <trkpt lat="44.633915" lon="6.672219"><ele>1530.8</ele><time>2026-08-03T11:41:17Z</time></trkpt>
    <trkpt lat="44.633824" lon="6.672106"><ele>1530.2</ele><time>2026-08-03T11:41:18Z</time></trkpt>
    <trkpt lat="44.633110" lon="6.671799"><ele>1527.8</ele><time>2026-08-03T11:41:26Z</time></trkpt>
    <trkpt lat="44.633049" lon="6.671438"><ele>1526.8</ele><time>2026-08-03T11:41:29Z</time></trkpt>
    <trkpt lat="44.633195" lon="6.671075"><ele>1525.6</ele><time>2026-08-03T11:41:32Z</time></trkpt>
    <trkpt lat="44.633465" lon="6.670846"><ele>1524.0</ele><time>2026-08-03T11:41:35Z</time></trkpt>
    <trkpt lat="44.634989" lon="6.669696"><ele>1509.0</ele><time>2026-08-03T11:41:50Z</time></trkpt>
    <trkpt lat="44.636389" lon="6.670035"><ele>1497.2</ele><time>2026-08-03T11:42:02Z</time></trkpt>
    <trkpt lat="44.637568" lon="6.669892"><ele>1486.8</ele><time>2026-08-03T11:42:13Z</time></trkpt>
    <trkpt lat="44.637741" lon="6.669656"><ele>1485.0</ele><time>2026-08-03T11:42:16Z</time></trkpt>
    <trkpt lat="44.637637" lon="6.669371"><ele>1482.8</ele><time>2026-08-03T11:42:19Z</time></trkpt>
    <trkpt lat="44.636937" lon="6.669323"><ele>1477.2</ele><time>2026-08-03T11:42:28Z</time></trkpt>
    <trkpt lat="44.636400" lon="6.669011"><ele>1474.0</ele><time>2026-08-03T11:42:36Z</time></trkpt>
    <trkpt lat="44.636192" lon="6.668814"><ele>1472.4</ele><time>2026-08-03T11:42:40Z</time></trkpt>
    <trkpt lat="44.636245" lon="6.668462"><ele>1470.2</ele><time>2026-08-03T11:42:44Z</time></trkpt>
    <trkpt lat="44.637181" lon="6.668536"><ele>1463.6</ele><time>2026-08-03T11:42:54Z</time></trkpt>
    <trkpt lat="44.637560" lon="6.668342"><ele>1461.6</ele><time>2026-08-03T11:42:58Z</time></trkpt>
    <trkpt lat="44.638289" lon="6.668000"><ele>1455.2</ele><time>2026-08-03T11:43:05Z</time></trkpt>
    <trkpt lat="44.638797" lon="6.667398"><ele>1450.4</ele><time>2026-08-03T11:43:12Z</time></trkpt>
    <trkpt lat="44.639932" lon="6.667387"><ele>1440.2</ele><time>2026-08-03T11:43:25Z</time></trkpt>
    <trkpt lat="44.639988" lon="6.667179"><ele>1439.0</ele><time>2026-08-03T11:43:27Z</time></trkpt>
    <trkpt lat="44.639837" lon="6.666945"><ele>1437.0</ele><time>2026-08-03T11:43:30Z</time></trkpt>
    <trkpt lat="44.638180" lon="6.666200"><ele>1419.4</ele><time>2026-08-03T11:43:47Z</time></trkpt>
    <trkpt lat="44.637449" lon="6.666198"><ele>1412.4</ele><time>2026-08-03T11:43:56Z</time></trkpt>
    <trkpt lat="44.637345" lon="6.666003"><ele>1410.6</ele><time>2026-08-03T11:43:59Z</time></trkpt>
    <trkpt lat="44.637419" lon="6.665827"><ele>1408.8</ele><time>2026-08-03T11:44:01Z</time></trkpt>
    <trkpt lat="44.637577" lon="6.665763"><ele>1407.0</ele><time>2026-08-03T11:44:03Z</time></trkpt>
    <trkpt lat="44.639436" lon="6.665522"><ele>1388.2</ele><time>2026-08-03T11:44:21Z</time></trkpt>
    <trkpt lat="44.640424" lon="6.665765"><ele>1379.0</ele><time>2026-08-03T11:44:30Z</time></trkpt>
    <trkpt lat="44.641129" lon="6.665284"><ele>1371.6</ele><time>2026-08-03T11:44:37Z</time></trkpt>
    <trkpt lat="44.641807" lon="6.663450"><ele>1355.8</ele><time>2026-08-03T11:44:51Z</time></trkpt>
    <trkpt lat="44.642443" lon="6.663385"><ele>1349.2</ele><time>2026-08-03T11:44:57Z</time></trkpt>
    <trkpt lat="44.643262" lon="6.662881"><ele>1339.4</ele><time>2026-08-03T11:45:05Z</time></trkpt>
    <trkpt lat="44.643312" lon="6.662513"><ele>1336.2</ele><time>2026-08-03T11:45:08Z</time></trkpt>
    <trkpt lat="44.643098" lon="6.662318"><ele>1333.6</ele><time>2026-08-03T11:45:11Z</time></trkpt>
    <trkpt lat="44.641857" lon="6.662701"><ele>1320.0</ele><time>2026-08-03T11:45:23Z</time></trkpt>
    <trkpt lat="44.641279" lon="6.662667"><ele>1313.6</ele><time>2026-08-03T11:45:29Z</time></trkpt>
    <trkpt lat="44.641109" lon="6.662334"><ele>1310.0</ele><time>2026-08-03T11:45:33Z</time></trkpt>
    <trkpt lat="44.641249" lon="6.662066"><ele>1306.8</ele><time>2026-08-03T11:45:36Z</time></trkpt>
    <trkpt lat="44.642131" lon="6.662159"><ele>1297.6</ele><time>2026-08-03T11:45:46Z</time></trkpt>
    <trkpt lat="44.642238" lon="6.662160"><ele>1296.4</ele><time>2026-08-03T11:45:47Z</time></trkpt>
    <trkpt lat="44.643017" lon="6.661745"><ele>1288.2</ele><time>2026-08-03T11:45:54Z</time></trkpt>
    <trkpt lat="44.643205" lon="6.660791"><ele>1280.0</ele><time>2026-08-03T11:46:01Z</time></trkpt>
    <trkpt lat="44.643870" lon="6.659667"><ele>1268.8</ele><time>2026-08-03T11:46:09Z</time></trkpt>
    <trkpt lat="44.644991" lon="6.658672"><ele>1254.8</ele><time>2026-08-03T11:46:18Z</time></trkpt>
    <trkpt lat="44.645094" lon="6.658553"><ele>1253.8</ele><time>2026-08-03T11:46:19Z</time></trkpt>
    <trkpt lat="44.645904" lon="6.657002"><ele>1243.2</ele><time>2026-08-03T11:46:30Z</time></trkpt>
    <trkpt lat="44.645925" lon="6.656630"><ele>1240.6</ele><time>2026-08-03T11:46:33Z</time></trkpt>
    <trkpt lat="44.645691" lon="6.656479"><ele>1238.8</ele><time>2026-08-03T11:46:36Z</time></trkpt>
    <trkpt lat="44.644753" lon="6.656751"><ele>1235.8</ele><time>2026-08-03T11:46:46Z</time></trkpt>
    <trkpt lat="44.643908" lon="6.657347"><ele>1232.6</ele><time>2026-08-03T11:46:57Z</time></trkpt>
    <trkpt lat="44.643696" lon="6.657235"><ele>1231.6</ele><time>2026-08-03T11:47:01Z</time></trkpt>
    <trkpt lat="44.643768" lon="6.656946"><ele>1229.2</ele><time>2026-08-03T11:47:04Z</time></trkpt>
    <trkpt lat="44.644701" lon="6.656362"><ele>1220.2</ele><time>2026-08-03T11:47:14Z</time></trkpt>
    <trkpt lat="44.645392" lon="6.655648"><ele>1213.6</ele><time>2026-08-03T11:47:22Z</time></trkpt>
    <trkpt lat="44.645579" lon="6.655514"><ele>1211.4</ele><time>2026-08-03T11:47:24Z</time></trkpt>
    <trkpt lat="44.647484" lon="6.655569"><ele>1194.0</ele><time>2026-08-03T11:47:39Z</time></trkpt>
    <trkpt lat="44.648505" lon="6.655323"><ele>1184.2</ele><time>2026-08-03T11:47:47Z</time></trkpt>
    <trkpt lat="44.649912" lon="6.654521"><ele>1168.8</ele><time>2026-08-03T11:47:59Z</time></trkpt>
    <trkpt lat="44.650101" lon="6.654072"><ele>1165.2</ele><time>2026-08-03T11:48:02Z</time></trkpt>
    <trkpt lat="44.650112" lon="6.653115"><ele>1159.0</ele><time>2026-08-03T11:48:08Z</time></trkpt>
    <trkpt lat="44.650616" lon="6.652215"><ele>1151.0</ele><time>2026-08-03T11:48:15Z</time></trkpt>
    <trkpt lat="44.650497" lon="6.651015"><ele>1143.2</ele><time>2026-08-03T11:48:22Z</time></trkpt>
    <trkpt lat="44.650762" lon="6.650546"><ele>1138.6</ele><time>2026-08-03T11:48:26Z</time></trkpt>
    <trkpt lat="44.651477" lon="6.650605"><ele>1131.8</ele><time>2026-08-03T11:48:32Z</time></trkpt>
    <trkpt lat="44.652885" lon="6.649920"><ele>1117.6</ele><time>2026-08-03T11:48:45Z</time></trkpt>
    <trkpt lat="44.653110" lon="6.650324"><ele>1113.4</ele><time>2026-08-03T11:48:49Z</time></trkpt>
    <trkpt lat="44.653347" lon="6.651844"><ele>1103.2</ele><time>2026-08-03T11:48:58Z</time></trkpt>
    <trkpt lat="44.653418" lon="6.652000"><ele>1102.0</ele><time>2026-08-03T11:48:59Z</time></trkpt>
    <trkpt lat="44.653731" lon="6.652183"><ele>1099.2</ele><time>2026-08-03T11:49:02Z</time></trkpt>
    <trkpt lat="44.654217" lon="6.651707"><ele>1095.0</ele><time>2026-08-03T11:49:07Z</time></trkpt>
    <trkpt lat="44.654326" lon="6.650888"><ele>1090.0</ele><time>2026-08-03T11:49:12Z</time></trkpt>
    <trkpt lat="44.654231" lon="6.650435"><ele>1086.8</ele><time>2026-08-03T11:49:15Z</time></trkpt>
    <trkpt lat="44.653826" lon="6.650026"><ele>1082.4</ele><time>2026-08-03T11:49:20Z</time></trkpt>
    <trkpt lat="44.653848" lon="6.649691"><ele>1080.8</ele><time>2026-08-03T11:49:23Z</time></trkpt>
    <trkpt lat="44.654896" lon="6.649730"><ele>1072.6</ele><time>2026-08-03T11:49:34Z</time></trkpt>
    <trkpt lat="44.655567" lon="6.650941"><ele>1062.8</ele><time>2026-08-03T11:49:45Z</time></trkpt>
    <trkpt lat="44.655487" lon="6.651234"><ele>1060.8</ele><time>2026-08-03T11:49:48Z</time></trkpt>
    <trkpt lat="44.654849" lon="6.651778"><ele>1056.2</ele><time>2026-08-03T11:50:02Z</time></trkpt>
    <trkpt lat="44.654814" lon="6.651977"><ele>1055.8</ele><time>2026-08-03T11:50:05Z</time></trkpt>
    <trkpt lat="44.655577" lon="6.652659"><ele>1051.0</ele><time>2026-08-03T11:50:21Z</time></trkpt>
    <trkpt lat="44.656477" lon="6.652170"><ele>1042.8</ele><time>2026-08-03T11:50:34Z</time></trkpt>
    <trkpt lat="44.656957" lon="6.651430"><ele>1036.6</ele><time>2026-08-03T11:50:44Z</time></trkpt>
    <trkpt lat="44.657738" lon="6.650776"><ele>1031.6</ele><time>2026-08-03T11:50:56Z</time></trkpt>
    <trkpt lat="44.658354" lon="6.650211"><ele>1026.4</ele><time>2026-08-03T11:51:04Z</time></trkpt>
    <trkpt lat="44.658434" lon="6.649658"><ele>1022.8</ele><time>2026-08-03T11:51:08Z</time></trkpt>
    <trkpt lat="44.657936" lon="6.646198"><ele>1001.8</ele><time>2026-08-03T11:51:28Z</time></trkpt>
    <trkpt lat="44.657926" lon="6.645604"><ele>998.0</ele><time>2026-08-03T11:51:32Z</time></trkpt>
    <trkpt lat="44.657935" lon="6.645481"><ele>997.4</ele><time>2026-08-03T11:51:33Z</time></trkpt>
    <trkpt lat="44.658122" lon="6.645116"><ele>995.2</ele><time>2026-08-03T11:51:37Z</time></trkpt>
    <trkpt lat="44.658139" lon="6.644478"><ele>992.8</ele><time>2026-08-03T11:51:43Z</time></trkpt>
    <trkpt lat="44.658334" lon="6.643605"><ele>989.4</ele><time>2026-08-03T11:51:50Z</time></trkpt>
    <trkpt lat="44.658425" lon="6.643254"><ele>989.2</ele><time>2026-08-03T11:51:53Z</time></trkpt>
    <trkpt lat="44.659171" lon="6.642129"><ele>994.0</ele><time>2026-08-03T11:52:13Z</time></trkpt>
    <trkpt lat="44.659503" lon="6.641974"><ele>994.8</ele><time>2026-08-03T11:52:22Z</time></trkpt>
    <trkpt lat="44.659526" lon="6.641743"><ele>994.8</ele><time>2026-08-03T11:52:25Z</time></trkpt>
    <trkpt lat="44.659968" lon="6.640364"><ele>989.0</ele><time>2026-08-03T11:52:39Z</time></trkpt>
    <trkpt lat="44.659793" lon="6.638765"><ele>983.6</ele><time>2026-08-03T11:52:51Z</time></trkpt>
    <trkpt lat="44.659904" lon="6.637269"><ele>978.0</ele><time>2026-08-03T11:53:01Z</time></trkpt>
    <trkpt lat="44.658451" lon="6.633544"><ele>963.4</ele><time>2026-08-03T11:53:27Z</time></trkpt>
    <trkpt lat="44.658547" lon="6.632937"><ele>961.2</ele><time>2026-08-03T11:53:31Z</time></trkpt>
    <trkpt lat="44.659479" lon="6.631367"><ele>954.2</ele><time>2026-08-03T11:53:43Z</time></trkpt>
    <trkpt lat="44.659803" lon="6.630130"><ele>950.0</ele><time>2026-08-03T11:53:51Z</time></trkpt>
    <trkpt lat="44.659592" lon="6.625331"><ele>933.0</ele><time>2026-08-03T11:54:20Z</time></trkpt>
    <trkpt lat="44.659471" lon="6.622991"><ele>930.0</ele><time>2026-08-03T11:54:37Z</time></trkpt>
    <trkpt lat="44.659546" lon="6.621904"><ele>930.2</ele><time>2026-08-03T11:54:47Z</time></trkpt>
    <trkpt lat="44.659934" lon="6.620702"><ele>930.0</ele><time>2026-08-03T11:55:01Z</time></trkpt>
    <trkpt lat="44.660420" lon="6.619933"><ele>928.4</ele><time>2026-08-03T11:55:11Z</time></trkpt>
    <trkpt lat="44.660843" lon="6.619491"><ele>927.4</ele><time>2026-08-03T11:55:18Z</time></trkpt>
    <trkpt lat="44.661621" lon="6.618709"><ele>922.8</ele><time>2026-08-03T11:55:30Z</time></trkpt>
    <trkpt lat="44.662017" lon="6.618512"><ele>920.2</ele><time>2026-08-03T11:55:36Z</time></trkpt>
    <trkpt lat="44.662245" lon="6.618097"><ele>919.2</ele><time>2026-08-03T11:55:41Z</time></trkpt>
    <trkpt lat="44.664376" lon="6.615954"><ele>910.8</ele><time>2026-08-03T11:56:10Z</time></trkpt>
    <trkpt lat="44.665106" lon="6.615230"><ele>910.8</ele><time>2026-08-03T11:56:21Z</time></trkpt>
    <trkpt lat="44.665497" lon="6.614947"><ele>911.0</ele><time>2026-08-03T11:56:27Z</time></trkpt>
    <trkpt lat="44.665751" lon="6.614966"><ele>911.2</ele><time>2026-08-03T11:56:31Z</time></trkpt>
    <trkpt lat="44.667053" lon="6.617150"><ele>911.0</ele><time>2026-08-03T11:57:01Z</time></trkpt>
    <trkpt lat="44.667106" lon="6.617214"><ele>911.0</ele><time>2026-08-03T11:57:02Z</time></trkpt>
    <trkpt lat="44.668322" lon="6.618200"><ele>907.0</ele><time>2026-08-03T11:57:20Z</time></trkpt>
    <trkpt lat="44.669498" lon="6.618541"><ele>905.8</ele><time>2026-08-03T11:57:35Z</time></trkpt>
    <trkpt lat="44.671271" lon="6.618350"><ele>903.2</ele><time>2026-08-03T11:57:56Z</time></trkpt>
    <trkpt lat="44.673445" lon="6.617568"><ele>900.0</ele><time>2026-08-03T11:58:22Z</time></trkpt>
    <trkpt lat="44.673776" lon="6.617475"><ele>899.4</ele><time>2026-08-03T11:58:26Z</time></trkpt>
    <trkpt lat="44.679947" lon="6.615730"><ele>900.2</ele><time>2026-08-03T11:59:54Z</time></trkpt>
    <trkpt lat="44.690846" lon="6.612571"><ele>934.8</ele><time>2026-08-03T12:04:20Z</time></trkpt>
    <trkpt lat="44.693458" lon="6.611806"><ele>931.6</ele><time>2026-08-03T12:04:59Z</time></trkpt>
    <trkpt lat="44.698860" lon="6.610254"><ele>906.2</ele><time>2026-08-03T12:05:45Z</time></trkpt>
    <trkpt lat="44.699112" lon="6.610184"><ele>906.2</ele><time>2026-08-03T12:05:47Z</time></trkpt>
    <trkpt lat="44.700389" lon="6.609564"><ele>906.6</ele><time>2026-08-03T12:06:00Z</time></trkpt>
    <trkpt lat="44.700734" lon="6.609711"><ele>907.8</ele><time>2026-08-03T12:06:05Z</time></trkpt>
    <trkpt lat="44.702430" lon="6.609379"><ele>914.0</ele><time>2026-08-03T12:07:57Z</time></trkpt>
    <trkpt lat="44.703156" lon="6.609015"><ele>916.0</ele><time>2026-08-03T12:08:19Z</time></trkpt>
    <trkpt lat="44.706557" lon="6.608017"><ele>927.4</ele><time>2026-08-03T12:09:49Z</time></trkpt>
    <trkpt lat="44.707006" lon="6.607709"><ele>930.2</ele><time>2026-08-03T12:10:09Z</time></trkpt>
    <trkpt lat="44.707467" lon="6.607308"><ele>929.6</ele><time>2026-08-03T12:10:30Z</time></trkpt>
    <trkpt lat="44.708105" lon="6.606492"><ele>927.0</ele><time>2026-08-03T12:15:11Z</time></trkpt>
    <trkpt lat="44.708105" lon="6.606464"><ele>927.0</ele><time>2026-08-03T12:15:12Z</time></trkpt>
    <trkpt lat="44.707957" lon="6.605287"><ele>919.6</ele><time>2026-08-03T12:15:27Z</time></trkpt>
    <trkpt lat="44.707563" lon="6.604882"><ele>915.4</ele><time>2026-08-03T12:15:33Z</time></trkpt>
    <trkpt lat="44.707134" lon="6.604757"><ele>911.6</ele><time>2026-08-03T12:15:38Z</time></trkpt>
    <trkpt lat="44.707006" lon="6.604687"><ele>911.6</ele><time>2026-08-03T12:15:40Z</time></trkpt>
    <trkpt lat="44.707005" lon="6.604361"><ele>911.4</ele><time>2026-08-03T12:15:45Z</time></trkpt>
    <trkpt lat="44.708040" lon="6.603681"><ele>910.8</ele><time>2026-08-03T12:16:02Z</time></trkpt>
    <trkpt lat="44.708404" lon="6.603497"><ele>911.2</ele><time>2026-08-03T12:16:08Z</time></trkpt>
    <trkpt lat="44.710917" lon="6.602518"><ele>915.2</ele><time>2026-08-03T12:16:52Z</time></trkpt>
    <trkpt lat="44.711751" lon="6.601982"><ele>916.2</ele><time>2026-08-03T12:17:07Z</time></trkpt>
    <trkpt lat="44.714989" lon="6.598712"><ele>914.6</ele><time>2026-08-03T12:17:57Z</time></trkpt>
    <trkpt lat="44.719124" lon="6.594486"><ele>930.8</ele><time>2026-08-03T12:19:57Z</time></trkpt>
    <trkpt lat="44.724762" lon="6.588818"><ele>922.6</ele><time>2026-08-03T12:21:38Z</time></trkpt>
    <trkpt lat="44.727004" lon="6.586547"><ele>925.2</ele><time>2026-08-03T12:22:15Z</time></trkpt>
    <trkpt lat="44.728258" lon="6.585882"><ele>927.6</ele><time>2026-08-03T12:22:39Z</time></trkpt>
    <trkpt lat="44.733151" lon="6.584323"><ele>930.8</ele><time>2026-08-03T12:24:12Z</time></trkpt>
    <trkpt lat="44.739301" lon="6.583561"><ele>935.8</ele><time>2026-08-03T12:26:15Z</time></trkpt>
    <trkpt lat="44.742480" lon="6.582613"><ele>952.6</ele><time>2026-08-03T12:27:55Z</time></trkpt>
    <trkpt lat="44.743016" lon="6.582517"><ele>954.4</ele><time>2026-08-03T12:28:12Z</time></trkpt>
    <trkpt lat="44.744340" lon="6.582257"><ele>954.0</ele><time>2026-08-03T12:28:49Z</time></trkpt>
    <trkpt lat="44.746233" lon="6.580828"><ele>950.2</ele><time>2026-08-03T12:29:42Z</time></trkpt>
    <trkpt lat="44.746581" lon="6.580627"><ele>948.6</ele><time>2026-08-03T12:29:50Z</time></trkpt>
    <trkpt lat="44.746450" lon="6.580789"><ele>948.8</ele><time>2026-08-03T13:11:44Z</time></trkpt>
    <trkpt lat="44.746597" lon="6.580749"><ele>949.2</ele><time>2026-08-03T13:11:54Z</time></trkpt>
    <trkpt lat="44.747948" lon="6.579760"><ele>946.6</ele><time>2026-08-03T13:13:51Z</time></trkpt>
    <trkpt lat="44.747998" lon="6.579717"><ele>946.6</ele><time>2026-08-03T13:13:52Z</time></trkpt>
    <trkpt lat="44.748780" lon="6.579403"><ele>948.4</ele><time>2026-08-03T13:14:11Z</time></trkpt>
    <trkpt lat="44.750415" lon="6.578340"><ele>950.0</ele><time>2026-08-03T13:14:55Z</time></trkpt>
    <trkpt lat="44.752791" lon="6.576786"><ele>942.4</ele><time>2026-08-03T13:15:26Z</time></trkpt>
    <trkpt lat="44.759656" lon="6.572361"><ele>954.0</ele><time>2026-08-03T13:19:40Z</time></trkpt>
    <trkpt lat="44.759874" lon="6.572176"><ele>954.2</ele><time>2026-08-03T13:19:46Z</time></trkpt>
    <trkpt lat="44.766206" lon="6.565588"><ele>952.6</ele><time>2026-08-03T13:21:49Z</time></trkpt>
    <trkpt lat="44.767920" lon="6.563774"><ele>955.2</ele><time>2026-08-03T13:22:26Z</time></trkpt>
    <trkpt lat="44.772157" lon="6.560572"><ele>961.6</ele><time>2026-08-03T13:23:53Z</time></trkpt>
    <trkpt lat="44.772892" lon="6.560251"><ele>963.4</ele><time>2026-08-03T13:24:06Z</time></trkpt>
    <trkpt lat="44.774988" lon="6.559857"><ele>965.2</ele><time>2026-08-03T13:24:44Z</time></trkpt>
    <trkpt lat="44.776517" lon="6.559918"><ele>966.6</ele><time>2026-08-03T13:25:13Z</time></trkpt>
    <trkpt lat="44.776900" lon="6.557703"><ele>966.8</ele><time>2026-08-03T13:25:53Z</time></trkpt>
    <trkpt lat="44.777257" lon="6.556786"><ele>969.2</ele><time>2026-08-03T13:26:15Z</time></trkpt>
    <trkpt lat="44.777156" lon="6.556407"><ele>969.4</ele><time>2026-08-03T13:26:31Z</time></trkpt>
    <trkpt lat="44.777717" lon="6.555521"><ele>972.2</ele><time>2026-08-03T13:26:58Z</time></trkpt>
    <trkpt lat="44.777965" lon="6.555369"><ele>972.4</ele><time>2026-08-03T13:27:06Z</time></trkpt>
    <trkpt lat="44.778187" lon="6.555396"><ele>973.6</ele><time>2026-08-03T13:27:15Z</time></trkpt>
    <trkpt lat="44.783303" lon="6.557005"><ele>975.6</ele><time>2026-08-03T13:29:26Z</time></trkpt>
    <trkpt lat="44.783937" lon="6.556875"><ele>975.8</ele><time>2026-08-03T13:29:40Z</time></trkpt>
    <trkpt lat="44.786312" lon="6.555812"><ele>973.8</ele><time>2026-08-03T13:30:21Z</time></trkpt>
    <trkpt lat="44.787305" lon="6.555576"><ele>974.0</ele><time>2026-08-03T13:30:40Z</time></trkpt>
    <trkpt lat="44.787818" lon="6.556088"><ele>973.0</ele><time>2026-08-03T13:31:07Z</time></trkpt>
    <trkpt lat="44.789908" lon="6.557158"><ele>976.6</ele><time>2026-08-03T13:31:54Z</time></trkpt>
    <trkpt lat="44.790556" lon="6.557710"><ele>976.2</ele><time>2026-08-03T13:32:09Z</time></trkpt>
    <trkpt lat="44.794622" lon="6.559518"><ele>978.6</ele><time>2026-08-03T13:33:36Z</time></trkpt>
    <trkpt lat="44.796326" lon="6.558870"><ele>979.6</ele><time>2026-08-03T13:34:14Z</time></trkpt>
    <trkpt lat="44.796782" lon="6.558774"><ele>980.8</ele><time>2026-08-03T13:34:25Z</time></trkpt>
    <trkpt lat="44.797142" lon="6.559007"><ele>983.6</ele><time>2026-08-03T13:34:36Z</time></trkpt>
    <trkpt lat="44.797515" lon="6.559693"><ele>987.6</ele><time>2026-08-03T13:34:58Z</time></trkpt>
    <trkpt lat="44.798092" lon="6.559273"><ele>991.6</ele><time>2026-08-03T13:35:26Z</time></trkpt>
    <trkpt lat="44.799054" lon="6.559064"><ele>999.0</ele><time>2026-08-03T13:36:11Z</time></trkpt>
    <trkpt lat="44.800077" lon="6.559271"><ele>1007.0</ele><time>2026-08-03T13:36:58Z</time></trkpt>
    <trkpt lat="44.800638" lon="6.559616"><ele>1012.0</ele><time>2026-08-03T13:37:24Z</time></trkpt>
    <trkpt lat="44.801114" lon="6.559416"><ele>1013.4</ele><time>2026-08-03T13:37:43Z</time></trkpt>
    <trkpt lat="44.801478" lon="6.560010"><ele>1019.4</ele><time>2026-08-03T13:38:05Z</time></trkpt>
    <trkpt lat="44.801726" lon="6.560116"><ele>1020.2</ele><time>2026-08-03T13:38:15Z</time></trkpt>
    <trkpt lat="44.803126" lon="6.559723"><ele>1024.8</ele><time>2026-08-03T13:39:02Z</time></trkpt>
    <trkpt lat="44.803610" lon="6.559876"><ele>1027.8</ele><time>2026-08-03T13:39:18Z</time></trkpt>
    <trkpt lat="44.804374" lon="6.559712"><ele>1030.8</ele><time>2026-08-03T13:39:42Z</time></trkpt>
    <trkpt lat="44.804850" lon="6.559905"><ele>1034.4</ele><time>2026-08-03T13:39:58Z</time></trkpt>
    <trkpt lat="44.806084" lon="6.559724"><ele>1040.8</ele><time>2026-08-03T13:40:37Z</time></trkpt>
    <trkpt lat="44.807445" lon="6.560037"><ele>1047.8</ele><time>2026-08-03T13:41:21Z</time></trkpt>
    <trkpt lat="44.808368" lon="6.559658"><ele>1051.0</ele><time>2026-08-03T13:41:49Z</time></trkpt>
    <trkpt lat="44.809358" lon="6.560076"><ele>1056.6</ele><time>2026-08-03T13:42:20Z</time></trkpt>
    <trkpt lat="44.810396" lon="6.560301"><ele>1058.6</ele><time>2026-08-03T13:42:51Z</time></trkpt>
    <trkpt lat="44.811096" lon="6.559781"><ele>1059.0</ele><time>2026-08-03T13:43:53Z</time></trkpt>
    <trkpt lat="44.811964" lon="6.559235"><ele>1056.4</ele><time>2026-08-03T13:44:11Z</time></trkpt>
    <trkpt lat="44.812341" lon="6.558330"><ele>1055.4</ele><time>2026-08-03T13:44:23Z</time></trkpt>
    <trkpt lat="44.814596" lon="6.557589"><ele>1050.8</ele><time>2026-08-03T13:44:53Z</time></trkpt>
    <trkpt lat="44.816815" lon="6.556432"><ele>1048.4</ele><time>2026-08-03T13:45:24Z</time></trkpt>
    <trkpt lat="44.819559" lon="6.554233"><ele>1047.4</ele><time>2026-08-03T13:46:09Z</time></trkpt>
    <trkpt lat="44.819733" lon="6.554037"><ele>1048.6</ele><time>2026-08-03T13:46:13Z</time></trkpt>
    <trkpt lat="44.820248" lon="6.553338"><ele>1049.6</ele><time>2026-08-03T13:46:27Z</time></trkpt>
    <trkpt lat="44.820584" lon="6.551798"><ele>1054.0</ele><time>2026-08-03T13:46:52Z</time></trkpt>
    <trkpt lat="44.822076" lon="6.548024"><ele>1059.6</ele><time>2026-08-03T13:47:52Z</time></trkpt>
    <trkpt lat="44.822226" lon="6.547641"><ele>1061.6</ele><time>2026-08-03T13:48:00Z</time></trkpt>
    <trkpt lat="44.822788" lon="6.547040"><ele>1072.8</ele><time>2026-08-03T13:48:33Z</time></trkpt>
    <trkpt lat="44.822937" lon="6.546852"><ele>1074.2</ele><time>2026-08-03T13:48:45Z</time></trkpt>
    <trkpt lat="44.823802" lon="6.545064"><ele>1089.0</ele><time>2026-08-03T13:50:12Z</time></trkpt>
    <trkpt lat="44.824554" lon="6.544113"><ele>1102.6</ele><time>2026-08-03T13:51:09Z</time></trkpt>
    <trkpt lat="44.824634" lon="6.544197"><ele>1103.6</ele><time>2026-08-03T13:52:55Z</time></trkpt>
    <trkpt lat="44.824889" lon="6.544620"><ele>1104.6</ele><time>2026-08-03T13:53:12Z</time></trkpt>
    <trkpt lat="44.825025" lon="6.545319"><ele>1106.2</ele><time>2026-08-03T13:53:29Z</time></trkpt>
    <trkpt lat="44.824997" lon="6.545999"><ele>1108.4</ele><time>2026-08-03T13:53:45Z</time></trkpt>
    <trkpt lat="44.824688" lon="6.547262"><ele>1112.0</ele><time>2026-08-03T13:54:18Z</time></trkpt>
    <trkpt lat="44.824549" lon="6.547661"><ele>1113.2</ele><time>2026-08-03T13:54:28Z</time></trkpt>
    <trkpt lat="44.823709" lon="6.549807"><ele>1112.4</ele><time>2026-08-03T13:55:20Z</time></trkpt>
    <trkpt lat="44.823178" lon="6.550740"><ele>1114.2</ele><time>2026-08-03T13:55:54Z</time></trkpt>
    <trkpt lat="44.822838" lon="6.551313"><ele>1117.6</ele><time>2026-08-03T13:56:17Z</time></trkpt>
    <trkpt lat="44.822560" lon="6.552799"><ele>1122.2</ele><time>2026-08-03T13:56:57Z</time></trkpt>
    <trkpt lat="44.821585" lon="6.554652"><ele>1128.2</ele><time>2026-08-03T13:58:02Z</time></trkpt>
    <trkpt lat="44.821010" lon="6.555386"><ele>1133.0</ele><time>2026-08-03T13:58:33Z</time></trkpt>
    <trkpt lat="44.819371" lon="6.556780"><ele>1139.4</ele><time>2026-08-03T13:59:48Z</time></trkpt>
    <trkpt lat="44.816272" lon="6.558562"><ele>1152.8</ele><time>2026-08-03T14:02:04Z</time></trkpt>
    <trkpt lat="44.815954" lon="6.559720"><ele>1157.2</ele><time>2026-08-03T14:02:41Z</time></trkpt>
    <trkpt lat="44.815202" lon="6.560489"><ele>1161.0</ele><time>2026-08-03T14:03:21Z</time></trkpt>
    <trkpt lat="44.815618" lon="6.560208"><ele>1160.0</ele><time>2026-08-03T14:03:48Z</time></trkpt>
    <trkpt lat="44.813487" lon="6.562132"><ele>1171.0</ele><time>2026-08-03T14:07:33Z</time></trkpt>
    <trkpt lat="44.813308" lon="6.562747"><ele>1173.0</ele><time>2026-08-03T14:07:55Z</time></trkpt>
    <trkpt lat="44.813492" lon="6.563408"><ele>1176.8</ele><time>2026-08-03T14:08:20Z</time></trkpt>
    <trkpt lat="44.813110" lon="6.564425"><ele>1181.6</ele><time>2026-08-03T14:08:56Z</time></trkpt>
    <trkpt lat="44.813046" lon="6.564870"><ele>1183.0</ele><time>2026-08-03T14:09:09Z</time></trkpt>
    <trkpt lat="44.813063" lon="6.565122"><ele>1183.0</ele><time>2026-08-03T14:09:16Z</time></trkpt>
    <trkpt lat="44.814067" lon="6.565738"><ele>1176.2</ele><time>2026-08-03T14:09:33Z</time></trkpt>
    <trkpt lat="44.814188" lon="6.566833"><ele>1172.4</ele><time>2026-08-03T14:09:43Z</time></trkpt>
    <trkpt lat="44.814607" lon="6.567011"><ele>1170.4</ele><time>2026-08-03T14:09:49Z</time></trkpt>
    <trkpt lat="44.814912" lon="6.567542"><ele>1168.4</ele><time>2026-08-03T14:09:55Z</time></trkpt>
    <trkpt lat="44.815881" lon="6.567854"><ele>1163.0</ele><time>2026-08-03T14:10:05Z</time></trkpt>
    <trkpt lat="44.816091" lon="6.568302"><ele>1162.4</ele><time>2026-08-03T14:10:09Z</time></trkpt>
    <trkpt lat="44.816113" lon="6.568847"><ele>1162.4</ele><time>2026-08-03T14:10:14Z</time></trkpt>
    <trkpt lat="44.816131" lon="6.568912"><ele>1162.8</ele><time>2026-08-03T14:10:15Z</time></trkpt>
    <trkpt lat="44.816361" lon="6.569233"><ele>1167.8</ele><time>2026-08-03T14:10:26Z</time></trkpt>
    <trkpt lat="44.817548" lon="6.569159"><ele>1177.2</ele><time>2026-08-03T14:11:14Z</time></trkpt>
    <trkpt lat="44.819054" lon="6.568936"><ele>1181.6</ele><time>2026-08-03T14:12:07Z</time></trkpt>
    <trkpt lat="44.821146" lon="6.569404"><ele>1186.6</ele><time>2026-08-03T14:13:17Z</time></trkpt>
    <trkpt lat="44.821694" lon="6.569252"><ele>1189.4</ele><time>2026-08-03T14:13:39Z</time></trkpt>
    <trkpt lat="44.821879" lon="6.569129"><ele>1190.0</ele><time>2026-08-03T14:13:48Z</time></trkpt>
    <trkpt lat="44.823108" lon="6.568334"><ele>1200.6</ele><time>2026-08-03T14:14:57Z</time></trkpt>
    <trkpt lat="44.824678" lon="6.568424"><ele>1210.2</ele><time>2026-08-03T14:16:01Z</time></trkpt>
    <trkpt lat="44.826280" lon="6.569514"><ele>1224.0</ele><time>2026-08-03T14:17:25Z</time></trkpt>
    <trkpt lat="44.827121" lon="6.569546"><ele>1232.8</ele><time>2026-08-03T14:18:10Z</time></trkpt>
    <trkpt lat="44.827218" lon="6.569837"><ele>1234.4</ele><time>2026-08-03T14:18:20Z</time></trkpt>
    <trkpt lat="44.827192" lon="6.570274"><ele>1237.6</ele><time>2026-08-03T14:18:35Z</time></trkpt>
    <trkpt lat="44.827147" lon="6.570747"><ele>1239.0</ele><time>2026-08-03T14:18:51Z</time></trkpt>
    <trkpt lat="44.827303" lon="6.571082"><ele>1240.2</ele><time>2026-08-03T14:19:03Z</time></trkpt>
    <trkpt lat="44.828546" lon="6.571500"><ele>1243.8</ele><time>2026-08-03T14:21:46Z</time></trkpt>
    <trkpt lat="44.828786" lon="6.571432"><ele>1245.2</ele><time>2026-08-03T14:21:56Z</time></trkpt>
    <trkpt lat="44.828899" lon="6.571394"><ele>1245.2</ele><time>2026-08-03T14:22:00Z</time></trkpt>
    <trkpt lat="44.829332" lon="6.571558"><ele>1245.2</ele><time>2026-08-03T14:22:13Z</time></trkpt>
    <trkpt lat="44.830422" lon="6.572841"><ele>1245.4</ele><time>2026-08-03T14:22:43Z</time></trkpt>
    <trkpt lat="44.830785" lon="6.573065"><ele>1246.2</ele><time>2026-08-03T14:22:52Z</time></trkpt>
    <trkpt lat="44.831410" lon="6.574012"><ele>1246.8</ele><time>2026-08-03T14:23:12Z</time></trkpt>
    <trkpt lat="44.834301" lon="6.574924"><ele>1246.2</ele><time>2026-08-03T14:24:08Z</time></trkpt>
    <trkpt lat="44.834642" lon="6.575185"><ele>1246.2</ele><time>2026-08-03T14:24:14Z</time></trkpt>
    <trkpt lat="44.834981" lon="6.575858"><ele>1246.4</ele><time>2026-08-03T14:24:25Z</time></trkpt>
    <trkpt lat="44.835162" lon="6.575989"><ele>1245.4</ele><time>2026-08-03T14:24:29Z</time></trkpt>
    <trkpt lat="44.836178" lon="6.575932"><ele>1238.6</ele><time>2026-08-03T14:24:45Z</time></trkpt>
    <trkpt lat="44.837043" lon="6.576182"><ele>1233.0</ele><time>2026-08-03T14:24:58Z</time></trkpt>
    <trkpt lat="44.837804" lon="6.576010"><ele>1229.8</ele><time>2026-08-03T14:25:08Z</time></trkpt>
    <trkpt lat="44.838409" lon="6.576796"><ele>1228.4</ele><time>2026-08-03T14:25:20Z</time></trkpt>
    <trkpt lat="44.839070" lon="6.576952"><ele>1225.2</ele><time>2026-08-03T14:25:29Z</time></trkpt>
    <trkpt lat="44.840004" lon="6.576742"><ele>1221.6</ele><time>2026-08-03T14:25:40Z</time></trkpt>
    <trkpt lat="44.840648" lon="6.577535"><ele>1218.2</ele><time>2026-08-03T14:25:50Z</time></trkpt>
    <trkpt lat="44.841246" lon="6.577715"><ele>1214.0</ele><time>2026-08-03T14:25:57Z</time></trkpt>
    <trkpt lat="44.841474" lon="6.577647"><ele>1213.0</ele><time>2026-08-03T14:26:00Z</time></trkpt>
    <trkpt lat="44.841807" lon="6.577199"><ele>1211.4</ele><time>2026-08-03T14:26:06Z</time></trkpt>
    <trkpt lat="44.842063" lon="6.577216"><ele>1210.6</ele><time>2026-08-03T14:26:09Z</time></trkpt>
    <trkpt lat="44.842726" lon="6.577085"><ele>1205.6</ele><time>2026-08-03T14:26:17Z</time></trkpt>
    <trkpt lat="44.843256" lon="6.577356"><ele>1201.0</ele><time>2026-08-03T14:26:24Z</time></trkpt>
    <trkpt lat="44.843672" lon="6.577244"><ele>1197.8</ele><time>2026-08-03T14:26:29Z</time></trkpt>
    <trkpt lat="44.844606" lon="6.577474"><ele>1191.0</ele><time>2026-08-03T14:26:39Z</time></trkpt>
    <trkpt lat="44.846928" lon="6.577309"><ele>1174.2</ele><time>2026-08-03T14:27:01Z</time></trkpt>
    <trkpt lat="44.847610" lon="6.578070"><ele>1166.6</ele><time>2026-08-03T14:27:10Z</time></trkpt>
    <trkpt lat="44.848355" lon="6.578263"><ele>1164.4</ele><time>2026-08-03T14:27:18Z</time></trkpt>
    <trkpt lat="44.849131" lon="6.578734"><ele>1161.6</ele><time>2026-08-03T14:27:27Z</time></trkpt>
    <trkpt lat="44.849810" lon="6.579187"><ele>1161.0</ele><time>2026-08-03T14:27:35Z</time></trkpt>
    <trkpt lat="44.850091" lon="6.579726"><ele>1160.8</ele><time>2026-08-03T14:27:41Z</time></trkpt>
    <trkpt lat="44.850987" lon="6.580373"><ele>1159.8</ele><time>2026-08-03T14:27:54Z</time></trkpt>
    <trkpt lat="44.851862" lon="6.581997"><ele>1164.6</ele><time>2026-08-03T14:28:47Z</time></trkpt>
    <trkpt lat="44.852462" lon="6.582209"><ele>1166.6</ele><time>2026-08-03T14:29:06Z</time></trkpt>
    <trkpt lat="44.853260" lon="6.582816"><ele>1169.8</ele><time>2026-08-03T14:29:34Z</time></trkpt>
    <trkpt lat="44.854284" lon="6.583924"><ele>1170.4</ele><time>2026-08-03T14:30:07Z</time></trkpt>
    <trkpt lat="44.856157" lon="6.585956"><ele>1164.8</ele><time>2026-08-03T14:30:45Z</time></trkpt>
    <trkpt lat="44.858697" lon="6.588705"><ele>1151.0</ele><time>2026-08-03T14:31:18Z</time></trkpt>
    <trkpt lat="44.860301" lon="6.590442"><ele>1154.8</ele><time>2026-08-03T14:31:49Z</time></trkpt>
    <trkpt lat="44.864005" lon="6.597654"><ele>1176.8</ele><time>2026-08-03T14:35:47Z</time></trkpt>
    <trkpt lat="44.864494" lon="6.598514"><ele>1178.6</ele><time>2026-08-03T14:36:08Z</time></trkpt>
    <trkpt lat="44.864918" lon="6.599169"><ele>1178.6</ele><time>2026-08-03T14:36:21Z</time></trkpt>
    <trkpt lat="44.865604" lon="6.599913"><ele>1178.0</ele><time>2026-08-03T14:36:37Z</time></trkpt>
    <trkpt lat="44.867896" lon="6.601667"><ele>1173.4</ele><time>2026-08-03T14:37:15Z</time></trkpt>
    <trkpt lat="44.869016" lon="6.602884"><ele>1172.0</ele><time>2026-08-03T14:37:37Z</time></trkpt>
    <trkpt lat="44.870837" lon="6.606251"><ele>1168.2</ele><time>2026-08-03T14:38:20Z</time></trkpt>
    <trkpt lat="44.871344" lon="6.607215"><ele>1169.4</ele><time>2026-08-03T14:38:35Z</time></trkpt>
    <trkpt lat="44.873772" lon="6.614808"><ele>1176.6</ele><time>2026-08-03T14:40:39Z</time></trkpt>
    <trkpt lat="44.874230" lon="6.615827"><ele>1177.6</ele><time>2026-08-03T14:40:56Z</time></trkpt>
    <trkpt lat="44.874746" lon="6.616574"><ele>1178.0</ele><time>2026-08-03T14:41:08Z</time></trkpt>
    <trkpt lat="44.875784" lon="6.617456"><ele>1179.4</ele><time>2026-08-03T14:41:27Z</time></trkpt>
    <trkpt lat="44.878246" lon="6.618394"><ele>1181.6</ele><time>2026-08-03T14:42:06Z</time></trkpt>
    <trkpt lat="44.879460" lon="6.619254"><ele>1182.8</ele><time>2026-08-03T14:42:26Z</time></trkpt>
    <trkpt lat="44.881039" lon="6.620776"><ele>1186.4</ele><time>2026-08-03T14:43:04Z</time></trkpt>
    <trkpt lat="44.881098" lon="6.621121"><ele>1187.2</ele><time>2026-08-03T14:43:10Z</time></trkpt>
    <trkpt lat="44.881069" lon="6.621200"><ele>1187.4</ele><time>2026-08-03T14:43:12Z</time></trkpt>
    <trkpt lat="44.880718" lon="6.621924"><ele>1186.4</ele><time>2026-08-03T14:46:33Z</time></trkpt>
    <trkpt lat="44.881083" lon="6.622371"><ele>1184.8</ele><time>2026-08-03T14:46:43Z</time></trkpt>
    <trkpt lat="44.881681" lon="6.622682"><ele>1184.4</ele><time>2026-08-03T14:46:55Z</time></trkpt>
    <trkpt lat="44.881990" lon="6.622960"><ele>1185.0</ele><time>2026-08-03T14:47:04Z</time></trkpt>
    <trkpt lat="44.883911" lon="6.623581"><ele>1188.6</ele><time>2026-08-03T14:47:48Z</time></trkpt>
    <trkpt lat="44.886072" lon="6.625512"><ele>1190.8</ele><time>2026-08-03T14:48:43Z</time></trkpt>
    <trkpt lat="44.887268" lon="6.626302"><ele>1192.6</ele><time>2026-08-03T14:49:13Z</time></trkpt>
    <trkpt lat="44.887506" lon="6.626709"><ele>1193.0</ele><time>2026-08-03T14:49:22Z</time></trkpt>
    <trkpt lat="44.887859" lon="6.626722"><ele>1192.8</ele><time>2026-08-03T14:49:29Z</time></trkpt>
    <trkpt lat="44.888735" lon="6.627210"><ele>1193.8</ele><time>2026-08-03T14:49:47Z</time></trkpt>
    <trkpt lat="44.891584" lon="6.629419"><ele>1196.0</ele><time>2026-08-03T14:51:01Z</time></trkpt>
    <trkpt lat="44.892501" lon="6.629847"><ele>1196.4</ele><time>2026-08-03T14:51:23Z</time></trkpt>
    <trkpt lat="44.892921" lon="6.630500"><ele>1197.6</ele><time>2026-08-03T14:51:39Z</time></trkpt>
    <trkpt lat="44.894145" lon="6.633321"><ele>1204.0</ele><time>2026-08-03T14:52:43Z</time></trkpt>
    <trkpt lat="44.895149" lon="6.633010"><ele>1204.2</ele><time>2026-08-03T14:53:22Z</time></trkpt>
    <trkpt lat="44.895852" lon="6.633037"><ele>1205.0</ele><time>2026-08-03T14:53:54Z</time></trkpt>
    <trkpt lat="44.895947" lon="6.633072"><ele>1205.4</ele><time>2026-08-03T14:53:57Z</time></trkpt>
    <trkpt lat="44.899161" lon="6.641347"><ele>1278.6</ele><time>2026-08-03T14:59:22Z</time></trkpt>
    <trkpt lat="44.899061" lon="6.641441"><ele>1281.8</ele><time>2026-08-03T15:01:47Z</time></trkpt>
    <trkpt lat="44.898855" lon="6.641774"><ele>1283.4</ele><time>2026-08-03T15:02:01Z</time></trkpt>
    <trkpt lat="44.898812" lon="6.642417"><ele>1287.2</ele><time>2026-08-03T15:02:16Z</time></trkpt>
    <trkpt lat="44.898248" lon="6.642461"><ele>1292.2</ele><time>2026-08-03T15:02:41Z</time></trkpt>
    <trkpt lat="44.898078" lon="6.642862"><ele>1294.4</ele><time>2026-08-03T15:02:58Z</time></trkpt>
    <trkpt lat="44.898144" lon="6.642998"><ele>1295.6</ele><time>2026-08-03T15:03:09Z</time></trkpt>
    </trkseg>
  </trk>
</gpx>
