<?xml version="1.0" encoding="UTF-8"?>
<gpx version="1.1" creator="tripplanner sample generator" xmlns="http://www.topografix.com/GPX/1/1">
  <metadata>
    <name>Pięć Stawów → Morskie Oko → Rysy → Morskie Oko</name>
    <time>2026-09-07T05:30:00Z</time>
  </metadata>
  <trk>
    <name>Pięć Stawów → Morskie Oko → Rysy → Morskie Oko</name>
    <trkseg>
      <trkpt lat="49.220000" lon="20.040000"><ele>1670.6</ele><time>2026-09-07T05:30:00Z</time></trkpt>
      <trkpt lat="49.219670" lon="20.040480"><ele>1665.7</ele><time>2026-09-07T05:31:35Z</time></trkpt>
      <trkpt lat="49.219497" lon="20.040825"><ele>1659.2</ele><time>2026-09-07T05:32:35Z</time></trkpt>
      <trkpt lat="49.219140" lon="20.041274"><ele>1652.5</ele><time>2026-09-07T05:34:13Z</time></trkpt>
      <trkpt lat="49.218924" lon="20.041650"><ele>1650.5</ele><time>2026-09-07T05:35:22Z</time></trkpt>
      <trkpt lat="49.218674" lon="20.042357"><ele>1643.3</ele><time>2026-09-07T05:37:12Z</time></trkpt>
      <trkpt lat="49.218314" lon="20.042619"><ele>1639.6</ele><time>2026-09-07T05:38:36Z</time></trkpt>
      <trkpt lat="49.217971" lon="20.043118"><ele>1631.4</ele><time>2026-09-07T05:40:16Z</time></trkpt>
      <trkpt lat="49.217669" lon="20.043594"><ele>1628.7</ele><time>2026-09-07T05:41:47Z</time></trkpt>
      <trkpt lat="49.217349" lon="20.044000"><ele>1622.2</ele><time>2026-09-07T05:43:15Z</time></trkpt>
      <trkpt lat="49.217041" lon="20.044464"><ele>1615.8</ele><time>2026-09-07T05:44:46Z</time></trkpt>
      <trkpt lat="49.216844" lon="20.044787"><ele>1609.3</ele><time>2026-09-07T05:45:47Z</time></trkpt>
      <trkpt lat="49.216597" lon="20.045349"><ele>1606.3</ele><time>2026-09-07T05:47:20Z</time></trkpt>
      <trkpt lat="49.216339" lon="20.045862"><ele>1601.6</ele><time>2026-09-07T05:48:49Z</time></trkpt>
      <trkpt lat="49.215929" lon="20.046353"><ele>1593.1</ele><time>2026-09-07T05:50:39Z</time></trkpt>
      <trkpt lat="49.215635" lon="20.046658"><ele>1590.2</ele><time>2026-09-07T05:51:53Z</time></trkpt>
      <trkpt lat="49.215277" lon="20.046961"><ele>1582.8</ele><time>2026-09-07T05:53:20Z</time></trkpt>
      <trkpt lat="49.215007" lon="20.047569"><ele>1578.6</ele><time>2026-09-07T05:55:01Z</time></trkpt>
      <trkpt lat="49.214691" lon="20.047996"><ele>1573.3</ele><time>2026-09-07T05:56:30Z</time></trkpt>
      <trkpt lat="49.214436" lon="20.048402"><ele>1567.9</ele><time>2026-09-07T05:57:47Z</time></trkpt>
      <trkpt lat="49.214117" lon="20.048790"><ele>1564.7</ele><time>2026-09-07T05:59:13Z</time></trkpt>
      <trkpt lat="49.213741" lon="20.049311"><ele>1556.8</ele><time>2026-09-07T06:01:00Z</time></trkpt>
      <trkpt lat="49.213553" lon="20.049691"><ele>1551.4</ele><time>2026-09-07T06:02:05Z</time></trkpt>
      <trkpt lat="49.213412" lon="20.050353"><ele>1545.0</ele><time>2026-09-07T06:03:41Z</time></trkpt>
      <trkpt lat="49.212966" lon="20.050599"><ele>1540.6</ele><time>2026-09-07T06:05:21Z</time></trkpt>
      <trkpt lat="49.212794" lon="20.051033"><ele>1536.0</ele><time>2026-09-07T06:06:31Z</time></trkpt>
      <trkpt lat="49.212299" lon="20.051498"><ele>1532.5</ele><time>2026-09-07T06:08:33Z</time></trkpt>
      <trkpt lat="49.212057" lon="20.051951"><ele>1524.1</ele><time>2026-09-07T06:09:54Z</time></trkpt>
      <trkpt lat="49.211800" lon="20.052400"><ele>1519.3</ele><time>2026-09-07T06:11:16Z</time></trkpt>
      <trkpt lat="49.211530" lon="20.052876"><ele>1517.8</ele><time>2026-09-07T06:12:43Z</time></trkpt>
      <trkpt lat="49.211244" lon="20.053365"><ele>1513.6</ele><time>2026-09-07T06:14:13Z</time></trkpt>
      <trkpt lat="49.210888" lon="20.053818"><ele>1509.0</ele><time>2026-09-07T06:15:51Z</time></trkpt>
      <trkpt lat="49.210617" lon="20.054126"><ele>1507.2</ele><time>2026-09-07T06:17:02Z</time></trkpt>
      <trkpt lat="49.210262" lon="20.054497"><ele>1502.7</ele><time>2026-09-07T06:18:32Z</time></trkpt>
      <trkpt lat="49.210252" lon="20.055223"><ele>1500.6</ele><time>2026-09-07T06:20:12Z</time></trkpt>
      <trkpt lat="49.209804" lon="20.055717"><ele>1496.5</ele><time>2026-09-07T06:22:08Z</time></trkpt>
      <trkpt lat="49.209463" lon="20.055879"><ele>1496.0</ele><time>2026-09-07T06:23:24Z</time></trkpt>
      <trkpt lat="49.209325" lon="20.056473"><ele>1492.2</ele><time>2026-09-07T06:24:50Z</time></trkpt>
      <trkpt lat="49.208923" lon="20.056907"><ele>1486.4</ele><time>2026-09-07T06:26:34Z</time></trkpt>
      <trkpt lat="49.208756" lon="20.057323"><ele>1484.7</ele><time>2026-09-07T06:27:41Z</time></trkpt>
      <trkpt lat="49.208480" lon="20.057841"><ele>1480.2</ele><time>2026-09-07T06:29:13Z</time></trkpt>
      <trkpt lat="49.208200" lon="20.058267"><ele>1476.4</ele><time>2026-09-07T06:30:36Z</time></trkpt>
      <trkpt lat="49.207941" lon="20.058731"><ele>1473.6</ele><time>2026-09-07T06:32:00Z</time></trkpt>
      <trkpt lat="49.207573" lon="20.059247"><ele>1471.0</ele><time>2026-09-07T06:33:46Z</time></trkpt>
      <trkpt lat="49.207362" lon="20.059589"><ele>1467.0</ele><time>2026-09-07T06:34:50Z</time></trkpt>
      <trkpt lat="49.207107" lon="20.060132"><ele>1465.9</ele><time>2026-09-07T06:36:22Z</time></trkpt>
      <trkpt lat="49.206777" lon="20.060594"><ele>1464.0</ele><time>2026-09-07T06:37:57Z</time></trkpt>
      <trkpt lat="49.206612" lon="20.061035"><ele>1458.0</ele><time>2026-09-07T06:39:06Z</time></trkpt>
      <trkpt lat="49.206220" lon="20.061337"><ele>1457.8</ele><time>2026-09-07T06:40:39Z</time></trkpt>
      <trkpt lat="49.205845" lon="20.061782"><ele>1451.9</ele><time>2026-09-07T06:42:19Z</time></trkpt>
      <trkpt lat="49.205744" lon="20.062360"><ele>1449.9</ele><time>2026-09-07T06:43:41Z</time></trkpt>
      <trkpt lat="49.205323" lon="20.062719"><ele>1446.1</ele><time>2026-09-07T06:45:23Z</time></trkpt>
      <trkpt lat="49.205212" lon="20.063302"><ele>1444.8</ele><time>2026-09-07T06:46:46Z</time></trkpt>
      <trkpt lat="49.204877" lon="20.063686"><ele>1438.1</ele><time>2026-09-07T06:48:15Z</time></trkpt>
      <trkpt lat="49.204600" lon="20.064133"><ele>1434.9</ele><time>2026-09-07T06:49:39Z</time></trkpt>
      <trkpt lat="49.204331" lon="20.064591"><ele>1432.8</ele><time>2026-09-07T06:51:04Z</time></trkpt>
      <trkpt lat="49.203996" lon="20.064984"><ele>1431.1</ele><time>2026-09-07T06:52:33Z</time></trkpt>
      <trkpt lat="49.203872" lon="20.065527"><ele>1426.4</ele><time>2026-09-07T06:53:52Z</time></trkpt>
      <trkpt lat="49.203417" lon="20.065951"><ele>1421.9</ele><time>2026-09-07T06:55:45Z</time></trkpt>
      <trkpt lat="49.203292" lon="20.066241"><ele>1419.1</ele><time>2026-09-07T06:56:32Z</time></trkpt>
      <trkpt lat="49.202939" lon="20.066981"><ele>1416.6</ele><time>2026-09-07T06:58:38Z</time></trkpt>
      <trkpt lat="49.202544" lon="20.067121"><ele>1414.2</ele><time>2026-09-07T07:00:04Z</time></trkpt>
      <trkpt lat="49.202243" lon="20.067837"><ele>1409.1</ele><time>2026-09-07T07:02:01Z</time></trkpt>
      <trkpt lat="49.202240" lon="20.068207"><ele>1407.5</ele><time>2026-09-07T07:02:52Z</time></trkpt>
      <trkpt lat="49.201739" lon="20.068682"><ele>1406.1</ele><time>2026-09-07T07:04:56Z</time></trkpt>
      <trkpt lat="49.201562" lon="20.069113"><ele>1399.8</ele><time>2026-09-07T07:06:06Z</time></trkpt>
      <trkpt lat="49.201245" lon="20.069530"><ele>1398.1</ele><time>2026-09-07T07:07:34Z</time></trkpt>
      <trkpt lat="49.201000" lon="20.070000"><ele>1395.8</ele><time>2026-09-07T07:08:57Z</time></trkpt>
      <trkpt lat="49.200675" lon="20.070333"><ele>1407.6</ele><time>2026-09-07T07:11:30Z</time></trkpt>
      <trkpt lat="49.200289" lon="20.070502"><ele>1417.5</ele><time>2026-09-07T07:13:54Z</time></trkpt>
      <trkpt lat="49.200026" lon="20.070979"><ele>1426.5</ele><time>2026-09-07T07:16:14Z</time></trkpt>
      <trkpt lat="49.199591" lon="20.071181"><ele>1435.8</ele><time>2026-09-07T07:18:45Z</time></trkpt>
      <trkpt lat="49.199370" lon="20.071527"><ele>1446.3</ele><time>2026-09-07T07:20:56Z</time></trkpt>
      <trkpt lat="49.198956" lon="20.071755"><ele>1459.3</ele><time>2026-09-07T07:23:46Z</time></trkpt>
      <trkpt lat="49.198548" lon="20.072107"><ele>1469.5</ele><time>2026-09-07T07:26:26Z</time></trkpt>
      <trkpt lat="49.198200" lon="20.072367"><ele>1480.3</ele><time>2026-09-07T07:28:52Z</time></trkpt>
      <trkpt lat="49.197785" lon="20.072604"><ele>1490.5</ele><time>2026-09-07T07:31:26Z</time></trkpt>
      <trkpt lat="49.197496" lon="20.072944"><ele>1501.5</ele><time>2026-09-07T07:33:50Z</time></trkpt>
      <trkpt lat="49.197051" lon="20.073184"><ele>1512.1</ele><time>2026-09-07T07:36:33Z</time></trkpt>
      <trkpt lat="49.196816" lon="20.073583"><ele>1523.9</ele><time>2026-09-07T07:38:57Z</time></trkpt>
      <trkpt lat="49.196306" lon="20.073816"><ele>1532.0</ele><time>2026-09-07T07:41:38Z</time></trkpt>
      <trkpt lat="49.196029" lon="20.074132"><ele>1545.6</ele><time>2026-09-07T07:44:13Z</time></trkpt>
      <trkpt lat="49.195752" lon="20.074403"><ele>1553.8</ele><time>2026-09-07T07:46:11Z</time></trkpt>
      <trkpt lat="49.195400" lon="20.074733"><ele>1566.9</ele><time>2026-09-07T07:48:57Z</time></trkpt>
      <trkpt lat="49.195030" lon="20.075002"><ele>1575.7</ele><time>2026-09-07T07:51:16Z</time></trkpt>
      <trkpt lat="49.194604" lon="20.075376"><ele>1585.1</ele><time>2026-09-07T07:53:56Z</time></trkpt>
      <trkpt lat="49.194490" lon="20.075470"><ele>1598.4</ele><time>2026-09-07T07:55:43Z</time></trkpt>
      <trkpt lat="49.194076" lon="20.075847"><ele>1608.1</ele><time>2026-09-07T07:58:22Z</time></trkpt>
      <trkpt lat="49.193775" lon="20.076201"><ele>1618.9</ele><time>2026-09-07T08:00:47Z</time></trkpt>
      <trkpt lat="49.193367" lon="20.076441"><ele>1628.5</ele><time>2026-09-07T08:03:17Z</time></trkpt>
      <trkpt lat="49.192980" lon="20.076801"><ele>1637.4</ele><time>2026-09-07T08:05:45Z</time></trkpt>
      <trkpt lat="49.192600" lon="20.077100"><ele>1648.6</ele><time>2026-09-07T08:08:23Z</time></trkpt>
      <trkpt lat="49.192290" lon="20.077337"><ele>1671.8</ele><time>2026-09-07T08:11:55Z</time></trkpt>
      <trkpt lat="49.191851" lon="20.077787"><ele>1690.8</ele><time>2026-09-07T08:15:41Z</time></trkpt>
      <trkpt lat="49.191732" lon="20.078157"><ele>1711.8</ele><time>2026-09-07T08:18:43Z</time></trkpt>
      <trkpt lat="49.191199" lon="20.078444"><ele>1735.8</ele><time>2026-09-07T08:23:06Z</time></trkpt>
      <trkpt lat="49.190837" lon="20.078725"><ele>1753.5</ele><time>2026-09-07T08:26:18Z</time></trkpt>
      <trkpt lat="49.190564" lon="20.078949"><ele>1777.4</ele><time>2026-09-07T08:29:47Z</time></trkpt>
      <trkpt lat="49.190227" lon="20.079221"><ele>1795.5</ele><time>2026-09-07T08:32:55Z</time></trkpt>
      <trkpt lat="49.189751" lon="20.079496"><ele>1817.6</ele><time>2026-09-07T08:36:55Z</time></trkpt>
      <trkpt lat="49.189367" lon="20.079996"><ele>1840.1</ele><time>2026-09-07T08:40:56Z</time></trkpt>
      <trkpt lat="49.189014" lon="20.080176"><ele>1859.8</ele><time>2026-09-07T08:44:13Z</time></trkpt>
      <trkpt lat="49.188736" lon="20.080585"><ele>1881.7</ele><time>2026-09-07T08:47:46Z</time></trkpt>
      <trkpt lat="49.188515" lon="20.080764"><ele>1900.9</ele><time>2026-09-07T08:50:34Z</time></trkpt>
      <trkpt lat="49.188146" lon="20.081052"><ele>1925.0</ele><time>2026-09-07T08:54:25Z</time></trkpt>
      <trkpt lat="49.187811" lon="20.081382"><ele>1945.5</ele><time>2026-09-07T08:57:52Z</time></trkpt>
      <trkpt lat="49.187393" lon="20.081676"><ele>1965.1</ele><time>2026-09-07T09:01:27Z</time></trkpt>
      <trkpt lat="49.187196" lon="20.081915"><ele>1988.0</ele><time>2026-09-07T09:04:37Z</time></trkpt>
      <trkpt lat="49.186647" lon="20.082206"><ele>2006.2</ele><time>2026-09-07T09:08:29Z</time></trkpt>
      <trkpt lat="49.186506" lon="20.082609"><ele>2027.3</ele><time>2026-09-07T09:11:38Z</time></trkpt>
      <trkpt lat="49.186100" lon="20.082900"><ele>2049.3</ele><time>2026-09-07T09:15:25Z</time></trkpt>
      <trkpt lat="49.185814" lon="20.083159"><ele>2076.6</ele><time>2026-09-07T09:19:19Z</time></trkpt>
      <trkpt lat="49.185502" lon="20.083340"><ele>2101.7</ele><time>2026-09-07T09:23:00Z</time></trkpt>
      <trkpt lat="49.185056" lon="20.083767"><ele>2126.5</ele><time>2026-09-07T09:27:19Z</time></trkpt>
      <trkpt lat="49.184551" lon="20.084167"><ele>2150.4</ele><time>2026-09-07T09:31:43Z</time></trkpt>
      <trkpt lat="49.184217" lon="20.084283"><ele>2174.4</ele><time>2026-09-07T09:35:19Z</time></trkpt>
      <trkpt lat="49.183900" lon="20.084600"><ele>2200.9</ele><time>2026-09-07T09:39:17Z</time></trkpt>
      <trkpt lat="49.183603" lon="20.084848"><ele>2223.1</ele><time>2026-09-07T09:42:42Z</time></trkpt>
      <trkpt lat="49.183157" lon="20.085265"><ele>2250.6</ele><time>2026-09-07T09:47:17Z</time></trkpt>
      <trkpt lat="49.182654" lon="20.085556"><ele>2273.1</ele><time>2026-09-07T09:51:26Z</time></trkpt>
      <trkpt lat="49.182496" lon="20.085582"><ele>2301.3</ele><time>2026-09-07T09:54:48Z</time></trkpt>
      <trkpt lat="49.182040" lon="20.086058"><ele>2322.4</ele><time>2026-09-07T09:58:51Z</time></trkpt>
      <trkpt lat="49.181700" lon="20.086300"><ele>2350.7</ele><time>2026-09-07T10:03:00Z</time></trkpt>
      <trkpt lat="49.181275" lon="20.086600"><ele>2374.5</ele><time>2026-09-07T10:07:01Z</time></trkpt>
      <trkpt lat="49.180831" lon="20.086975"><ele>2398.0</ele><time>2026-09-07T10:11:09Z</time></trkpt>
      <trkpt lat="49.180468" lon="20.087006"><ele>2424.4</ele><time>2026-09-07T10:15:04Z</time></trkpt>
      <trkpt lat="49.180193" lon="20.087560"><ele>2448.4</ele><time>2026-09-07T10:19:04Z</time></trkpt>
      <trkpt lat="49.179783" lon="20.087642"><ele>2475.6</ele><time>2026-09-07T10:23:14Z</time></trkpt>
      <trkpt lat="49.179500" lon="20.088000"><ele>2498.4</ele><time>2026-09-07T10:26:49Z</time></trkpt>
      <trkpt lat="49.179810" lon="20.087790"><ele>2474.1</ele><time>2026-09-07T10:28:00Z</time></trkpt>
      <trkpt lat="49.180131" lon="20.087469"><ele>2450.8</ele><time>2026-09-07T10:29:21Z</time></trkpt>
      <trkpt lat="49.180715" lon="20.087233"><ele>2424.4</ele><time>2026-09-07T10:31:28Z</time></trkpt>
      <trkpt lat="49.180820" lon="20.086817"><ele>2397.3</ele><time>2026-09-07T10:32:30Z</time></trkpt>
      <trkpt lat="49.181366" lon="20.086665"><ele>2375.4</ele><time>2026-09-07T10:34:26Z</time></trkpt>
      <trkpt lat="49.181700" lon="20.086300"><ele>2348.1</ele><time>2026-09-07T10:35:53Z</time></trkpt>
      <trkpt lat="49.181991" lon="20.085995"><ele>2323.2</ele><time>2026-09-07T10:37:07Z</time></trkpt>
      <trkpt lat="49.182515" lon="20.085694"><ele>2298.2</ele><time>2026-09-07T10:39:05Z</time></trkpt>
      <trkpt lat="49.182647" lon="20.085372"><ele>2276.0</ele><time>2026-09-07T10:39:58Z</time></trkpt>
      <trkpt lat="49.183277" lon="20.085071"><ele>2248.2</ele><time>2026-09-07T10:42:17Z</time></trkpt>
      <trkpt lat="49.183582" lon="20.084956"><ele>2223.4</ele><time>2026-09-07T10:43:23Z</time></trkpt>
      <trkpt lat="49.183900" lon="20.084600"><ele>2199.5</ele><time>2026-09-07T10:44:46Z</time></trkpt>
      <trkpt lat="49.184322" lon="20.084287"><ele>2175.6</ele><time>2026-09-07T10:46:25Z</time></trkpt>
      <trkpt lat="49.184657" lon="20.083896"><ele>2148.4</ele><time>2026-09-07T10:47:53Z</time></trkpt>
      <trkpt lat="49.184954" lon="20.083769"><ele>2123.0</ele><time>2026-09-07T10:48:58Z</time></trkpt>
      <trkpt lat="49.185451" lon="20.083499"><ele>2098.5</ele><time>2026-09-07T10:50:49Z</time></trkpt>
      <trkpt lat="49.185721" lon="20.083256"><ele>2075.7</ele><time>2026-09-07T10:51:55Z</time></trkpt>
      <trkpt lat="49.186100" lon="20.082900"><ele>2051.0</ele><time>2026-09-07T10:53:29Z</time></trkpt>
      <trkpt lat="49.186497" lon="20.082545"><ele>2027.1</ele><time>2026-09-07T10:55:06Z</time></trkpt>
      <trkpt lat="49.186834" lon="20.082282"><ele>2007.8</ele><time>2026-09-07T10:56:26Z</time></trkpt>
      <trkpt lat="49.187244" lon="20.082037"><ele>1988.2</ele><time>2026-09-07T10:57:58Z</time></trkpt>
      <trkpt lat="49.187541" lon="20.081762"><ele>1966.5</ele><time>2026-09-07T10:59:12Z</time></trkpt>
      <trkpt lat="49.187879" lon="20.081371"><ele>1945.5</ele><time>2026-09-07T11:00:41Z</time></trkpt>
      <trkpt lat="49.188151" lon="20.081086"><ele>1924.6</ele><time>2026-09-07T11:01:50Z</time></trkpt>
      <trkpt lat="49.188465" lon="20.080753"><ele>1903.7</ele><time>2026-09-07T11:03:11Z</time></trkpt>
      <trkpt lat="49.188953" lon="20.080356"><ele>1880.8</ele><time>2026-09-07T11:05:07Z</time></trkpt>
      <trkpt lat="49.189045" lon="20.080128"><ele>1858.5</ele><time>2026-09-07T11:05:44Z</time></trkpt>
      <trkpt lat="49.189677" lon="20.079876"><ele>1840.0</ele><time>2026-09-07T11:08:02Z</time></trkpt>
      <trkpt lat="49.189858" lon="20.079581"><ele>1818.7</ele><time>2026-09-07T11:08:58Z</time></trkpt>
      <trkpt lat="49.190151" lon="20.079248"><ele>1797.3</ele><time>2026-09-07T11:10:14Z</time></trkpt>
      <trkpt lat="49.190570" lon="20.078907"><ele>1777.3</ele><time>2026-09-07T11:11:54Z</time></trkpt>
      <trkpt lat="49.190824" lon="20.078723"><ele>1757.2</ele><time>2026-09-07T11:12:54Z</time></trkpt>
      <trkpt lat="49.191248" lon="20.078273"><ele>1734.7</ele><time>2026-09-07T11:14:42Z</time></trkpt>
      <trkpt lat="49.191624" lon="20.078043"><ele>1712.5</ele><time>2026-09-07T11:16:08Z</time></trkpt>
      <trkpt lat="49.191849" lon="20.077758"><ele>1694.0</ele><time>2026-09-07T11:17:09Z</time></trkpt>
      <trkpt lat="49.192264" lon="20.077406"><ele>1672.7</ele><time>2026-09-07T11:18:49Z</time></trkpt>
      <trkpt lat="49.192600" lon="20.077100"><ele>1649.5</ele><time>2026-09-07T11:20:12Z</time></trkpt>
      <trkpt lat="49.192965" lon="20.076863"><ele>1638.1</ele><time>2026-09-07T11:21:35Z</time></trkpt>
      <trkpt lat="49.193224" lon="20.076499"><ele>1630.3</ele><time>2026-09-07T11:22:49Z</time></trkpt>
      <trkpt lat="49.193767" lon="20.076144"><ele>1617.4</ele><time>2026-09-07T11:24:54Z</time></trkpt>
      <trkpt lat="49.194138" lon="20.076024"><ele>1607.3</ele><time>2026-09-07T11:26:13Z</time></trkpt>
      <trkpt lat="49.194285" lon="20.075524"><ele>1596.6</ele><time>2026-09-07T11:27:29Z</time></trkpt>
      <trkpt lat="49.194781" lon="20.075269"><ele>1585.8</ele><time>2026-09-07T11:29:19Z</time></trkpt>
      <trkpt lat="49.195073" lon="20.075036"><ele>1574.7</ele><time>2026-09-07T11:30:29Z</time></trkpt>
      <trkpt lat="49.195400" lon="20.074733"><ele>1564.3</ele><time>2026-09-07T11:31:49Z</time></trkpt>
      <trkpt lat="49.195816" lon="20.074426"><ele>1554.6</ele><time>2026-09-07T11:33:26Z</time></trkpt>
      <trkpt lat="49.196037" lon="20.074251"><ele>1545.5</ele><time>2026-09-07T11:34:19Z</time></trkpt>
      <trkpt lat="49.196473" lon="20.073907"><ele>1534.2</ele><time>2026-09-07T11:36:02Z</time></trkpt>
      <trkpt lat="49.196844" lon="20.073442"><ele>1523.9</ele><time>2026-09-07T11:37:43Z</time></trkpt>
      <trkpt lat="49.197225" lon="20.073249"><ele>1510.6</ele><time>2026-09-07T11:39:08Z</time></trkpt>
      <trkpt lat="49.197518" lon="20.073028"><ele>1503.2</ele><time>2026-09-07T11:40:16Z</time></trkpt>
      <trkpt lat="49.197835" lon="20.072631"><ele>1488.7</ele><time>2026-09-07T11:41:43Z</time></trkpt>
      <trkpt lat="49.198200" lon="20.072367"><ele>1478.9</ele><time>2026-09-07T11:43:08Z</time></trkpt>
      <trkpt lat="49.198579" lon="20.072033"><ele>1470.4</ele><time>2026-09-07T11:44:40Z</time></trkpt>
      <trkpt lat="49.198792" lon="20.071801"><ele>1459.5</ele><time>2026-09-07T11:45:35Z</time></trkpt>
      <trkpt lat="49.199344" lon="20.071362"><ele>1448.6</ele><time>2026-09-07T11:47:46Z</time></trkpt>
      <trkpt lat="49.199481" lon="20.071207"><ele>1435.5</ele><time>2026-09-07T11:48:22Z</time></trkpt>
      <trkpt lat="49.200045" lon="20.070981"><ele>1428.8</ele><time>2026-09-07T11:50:25Z</time></trkpt>
      <trkpt lat="49.200291" lon="20.070541"><ele>1416.6</ele><time>2026-09-07T11:51:45Z</time></trkpt>
      <trkpt lat="49.200608" lon="20.070363"><ele>1403.9</ele><time>2026-09-07T11:52:56Z</time></trkpt>
      <trkpt lat="49.201000" lon="20.070000"><ele>1395.0</ele><time>2026-09-07T11:54:32Z</time></trkpt>
    </trkseg>
  </trk>
</gpx>
