<?xml version="1.0" encoding="UTF-8"?>
<gpx version="1.1" creator="tripplanner sample generator" xmlns="http://www.topografix.com/GPX/1/1">
  <metadata>
    <name>Kuźnice → Hala Gąsienicowa</name>
    <time>2026-09-05T07:40:00Z</time>
  </metadata>
  <trk>
    <name>Kuźnice → Hala Gąsienicowa</name>
    <trkseg>
      <trkpt lat="49.271700" lon="19.980000"><ele>1008.1</ele><time>2026-09-05T07:40:00Z</time></trkpt>
      <trkpt lat="49.271467" lon="19.980350"><ele>1016.6</ele><time>2026-09-05T07:41:40Z</time></trkpt>
      <trkpt lat="49.271194" lon="19.980884"><ele>1019.3</ele><time>2026-09-05T07:43:05Z</time></trkpt>
      <trkpt lat="49.270841" lon="19.981375"><ele>1027.8</ele><time>2026-09-05T07:45:10Z</time></trkpt>
      <trkpt lat="49.270513" lon="19.981623"><ele>1030.9</ele><time>2026-09-05T07:46:24Z</time></trkpt>
      <trkpt lat="49.270262" lon="19.982093"><ele>1038.7</ele><time>2026-09-05T07:48:12Z</time></trkpt>
      <trkpt lat="49.269947" lon="19.982534"><ele>1042.5</ele><time>2026-09-05T07:49:41Z</time></trkpt>
      <trkpt lat="49.269663" lon="19.982812"><ele>1047.6</ele><time>2026-09-05T07:51:03Z</time></trkpt>
      <trkpt lat="49.269332" lon="19.983184"><ele>1052.9</ele><time>2026-09-05T07:52:38Z</time></trkpt>
      <trkpt lat="49.269247" lon="19.983698"><ele>1060.8</ele><time>2026-09-05T07:54:19Z</time></trkpt>
      <trkpt lat="49.268799" lon="19.984192"><ele>1067.2</ele><time>2026-09-05T07:56:22Z</time></trkpt>
      <trkpt lat="49.268536" lon="19.984575"><ele>1073.0</ele><time>2026-09-05T07:57:53Z</time></trkpt>
      <trkpt lat="49.268282" lon="19.985025"><ele>1078.2</ele><time>2026-09-05T07:59:24Z</time></trkpt>
      <trkpt lat="49.268047" lon="19.985542"><ele>1080.9</ele><time>2026-09-05T08:00:43Z</time></trkpt>
      <trkpt lat="49.267820" lon="19.985772"><ele>1088.7</ele><time>2026-09-05T08:02:12Z</time></trkpt>
      <trkpt lat="49.267253" lon="19.986376"><ele>1095.5</ele><time>2026-09-05T08:04:39Z</time></trkpt>
      <trkpt lat="49.267014" lon="19.986689"><ele>1097.9</ele><time>2026-09-05T08:05:42Z</time></trkpt>
      <trkpt lat="49.266800" lon="19.987100"><ele>1103.9</ele><time>2026-09-05T08:07:11Z</time></trkpt>
      <trkpt lat="49.266469" lon="19.987390"><ele>1109.3</ele><time>2026-09-05T08:08:42Z</time></trkpt>
      <trkpt lat="49.265970" lon="19.987651"><ele>1112.5</ele><time>2026-09-05T08:10:22Z</time></trkpt>
      <trkpt lat="49.265791" lon="19.987871"><ele>1117.4</ele><time>2026-09-05T08:11:27Z</time></trkpt>
      <trkpt lat="49.265384" lon="19.988441"><ele>1122.3</ele><time>2026-09-05T08:13:22Z</time></trkpt>
      <trkpt lat="49.265157" lon="19.988670"><ele>1124.0</ele><time>2026-09-05T08:14:13Z</time></trkpt>
      <trkpt lat="49.264534" lon="19.988958"><ele>1129.2</ele><time>2026-09-05T08:16:25Z</time></trkpt>
      <trkpt lat="49.264247" lon="19.989261"><ele>1130.5</ele><time>2026-09-05T08:17:26Z</time></trkpt>
      <trkpt lat="49.263927" lon="19.989407"><ele>1136.9</ele><time>2026-09-05T08:18:56Z</time></trkpt>
      <trkpt lat="49.263533" lon="19.989733"><ele>1141.3</ele><time>2026-09-05T08:20:32Z</time></trkpt>
      <trkpt lat="49.263223" lon="19.990002"><ele>1142.4</ele><time>2026-09-05T08:21:33Z</time></trkpt>
      <trkpt lat="49.262796" lon="19.990408"><ele>1147.7</ele><time>2026-09-05T08:23:22Z</time></trkpt>
      <trkpt lat="49.262510" lon="19.990583"><ele>1151.2</ele><time>2026-09-05T08:24:30Z</time></trkpt>
      <trkpt lat="49.262200" lon="19.990843"><ele>1155.4</ele><time>2026-09-05T08:25:50Z</time></trkpt>
      <trkpt lat="49.261589" lon="19.991085"><ele>1157.7</ele><time>2026-09-05T08:27:41Z</time></trkpt>
      <trkpt lat="49.261395" lon="19.991497"><ele>1165.1</ele><time>2026-09-05T08:29:16Z</time></trkpt>
      <trkpt lat="49.260984" lon="19.991863"><ele>1168.9</ele><time>2026-09-05T08:30:52Z</time></trkpt>
      <trkpt lat="49.260683" lon="19.992122"><ele>1171.3</ele><time>2026-09-05T08:32:00Z</time></trkpt>
      <trkpt lat="49.260267" lon="19.992367"><ele>1176.7</ele><time>2026-09-05T08:33:41Z</time></trkpt>
      <trkpt lat="49.259855" lon="19.992653"><ele>1178.8</ele><time>2026-09-05T08:35:03Z</time></trkpt>
      <trkpt lat="49.259462" lon="19.992970"><ele>1182.7</ele><time>2026-09-05T08:36:35Z</time></trkpt>
      <trkpt lat="49.259084" lon="19.993330"><ele>1184.9</ele><time>2026-09-05T08:37:57Z</time></trkpt>
      <trkpt lat="49.258850" lon="19.993419"><ele>1189.5</ele><time>2026-09-05T08:39:02Z</time></trkpt>
      <trkpt lat="49.258284" lon="19.993786"><ele>1193.1</ele><time>2026-09-05T08:40:58Z</time></trkpt>
      <trkpt lat="49.258106" lon="19.994200"><ele>1198.2</ele><time>2026-09-05T08:42:18Z</time></trkpt>
      <trkpt lat="49.257830" lon="19.994342"><ele>1202.3</ele><time>2026-09-05T08:43:28Z</time></trkpt>
      <trkpt lat="49.257382" lon="19.994767"><ele>1204.1</ele><time>2026-09-05T08:45:00Z</time></trkpt>
      <trkpt lat="49.257000" lon="19.995000"><ele>1211.6</ele><time>2026-09-05T08:46:48Z</time></trkpt>
      <trkpt lat="49.256591" lon="19.995357"><ele>1217.7</ele><time>2026-09-05T08:48:37Z</time></trkpt>
      <trkpt lat="49.256294" lon="19.995564"><ele>1224.6</ele><time>2026-09-05T08:50:08Z</time></trkpt>
      <trkpt lat="49.256052" lon="19.996121"><ele>1228.4</ele><time>2026-09-05T08:51:39Z</time></trkpt>
      <trkpt lat="49.255476" lon="19.996343"><ele>1235.4</ele><time>2026-09-05T08:53:52Z</time></trkpt>
      <trkpt lat="49.255337" lon="19.996628"><ele>1244.0</ele><time>2026-09-05T08:55:19Z</time></trkpt>
      <trkpt lat="49.254869" lon="19.997032"><ele>1250.2</ele><time>2026-09-05T08:57:20Z</time></trkpt>
      <trkpt lat="49.254567" lon="19.997400"><ele>1255.4</ele><time>2026-09-05T08:58:50Z</time></trkpt>
      <trkpt lat="49.254235" lon="19.997718"><ele>1264.1</ele><time>2026-09-05T09:00:42Z</time></trkpt>
      <trkpt lat="49.254002" lon="19.997962"><ele>1269.4</ele><time>2026-09-05T09:01:58Z</time></trkpt>
      <trkpt lat="49.253473" lon="19.998541"><ele>1275.3</ele><time>2026-09-05T09:04:13Z</time></trkpt>
      <trkpt lat="49.253290" lon="19.998885"><ele>1280.5</ele><time>2026-09-05T09:05:29Z</time></trkpt>
      <trkpt lat="49.252868" lon="19.999071"><ele>1289.9</ele><time>2026-09-05T09:07:33Z</time></trkpt>
      <trkpt lat="49.252416" lon="19.999408"><ele>1294.6</ele><time>2026-09-05T09:09:19Z</time></trkpt>
      <trkpt lat="49.252133" lon="19.999800"><ele>1300.6</ele><time>2026-09-05T09:10:54Z</time></trkpt>
      <trkpt lat="49.251841" lon="20.000176"><ele>1309.9</ele><time>2026-09-05T09:12:48Z</time></trkpt>
      <trkpt lat="49.251443" lon="20.000443"><ele>1314.5</ele><time>2026-09-05T09:14:22Z</time></trkpt>
      <trkpt lat="49.251189" lon="20.000984"><ele>1321.0</ele><time>2026-09-05T09:16:08Z</time></trkpt>
      <trkpt lat="49.250684" lon="20.001291"><ele>1329.5</ele><time>2026-09-05T09:18:23Z</time></trkpt>
      <trkpt lat="49.250370" lon="20.001426"><ele>1334.8</ele><time>2026-09-05T09:19:45Z</time></trkpt>
      <trkpt lat="49.249992" lon="20.001876"><ele>1341.1</ele><time>2026-09-05T09:21:37Z</time></trkpt>
      <trkpt lat="49.249700" lon="20.002200"><ele>1348.4</ele><time>2026-09-05T09:23:16Z</time></trkpt>
      <trkpt lat="49.249447" lon="20.002544"><ele>1353.0</ele><time>2026-09-05T09:24:35Z</time></trkpt>
      <trkpt lat="49.248854" lon="20.002725"><ele>1362.4</ele><time>2026-09-05T09:27:05Z</time></trkpt>
      <trkpt lat="49.248486" lon="20.003263"><ele>1367.8</ele><time>2026-09-05T09:28:56Z</time></trkpt>
      <trkpt lat="49.248351" lon="20.003480"><ele>1372.9</ele><time>2026-09-05T09:29:56Z</time></trkpt>
      <trkpt lat="49.247939" lon="20.003838"><ele>1381.7</ele><time>2026-09-05T09:32:02Z</time></trkpt>
      <trkpt lat="49.247584" lon="20.004140"><ele>1385.5</ele><time>2026-09-05T09:33:27Z</time></trkpt>
      <trkpt lat="49.247249" lon="20.004479"><ele>1394.5</ele><time>2026-09-05T09:35:23Z</time></trkpt>
      <trkpt lat="49.246953" lon="20.004949"><ele>1401.0</ele><time>2026-09-05T09:37:08Z</time></trkpt>
      <trkpt lat="49.246608" lon="20.005222"><ele>1406.4</ele><time>2026-09-05T09:38:40Z</time></trkpt>
      <trkpt lat="49.246174" lon="20.005390"><ele>1413.2</ele><time>2026-09-05T09:40:30Z</time></trkpt>
      <trkpt lat="49.245820" lon="20.005804"><ele>1420.9</ele><time>2026-09-05T09:42:25Z</time></trkpt>
      <trkpt lat="49.245528" lon="20.006124"><ele>1426.8</ele><time>2026-09-05T09:43:55Z</time></trkpt>
      <trkpt lat="49.245306" lon="20.006460"><ele>1431.2</ele><time>2026-09-05T09:45:10Z</time></trkpt>
      <trkpt lat="49.244644" lon="20.006737"><ele>1440.9</ele><time>2026-09-05T09:47:54Z</time></trkpt>
      <trkpt lat="49.244457" lon="20.007033"><ele>1443.6</ele><time>2026-09-05T09:48:52Z</time></trkpt>
      <trkpt lat="49.244100" lon="20.007400"><ele>1452.3</ele><time>2026-09-05T09:50:50Z</time></trkpt>
      <trkpt lat="49.243795" lon="20.007595"><ele>1456.2</ele><time>2026-09-05T09:52:04Z</time></trkpt>
      <trkpt lat="49.243671" lon="20.008126"><ele>1460.7</ele><time>2026-09-05T09:53:28Z</time></trkpt>
      <trkpt lat="49.243217" lon="20.008400"><ele>1464.1</ele><time>2026-09-05T09:55:03Z</time></trkpt>
      <trkpt lat="49.243067" lon="20.008600"><ele>1466.0</ele><time>2026-09-05T09:55:45Z</time></trkpt>
      <trkpt lat="49.242704" lon="20.008837"><ele>1471.3</ele><time>2026-09-05T09:57:18Z</time></trkpt>
      <trkpt lat="49.242495" lon="20.009202"><ele>1475.0</ele><time>2026-09-05T09:58:29Z</time></trkpt>
      <trkpt lat="49.242178" lon="20.009561"><ele>1479.3</ele><time>2026-09-05T09:59:55Z</time></trkpt>
      <trkpt lat="49.242033" lon="20.009800"><ele>1482.4</ele><time>2026-09-05T10:00:47Z</time></trkpt>
      <trkpt lat="49.241806" lon="20.010070"><ele>1486.4</ele><time>2026-09-05T10:01:55Z</time></trkpt>
      <trkpt lat="49.241418" lon="20.010510"><ele>1493.3</ele><time>2026-09-05T10:03:51Z</time></trkpt>
      <trkpt lat="49.241213" lon="20.010786"><ele>1495.0</ele><time>2026-09-05T10:04:43Z</time></trkpt>
      <trkpt lat="49.241000" lon="20.011000"><ele>1500.0</ele><time>2026-09-05T10:05:52Z</time></trkpt>
    </trkseg>
  </trk>
</gpx>
