<?xml version="1.0" encoding="UTF-8"?>
<gpx version="1.1" creator="tripplanner (sketch line from researched control points)" xmlns="http://www.topografix.com/GPX/1/1">
  <metadata>
    <name>taurus-coast-cols — Arslanköy → Fındıkpınarı → Mersin</name>
    <desc>60.0 km, 703 m. Sketch line through researched control points, calibrated to 60 km / 700 m of road — drawn, not routed.</desc>
  </metadata>
  <trk>
    <name>taurus-coast-cols — Arslanköy → Fındıkpınarı → Mersin</name>
    <trkseg>
    <trkpt lat="36.913000" lon="34.363000"><ele>1475.0</ele></trkpt>
    <trkpt lat="36.912824" lon="34.363394"><ele>1473.2</ele></trkpt>
    <trkpt lat="36.912652" lon="34.363791"><ele>1471.7</ele></trkpt>
    <trkpt lat="36.912443" lon="34.364159"><ele>1470.2</ele></trkpt>
    <trkpt lat="36.912198" lon="34.364499"><ele>1468.6</ele></trkpt>
    <trkpt lat="36.911971" lon="34.364853"><ele>1466.9</ele></trkpt>
    <trkpt lat="36.911818" lon="34.365264"><ele>1464.9</ele></trkpt>
    <trkpt lat="36.911729" lon="34.365725"><ele>1462.6</ele></trkpt>
    <trkpt lat="36.911616" lon="34.366168"><ele>1460.0</ele></trkpt>
    <trkpt lat="36.911393" lon="34.366525"><ele>1457.2</ele></trkpt>
    <trkpt lat="36.911064" lon="34.366800"><ele>1454.3</ele></trkpt>
    <trkpt lat="36.910745" lon="34.367083"><ele>1451.6</ele></trkpt>
    <trkpt lat="36.910566" lon="34.367474"><ele>1449.2</ele></trkpt>
    <trkpt lat="36.910541" lon="34.367985"><ele>1447.3</ele></trkpt>
    <trkpt lat="36.910541" lon="34.368515"><ele>1446.1</ele></trkpt>
    <trkpt lat="36.910388" lon="34.368926"><ele>1445.4</ele></trkpt>
    <trkpt lat="36.910026" lon="34.369176"><ele>1445.1</ele></trkpt>
    <trkpt lat="36.909589" lon="34.369368"><ele>1445.0</ele></trkpt>
    <trkpt lat="36.909298" lon="34.369672"><ele>1444.9</ele></trkpt>
    <trkpt lat="36.909263" lon="34.370176"><ele>1444.3</ele></trkpt>
    <trkpt lat="36.909372" lon="34.370789"><ele>1443.1</ele></trkpt>
    <trkpt lat="36.909365" lon="34.371313"><ele>1441.0</ele></trkpt>
    <trkpt lat="36.909063" lon="34.371610"><ele>1438.0</ele></trkpt>
    <trkpt lat="36.908541" lon="34.371736"><ele>1434.3</ele></trkpt>
    <trkpt lat="36.908083" lon="34.371912"><ele>1430.0</ele></trkpt>
    <trkpt lat="36.907938" lon="34.372329"><ele>1425.5</ele></trkpt>
    <trkpt lat="36.908091" lon="34.372977"><ele>1421.2</ele></trkpt>
    <trkpt lat="36.908256" lon="34.373634"><ele>1417.6</ele></trkpt>
    <trkpt lat="36.908113" lon="34.374054"><ele>1414.9</ele></trkpt>
    <trkpt lat="36.907600" lon="34.374186"><ele>1413.5</ele></trkpt>
    <trkpt lat="36.906981" lon="34.374238"><ele>1413.2</ele></trkpt>
    <trkpt lat="36.906635" lon="34.374500"><ele>1413.9</ele></trkpt>
    <trkpt lat="36.906721" lon="34.375096"><ele>1415.3</ele></trkpt>
    <trkpt lat="36.907017" lon="34.375855"><ele>1416.8</ele></trkpt>
    <trkpt lat="36.907102" lon="34.376450"><ele>1417.9</ele></trkpt>
    <trkpt lat="36.906719" lon="34.376684"><ele>1418.2</ele></trkpt>
    <trkpt lat="36.906014" lon="34.376669"><ele>1417.2</ele></trkpt>
    <trkpt lat="36.905431" lon="34.376747"><ele>1414.8</ele></trkpt>
    <trkpt lat="36.905325" lon="34.377196"><ele>1410.9</ele></trkpt>
    <trkpt lat="36.905647" lon="34.377974"><ele>1405.7</ele></trkpt>
    <trkpt lat="36.905962" lon="34.378747"><ele>1399.9</ele></trkpt>
    <trkpt lat="36.905822" lon="34.379169"><ele>1393.8</ele></trkpt>
    <trkpt lat="36.905162" lon="34.379188"><ele>1388.3</ele></trkpt>
    <trkpt lat="36.904378" lon="34.379112"><ele>1383.9</ele></trkpt>
    <trkpt lat="36.903990" lon="34.379342"><ele>1381.1</ele></trkpt>
    <trkpt lat="36.904192" lon="34.380027"><ele>1380.0</ele></trkpt>
    <trkpt lat="36.904660" lon="34.380919"><ele>1380.6</ele></trkpt>
    <trkpt lat="36.904823" lon="34.381574"><ele>1382.6</ele></trkpt>
    <trkpt lat="36.904358" lon="34.381745"><ele>1385.5</ele></trkpt>
    <trkpt lat="36.903486" lon="34.381600"><ele>1388.4</ele></trkpt>
    <trkpt lat="36.902794" lon="34.381596"><ele>1390.8</ele></trkpt>
    <trkpt lat="36.902733" lon="34.382078"><ele>1391.8</ele></trkpt>
    <trkpt lat="36.903210" lon="34.382976"><ele>1390.9</ele></trkpt>
    <trkpt lat="36.903655" lon="34.383850"><ele>1388.1</ele></trkpt>
    <trkpt lat="36.903509" lon="34.384266"><ele>1383.3</ele></trkpt>
    <trkpt lat="36.902714" lon="34.384182"><ele>1376.9</ele></trkpt>
    <trkpt lat="36.901785" lon="34.383994"><ele>1369.7</ele></trkpt>
    <trkpt lat="36.901369" lon="34.384201"><ele>1362.4</ele></trkpt>
    <trkpt lat="36.901679" lon="34.384970"><ele>1355.8</ele></trkpt>
    <trkpt lat="36.902296" lon="34.385977"><ele>1350.7</ele></trkpt>
    <trkpt lat="36.902520" lon="34.386680"><ele>1347.8</ele></trkpt>
    <trkpt lat="36.901977" lon="34.386790"><ele>1347.1</ele></trkpt>
    <trkpt lat="36.900959" lon="34.386533"><ele>1348.5</ele></trkpt>
    <trkpt lat="36.900180" lon="34.386461"><ele>1351.7</ele></trkpt>
    <trkpt lat="36.900165" lon="34.386978"><ele>1355.8</ele></trkpt>
    <trkpt lat="36.900777" lon="34.387981"><ele>1359.9</ele></trkpt>
    <trkpt lat="36.901329" lon="34.388937"><ele>1363.2</ele></trkpt>
    <trkpt lat="36.901168" lon="34.389343"><ele>1364.7</ele></trkpt>
    <trkpt lat="36.900255" lon="34.389167"><ele>1364.0</ele></trkpt>
    <trkpt lat="36.899208" lon="34.388888"><ele>1360.8</ele></trkpt>
    <trkpt lat="36.898775" lon="34.389083"><ele>1355.2</ele></trkpt>
    <trkpt lat="36.899182" lon="34.389926"><ele>1347.8</ele></trkpt>
    <trkpt lat="36.899922" lon="34.391028"><ele>1339.5</ele></trkpt>
    <trkpt lat="36.900189" lon="34.391764"><ele>1331.1</ele></trkpt>
    <trkpt lat="36.899574" lon="34.391819"><ele>1323.7</ele></trkpt>
    <trkpt lat="36.898435" lon="34.391468"><ele>1318.2</ele></trkpt>
    <trkpt lat="36.897593" lon="34.391347"><ele>1315.2</ele></trkpt>
    <trkpt lat="36.897623" lon="34.391900"><ele>1314.8</ele></trkpt>
    <trkpt lat="36.898347" lon="34.392989"><ele>1317.0</ele></trkpt>
    <trkpt lat="36.898978" lon="34.394006"><ele>1321.0</ele></trkpt>
    <trkpt lat="36.898797" lon="34.394396"><ele>1326.1</ele></trkpt>
    <trkpt lat="36.897787" lon="34.394145"><ele>1331.1</ele></trkpt>
    <trkpt lat="36.896651" lon="34.393797"><ele>1335.0</ele></trkpt>
    <trkpt lat="36.896215" lon="34.393989"><ele>1337.0</ele></trkpt>
    <trkpt lat="36.896702" lon="34.394895"><ele>1336.2</ele></trkpt>
    <trkpt lat="36.897534" lon="34.396068"><ele>1332.7</ele></trkpt>
    <trkpt lat="36.897824" lon="34.396822"><ele>1326.5</ele></trkpt>
    <trkpt lat="36.897148" lon="34.396829"><ele>1318.4</ele></trkpt>
    <trkpt lat="36.895920" lon="34.396409"><ele>1309.2</ele></trkpt>
    <trkpt lat="36.895038" lon="34.396258"><ele>1300.1</ele></trkpt>
    <trkpt lat="36.895111" lon="34.396844"><ele>1292.2</ele></trkpt>
    <trkpt lat="36.895917" lon="34.397997"><ele>1286.5</ele></trkpt>
    <trkpt lat="36.896598" lon="34.399052"><ele>1283.5</ele></trkpt>
    <trkpt lat="36.896394" lon="34.399424"><ele>1283.4</ele></trkpt>
    <trkpt lat="36.895310" lon="34.399116"><ele>1286.1</ele></trkpt>
    <trkpt lat="36.894118" lon="34.398725"><ele>1290.7</ele></trkpt>
    <trkpt lat="36.893690" lon="34.398924"><ele>1296.4</ele></trkpt>
    <trkpt lat="36.894238" lon="34.399877"><ele>1302.0</ele></trkpt>
    <trkpt lat="36.895128" lon="34.401094"><ele>1306.3</ele></trkpt>
    <trkpt lat="36.895423" lon="34.401851"><ele>1308.4</ele></trkpt>
    <trkpt lat="36.894698" lon="34.401821"><ele>1307.6</ele></trkpt>
    <trkpt lat="36.893414" lon="34.401359"><ele>1303.8</ele></trkpt>
    <trkpt lat="36.892519" lon="34.401196"><ele>1297.2</ele></trkpt>
    <trkpt lat="36.892628" lon="34.401810"><ele>1288.6</ele></trkpt>
    <trkpt lat="36.893486" lon="34.403003"><ele>1279.0</ele></trkpt>
    <trkpt lat="36.894186" lon="34.404074"><ele>1269.6</ele></trkpt>
    <trkpt lat="36.893955" lon="34.404425"><ele>1261.4</ele></trkpt>
    <trkpt lat="36.892827" lon="34.404082"><ele>1255.6</ele></trkpt>
    <trkpt lat="36.891613" lon="34.403674"><ele>1252.7</ele></trkpt>
    <trkpt lat="36.891203" lon="34.403887"><ele>1252.9</ele></trkpt>
    <trkpt lat="36.891790" lon="34.404870"><ele>1255.8</ele></trkpt>
    <trkpt lat="36.892701" lon="34.406104"><ele>1260.7</ele></trkpt>
    <trkpt lat="36.892983" lon="34.406851"><ele>1266.7</ele></trkpt>
    <trkpt lat="36.892226" lon="34.406796"><ele>1272.4</ele></trkpt>
    <trkpt lat="36.890921" lon="34.406318"><ele>1276.8</ele></trkpt>
    <trkpt lat="36.890037" lon="34.406164"><ele>1278.8</ele></trkpt>
    <trkpt lat="36.890174" lon="34.406799"><ele>1278.0</ele></trkpt>
    <trkpt lat="36.891049" lon="34.408005"><ele>1274.0</ele></trkpt>
    <trkpt lat="36.891739" lon="34.409068"><ele>1267.3</ele></trkpt>
    <trkpt lat="36.891483" lon="34.409399"><ele>1258.5</ele></trkpt>
    <trkpt lat="36.890339" lon="34.409045"><ele>1248.8</ele></trkpt>
    <trkpt lat="36.889137" lon="34.408646"><ele>1239.4</ele></trkpt>
    <trkpt lat="36.888753" lon="34.408880"><ele>1231.4</ele></trkpt>
    <trkpt lat="36.889354" lon="34.409873"><ele>1225.7</ele></trkpt>
    <trkpt lat="36.890251" lon="34.411096"><ele>1222.9</ele></trkpt>
    <trkpt lat="36.890504" lon="34.411821"><ele>1223.2</ele></trkpt>
    <trkpt lat="36.889732" lon="34.411755"><ele>1226.2</ele></trkpt>
    <trkpt lat="36.888445" lon="34.411289"><ele>1231.1</ele></trkpt>
    <trkpt lat="36.887593" lon="34.411161"><ele>1236.9</ele></trkpt>
    <trkpt lat="36.887748" lon="34.411810"><ele>1242.5</ele></trkpt>
    <trkpt lat="36.888606" lon="34.413003"><ele>1246.6</ele></trkpt>
    <trkpt lat="36.889257" lon="34.414035"><ele>1248.4</ele></trkpt>
    <trkpt lat="36.888977" lon="34.414348"><ele>1247.3</ele></trkpt>
    <trkpt lat="36.887850" lon="34.414007"><ele>1243.3</ele></trkpt>
    <trkpt lat="36.886692" lon="34.413643"><ele>1236.6</ele></trkpt>
    <trkpt lat="36.886341" lon="34.413901"><ele>1228.1</ele></trkpt>
    <trkpt lat="36.886928" lon="34.414884"><ele>1218.7</ele></trkpt>
    <trkpt lat="36.887776" lon="34.416069"><ele>1209.7</ele></trkpt>
    <trkpt lat="36.887986" lon="34.416761"><ele>1202.1</ele></trkpt>
    <trkpt lat="36.887220" lon="34.416699"><ele>1196.7</ele></trkpt>
    <trkpt lat="36.885985" lon="34.416274"><ele>1194.1</ele></trkpt>
    <trkpt lat="36.885188" lon="34.416188"><ele>1194.4</ele></trkpt>
    <trkpt lat="36.885348" lon="34.416841"><ele>1197.2</ele></trkpt>
    <trkpt lat="36.886153" lon="34.417993"><ele>1201.7</ele></trkpt>
    <trkpt lat="36.886739" lon="34.418975"><ele>1207.1</ele></trkpt>
    <trkpt lat="36.886439" lon="34.419273"><ele>1212.0</ele></trkpt>
    <trkpt lat="36.885361" lon="34.418969"><ele>1215.6</ele></trkpt>
    <trkpt lat="36.884279" lon="34.418663"><ele>1217.0</ele></trkpt>
    <trkpt lat="36.883963" lon="34.418949"><ele>1215.8</ele></trkpt>
    <trkpt lat="36.884511" lon="34.419901"><ele>1211.8</ele></trkpt>
    <trkpt lat="36.885275" lon="34.421022"><ele>1205.4</ele></trkpt>
    <trkpt lat="36.885432" lon="34.421672"><ele>1197.4</ele></trkpt>
    <trkpt lat="36.884693" lon="34.421631"><ele>1188.8</ele></trkpt>
    <trkpt lat="36.883545" lon="34.421273"><ele>1180.4</ele></trkpt>
    <trkpt lat="36.882819" lon="34.421242"><ele>1173.5</ele></trkpt>
    <trkpt lat="36.882970" lon="34.421888"><ele>1168.6</ele></trkpt>
    <trkpt lat="36.883689" lon="34.422974"><ele>1166.2</ele></trkpt>
    <trkpt lat="36.884186" lon="34.423887"><ele>1166.4</ele></trkpt>
    <trkpt lat="36.883875" lon="34.424176"><ele>1168.7</ele></trkpt>
    <trkpt lat="36.882875" lon="34.423934"><ele>1172.6</ele></trkpt>
    <trkpt lat="36.881897" lon="34.423708"><ele>1177.1</ele></trkpt>
    <trkpt lat="36.881617" lon="34.424021"><ele>1181.2</ele></trkpt>
    <trkpt lat="36.882098" lon="34.424922"><ele>1184.0</ele></trkpt>
    <trkpt lat="36.882749" lon="34.425954"><ele>1184.8</ele></trkpt>
    <trkpt lat="36.882845" lon="34.426558"><ele>1183.3</ele></trkpt>
    <trkpt lat="36.882154" lon="34.426554"><ele>1179.5</ele></trkpt>
    <trkpt lat="36.881124" lon="34.426288"><ele>1173.7</ele></trkpt>
    <trkpt lat="36.880484" lon="34.426323"><ele>1166.5</ele></trkpt>
    <trkpt lat="36.880610" lon="34.426950"><ele>1158.9</ele></trkpt>
    <trkpt lat="36.881213" lon="34.427945"><ele>1151.6</ele></trkpt>
    <trkpt lat="36.881601" lon="34.428775"><ele>1145.5</ele></trkpt>
    <trkpt lat="36.881286" lon="34.429062"><ele>1141.3</ele></trkpt>
    <trkpt lat="36.880395" lon="34.428903"><ele>1139.1</ele></trkpt>
    <trkpt lat="36.879544" lon="34.428775"><ele>1139.1</ele></trkpt>
    <trkpt lat="36.879298" lon="34.429114"><ele>1140.8</ele></trkpt>
    <trkpt lat="36.879687" lon="34.429944"><ele>1143.7</ele></trkpt>
    <trkpt lat="36.880197" lon="34.430868"><ele>1147.0</ele></trkpt>
    <trkpt lat="36.880228" lon="34.431421"><ele>1149.9</ele></trkpt>
    <trkpt lat="36.879606" lon="34.431471"><ele>1151.7</ele></trkpt>
    <trkpt lat="36.878722" lon="34.431318"><ele>1151.8</ele></trkpt>
    <trkpt lat="36.878178" lon="34.431427"><ele>1150.1</ele></trkpt>
    <trkpt lat="36.878264" lon="34.432023"><ele>1146.6</ele></trkpt>
    <trkpt lat="36.878723" lon="34.432907"><ele>1141.6</ele></trkpt>
    <trkpt lat="36.878988" lon="34.433641"><ele>1135.5</ele></trkpt>
    <trkpt lat="36.878680" lon="34.433933"><ele>1129.2</ele></trkpt>
    <trkpt lat="36.877923" lon="34.433877"><ele>1123.2</ele></trkpt>
    <trkpt lat="36.877217" lon="34.433862"><ele>1118.2</ele></trkpt>
    <trkpt lat="36.877000" lon="34.434224"><ele>1114.7</ele></trkpt>
    <trkpt lat="36.877274" lon="34.434965"><ele>1112.7</ele></trkpt>
    <trkpt lat="36.877623" lon="34.435764"><ele>1112.3</ele></trkpt>
    <trkpt lat="36.877588" lon="34.436266"><ele>1113.2</ele></trkpt>
    <trkpt lat="36.877054" lon="34.436384"><ele>1114.8</ele></trkpt>
    <trkpt lat="36.876340" lon="34.436362"><ele>1116.7</ele></trkpt>
    <trkpt lat="36.875897" lon="34.436549"><ele>1118.2</ele></trkpt>
    <trkpt lat="36.875927" lon="34.437102"><ele>1118.8</ele></trkpt>
    <trkpt lat="36.876219" lon="34.437857"><ele>1118.3</ele></trkpt>
    <trkpt lat="36.876350" lon="34.438488"><ele>1116.4</ele></trkpt>
    <trkpt lat="36.876061" lon="34.438794"><ele>1113.2</ele></trkpt>
    <trkpt lat="36.875459" lon="34.438859"><ele>1109.1</ele></trkpt>
    <trkpt lat="36.874912" lon="34.438966"><ele>1104.4</ele></trkpt>
    <trkpt lat="36.874718" lon="34.439346"><ele>1099.6</ele></trkpt>
    <trkpt lat="36.874857" lon="34.439982"><ele>1095.1</ele></trkpt>
    <trkpt lat="36.875029" lon="34.440645"><ele>1091.4</ele></trkpt>
    <trkpt lat="36.874930" lon="34.441098"><ele>1088.6</ele></trkpt>
    <trkpt lat="36.874503" lon="34.441298"><ele>1086.8</ele></trkpt>
    <trkpt lat="36.873973" lon="34.441418"><ele>1086.0</ele></trkpt>
    <trkpt lat="36.873634" lon="34.441686"><ele>1085.8</ele></trkpt>
    <trkpt lat="36.873594" lon="34.442184"><ele>1086.0</ele></trkpt>
    <trkpt lat="36.873701" lon="34.442797"><ele>1086.3</ele></trkpt>
    <trkpt lat="36.873695" lon="34.443322"><ele>1086.2</ele></trkpt>
    <trkpt lat="36.873435" lon="34.443650"><ele>1085.6</ele></trkpt>
    <trkpt lat="36.873005" lon="34.443848"><ele>1084.2</ele></trkpt>
    <trkpt lat="36.872625" lon="34.444084"><ele>1082.2</ele></trkpt>
    <trkpt lat="36.872445" lon="34.444475"><ele>1079.6</ele></trkpt>
    <trkpt lat="36.872433" lon="34.444995"><ele>1076.5</ele></trkpt>
    <trkpt lat="36.872419" lon="34.445514"><ele>1073.3</ele></trkpt>
    <trkpt lat="36.872261" lon="34.445921"><ele>1070.2</ele></trkpt>
    <trkpt lat="36.871955" lon="34.446214"><ele>1067.3</ele></trkpt>
    <trkpt lat="36.871622" lon="34.446486"><ele>1064.8</ele></trkpt>
    <trkpt lat="36.871383" lon="34.446831"><ele>1062.8</ele></trkpt>
    <trkpt lat="36.871259" lon="34.447266"><ele>1061.2</ele></trkpt>
    <trkpt lat="36.871171" lon="34.447727"><ele>1059.8</ele></trkpt>
    <trkpt lat="36.871028" lon="34.448146"><ele>1058.5</ele></trkpt>
    <trkpt lat="36.870808" lon="34.448505"><ele>1057.2</ele></trkpt>
    <trkpt lat="36.870562" lon="34.448846"><ele>1055.7</ele></trkpt>
    <trkpt lat="36.870349" lon="34.449211"><ele>1054.0</ele></trkpt>
    <trkpt lat="36.870175" lon="34.449605"><ele>1052.1</ele></trkpt>
    <trkpt lat="36.870000" lon="34.450000"><ele>1050.0</ele></trkpt>
    <trkpt lat="36.869649" lon="34.450100"><ele>1051.9</ele></trkpt>
    <trkpt lat="36.869300" lon="34.450217"><ele>1053.6</ele></trkpt>
    <trkpt lat="36.868941" lon="34.450254"><ele>1055.1</ele></trkpt>
    <trkpt lat="36.868570" lon="34.450196"><ele>1056.1</ele></trkpt>
    <trkpt lat="36.868202" lon="34.450161"><ele>1056.8</ele></trkpt>
    <trkpt lat="36.867855" lon="34.450293"><ele>1057.1</ele></trkpt>
    <trkpt lat="36.867530" lon="34.450591"><ele>1057.4</ele></trkpt>
    <trkpt lat="36.867201" lon="34.450867"><ele>1057.9</ele></trkpt>
    <trkpt lat="36.866842" lon="34.450900"><ele>1058.8</ele></trkpt>
    <trkpt lat="36.866449" lon="34.450667"><ele>1060.3</ele></trkpt>
    <trkpt lat="36.866052" lon="34.450409"><ele>1062.7</ele></trkpt>
    <trkpt lat="36.865692" lon="34.450440"><ele>1065.7</ele></trkpt>
    <trkpt lat="36.865381" lon="34.450854"><ele>1069.2</ele></trkpt>
    <trkpt lat="36.865086" lon="34.451386"><ele>1073.0</ele></trkpt>
    <trkpt lat="36.864752" lon="34.451621"><ele>1076.6</ele></trkpt>
    <trkpt lat="36.864355" lon="34.451363"><ele>1079.5</ele></trkpt>
    <trkpt lat="36.863926" lon="34.450852"><ele>1081.5</ele></trkpt>
    <trkpt lat="36.863530" lon="34.450597"><ele>1082.3</ele></trkpt>
    <trkpt lat="36.863208" lon="34.450926"><ele>1082.0</ele></trkpt>
    <trkpt lat="36.862939" lon="34.451665"><ele>1080.6</ele></trkpt>
    <trkpt lat="36.862650" lon="34.452246"><ele>1078.6</ele></trkpt>
    <trkpt lat="36.862279" lon="34.452191"><ele>1076.4</ele></trkpt>
    <trkpt lat="36.861834" lon="34.451556"><ele>1074.7</ele></trkpt>
    <trkpt lat="36.861391" lon="34.450931"><ele>1074.1</ele></trkpt>
    <trkpt lat="36.861028" lon="34.450943"><ele>1074.9</ele></trkpt>
    <trkpt lat="36.860761" lon="34.451693"><ele>1077.3</ele></trkpt>
    <trkpt lat="36.860517" lon="34.452626"><ele>1081.3</ele></trkpt>
    <trkpt lat="36.860199" lon="34.452983"><ele>1086.7</ele></trkpt>
    <trkpt lat="36.859769" lon="34.452470"><ele>1092.7</ele></trkpt>
    <trkpt lat="36.859288" lon="34.451555"><ele>1098.8</ele></trkpt>
    <trkpt lat="36.858865" lon="34.451090"><ele>1104.2</ele></trkpt>
    <trkpt lat="36.858564" lon="34.451578"><ele>1108.1</ele></trkpt>
    <trkpt lat="36.858344" lon="34.452700"><ele>1110.2</ele></trkpt>
    <trkpt lat="36.858090" lon="34.453557"><ele>1110.3</ele></trkpt>
    <trkpt lat="36.857711" lon="34.453440"><ele>1108.3</ele></trkpt>
    <trkpt lat="36.857223" lon="34.452470"><ele>1104.9</ele></trkpt>
    <trkpt lat="36.856739" lon="34.451527"><ele>1100.6</ele></trkpt>
    <trkpt lat="36.856373" lon="34.451507"><ele>1096.4</ele></trkpt>
    <trkpt lat="36.856140" lon="34.452528"><ele>1093.2</ele></trkpt>
    <trkpt lat="36.855938" lon="34.453794"><ele>1091.6</ele></trkpt>
    <trkpt lat="36.855635" lon="34.454264"><ele>1092.3</ele></trkpt>
    <trkpt lat="36.855181" lon="34.453559"><ele>1095.4</ele></trkpt>
    <trkpt lat="36.854658" lon="34.452319"><ele>1100.8</ele></trkpt>
    <trkpt lat="36.854212" lon="34.451677"><ele>1107.9</ele></trkpt>
    <trkpt lat="36.853925" lon="34.452276"><ele>1115.9</ele></trkpt>
    <trkpt lat="36.853743" lon="34.453691"><ele>1123.7</ele></trkpt>
    <trkpt lat="36.853517" lon="34.454768"><ele>1130.4</ele></trkpt>
    <trkpt lat="36.853134" lon="34.454619"><ele>1135.1</ele></trkpt>
    <trkpt lat="36.852615" lon="34.453405"><ele>1137.3</ele></trkpt>
    <trkpt lat="36.852100" lon="34.452222"><ele>1136.8</ele></trkpt>
    <trkpt lat="36.851729" lon="34.452165"><ele>1133.7</ele></trkpt>
    <trkpt lat="36.851519" lon="34.453369"><ele>1128.8</ele></trkpt>
    <trkpt lat="36.851348" lon="34.454873"><ele>1123.1</ele></trkpt>
    <trkpt lat="36.851057" lon="34.455435"><ele>1117.5</ele></trkpt>
    <trkpt lat="36.850587" lon="34.454610"><ele>1113.2</ele></trkpt>
    <trkpt lat="36.850037" lon="34.453155"><ele>1111.0</ele></trkpt>
    <trkpt lat="36.849575" lon="34.452386"><ele>1111.7</ele></trkpt>
    <trkpt lat="36.849295" lon="34.453042"><ele>1115.3</ele></trkpt>
    <trkpt lat="36.849136" lon="34.454635"><ele>1121.5</ele></trkpt>
    <trkpt lat="36.848928" lon="34.455855"><ele>1129.6</ele></trkpt>
    <trkpt lat="36.848545" lon="34.455702"><ele>1138.7</ele></trkpt>
    <trkpt lat="36.848009" lon="34.454356"><ele>1147.5</ele></trkpt>
    <trkpt lat="36.847476" lon="34.453033"><ele>1154.9</ele></trkpt>
    <trkpt lat="36.847100" lon="34.452941"><ele>1160.0</ele></trkpt>
    <trkpt lat="36.846902" lon="34.454229"><ele>1162.1</ele></trkpt>
    <trkpt lat="36.846746" lon="34.455853"><ele>1161.3</ele></trkpt>
    <trkpt lat="36.846461" lon="34.456472"><ele>1157.7</ele></trkpt>
    <trkpt lat="36.845987" lon="34.455608"><ele>1152.2</ele></trkpt>
    <trkpt lat="36.845426" lon="34.454065"><ele>1145.8</ele></trkpt>
    <trkpt lat="36.844956" lon="34.453234"><ele>1139.7</ele></trkpt>
    <trkpt lat="36.844676" lon="34.453893"><ele>1135.0</ele></trkpt>
    <trkpt lat="36.844523" lon="34.455536"><ele>1132.8</ele></trkpt>
    <trkpt lat="36.844322" lon="34.456807"><ele>1133.5</ele></trkpt>
    <trkpt lat="36.843941" lon="34.456672"><ele>1137.2</ele></trkpt>
    <trkpt lat="36.843404" lon="34.455314"><ele>1143.7</ele></trkpt>
    <trkpt lat="36.842867" lon="34.453966"><ele>1152.0</ele></trkpt>
    <trkpt lat="36.842489" lon="34.453850"><ele>1161.2</ele></trkpt>
    <trkpt lat="36.842287" lon="34.455118"><ele>1170.0</ele></trkpt>
    <trkpt lat="36.842131" lon="34.456732"><ele>1177.4</ele></trkpt>
    <trkpt lat="36.841848" lon="34.457365"><ele>1182.4</ele></trkpt>
    <trkpt lat="36.841379" lon="34.456542"><ele>1184.5</ele></trkpt>
    <trkpt lat="36.840823" lon="34.455045"><ele>1183.6</ele></trkpt>
    <trkpt lat="36.840355" lon="34.454227"><ele>1180.1</ele></trkpt>
    <trkpt lat="36.840070" lon="34.454840"><ele>1174.8</ele></trkpt>
    <trkpt lat="36.839906" lon="34.456402"><ele>1168.8</ele></trkpt>
    <trkpt lat="36.839699" lon="34.457622"><ele>1163.1</ele></trkpt>
    <trkpt lat="36.839322" lon="34.457522"><ele>1158.9</ele></trkpt>
    <trkpt lat="36.838798" lon="34.456270"><ele>1157.0</ele></trkpt>
    <trkpt lat="36.838274" lon="34.455017"><ele>1157.8</ele></trkpt>
    <trkpt lat="36.837894" lon="34.454895"><ele>1161.4</ele></trkpt>
    <trkpt lat="36.837678" lon="34.456045"><ele>1167.4</ele></trkpt>
    <trkpt lat="36.837503" lon="34.457521"><ele>1175.1</ele></trkpt>
    <trkpt lat="36.837216" lon="34.458116"><ele>1183.5</ele></trkpt>
    <trkpt lat="36.836761" lon="34.457404"><ele>1191.4</ele></trkpt>
    <trkpt lat="36.836228" lon="34.456085"><ele>1198.0</ele></trkpt>
    <trkpt lat="36.835772" lon="34.455358"><ele>1202.4</ele></trkpt>
    <trkpt lat="36.835475" lon="34.455885"><ele>1204.3</ele></trkpt>
    <trkpt lat="36.835286" lon="34.457244"><ele>1203.7</ele></trkpt>
    <trkpt lat="36.835059" lon="34.458313"><ele>1200.9</ele></trkpt>
    <trkpt lat="36.834688" lon="34.458255"><ele>1196.7</ele></trkpt>
    <trkpt lat="36.834191" lon="34.457216"><ele>1192.0</ele></trkpt>
    <trkpt lat="36.833694" lon="34.456172"><ele>1187.6</ele></trkpt>
    <trkpt lat="36.833317" lon="34.456067"><ele>1184.6</ele></trkpt>
    <trkpt lat="36.833074" lon="34.457016"><ele>1183.4</ele></trkpt>
    <trkpt lat="36.832867" lon="34.458233"><ele>1184.5</ele></trkpt>
    <trkpt lat="36.832568" lon="34.458739"><ele>1187.7</ele></trkpt>
    <trkpt lat="36.832135" lon="34.458196"><ele>1192.8</ele></trkpt>
    <trkpt lat="36.831639" lon="34.457170"><ele>1199.0</ele></trkpt>
    <trkpt lat="36.831204" lon="34.456609"><ele>1205.6</ele></trkpt>
    <trkpt lat="36.830893" lon="34.457022"><ele>1211.8</ele></trkpt>
    <trkpt lat="36.830664" lon="34.458072"><ele>1216.9</ele></trkpt>
    <trkpt lat="36.830406" lon="34.458901"><ele>1220.4</ele></trkpt>
    <trkpt lat="36.830040" lon="34.458884"><ele>1222.0</ele></trkpt>
    <trkpt lat="36.829582" lon="34.458144"><ele>1221.9</ele></trkpt>
    <trkpt lat="36.829124" lon="34.457407"><ele>1220.3</ele></trkpt>
    <trkpt lat="36.828753" lon="34.457347"><ele>1217.9</ele></trkpt>
    <trkpt lat="36.828476" lon="34.458030"><ele>1215.2</ele></trkpt>
    <trkpt lat="36.828223" lon="34.458891"><ele>1212.9</ele></trkpt>
    <trkpt lat="36.827906" lon="34.459258"><ele>1211.6</ele></trkpt>
    <trkpt lat="36.827500" lon="34.458923"><ele>1211.6</ele></trkpt>
    <trkpt lat="36.827054" lon="34.458281"><ele>1212.9</ele></trkpt>
    <trkpt lat="36.826648" lon="34.457951"><ele>1215.6</ele></trkpt>
    <trkpt lat="36.826321" lon="34.458236"><ele>1219.3</ele></trkpt>
    <trkpt lat="36.826042" lon="34.458900"><ele>1223.5</ele></trkpt>
    <trkpt lat="36.825744" lon="34.459415"><ele>1227.8</ele></trkpt>
    <trkpt lat="36.825382" lon="34.459430"><ele>1231.7</ele></trkpt>
    <trkpt lat="36.824970" lon="34.459051"><ele>1234.8</ele></trkpt>
    <trkpt lat="36.824561" lon="34.458694"><ele>1237.0</ele></trkpt>
    <trkpt lat="36.824199" lon="34.458707"><ele>1238.3</ele></trkpt>
    <trkpt lat="36.823883" lon="34.459084"><ele>1238.8</ele></trkpt>
    <trkpt lat="36.823575" lon="34.459520"><ele>1238.8</ele></trkpt>
    <trkpt lat="36.823236" lon="34.459708"><ele>1238.5</ele></trkpt>
    <trkpt lat="36.822858" lon="34.459600"><ele>1238.4</ele></trkpt>
    <trkpt lat="36.822469" lon="34.459401"><ele>1238.7</ele></trkpt>
    <trkpt lat="36.822099" lon="34.459348"><ele>1239.5</ele></trkpt>
    <trkpt lat="36.821755" lon="34.459504"><ele>1240.8</ele></trkpt>
    <trkpt lat="36.821421" lon="34.459739"><ele>1242.5</ele></trkpt>
    <trkpt lat="36.821077" lon="34.459891"><ele>1244.5</ele></trkpt>
    <trkpt lat="36.820718" lon="34.459926"><ele>1246.6</ele></trkpt>
    <trkpt lat="36.820355" lon="34.459933"><ele>1248.4</ele></trkpt>
    <trkpt lat="36.820000" lon="34.460000"><ele>1250.0</ele></trkpt>
    <trkpt lat="36.820097" lon="34.460435"><ele>1245.3</ele></trkpt>
    <trkpt lat="36.820225" lon="34.460856"><ele>1240.9</ele></trkpt>
    <trkpt lat="36.820408" lon="34.461253"><ele>1236.5</ele></trkpt>
    <trkpt lat="36.820586" lon="34.461652"><ele>1232.1</ele></trkpt>
    <trkpt lat="36.820675" lon="34.462091"><ele>1227.5</ele></trkpt>
    <trkpt lat="36.820669" lon="34.462571"><ele>1222.4</ele></trkpt>
    <trkpt lat="36.820676" lon="34.463047"><ele>1216.9</ele></trkpt>
    <trkpt lat="36.820824" lon="34.463459"><ele>1211.0</ele></trkpt>
    <trkpt lat="36.821127" lon="34.463802"><ele>1204.8</ele></trkpt>
    <trkpt lat="36.821439" lon="34.464141"><ele>1198.6</ele></trkpt>
    <trkpt lat="36.821572" lon="34.464560"><ele>1192.7</ele></trkpt>
    <trkpt lat="36.821477" lon="34.465081"><ele>1187.3</ele></trkpt>
    <trkpt lat="36.821322" lon="34.465628"><ele>1182.5</ele></trkpt>
    <trkpt lat="36.821362" lon="34.466089"><ele>1178.6</ele></trkpt>
    <trkpt lat="36.821704" lon="34.466415"><ele>1175.5</ele></trkpt>
    <trkpt lat="36.822183" lon="34.466679"><ele>1172.9</ele></trkpt>
    <trkpt lat="36.822483" lon="34.467024"><ele>1170.5</ele></trkpt>
    <trkpt lat="36.822414" lon="34.467533"><ele>1167.9</ele></trkpt>
    <trkpt lat="36.822110" lon="34.468147"><ele>1164.7</ele></trkpt>
    <trkpt lat="36.821938" lon="34.468702"><ele>1160.5</ele></trkpt>
    <trkpt lat="36.822181" lon="34.469071"><ele>1155.2</ele></trkpt>
    <trkpt lat="36.822768" lon="34.469288"><ele>1148.7</ele></trkpt>
    <trkpt lat="36.823304" lon="34.469527"><ele>1141.1</ele></trkpt>
    <trkpt lat="36.823407" lon="34.469960"><ele>1132.9</ele></trkpt>
    <trkpt lat="36.823058" lon="34.470594"><ele>1124.6</ele></trkpt>
    <trkpt lat="36.822648" lon="34.471255"><ele>1116.6</ele></trkpt>
    <trkpt lat="36.822653" lon="34.471731"><ele>1109.6</ele></trkpt>
    <trkpt lat="36.823207" lon="34.471962"><ele>1104.0</ele></trkpt>
    <trkpt lat="36.823958" lon="34.472106"><ele>1100.0</ele></trkpt>
    <trkpt lat="36.824352" lon="34.472408"><ele>1097.5</ele></trkpt>
    <trkpt lat="36.824122" lon="34.472989"><ele>1096.3</ele></trkpt>
    <trkpt lat="36.823546" lon="34.473724"><ele>1095.8</ele></trkpt>
    <trkpt lat="36.823227" lon="34.474345"><ele>1095.5</ele></trkpt>
    <trkpt lat="36.823575" lon="34.474668"><ele>1094.5</ele></trkpt>
    <trkpt lat="36.824421" lon="34.474769"><ele>1092.2</ele></trkpt>
    <trkpt lat="36.825144" lon="34.474925"><ele>1088.2</ele></trkpt>
    <trkpt lat="36.825202" lon="34.475377"><ele>1082.2</ele></trkpt>
    <trkpt lat="36.824620" lon="34.476115"><ele>1074.3</ele></trkpt>
    <trkpt lat="36.823995" lon="34.476872"><ele>1064.9</ele></trkpt>
    <trkpt lat="36.823987" lon="34.477354"><ele>1054.8</ele></trkpt>
    <trkpt lat="36.824737" lon="34.477498"><ele>1044.6</ele></trkpt>
    <trkpt lat="36.825718" lon="34.477539"><ele>1035.2</ele></trkpt>
    <trkpt lat="36.826176" lon="34.477813"><ele>1027.4</ele></trkpt>
    <trkpt lat="36.825795" lon="34.478461"><ele>1021.7</ele></trkpt>
    <trkpt lat="36.824988" lon="34.479299"><ele>1018.4</ele></trkpt>
    <trkpt lat="36.824562" lon="34.479967"><ele>1017.1</ele></trkpt>
    <trkpt lat="36.825013" lon="34.480245"><ele>1017.6</ele></trkpt>
    <trkpt lat="36.826077" lon="34.480248"><ele>1018.9</ele></trkpt>
    <trkpt lat="36.826941" lon="34.480341"><ele>1020.1</ele></trkpt>
    <trkpt lat="36.826945" lon="34.480818"><ele>1020.3</ele></trkpt>
    <trkpt lat="36.826167" lon="34.481643"><ele>1018.7</ele></trkpt>
    <trkpt lat="36.825379" lon="34.482473"><ele>1014.7</ele></trkpt>
    <trkpt lat="36.825380" lon="34.482951"><ele>1008.0</ele></trkpt>
    <trkpt lat="36.826295" lon="34.483021"><ele>999.0</ele></trkpt>
    <trkpt lat="36.827449" lon="34.482984"><ele>988.3</ele></trkpt>
    <trkpt lat="36.827939" lon="34.483244"><ele>976.6</ele></trkpt>
    <trkpt lat="36.827427" lon="34.483951"><ele>965.0</ele></trkpt>
    <trkpt lat="36.826448" lon="34.484866"><ele>954.7</ele></trkpt>
    <trkpt lat="36.825958" lon="34.485563"><ele>946.4</ele></trkpt>
    <trkpt lat="36.826502" lon="34.485798"><ele>940.8</ele></trkpt>
    <trkpt lat="36.827728" lon="34.485730"><ele>938.0</ele></trkpt>
    <trkpt lat="36.828680" lon="34.485783"><ele>937.8</ele></trkpt>
    <trkpt lat="36.828626" lon="34.486286"><ele>939.4</ele></trkpt>
    <trkpt lat="36.827704" lon="34.487175"><ele>941.9</ele></trkpt>
    <trkpt lat="36.826814" lon="34.488051"><ele>944.2</ele></trkpt>
    <trkpt lat="36.826841" lon="34.488517"><ele>945.1</ele></trkpt>
    <trkpt lat="36.827878" lon="34.488533"><ele>943.8</ele></trkpt>
    <trkpt lat="36.829139" lon="34.488449"><ele>939.6</ele></trkpt>
    <trkpt lat="36.829630" lon="34.488708"><ele>932.5</ele></trkpt>
    <trkpt lat="36.829020" lon="34.489458"><ele>922.7</ele></trkpt>
    <trkpt lat="36.827937" lon="34.490420"><ele>911.0</ele></trkpt>
    <trkpt lat="36.827427" lon="34.491125"><ele>898.5</ele></trkpt>
    <trkpt lat="36.828045" lon="34.491328"><ele>886.3</ele></trkpt>
    <trkpt lat="36.829366" lon="34.491217"><ele>875.5</ele></trkpt>
    <trkpt lat="36.830350" lon="34.491257"><ele>867.1</ele></trkpt>
    <trkpt lat="36.830243" lon="34.491783"><ele>861.6</ele></trkpt>
    <trkpt lat="36.829238" lon="34.492709"><ele>859.2</ele></trkpt>
    <trkpt lat="36.828312" lon="34.493600"><ele>859.5</ele></trkpt>
    <trkpt lat="36.828375" lon="34.494051"><ele>861.7</ele></trkpt>
    <trkpt lat="36.829481" lon="34.494036"><ele>864.7</ele></trkpt>
    <trkpt lat="36.830777" lon="34.493936"><ele>867.4</ele></trkpt>
    <trkpt lat="36.831241" lon="34.494207"><ele>868.5</ele></trkpt>
    <trkpt lat="36.830576" lon="34.494982"><ele>867.1</ele></trkpt>
    <trkpt lat="36.829464" lon="34.495956"><ele>862.7</ele></trkpt>
    <trkpt lat="36.828976" lon="34.496652"><ele>855.3</ele></trkpt>
    <trkpt lat="36.829640" lon="34.496835"><ele>845.2</ele></trkpt>
    <trkpt lat="36.830982" lon="34.496715"><ele>833.3</ele></trkpt>
    <trkpt lat="36.831942" lon="34.496765"><ele>820.6</ele></trkpt>
    <trkpt lat="36.831794" lon="34.497309"><ele>808.3</ele></trkpt>
    <trkpt lat="36.830777" lon="34.498241"><ele>797.7</ele></trkpt>
    <trkpt lat="36.829880" lon="34.499119"><ele>789.5</ele></trkpt>
    <trkpt lat="36.829984" lon="34.499551"><ele>784.3</ele></trkpt>
    <trkpt lat="36.831098" lon="34.499532"><ele>782.1</ele></trkpt>
    <trkpt lat="36.832355" lon="34.499450"><ele>782.4</ele></trkpt>
    <trkpt lat="36.832772" lon="34.499742"><ele>784.6</ele></trkpt>
    <trkpt lat="36.832100" lon="34.500520"><ele>787.4</ele></trkpt>
    <trkpt lat="36.831036" lon="34.501473"><ele>789.7</ele></trkpt>
    <trkpt lat="36.830607" lon="34.502143"><ele>790.4</ele></trkpt>
    <trkpt lat="36.831282" lon="34.502320"><ele>788.6</ele></trkpt>
    <trkpt lat="36.832569" lon="34.502225"><ele>784.0</ele></trkpt>
    <trkpt lat="36.833455" lon="34.502308"><ele>776.5</ele></trkpt>
    <trkpt lat="36.833285" lon="34.502862"><ele>766.6</ele></trkpt>
    <trkpt lat="36.832326" lon="34.503768"><ele>755.1</ele></trkpt>
    <trkpt lat="36.831520" lon="34.504605"><ele>743.0</ele></trkpt>
    <trkpt lat="36.831664" lon="34.505020"><ele>731.4</ele></trkpt>
    <trkpt lat="36.832722" lon="34.505026"><ele>721.4</ele></trkpt>
    <trkpt lat="36.833872" lon="34.504992"><ele>713.7</ele></trkpt>
    <trkpt lat="36.834227" lon="34.505312"><ele>708.7</ele></trkpt>
    <trkpt lat="36.833601" lon="34.506069"><ele>706.4</ele></trkpt>
    <trkpt lat="36.832657" lon="34.506968"><ele>706.4</ele></trkpt>
    <trkpt lat="36.832317" lon="34.507598"><ele>707.8</ele></trkpt>
    <trkpt lat="36.832963" lon="34.507788"><ele>709.7</ele></trkpt>
    <trkpt lat="36.834122" lon="34.507750"><ele>711.0</ele></trkpt>
    <trkpt lat="36.834891" lon="34.507885"><ele>710.8</ele></trkpt>
    <trkpt lat="36.834724" lon="34.508438"><ele>708.4</ele></trkpt>
    <trkpt lat="36.833893" lon="34.509287"><ele>703.6</ele></trkpt>
    <trkpt lat="36.833231" lon="34.510060"><ele>696.3</ele></trkpt>
    <trkpt lat="36.833406" lon="34.510461"><ele>687.1</ele></trkpt>
    <trkpt lat="36.834345" lon="34.510520"><ele>676.5</ele></trkpt>
    <trkpt lat="36.835327" lon="34.510561"><ele>665.7</ele></trkpt>
    <trkpt lat="36.835613" lon="34.510911"><ele>655.4</ele></trkpt>
    <trkpt lat="36.835086" lon="34.511625"><ele>646.5</ele></trkpt>
    <trkpt lat="36.834327" lon="34.512441"><ele>639.5</ele></trkpt>
    <trkpt lat="36.834096" lon="34.513023"><ele>634.8</ele></trkpt>
    <trkpt lat="36.834674" lon="34.513243"><ele>632.2</ele></trkpt>
    <trkpt lat="36.835640" lon="34.513291"><ele>631.2</ele></trkpt>
    <trkpt lat="36.836260" lon="34.513493"><ele>631.3</ele></trkpt>
    <trkpt lat="36.836122" lon="34.514032"><ele>631.6</ele></trkpt>
    <trkpt lat="36.835481" lon="34.514797"><ele>631.4</ele></trkpt>
    <trkpt lat="36.835006" lon="34.515487"><ele>629.9</ele></trkpt>
    <trkpt lat="36.835197" lon="34.515880"><ele>626.7</ele></trkpt>
    <trkpt lat="36.835962" lon="34.516017"><ele>621.7</ele></trkpt>
    <trkpt lat="36.836726" lon="34.516154"><ele>614.9</ele></trkpt>
    <trkpt lat="36.836945" lon="34.516535"><ele>606.7</ele></trkpt>
    <trkpt lat="36.836565" lon="34.517183"><ele>597.8</ele></trkpt>
    <trkpt lat="36.836044" lon="34.517894"><ele>588.7</ele></trkpt>
    <trkpt lat="36.835933" lon="34.518421"><ele>580.2</ele></trkpt>
    <trkpt lat="36.836403" lon="34.518690"><ele>572.7</ele></trkpt>
    <trkpt lat="36.837123" lon="34.518847"><ele>566.7</ele></trkpt>
    <trkpt lat="36.837572" lon="34.519125"><ele>562.1</ele></trkpt>
    <trkpt lat="36.837493" lon="34.519639"><ele>558.9</ele></trkpt>
    <trkpt lat="36.837092" lon="34.520296"><ele>556.7</ele></trkpt>
    <trkpt lat="36.836833" lon="34.520890"><ele>555.0</ele></trkpt>
    <trkpt lat="36.837022" lon="34.521284"><ele>553.3</ele></trkpt>
    <trkpt lat="36.837565" lon="34.521520"><ele>551.1</ele></trkpt>
    <trkpt lat="36.838079" lon="34.521769"><ele>548.0</ele></trkpt>
    <trkpt lat="36.838238" lon="34.522176"><ele>543.9</ele></trkpt>
    <trkpt lat="36.838047" lon="34.522740"><ele>538.7</ele></trkpt>
    <trkpt lat="36.837800" lon="34.523328"><ele>532.6</ele></trkpt>
    <trkpt lat="36.837810" lon="34.523802"><ele>525.9</ele></trkpt>
    <trkpt lat="36.838138" lon="34.524134"><ele>518.9</ele></trkpt>
    <trkpt lat="36.838574" lon="34.524418"><ele>512.1</ele></trkpt>
    <trkpt lat="36.838844" lon="34.524776"><ele>505.6</ele></trkpt>
    <trkpt lat="36.838850" lon="34.525251"><ele>499.8</ele></trkpt>
    <trkpt lat="36.838728" lon="34.525784"><ele>494.7</ele></trkpt>
    <trkpt lat="36.838697" lon="34.526276"><ele>490.3</ele></trkpt>
    <trkpt lat="36.838865" lon="34.526680"><ele>486.2</ele></trkpt>
    <trkpt lat="36.839153" lon="34.527030"><ele>482.5</ele></trkpt>
    <trkpt lat="36.839398" lon="34.527399"><ele>478.6</ele></trkpt>
    <trkpt lat="36.839512" lon="34.527826"><ele>474.6</ele></trkpt>
    <trkpt lat="36.839538" lon="34.528293"><ele>470.3</ele></trkpt>
    <trkpt lat="36.839585" lon="34.528750"><ele>465.5</ele></trkpt>
    <trkpt lat="36.839707" lon="34.529174"><ele>460.5</ele></trkpt>
    <trkpt lat="36.839867" lon="34.529581"><ele>455.2</ele></trkpt>
    <trkpt lat="36.840000" lon="34.530000"><ele>450.0</ele></trkpt>
    <trkpt lat="36.839859" lon="34.530415"><ele>448.4</ele></trkpt>
    <trkpt lat="36.839706" lon="34.530822"><ele>446.6</ele></trkpt>
    <trkpt lat="36.839517" lon="34.531208"><ele>444.7</ele></trkpt>
    <trkpt lat="36.839313" lon="34.531585"><ele>442.5</ele></trkpt>
    <trkpt lat="36.839153" lon="34.531987"><ele>440.3</ele></trkpt>
    <trkpt lat="36.839061" lon="34.532432"><ele>438.2</ele></trkpt>
    <trkpt lat="36.838994" lon="34.532891"><ele>436.2</ele></trkpt>
    <trkpt lat="36.838861" lon="34.533311"><ele>434.6</ele></trkpt>
    <trkpt lat="36.838618" lon="34.533664"><ele>433.3</ele></trkpt>
    <trkpt lat="36.838324" lon="34.533986"><ele>432.3</ele></trkpt>
    <trkpt lat="36.838105" lon="34.534354"><ele>431.6</ele></trkpt>
    <trkpt lat="36.838037" lon="34.534812"><ele>431.0</ele></trkpt>
    <trkpt lat="36.838061" lon="34.535327"><ele>430.3</ele></trkpt>
    <trkpt lat="36.838021" lon="34.535803"><ele>429.3</ele></trkpt>
    <trkpt lat="36.837795" lon="34.536166"><ele>427.7</ele></trkpt>
    <trkpt lat="36.837421" lon="34.536440"><ele>425.6</ele></trkpt>
    <trkpt lat="36.837083" lon="34.536735"><ele>422.9</ele></trkpt>
    <trkpt lat="36.836953" lon="34.537157"><ele>419.7</ele></trkpt>
    <trkpt lat="36.837032" lon="34.537705"><ele>416.2</ele></trkpt>
    <trkpt lat="36.837125" lon="34.538261"><ele>412.7</ele></trkpt>
    <trkpt lat="36.837004" lon="34.538687"><ele>409.4</ele></trkpt>
    <trkpt lat="36.836615" lon="34.538952"><ele>406.7</ele></trkpt>
    <trkpt lat="36.836144" lon="34.539167"><ele>404.8</ele></trkpt>
    <trkpt lat="36.835870" lon="34.539502"><ele>403.8</ele></trkpt>
    <trkpt lat="36.835917" lon="34.540030"><ele>403.6</ele></trkpt>
    <trkpt lat="36.836126" lon="34.540656"><ele>404.0</ele></trkpt>
    <trkpt lat="36.836179" lon="34.541188"><ele>404.8</ele></trkpt>
    <trkpt lat="36.835875" lon="34.541504"><ele>405.6</ele></trkpt>
    <trkpt lat="36.835321" lon="34.541669"><ele>405.9</ele></trkpt>
    <trkpt lat="36.834856" lon="34.541888"><ele>405.4</ele></trkpt>
    <trkpt lat="36.834764" lon="34.542332"><ele>403.9</ele></trkpt>
    <trkpt lat="36.835009" lon="34.542981"><ele>401.1</ele></trkpt>
    <trkpt lat="36.835253" lon="34.543628"><ele>397.3</ele></trkpt>
    <trkpt lat="36.835138" lon="34.544058"><ele>392.7</ele></trkpt>
    <trkpt lat="36.834604" lon="34.544236"><ele>387.8</ele></trkpt>
    <trkpt lat="36.833966" lon="34.544350"><ele>382.9</ele></trkpt>
    <trkpt lat="36.833646" lon="34.544656"><ele>378.6</ele></trkpt>
    <trkpt lat="36.833807" lon="34.545253"><ele>375.4</ele></trkpt>
    <trkpt lat="36.834190" lon="34.545985"><ele>373.6</ele></trkpt>
    <trkpt lat="36.834326" lon="34.546567"><ele>373.2</ele></trkpt>
    <trkpt lat="36.833943" lon="34.546835"><ele>374.1</ele></trkpt>
    <trkpt lat="36.833218" lon="34.546897"><ele>375.9</ele></trkpt>
    <trkpt lat="36.832640" lon="34.547047"><ele>378.1</ele></trkpt>
    <trkpt lat="36.832588" lon="34.547516"><ele>380.1</ele></trkpt>
    <trkpt lat="36.832991" lon="34.548260"><ele>381.4</ele></trkpt>
    <trkpt lat="36.833374" lon="34.548991"><ele>381.3</ele></trkpt>
    <trkpt lat="36.833256" lon="34.549420"><ele>379.7</ele></trkpt>
    <trkpt lat="36.832585" lon="34.549514"><ele>376.3</ele></trkpt>
    <trkpt lat="36.831794" lon="34.549536"><ele>371.5</ele></trkpt>
    <trkpt lat="36.831438" lon="34.549820"><ele>365.6</ele></trkpt>
    <trkpt lat="36.831709" lon="34.550484"><ele>359.3</ele></trkpt>
    <trkpt lat="36.832251" lon="34.551312"><ele>353.2</ele></trkpt>
    <trkpt lat="36.832458" lon="34.551936"><ele>348.1</ele></trkpt>
    <trkpt lat="36.831997" lon="34.552158"><ele>344.5</ele></trkpt>
    <trkpt lat="36.831115" lon="34.552125"><ele>342.8</ele></trkpt>
    <trkpt lat="36.830437" lon="34.552215"><ele>342.9</ele></trkpt>
    <trkpt lat="36.830428" lon="34.552709"><ele>344.8</ele></trkpt>
    <trkpt lat="36.830978" lon="34.553542"><ele>347.8</ele></trkpt>
    <trkpt lat="36.831481" lon="34.554346"><ele>351.3</ele></trkpt>
    <trkpt lat="36.831357" lon="34.554770"><ele>354.5</ele></trkpt>
    <trkpt lat="36.830558" lon="34.554788"><ele>356.5</ele></trkpt>
    <trkpt lat="36.829631" lon="34.554727"><ele>356.8</ele></trkpt>
    <trkpt lat="36.829249" lon="34.554996"><ele>355.1</ele></trkpt>
    <trkpt lat="36.829623" lon="34.555722"><ele>351.2</ele></trkpt>
    <trkpt lat="36.830306" lon="34.556635"><ele>345.4</ele></trkpt>
    <trkpt lat="36.830570" lon="34.557294"><ele>338.4</ele></trkpt>
    <trkpt lat="36.830035" lon="34.557471"><ele>330.9</ele></trkpt>
    <trkpt lat="36.829014" lon="34.557353"><ele>323.8</ele></trkpt>
    <trkpt lat="36.828253" lon="34.557394"><ele>318.0</ele></trkpt>
    <trkpt lat="36.828288" lon="34.557915"><ele>314.1</ele></trkpt>
    <trkpt lat="36.828967" lon="34.558825"><ele>312.4</ele></trkpt>
    <trkpt lat="36.829572" lon="34.559691"><ele>313.1</ele></trkpt>
    <trkpt lat="36.829435" lon="34.560107"><ele>315.9</ele></trkpt>
    <trkpt lat="36.828523" lon="34.560056"><ele>319.9</ele></trkpt>
    <trkpt lat="36.827482" lon="34.559927"><ele>324.5</ele></trkpt>
    <trkpt lat="36.827083" lon="34.560186"><ele>328.5</ele></trkpt>
    <trkpt lat="36.827550" lon="34.560968"><ele>331.2</ele></trkpt>
    <trkpt lat="36.828353" lon="34.561953"><ele>331.8</ele></trkpt>
    <trkpt lat="36.828658" lon="34.562638"><ele>329.9</ele></trkpt>
    <trkpt lat="36.828054" lon="34.562772"><ele>325.5</ele></trkpt>
    <trkpt lat="36.826916" lon="34.562584"><ele>319.0</ele></trkpt>
    <trkpt lat="36.826092" lon="34.562587"><ele>311.0</ele></trkpt>
    <trkpt lat="36.826170" lon="34.563134"><ele>302.6</ele></trkpt>
    <trkpt lat="36.826959" lon="34.564110"><ele>294.7</ele></trkpt>
    <trkpt lat="36.827643" lon="34.565024"><ele>288.3</ele></trkpt>
    <trkpt lat="36.827488" lon="34.565429"><ele>284.2</ele></trkpt>
    <trkpt lat="36.826479" lon="34.565320"><ele>282.7</ele></trkpt>
    <trkpt lat="36.825349" lon="34.565137"><ele>283.9</ele></trkpt>
    <trkpt lat="36.824945" lon="34.565392"><ele>287.3</ele></trkpt>
    <trkpt lat="36.825491" lon="34.566222"><ele>292.1</ele></trkpt>
    <trkpt lat="36.826387" lon="34.567264"><ele>297.5</ele></trkpt>
    <trkpt lat="36.826719" lon="34.567964"><ele>302.2</ele></trkpt>
    <trkpt lat="36.826055" lon="34.568063"><ele>305.4</ele></trkpt>
    <trkpt lat="36.824824" lon="34.567819"><ele>306.1</ele></trkpt>
    <trkpt lat="36.823957" lon="34.567795"><ele>304.1</ele></trkpt>
    <trkpt lat="36.824076" lon="34.568367"><ele>299.3</ele></trkpt>
    <trkpt lat="36.824951" lon="34.569395"><ele>292.2</ele></trkpt>
    <trkpt lat="36.825691" lon="34.570342"><ele>283.5</ele></trkpt>
    <trkpt lat="36.825514" lon="34.570735"><ele>274.4</ele></trkpt>
    <trkpt lat="36.824429" lon="34.570580"><ele>266.0</ele></trkpt>
    <trkpt lat="36.823236" lon="34.570358"><ele>259.2</ele></trkpt>
    <trkpt lat="36.822835" lon="34.570616"><ele>255.0</ele></trkpt>
    <trkpt lat="36.823445" lon="34.571485"><ele>253.6</ele></trkpt>
    <trkpt lat="36.824407" lon="34.572566"><ele>255.1</ele></trkpt>
    <trkpt lat="36.824751" lon="34.573273"><ele>259.0</ele></trkpt>
    <trkpt lat="36.824036" lon="34.573341"><ele>264.5</ele></trkpt>
    <trkpt lat="36.822741" lon="34.573059"><ele>270.4</ele></trkpt>
    <trkpt lat="36.821851" lon="34.573021"><ele>275.6</ele></trkpt>
    <trkpt lat="36.822006" lon="34.573614"><ele>278.9</ele></trkpt>
    <trkpt lat="36.822941" lon="34.574679"><ele>279.8</ele></trkpt>
    <trkpt lat="36.823712" lon="34.575645"><ele>277.6</ele></trkpt>
    <trkpt lat="36.823512" lon="34.576024"><ele>272.5</ele></trkpt>
    <trkpt lat="36.822373" lon="34.575836"><ele>264.9</ele></trkpt>
    <trkpt lat="36.821145" lon="34.575593"><ele>255.9</ele></trkpt>
    <trkpt lat="36.820756" lon="34.575858"><ele>246.4</ele></trkpt>
    <trkpt lat="36.821412" lon="34.576755"><ele>237.6</ele></trkpt>
    <trkpt lat="36.822411" lon="34.577858"><ele>230.7</ele></trkpt>
    <trkpt lat="36.822750" lon="34.578563"><ele>226.5</ele></trkpt>
    <trkpt lat="36.821999" lon="34.578609"><ele>225.3</ele></trkpt>
    <trkpt lat="36.820668" lon="34.578305"><ele>227.0</ele></trkpt>
    <trkpt lat="36.819776" lon="34.578265"><ele>231.2</ele></trkpt>
    <trkpt lat="36.819960" lon="34.578877"><ele>237.0</ele></trkpt>
    <trkpt lat="36.820928" lon="34.579961"><ele>243.1</ele></trkpt>
    <trkpt lat="36.821704" lon="34.580930"><ele>248.4</ele></trkpt>
    <trkpt lat="36.821481" lon="34.581295"><ele>251.9</ele></trkpt>
    <trkpt lat="36.820314" lon="34.581090"><ele>252.6</ele></trkpt>
    <trkpt lat="36.819078" lon="34.580843"><ele>250.3</ele></trkpt>
    <trkpt lat="36.818709" lon="34.581120"><ele>245.1</ele></trkpt>
    <trkpt lat="36.819390" lon="34.582031"><ele>237.3</ele></trkpt>
    <trkpt lat="36.820395" lon="34.583138"><ele>228.1</ele></trkpt>
    <trkpt lat="36.820717" lon="34.583833"><ele>218.5</ele></trkpt>
    <trkpt lat="36.819943" lon="34.583865"><ele>209.8</ele></trkpt>
    <trkpt lat="36.818607" lon="34.583558"><ele>202.9</ele></trkpt>
    <trkpt lat="36.817733" lon="34.583529"><ele>198.8</ele></trkpt>
    <trkpt lat="36.817939" lon="34.584154"><ele>197.7</ele></trkpt>
    <trkpt lat="36.818910" lon="34.585240"><ele>199.6</ele></trkpt>
    <trkpt lat="36.819667" lon="34.586198"><ele>203.8</ele></trkpt>
    <trkpt lat="36.819421" lon="34.586549"><ele>209.6</ele></trkpt>
    <trkpt lat="36.818251" lon="34.586342"><ele>215.6</ele></trkpt>
    <trkpt lat="36.817037" lon="34.586108"><ele>220.8</ele></trkpt>
    <trkpt lat="36.816694" lon="34.586401"><ele>224.1</ele></trkpt>
    <trkpt lat="36.817378" lon="34.587314"><ele>224.7</ele></trkpt>
    <trkpt lat="36.818359" lon="34.588407"><ele>222.3</ele></trkpt>
    <trkpt lat="36.818652" lon="34.589083"><ele>217.0</ele></trkpt>
    <trkpt lat="36.817870" lon="34.589111"><ele>209.4</ele></trkpt>
    <trkpt lat="36.816561" lon="34.588820"><ele>200.3</ele></trkpt>
    <trkpt lat="36.815722" lon="34.588813"><ele>190.9</ele></trkpt>
    <trkpt lat="36.815940" lon="34.589444"><ele>182.4</ele></trkpt>
    <trkpt lat="36.816885" lon="34.590515"><ele>175.8</ele></trkpt>
    <trkpt lat="36.817600" lon="34.591447"><ele>171.9</ele></trkpt>
    <trkpt lat="36.817334" lon="34.591786"><ele>170.9</ele></trkpt>
    <trkpt lat="36.816188" lon="34.591594"><ele>172.7</ele></trkpt>
    <trkpt lat="36.815023" lon="34.591389"><ele>176.8</ele></trkpt>
    <trkpt lat="36.814708" lon="34.591700"><ele>182.2</ele></trkpt>
    <trkpt lat="36.815375" lon="34.592602"><ele>187.9</ele></trkpt>
    <trkpt lat="36.816302" lon="34.593662"><ele>192.7</ele></trkpt>
    <trkpt lat="36.816554" lon="34.594314"><ele>195.7</ele></trkpt>
    <trkpt lat="36.815783" lon="34.594348"><ele>196.1</ele></trkpt>
    <trkpt lat="36.814529" lon="34.594090"><ele>193.6</ele></trkpt>
    <trkpt lat="36.813743" lon="34.594115"><ele>188.4</ele></trkpt>
    <trkpt lat="36.813962" lon="34.594748"><ele>181.0</ele></trkpt>
    <trkpt lat="36.814852" lon="34.595785"><ele>172.4</ele></trkpt>
    <trkpt lat="36.815503" lon="34.596679"><ele>163.5</ele></trkpt>
    <trkpt lat="36.815222" lon="34.597008"><ele>155.5</ele></trkpt>
    <trkpt lat="36.814126" lon="34.596846"><ele>149.4</ele></trkpt>
    <trkpt lat="36.813034" lon="34.596687"><ele>145.7</ele></trkpt>
    <trkpt lat="36.812752" lon="34.597016"><ele>144.8</ele></trkpt>
    <trkpt lat="36.813377" lon="34.597893"><ele>146.4</ele></trkpt>
    <trkpt lat="36.814224" lon="34.598905"><ele>150.1</ele></trkpt>
    <trkpt lat="36.814426" lon="34.599527"><ele>155.0</ele></trkpt>
    <trkpt lat="36.813683" lon="34.599578"><ele>160.0</ele></trkpt>
    <trkpt lat="36.812513" lon="34.599371"><ele>164.2</ele></trkpt>
    <trkpt lat="36.811794" lon="34.599436"><ele>166.6</ele></trkpt>
    <trkpt lat="36.812002" lon="34.600062"><ele>166.7</ele></trkpt>
    <trkpt lat="36.812810" lon="34.601050"><ele>164.1</ele></trkpt>
    <trkpt lat="36.813377" lon="34.601892"><ele>159.2</ele></trkpt>
    <trkpt lat="36.813087" lon="34.602217"><ele>152.3</ele></trkpt>
    <trkpt lat="36.812067" lon="34.602100"><ele>144.4</ele></trkpt>
    <trkpt lat="36.811072" lon="34.601999"><ele>136.3</ele></trkpt>
    <trkpt lat="36.810822" lon="34.602348"><ele>129.1</ele></trkpt>
    <trkpt lat="36.811383" lon="34.603187"><ele>123.6</ele></trkpt>
    <trkpt lat="36.812123" lon="34.604134"><ele>120.2</ele></trkpt>
    <trkpt lat="36.812269" lon="34.604722"><ele>119.3</ele></trkpt>
    <trkpt lat="36.811573" lon="34.604801"><ele>120.6</ele></trkpt>
    <trkpt lat="36.810514" lon="34.604661"><ele>123.7</ele></trkpt>
    <trkpt lat="36.809874" lon="34.604774"><ele>127.7</ele></trkpt>
    <trkpt lat="36.810058" lon="34.605386"><ele>131.8</ele></trkpt>
    <trkpt lat="36.810757" lon="34.606307"><ele>135.1</ele></trkpt>
    <trkpt lat="36.811224" lon="34.607090"><ele>136.9</ele></trkpt>
    <trkpt lat="36.810932" lon="34.607413"><ele>136.6</ele></trkpt>
    <trkpt lat="36.810012" lon="34.607357"><ele>134.1</ele></trkpt>
    <trkpt lat="36.809134" lon="34.607327"><ele>129.5</ele></trkpt>
    <trkpt lat="36.808915" lon="34.607694"><ele>123.4</ele></trkpt>
    <trkpt lat="36.809390" lon="34.608481"><ele>116.4</ele></trkpt>
    <trkpt lat="36.810002" lon="34.609351"><ele>109.4</ele></trkpt>
    <trkpt lat="36.810089" lon="34.609903"><ele>103.1</ele></trkpt>
    <trkpt lat="36.809456" lon="34.610020"><ele>98.3</ele></trkpt>
    <trkpt lat="36.808531" lon="34.609961"><ele>95.4</ele></trkpt>
    <trkpt lat="36.807978" lon="34.610128"><ele>94.4</ele></trkpt>
    <trkpt lat="36.808126" lon="34.610716"><ele>95.3</ele></trkpt>
    <trkpt lat="36.808692" lon="34.611559"><ele>97.5</ele></trkpt>
    <trkpt lat="36.809047" lon="34.612273"><ele>100.5</ele></trkpt>
    <trkpt lat="36.808760" lon="34.612600"><ele>103.5</ele></trkpt>
    <trkpt lat="36.807963" lon="34.612618"><ele>105.7</ele></trkpt>
    <trkpt lat="36.807219" lon="34.612668"><ele>106.7</ele></trkpt>
    <trkpt lat="36.807026" lon="34.613051"><ele>106.0</ele></trkpt>
    <trkpt lat="36.807397" lon="34.613775"><ele>103.5</ele></trkpt>
    <trkpt lat="36.807862" lon="34.614556"><ele>99.5</ele></trkpt>
    <trkpt lat="36.807887" lon="34.615071"><ele>94.3</ele></trkpt>
    <trkpt lat="36.807335" lon="34.615237"><ele>88.4</ele></trkpt>
    <trkpt lat="36.806563" lon="34.615271"><ele>82.7</ele></trkpt>
    <trkpt lat="36.806104" lon="34.615494"><ele>77.5</ele></trkpt>
    <trkpt lat="36.806202" lon="34.616052"><ele>73.5</ele></trkpt>
    <trkpt lat="36.806617" lon="34.616803"><ele>71.0</ele></trkpt>
    <trkpt lat="36.806849" lon="34.617443"><ele>70.0</ele></trkpt>
    <trkpt lat="36.806577" lon="34.617779"><ele>70.2</ele></trkpt>
    <trkpt lat="36.805921" lon="34.617882"><ele>71.5</ele></trkpt>
    <trkpt lat="36.805322" lon="34.618021"><ele>73.2</ele></trkpt>
    <trkpt lat="36.805152" lon="34.618418"><ele>74.9</ele></trkpt>
    <trkpt lat="36.805401" lon="34.619068"><ele>75.9</ele></trkpt>
    <trkpt lat="36.805704" lon="34.619751"><ele>76.0</ele></trkpt>
    <trkpt lat="36.805669" lon="34.620229"><ele>74.9</ele></trkpt>
    <trkpt lat="36.805212" lon="34.620453"><ele>72.6</ele></trkpt>
    <trkpt lat="36.804610" lon="34.620589"><ele>69.2</ele></trkpt>
    <trkpt lat="36.804247" lon="34.620870"><ele>65.0</ele></trkpt>
    <trkpt lat="36.804283" lon="34.621391"><ele>60.5</ele></trkpt>
    <trkpt lat="36.804530" lon="34.622040"><ele>56.1</ele></trkpt>
    <trkpt lat="36.804634" lon="34.622603"><ele>52.2</ele></trkpt>
    <trkpt lat="36.804387" lon="34.622954"><ele>49.2</ele></trkpt>
    <trkpt lat="36.803888" lon="34.623152"><ele>47.0</ele></trkpt>
    <trkpt lat="36.803442" lon="34.623383"><ele>45.8</ele></trkpt>
    <trkpt lat="36.803289" lon="34.623790"><ele>45.5</ele></trkpt>
    <trkpt lat="36.803401" lon="34.624357"><ele>45.6</ele></trkpt>
    <trkpt lat="36.803532" lon="34.624936"><ele>45.9</ele></trkpt>
    <trkpt lat="36.803440" lon="34.625381"><ele>46.1</ele></trkpt>
    <trkpt lat="36.803091" lon="34.625670"><ele>45.9</ele></trkpt>
    <trkpt lat="36.802670" lon="34.625915"><ele>45.1</ele></trkpt>
    <trkpt lat="36.802403" lon="34.626254"><ele>43.5</ele></trkpt>
    <trkpt lat="36.802365" lon="34.626731"><ele>41.3</ele></trkpt>
    <trkpt lat="36.802432" lon="34.627271"><ele>38.6</ele></trkpt>
    <trkpt lat="36.802407" lon="34.627756"><ele>35.7</ele></trkpt>
    <trkpt lat="36.802193" lon="34.628126"><ele>32.6</ele></trkpt>
    <trkpt lat="36.801862" lon="34.628427"><ele>29.7</ele></trkpt>
    <trkpt lat="36.801574" lon="34.628753"><ele>27.2</ele></trkpt>
    <trkpt lat="36.801430" lon="34.629165"><ele>25.0</ele></trkpt>
    <trkpt lat="36.801394" lon="34.629643"><ele>23.3</ele></trkpt>
    <trkpt lat="36.801348" lon="34.630115"><ele>21.9</ele></trkpt>
    <trkpt lat="36.801204" lon="34.630529"><ele>20.8</ele></trkpt>
    <trkpt lat="36.800975" lon="34.630890"><ele>19.7</ele></trkpt>
    <trkpt lat="36.800740" lon="34.631248"><ele>18.6</ele></trkpt>
    <trkpt lat="36.800565" lon="34.631642"><ele>17.2</ele></trkpt>
    <trkpt lat="36.800444" lon="34.632069"><ele>15.7</ele></trkpt>
    <trkpt lat="36.800325" lon="34.632497"><ele>13.9</ele></trkpt>
    <trkpt lat="36.800172" lon="34.632904"><ele>12.0</ele></trkpt>
    <trkpt lat="36.800000" lon="34.633300"><ele>10.0</ele></trkpt>
    </trkseg>
  </trk>
</gpx>
