<?xml version="1.0" encoding="UTF-8"?>
<gpx version="1.1" creator="trips" xmlns="http://www.topografix.com/GPX/1/1" xmlns:xsi="http://www.w3.org/2001/XMLSchema-instance" xsi:schemaLocation="http://www.topografix.com/GPX/1/1 http://www.topografix.com/GPX/1/1/gpx.xsd">
  <metadata><name>Atlas &amp; Gorges — Day 5: Boumalne Dadès to Tinghir</name><desc>55 km, 500 m (estimated). Planning route: via-points only, NOT snapped to roads. Import into Komoot / RideWithGPS / Garmin Connect and let it route between the points before riding.</desc></metadata>
  <wpt lat="31.360000" lon="-5.990000">
    <ele>1580.0</ele>
    <name>Boumalne Dadès</name>
    <sym>Flag, Green</sym>
  </wpt>
  <wpt lat="31.515000" lon="-5.533000">
    <ele>1350.0</ele>
    <name>Tinghir</name>
    <sym>Flag, Blue</sym>
  </wpt>
  <rte><name>Atlas &amp; Gorges — Day 5: Boumalne Dadès to Tinghir</name>
    <rtept lat="31.360000" lon="-5.990000">
    <ele>1580.0</ele>
    <name>Boumalne Dadès</name>
    <sym>Flag, Green</sym>
    </rtept>
    <rtept lat="31.515000" lon="-5.533000">
    <ele>1350.0</ele>
    <name>Tinghir</name>
    <sym>Flag, Blue</sym>
    </rtept>
  </rte>
</gpx>
