<?xml version="1.0" encoding="UTF-8"?>
<gpx version="1.1" creator="trips" xmlns="http://www.topografix.com/GPX/1/1" xmlns:xsi="http://www.w3.org/2001/XMLSchema-instance" xsi:schemaLocation="http://www.topografix.com/GPX/1/1 http://www.topografix.com/GPX/1/1/gpx.xsd">
  <metadata><name>Atlas &amp; Gorges — Day 3: Ouarzazate to Boumalne Dadès</name><desc>100 km, 900 m (estimated). Planning route: via-points only, NOT snapped to roads. Import into Komoot / RideWithGPS / Garmin Connect and let it route between the points before riding.</desc></metadata>
  <wpt lat="30.918900" lon="-6.893400">
    <ele>1160.0</ele>
    <name>Ouarzazate</name>
    <sym>Flag, Green</sym>
  </wpt>
  <wpt lat="31.060000" lon="-6.540000">
    <ele>1250.0</ele>
    <name>Skoura</name>
    <sym>City (Small)</sym>
  </wpt>
  <wpt lat="31.240000" lon="-6.130000">
    <ele>1470.0</ele>
    <name>El Kelaa M'Gouna</name>
    <sym>City (Small)</sym>
  </wpt>
  <wpt lat="31.360000" lon="-5.990000">
    <ele>1580.0</ele>
    <name>Boumalne Dadès</name>
    <sym>Flag, Blue</sym>
  </wpt>
  <rte><name>Atlas &amp; Gorges — Day 3: Ouarzazate to Boumalne Dadès</name>
    <rtept lat="30.918900" lon="-6.893400">
    <ele>1160.0</ele>
    <name>Ouarzazate</name>
    <sym>Flag, Green</sym>
    </rtept>
    <rtept lat="31.060000" lon="-6.540000">
    <ele>1250.0</ele>
    <name>Skoura</name>
    <sym>City (Small)</sym>
    </rtept>
    <rtept lat="31.240000" lon="-6.130000">
    <ele>1470.0</ele>
    <name>El Kelaa M'Gouna</name>
    <sym>City (Small)</sym>
    </rtept>
    <rtept lat="31.360000" lon="-5.990000">
    <ele>1580.0</ele>
    <name>Boumalne Dadès</name>
    <sym>Flag, Blue</sym>
    </rtept>
  </rte>
</gpx>
