<?xml version="1.0" encoding="UTF-8"?>
<gpx version="1.1" creator="tripplanner sample generator" xmlns="http://www.topografix.com/GPX/1/1">
  <metadata>
    <name>Rifugio Sennes → Rifugio Lagazuoi</name>
    <time>2025-07-13T06:30:00Z</time>
  </metadata>
  <trk>
    <name>Rifugio Sennes → Rifugio Lagazuoi</name>
    <trkseg>
      <trkpt lat="46.655000" lon="12.090000"><ele>2124.4</ele><time>2025-07-13T06:30:00Z</time></trkpt>
      <trkpt lat="46.654701" lon="12.089595"><ele>2125.3</ele><time>2025-07-13T06:31:20Z</time></trkpt>
      <trkpt lat="46.654385" lon="12.089149"><ele>2120.9</ele><time>2025-07-13T06:32:40Z</time></trkpt>
      <trkpt lat="46.654085" lon="12.088611"><ele>2119.3</ele><time>2025-07-13T06:34:06Z</time></trkpt>
      <trkpt lat="46.653976" lon="12.088372"><ele>2117.5</ele><time>2025-07-13T06:34:42Z</time></trkpt>
      <trkpt lat="46.653734" lon="12.087989"><ele>2115.7</ele><time>2025-07-13T06:35:47Z</time></trkpt>
      <trkpt lat="46.653153" lon="12.087370"><ele>2114.7</ele><time>2025-07-13T06:37:58Z</time></trkpt>
      <trkpt lat="46.652895" lon="12.087150"><ele>2112.5</ele><time>2025-07-13T06:38:53Z</time></trkpt>
      <trkpt lat="46.652727" lon="12.086429"><ele>2111.6</ele><time>2025-07-13T06:40:28Z</time></trkpt>
      <trkpt lat="46.652362" lon="12.086015"><ele>2107.5</ele><time>2025-07-13T06:41:52Z</time></trkpt>
      <trkpt lat="46.652149" lon="12.085683"><ele>2107.6</ele><time>2025-07-13T06:42:49Z</time></trkpt>
      <trkpt lat="46.651990" lon="12.085318"><ele>2106.6</ele><time>2025-07-13T06:43:43Z</time></trkpt>
      <trkpt lat="46.651636" lon="12.084841"><ele>2105.4</ele><time>2025-07-13T06:45:11Z</time></trkpt>
      <trkpt lat="46.651418" lon="12.084420"><ele>2101.6</ele><time>2025-07-13T06:46:17Z</time></trkpt>
      <trkpt lat="46.651086" lon="12.083995"><ele>2100.3</ele><time>2025-07-13T06:47:37Z</time></trkpt>
      <trkpt lat="46.650791" lon="12.083540"><ele>2098.9</ele><time>2025-07-13T06:48:56Z</time></trkpt>
      <trkpt lat="46.650516" lon="12.083109"><ele>2096.7</ele><time>2025-07-13T06:50:09Z</time></trkpt>
      <trkpt lat="46.650202" lon="12.082657"><ele>2095.0</ele><time>2025-07-13T06:51:29Z</time></trkpt>
      <trkpt lat="46.649985" lon="12.082205"><ele>2093.0</ele><time>2025-07-13T06:52:38Z</time></trkpt>
      <trkpt lat="46.649747" lon="12.081837"><ele>2090.2</ele><time>2025-07-13T06:53:41Z</time></trkpt>
      <trkpt lat="46.649342" lon="12.081413"><ele>2088.2</ele><time>2025-07-13T06:55:12Z</time></trkpt>
      <trkpt lat="46.649191" lon="12.081002"><ele>2086.2</ele><time>2025-07-13T06:56:10Z</time></trkpt>
      <trkpt lat="46.648927" lon="12.080488"><ele>2085.7</ele><time>2025-07-13T06:57:31Z</time></trkpt>
      <trkpt lat="46.648725" lon="12.080206"><ele>2081.2</ele><time>2025-07-13T06:58:21Z</time></trkpt>
      <trkpt lat="46.648426" lon="12.079658"><ele>2081.7</ele><time>2025-07-13T06:59:52Z</time></trkpt>
      <trkpt lat="46.647959" lon="12.079368"><ele>2079.8</ele><time>2025-07-13T07:01:24Z</time></trkpt>
      <trkpt lat="46.647794" lon="12.078669"><ele>2077.9</ele><time>2025-07-13T07:02:57Z</time></trkpt>
      <trkpt lat="46.647455" lon="12.078479"><ele>2074.5</ele><time>2025-07-13T07:04:03Z</time></trkpt>
      <trkpt lat="46.647066" lon="12.077932"><ele>2072.0</ele><time>2025-07-13T07:05:41Z</time></trkpt>
      <trkpt lat="46.646865" lon="12.077505"><ele>2072.9</ele><time>2025-07-13T07:06:51Z</time></trkpt>
      <trkpt lat="46.646588" lon="12.077078"><ele>2068.2</ele><time>2025-07-13T07:08:05Z</time></trkpt>
      <trkpt lat="46.646296" lon="12.076661"><ele>2069.2</ele><time>2025-07-13T07:09:25Z</time></trkpt>
      <trkpt lat="46.645983" lon="12.076212"><ele>2067.7</ele><time>2025-07-13T07:10:45Z</time></trkpt>
      <trkpt lat="46.645710" lon="12.075848"><ele>2062.6</ele><time>2025-07-13T07:11:53Z</time></trkpt>
      <trkpt lat="46.645463" lon="12.075460"><ele>2063.8</ele><time>2025-07-13T07:13:06Z</time></trkpt>
      <trkpt lat="46.645053" lon="12.074908"><ele>2061.3</ele><time>2025-07-13T07:14:47Z</time></trkpt>
      <trkpt lat="46.644806" lon="12.074374"><ele>2059.0</ele><time>2025-07-13T07:16:08Z</time></trkpt>
      <trkpt lat="46.644682" lon="12.074235"><ele>2055.6</ele><time>2025-07-13T07:16:36Z</time></trkpt>
      <trkpt lat="46.644449" lon="12.073649"><ele>2055.7</ele><time>2025-07-13T07:18:02Z</time></trkpt>
      <trkpt lat="46.644021" lon="12.073171"><ele>2052.5</ele><time>2025-07-13T07:19:40Z</time></trkpt>
      <trkpt lat="46.643889" lon="12.072935"><ele>2051.9</ele><time>2025-07-13T07:20:18Z</time></trkpt>
      <trkpt lat="46.643419" lon="12.072379"><ele>2048.8</ele><time>2025-07-13T07:22:08Z</time></trkpt>
      <trkpt lat="46.643293" lon="12.071818"><ele>2047.5</ele><time>2025-07-13T07:23:22Z</time></trkpt>
      <trkpt lat="46.643020" lon="12.071402"><ele>2044.2</ele><time>2025-07-13T07:24:33Z</time></trkpt>
      <trkpt lat="46.642727" lon="12.071069"><ele>2045.1</ele><time>2025-07-13T07:25:46Z</time></trkpt>
      <trkpt lat="46.642379" lon="12.070619"><ele>2043.1</ele><time>2025-07-13T07:27:11Z</time></trkpt>
      <trkpt lat="46.642100" lon="12.070200"><ele>2038.0</ele><time>2025-07-13T07:28:24Z</time></trkpt>
      <trkpt lat="46.641835" lon="12.069726"><ele>2039.8</ele><time>2025-07-13T07:29:51Z</time></trkpt>
      <trkpt lat="46.641546" lon="12.069269"><ele>2040.9</ele><time>2025-07-13T07:31:16Z</time></trkpt>
      <trkpt lat="46.641222" lon="12.068790"><ele>2041.7</ele><time>2025-07-13T07:32:44Z</time></trkpt>
      <trkpt lat="46.641059" lon="12.068527"><ele>2043.5</ele><time>2025-07-13T07:33:39Z</time></trkpt>
      <trkpt lat="46.640896" lon="12.067956"><ele>2042.6</ele><time>2025-07-13T07:34:57Z</time></trkpt>
      <trkpt lat="46.640575" lon="12.067396"><ele>2044.6</ele><time>2025-07-13T07:36:40Z</time></trkpt>
      <trkpt lat="46.640296" lon="12.066951"><ele>2044.4</ele><time>2025-07-13T07:37:55Z</time></trkpt>
      <trkpt lat="46.639856" lon="12.066609"><ele>2041.7</ele><time>2025-07-13T07:39:26Z</time></trkpt>
      <trkpt lat="46.639590" lon="12.066221"><ele>2044.9</ele><time>2025-07-13T07:40:54Z</time></trkpt>
      <trkpt lat="46.639546" lon="12.065854"><ele>2044.8</ele><time>2025-07-13T07:41:40Z</time></trkpt>
      <trkpt lat="46.639133" lon="12.065378"><ele>2044.4</ele><time>2025-07-13T07:43:16Z</time></trkpt>
      <trkpt lat="46.638878" lon="12.064724"><ele>2044.6</ele><time>2025-07-13T07:44:51Z</time></trkpt>
      <trkpt lat="46.638610" lon="12.064299"><ele>2046.0</ele><time>2025-07-13T07:46:12Z</time></trkpt>
      <trkpt lat="46.638334" lon="12.063933"><ele>2047.1</ele><time>2025-07-13T07:47:26Z</time></trkpt>
      <trkpt lat="46.638067" lon="12.063467"><ele>2045.6</ele><time>2025-07-13T07:48:42Z</time></trkpt>
      <trkpt lat="46.637821" lon="12.063004"><ele>2046.6</ele><time>2025-07-13T07:50:01Z</time></trkpt>
      <trkpt lat="46.637488" lon="12.062556"><ele>2048.9</ele><time>2025-07-13T07:51:38Z</time></trkpt>
      <trkpt lat="46.637350" lon="12.062079"><ele>2046.3</ele><time>2025-07-13T07:52:42Z</time></trkpt>
      <trkpt lat="46.637030" lon="12.061618"><ele>2049.7</ele><time>2025-07-13T07:54:25Z</time></trkpt>
      <trkpt lat="46.636633" lon="12.061132"><ele>2047.0</ele><time>2025-07-13T07:55:59Z</time></trkpt>
      <trkpt lat="46.636344" lon="12.060646"><ele>2049.3</ele><time>2025-07-13T07:57:34Z</time></trkpt>
      <trkpt lat="46.636122" lon="12.060388"><ele>2048.3</ele><time>2025-07-13T07:58:25Z</time></trkpt>
      <trkpt lat="46.635887" lon="12.059801"><ele>2051.0</ele><time>2025-07-13T08:00:06Z</time></trkpt>
      <trkpt lat="46.635701" lon="12.059286"><ele>2050.0</ele><time>2025-07-13T08:01:19Z</time></trkpt>
      <trkpt lat="46.635451" lon="12.058864"><ele>2053.1</ele><time>2025-07-13T08:02:47Z</time></trkpt>
      <trkpt lat="46.635130" lon="12.058556"><ele>2051.6</ele><time>2025-07-13T08:03:57Z</time></trkpt>
      <trkpt lat="46.634781" lon="12.058094"><ele>2053.8</ele><time>2025-07-13T08:05:36Z</time></trkpt>
      <trkpt lat="46.634535" lon="12.057678"><ele>2052.8</ele><time>2025-07-13T08:06:45Z</time></trkpt>
      <trkpt lat="46.634281" lon="12.057195"><ele>2053.3</ele><time>2025-07-13T08:08:04Z</time></trkpt>
      <trkpt lat="46.634033" lon="12.056733"><ele>2052.8</ele><time>2025-07-13T08:09:17Z</time></trkpt>
      <trkpt lat="46.633792" lon="12.056320"><ele>2055.2</ele><time>2025-07-13T08:10:39Z</time></trkpt>
      <trkpt lat="46.633508" lon="12.055821"><ele>2052.7</ele><time>2025-07-13T08:12:01Z</time></trkpt>
      <trkpt lat="46.633249" lon="12.055351"><ele>2053.3</ele><time>2025-07-13T08:13:19Z</time></trkpt>
      <trkpt lat="46.632844" lon="12.054821"><ele>2055.2</ele><time>2025-07-13T08:15:09Z</time></trkpt>
      <trkpt lat="46.632633" lon="12.054433"><ele>2055.7</ele><time>2025-07-13T08:16:15Z</time></trkpt>
      <trkpt lat="46.632503" lon="12.053968"><ele>2054.4</ele><time>2025-07-13T08:17:17Z</time></trkpt>
      <trkpt lat="46.632087" lon="12.053742"><ele>2056.2</ele><time>2025-07-13T08:18:49Z</time></trkpt>
      <trkpt lat="46.631804" lon="12.053276"><ele>2057.0</ele><time>2025-07-13T08:20:11Z</time></trkpt>
      <trkpt lat="46.631459" lon="12.052768"><ele>2055.5</ele><time>2025-07-13T08:21:41Z</time></trkpt>
      <trkpt lat="46.631481" lon="12.052381"><ele>2056.7</ele><time>2025-07-13T08:22:36Z</time></trkpt>
      <trkpt lat="46.631026" lon="12.051670"><ele>2057.1</ele><time>2025-07-13T08:24:40Z</time></trkpt>
      <trkpt lat="46.630761" lon="12.051404"><ele>2057.6</ele><time>2025-07-13T08:25:41Z</time></trkpt>
      <trkpt lat="46.630555" lon="12.050895"><ele>2060.8</ele><time>2025-07-13T08:27:15Z</time></trkpt>
      <trkpt lat="46.630259" lon="12.050458"><ele>2058.9</ele><time>2025-07-13T08:28:31Z</time></trkpt>
      <trkpt lat="46.630000" lon="12.050000"><ele>2060.4</ele><time>2025-07-13T08:29:54Z</time></trkpt>
      <trkpt lat="46.629624" lon="12.049823"><ele>2060.6</ele><time>2025-07-13T08:31:07Z</time></trkpt>
      <trkpt lat="46.629210" lon="12.049606"><ele>2060.5</ele><time>2025-07-13T08:32:28Z</time></trkpt>
      <trkpt lat="46.628854" lon="12.049430"><ele>2063.3</ele><time>2025-07-13T08:33:53Z</time></trkpt>
      <trkpt lat="46.628430" lon="12.049276"><ele>2063.9</ele><time>2025-07-13T08:35:16Z</time></trkpt>
      <trkpt lat="46.628157" lon="12.048988"><ele>2067.8</ele><time>2025-07-13T08:36:40Z</time></trkpt>
      <trkpt lat="46.627780" lon="12.048802"><ele>2066.7</ele><time>2025-07-13T08:37:53Z</time></trkpt>
      <trkpt lat="46.627352" lon="12.048598"><ele>2067.3</ele><time>2025-07-13T08:39:19Z</time></trkpt>
      <trkpt lat="46.626924" lon="12.048580"><ele>2071.2</ele><time>2025-07-13T08:41:00Z</time></trkpt>
      <trkpt lat="46.626469" lon="12.048252"><ele>2069.9</ele><time>2025-07-13T08:42:32Z</time></trkpt>
      <trkpt lat="46.626143" lon="12.047970"><ele>2071.2</ele><time>2025-07-13T08:43:49Z</time></trkpt>
      <trkpt lat="46.625819" lon="12.047896"><ele>2073.6</ele><time>2025-07-13T08:45:03Z</time></trkpt>
      <trkpt lat="46.625488" lon="12.047592"><ele>2074.6</ele><time>2025-07-13T08:46:20Z</time></trkpt>
      <trkpt lat="46.625096" lon="12.047618"><ele>2073.4</ele><time>2025-07-13T08:47:31Z</time></trkpt>
      <trkpt lat="46.624566" lon="12.047440"><ele>2074.4</ele><time>2025-07-13T08:49:16Z</time></trkpt>
      <trkpt lat="46.624253" lon="12.047124"><ele>2076.9</ele><time>2025-07-13T08:50:41Z</time></trkpt>
      <trkpt lat="46.623836" lon="12.047001"><ele>2080.3</ele><time>2025-07-13T08:52:19Z</time></trkpt>
      <trkpt lat="46.623334" lon="12.046886"><ele>2080.6</ele><time>2025-07-13T08:53:53Z</time></trkpt>
      <trkpt lat="46.622996" lon="12.046578"><ele>2079.0</ele><time>2025-07-13T08:55:05Z</time></trkpt>
      <trkpt lat="46.622756" lon="12.046417"><ele>2083.9</ele><time>2025-07-13T08:56:23Z</time></trkpt>
      <trkpt lat="46.622364" lon="12.046137"><ele>2083.3</ele><time>2025-07-13T08:57:42Z</time></trkpt>
      <trkpt lat="46.621868" lon="12.046031"><ele>2084.2</ele><time>2025-07-13T08:59:19Z</time></trkpt>
      <trkpt lat="46.621569" lon="12.045652"><ele>2084.7</ele><time>2025-07-13T09:00:34Z</time></trkpt>
      <trkpt lat="46.621293" lon="12.045490"><ele>2085.1</ele><time>2025-07-13T09:01:31Z</time></trkpt>
      <trkpt lat="46.620683" lon="12.045536"><ele>2086.9</ele><time>2025-07-13T09:03:33Z</time></trkpt>
      <trkpt lat="46.620419" lon="12.045349"><ele>2088.1</ele><time>2025-07-13T09:04:33Z</time></trkpt>
      <trkpt lat="46.620045" lon="12.045022"><ele>2091.9</ele><time>2025-07-13T09:06:15Z</time></trkpt>
      <trkpt lat="46.619605" lon="12.044764"><ele>2090.4</ele><time>2025-07-13T09:07:42Z</time></trkpt>
      <trkpt lat="46.619189" lon="12.044730"><ele>2093.5</ele><time>2025-07-13T09:09:16Z</time></trkpt>
      <trkpt lat="46.618872" lon="12.044507"><ele>2094.0</ele><time>2025-07-13T09:10:23Z</time></trkpt>
      <trkpt lat="46.618426" lon="12.044313"><ele>2095.0</ele><time>2025-07-13T09:11:54Z</time></trkpt>
      <trkpt lat="46.618086" lon="12.044082"><ele>2095.7</ele><time>2025-07-13T09:13:06Z</time></trkpt>
      <trkpt lat="46.617729" lon="12.043839"><ele>2095.1</ele><time>2025-07-13T09:14:18Z</time></trkpt>
      <trkpt lat="46.617335" lon="12.043699"><ele>2099.3</ele><time>2025-07-13T09:15:57Z</time></trkpt>
      <trkpt lat="46.616962" lon="12.043488"><ele>2099.6</ele><time>2025-07-13T09:17:11Z</time></trkpt>
      <trkpt lat="46.616576" lon="12.043304"><ele>2101.9</ele><time>2025-07-13T09:18:39Z</time></trkpt>
      <trkpt lat="46.616209" lon="12.043099"><ele>2100.5</ele><time>2025-07-13T09:19:51Z</time></trkpt>
      <trkpt lat="46.615820" lon="12.042914"><ele>2102.6</ele><time>2025-07-13T09:21:18Z</time></trkpt>
      <trkpt lat="46.615406" lon="12.042769"><ele>2104.4</ele><time>2025-07-13T09:22:47Z</time></trkpt>
      <trkpt lat="46.615046" lon="12.042539"><ele>2105.3</ele><time>2025-07-13T09:24:04Z</time></trkpt>
      <trkpt lat="46.614686" lon="12.042413"><ele>2108.2</ele><time>2025-07-13T09:25:28Z</time></trkpt>
      <trkpt lat="46.614351" lon="12.042089"><ele>2109.1</ele><time>2025-07-13T09:26:47Z</time></trkpt>
      <trkpt lat="46.613830" lon="12.041914"><ele>2106.7</ele><time>2025-07-13T09:28:24Z</time></trkpt>
      <trkpt lat="46.613596" lon="12.041832"><ele>2108.3</ele><time>2025-07-13T09:29:17Z</time></trkpt>
      <trkpt lat="46.613182" lon="12.041586"><ele>2109.0</ele><time>2025-07-13T09:30:43Z</time></trkpt>
      <trkpt lat="46.612685" lon="12.041503"><ele>2110.9</ele><time>2025-07-13T09:32:25Z</time></trkpt>
      <trkpt lat="46.612255" lon="12.041185"><ele>2113.4</ele><time>2025-07-13T09:34:08Z</time></trkpt>
      <trkpt lat="46.611975" lon="12.040962"><ele>2113.7</ele><time>2025-07-13T09:35:08Z</time></trkpt>
      <trkpt lat="46.611518" lon="12.040755"><ele>2114.1</ele><time>2025-07-13T09:36:38Z</time></trkpt>
      <trkpt lat="46.611187" lon="12.040530"><ele>2117.6</ele><time>2025-07-13T09:38:05Z</time></trkpt>
      <trkpt lat="46.610655" lon="12.040485"><ele>2116.5</ele><time>2025-07-13T09:39:42Z</time></trkpt>
      <trkpt lat="46.610365" lon="12.040204"><ele>2117.3</ele><time>2025-07-13T09:40:51Z</time></trkpt>
      <trkpt lat="46.610119" lon="12.040220"><ele>2120.9</ele><time>2025-07-13T09:41:57Z</time></trkpt>
      <trkpt lat="46.609629" lon="12.039790"><ele>2121.7</ele><time>2025-07-13T09:43:46Z</time></trkpt>
      <trkpt lat="46.609402" lon="12.039687"><ele>2124.1</ele><time>2025-07-13T09:44:43Z</time></trkpt>
      <trkpt lat="46.608764" lon="12.039540"><ele>2122.8</ele><time>2025-07-13T09:46:41Z</time></trkpt>
      <trkpt lat="46.608447" lon="12.039240"><ele>2123.0</ele><time>2025-07-13T09:47:51Z</time></trkpt>
      <trkpt lat="46.608161" lon="12.039057"><ele>2126.8</ele><time>2025-07-13T09:49:11Z</time></trkpt>
      <trkpt lat="46.607721" lon="12.038816"><ele>2127.0</ele><time>2025-07-13T09:50:38Z</time></trkpt>
      <trkpt lat="46.607290" lon="12.038710"><ele>2127.5</ele><time>2025-07-13T09:52:00Z</time></trkpt>
      <trkpt lat="46.606880" lon="12.038429"><ele>2131.2</ele><time>2025-07-13T09:53:45Z</time></trkpt>
      <trkpt lat="46.606646" lon="12.038344"><ele>2131.7</ele><time>2025-07-13T09:54:32Z</time></trkpt>
      <trkpt lat="46.606251" lon="12.038070"><ele>2131.0</ele><time>2025-07-13T09:55:52Z</time></trkpt>
      <trkpt lat="46.605911" lon="12.037881"><ele>2131.5</ele><time>2025-07-13T09:57:00Z</time></trkpt>
      <trkpt lat="46.605404" lon="12.037718"><ele>2134.2</ele><time>2025-07-13T09:58:51Z</time></trkpt>
      <trkpt lat="46.605107" lon="12.037510"><ele>2134.8</ele><time>2025-07-13T09:59:55Z</time></trkpt>
      <trkpt lat="46.604719" lon="12.037327"><ele>2136.9</ele><time>2025-07-13T10:01:22Z</time></trkpt>
      <trkpt lat="46.604314" lon="12.037212"><ele>2137.9</ele><time>2025-07-13T10:02:43Z</time></trkpt>
      <trkpt lat="46.603911" lon="12.036970"><ele>2138.2</ele><time>2025-07-13T10:04:04Z</time></trkpt>
      <trkpt lat="46.603532" lon="12.036793"><ele>2140.1</ele><time>2025-07-13T10:05:28Z</time></trkpt>
      <trkpt lat="46.603136" lon="12.036598"><ele>2139.9</ele><time>2025-07-13T10:06:44Z</time></trkpt>
      <trkpt lat="46.602787" lon="12.036406"><ele>2143.8</ele><time>2025-07-13T10:08:15Z</time></trkpt>
      <trkpt lat="46.602345" lon="12.036224"><ele>2144.8</ele><time>2025-07-13T10:09:45Z</time></trkpt>
      <trkpt lat="46.601956" lon="12.036076"><ele>2144.7</ele><time>2025-07-13T10:10:58Z</time></trkpt>
      <trkpt lat="46.601680" lon="12.035782"><ele>2144.3</ele><time>2025-07-13T10:12:01Z</time></trkpt>
      <trkpt lat="46.601240" lon="12.035607"><ele>2144.6</ele><time>2025-07-13T10:13:25Z</time></trkpt>
      <trkpt lat="46.600768" lon="12.035528"><ele>2146.0</ele><time>2025-07-13T10:15:00Z</time></trkpt>
      <trkpt lat="46.600407" lon="12.035270"><ele>2149.3</ele><time>2025-07-13T10:16:33Z</time></trkpt>
      <trkpt lat="46.600181" lon="12.035122"><ele>2148.3</ele><time>2025-07-13T10:17:18Z</time></trkpt>
      <trkpt lat="46.599597" lon="12.034777"><ele>2151.5</ele><time>2025-07-13T10:19:32Z</time></trkpt>
      <trkpt lat="46.599302" lon="12.034633"><ele>2151.5</ele><time>2025-07-13T10:20:29Z</time></trkpt>
      <trkpt lat="46.598818" lon="12.034405"><ele>2155.2</ele><time>2025-07-13T10:22:24Z</time></trkpt>
      <trkpt lat="46.598675" lon="12.034438"><ele>2155.0</ele><time>2025-07-13T10:22:50Z</time></trkpt>
      <trkpt lat="46.598116" lon="12.034135"><ele>2155.9</ele><time>2025-07-13T10:24:44Z</time></trkpt>
      <trkpt lat="46.597657" lon="12.034094"><ele>2157.5</ele><time>2025-07-13T10:26:18Z</time></trkpt>
      <trkpt lat="46.597360" lon="12.033840"><ele>2158.4</ele><time>2025-07-13T10:27:26Z</time></trkpt>
      <trkpt lat="46.597050" lon="12.033526"><ele>2159.7</ele><time>2025-07-13T10:28:42Z</time></trkpt>
      <trkpt lat="46.596554" lon="12.033484"><ele>2159.0</ele><time>2025-07-13T10:30:12Z</time></trkpt>
      <trkpt lat="46.596363" lon="12.032989"><ele>2160.4</ele><time>2025-07-13T10:31:32Z</time></trkpt>
      <trkpt lat="46.595767" lon="12.033000"><ele>2162.6</ele><time>2025-07-13T10:33:33Z</time></trkpt>
      <trkpt lat="46.595344" lon="12.032838"><ele>2163.8</ele><time>2025-07-13T10:35:00Z</time></trkpt>
      <trkpt lat="46.595244" lon="12.032510"><ele>2165.0</ele><time>2025-07-13T10:35:52Z</time></trkpt>
      <trkpt lat="46.594806" lon="12.032474"><ele>2167.0</ele><time>2025-07-13T10:37:24Z</time></trkpt>
      <trkpt lat="46.594371" lon="12.032168"><ele>2168.1</ele><time>2025-07-13T10:38:59Z</time></trkpt>
      <trkpt lat="46.593961" lon="12.032012"><ele>2170.2</ele><time>2025-07-13T10:40:28Z</time></trkpt>
      <trkpt lat="46.593548" lon="12.031921"><ele>2170.8</ele><time>2025-07-13T10:41:47Z</time></trkpt>
      <trkpt lat="46.593252" lon="12.031575"><ele>2168.9</ele><time>2025-07-13T10:42:57Z</time></trkpt>
      <trkpt lat="46.592819" lon="12.031398"><ele>2171.2</ele><time>2025-07-13T10:44:32Z</time></trkpt>
      <trkpt lat="46.592359" lon="12.031234"><ele>2173.5</ele><time>2025-07-13T10:46:12Z</time></trkpt>
      <trkpt lat="46.591979" lon="12.031102"><ele>2173.3</ele><time>2025-07-13T10:47:23Z</time></trkpt>
      <trkpt lat="46.591670" lon="12.030914"><ele>2175.7</ele><time>2025-07-13T10:48:38Z</time></trkpt>
      <trkpt lat="46.591259" lon="12.030717"><ele>2174.6</ele><time>2025-07-13T10:49:57Z</time></trkpt>
      <trkpt lat="46.590836" lon="12.030454"><ele>2177.2</ele><time>2025-07-13T10:51:36Z</time></trkpt>
      <trkpt lat="46.590497" lon="12.030299"><ele>2180.3</ele><time>2025-07-13T10:52:59Z</time></trkpt>
      <trkpt lat="46.590100" lon="12.030100"><ele>2181.3</ele><time>2025-07-13T10:54:22Z</time></trkpt>
      <trkpt lat="46.589728" lon="12.029915"><ele>2181.2</ele><time>2025-07-13T10:55:33Z</time></trkpt>
      <trkpt lat="46.589322" lon="12.029724"><ele>2184.6</ele><time>2025-07-13T10:57:11Z</time></trkpt>
      <trkpt lat="46.588925" lon="12.029564"><ele>2187.5</ele><time>2025-07-13T10:58:43Z</time></trkpt>
      <trkpt lat="46.588511" lon="12.029411"><ele>2187.6</ele><time>2025-07-13T11:00:02Z</time></trkpt>
      <trkpt lat="46.588242" lon="12.029231"><ele>2192.9</ele><time>2025-07-13T11:01:27Z</time></trkpt>
      <trkpt lat="46.587854" lon="12.028908"><ele>2195.3</ele><time>2025-07-13T11:03:03Z</time></trkpt>
      <trkpt lat="46.587353" lon="12.028739"><ele>2198.0</ele><time>2025-07-13T11:04:53Z</time></trkpt>
      <trkpt lat="46.587046" lon="12.028715"><ele>2197.8</ele><time>2025-07-13T11:05:49Z</time></trkpt>
      <trkpt lat="46.586612" lon="12.028551"><ele>2200.2</ele><time>2025-07-13T11:07:25Z</time></trkpt>
      <trkpt lat="46.586175" lon="12.028139"><ele>2205.0</ele><time>2025-07-13T11:09:29Z</time></trkpt>
      <trkpt lat="46.585778" lon="12.028033"><ele>2206.6</ele><time>2025-07-13T11:10:52Z</time></trkpt>
      <trkpt lat="46.585446" lon="12.027825"><ele>2206.4</ele><time>2025-07-13T11:11:57Z</time></trkpt>
      <trkpt lat="46.585212" lon="12.027716"><ele>2209.3</ele><time>2025-07-13T11:12:59Z</time></trkpt>
      <trkpt lat="46.584718" lon="12.027401"><ele>2213.3</ele><time>2025-07-13T11:15:01Z</time></trkpt>
      <trkpt lat="46.584254" lon="12.027264"><ele>2214.3</ele><time>2025-07-13T11:16:34Z</time></trkpt>
      <trkpt lat="46.584070" lon="12.027310"><ele>2218.0</ele><time>2025-07-13T11:17:30Z</time></trkpt>
      <trkpt lat="46.583730" lon="12.026955"><ele>2217.9</ele><time>2025-07-13T11:18:46Z</time></trkpt>
      <trkpt lat="46.583040" lon="12.026963"><ele>2222.4</ele><time>2025-07-13T11:21:19Z</time></trkpt>
      <trkpt lat="46.582685" lon="12.026753"><ele>2225.2</ele><time>2025-07-13T11:22:45Z</time></trkpt>
      <trkpt lat="46.582432" lon="12.026367"><ele>2224.9</ele><time>2025-07-13T11:23:52Z</time></trkpt>
      <trkpt lat="46.582162" lon="12.026370"><ele>2226.6</ele><time>2025-07-13T11:24:51Z</time></trkpt>
      <trkpt lat="46.581680" lon="12.026107"><ele>2231.7</ele><time>2025-07-13T11:26:55Z</time></trkpt>
      <trkpt lat="46.581288" lon="12.025789"><ele>2232.2</ele><time>2025-07-13T11:28:20Z</time></trkpt>
      <trkpt lat="46.580864" lon="12.025677"><ele>2234.5</ele><time>2025-07-13T11:29:52Z</time></trkpt>
      <trkpt lat="46.580538" lon="12.025407"><ele>2236.3</ele><time>2025-07-13T11:31:12Z</time></trkpt>
      <trkpt lat="46.580194" lon="12.025423"><ele>2238.2</ele><time>2025-07-13T11:32:25Z</time></trkpt>
      <trkpt lat="46.579695" lon="12.025149"><ele>2243.6</ele><time>2025-07-13T11:34:35Z</time></trkpt>
      <trkpt lat="46.579380" lon="12.024942"><ele>2243.3</ele><time>2025-07-13T11:35:38Z</time></trkpt>
      <trkpt lat="46.578944" lon="12.024773"><ele>2247.3</ele><time>2025-07-13T11:37:24Z</time></trkpt>
      <trkpt lat="46.578547" lon="12.024609"><ele>2248.0</ele><time>2025-07-13T11:38:44Z</time></trkpt>
      <trkpt lat="46.578202" lon="12.024359"><ele>2253.2</ele><time>2025-07-13T11:40:25Z</time></trkpt>
      <trkpt lat="46.577800" lon="12.024262"><ele>2252.8</ele><time>2025-07-13T11:41:39Z</time></trkpt>
      <trkpt lat="46.577416" lon="12.024022"><ele>2257.6</ele><time>2025-07-13T11:43:24Z</time></trkpt>
      <trkpt lat="46.577063" lon="12.023856"><ele>2258.0</ele><time>2025-07-13T11:44:34Z</time></trkpt>
      <trkpt lat="46.576670" lon="12.023670"><ele>2260.3</ele><time>2025-07-13T11:46:03Z</time></trkpt>
      <trkpt lat="46.576269" lon="12.023478"><ele>2263.9</ele><time>2025-07-13T11:47:42Z</time></trkpt>
      <trkpt lat="46.575928" lon="12.023324"><ele>2264.8</ele><time>2025-07-13T11:48:52Z</time></trkpt>
      <trkpt lat="46.575549" lon="12.023099"><ele>2269.4</ele><time>2025-07-13T11:50:34Z</time></trkpt>
      <trkpt lat="46.575143" lon="12.022890"><ele>2268.8</ele><time>2025-07-13T11:51:52Z</time></trkpt>
      <trkpt lat="46.574718" lon="12.022815"><ele>2272.4</ele><time>2025-07-13T11:53:32Z</time></trkpt>
      <trkpt lat="46.574346" lon="12.022485"><ele>2275.9</ele><time>2025-07-13T11:55:13Z</time></trkpt>
      <trkpt lat="46.574052" lon="12.022306"><ele>2277.2</ele><time>2025-07-13T11:56:18Z</time></trkpt>
      <trkpt lat="46.573626" lon="12.022220"><ele>2281.0</ele><time>2025-07-13T11:57:59Z</time></trkpt>
      <trkpt lat="46.573166" lon="12.021905"><ele>2283.3</ele><time>2025-07-13T11:59:45Z</time></trkpt>
      <trkpt lat="46.572788" lon="12.021884"><ele>2282.8</ele><time>2025-07-13T12:00:54Z</time></trkpt>
      <trkpt lat="46.572521" lon="12.021656"><ele>2287.9</ele><time>2025-07-13T12:02:21Z</time></trkpt>
      <trkpt lat="46.572076" lon="12.021557"><ele>2287.2</ele><time>2025-07-13T12:03:43Z</time></trkpt>
      <trkpt lat="46.571766" lon="12.021390"><ele>2290.2</ele><time>2025-07-13T12:05:02Z</time></trkpt>
      <trkpt lat="46.571175" lon="12.021137"><ele>2293.9</ele><time>2025-07-13T12:07:15Z</time></trkpt>
      <trkpt lat="46.571049" lon="12.020988"><ele>2297.0</ele><time>2025-07-13T12:08:04Z</time></trkpt>
      <trkpt lat="46.570442" lon="12.020567"><ele>2297.7</ele><time>2025-07-13T12:10:10Z</time></trkpt>
      <trkpt lat="46.570092" lon="12.020418"><ele>2301.9</ele><time>2025-07-13T12:11:42Z</time></trkpt>
      <trkpt lat="46.569811" lon="12.020318"><ele>2302.3</ele><time>2025-07-13T12:12:37Z</time></trkpt>
      <trkpt lat="46.569366" lon="12.020183"><ele>2305.8</ele><time>2025-07-13T12:14:21Z</time></trkpt>
      <trkpt lat="46.569040" lon="12.020139"><ele>2306.9</ele><time>2025-07-13T12:15:27Z</time></trkpt>
      <trkpt lat="46.568491" lon="12.019825"><ele>2308.2</ele><time>2025-07-13T12:17:22Z</time></trkpt>
      <trkpt lat="46.568163" lon="12.019566"><ele>2310.6</ele><time>2025-07-13T12:18:44Z</time></trkpt>
      <trkpt lat="46.567842" lon="12.019353"><ele>2312.7</ele><time>2025-07-13T12:20:01Z</time></trkpt>
      <trkpt lat="46.567475" lon="12.019194"><ele>2317.7</ele><time>2025-07-13T12:21:41Z</time></trkpt>
      <trkpt lat="46.567095" lon="12.019098"><ele>2318.5</ele><time>2025-07-13T12:22:56Z</time></trkpt>
      <trkpt lat="46.566606" lon="12.018958"><ele>2321.5</ele><time>2025-07-13T12:24:44Z</time></trkpt>
      <trkpt lat="46.566301" lon="12.018670"><ele>2322.0</ele><time>2025-07-13T12:25:54Z</time></trkpt>
      <trkpt lat="46.565943" lon="12.018441"><ele>2323.8</ele><time>2025-07-13T12:27:15Z</time></trkpt>
      <trkpt lat="46.565563" lon="12.018423"><ele>2327.0</ele><time>2025-07-13T12:28:44Z</time></trkpt>
      <trkpt lat="46.565211" lon="12.018178"><ele>2330.7</ele><time>2025-07-13T12:30:17Z</time></trkpt>
      <trkpt lat="46.564793" lon="12.018006"><ele>2331.7</ele><time>2025-07-13T12:31:42Z</time></trkpt>
      <trkpt lat="46.564367" lon="12.017779"><ele>2335.2</ele><time>2025-07-13T12:33:26Z</time></trkpt>
      <trkpt lat="46.563995" lon="12.017617"><ele>2338.6</ele><time>2025-07-13T12:34:57Z</time></trkpt>
      <trkpt lat="46.563633" lon="12.017429"><ele>2339.4</ele><time>2025-07-13T12:36:12Z</time></trkpt>
      <trkpt lat="46.563245" lon="12.017245"><ele>2343.5</ele><time>2025-07-13T12:37:51Z</time></trkpt>
      <trkpt lat="46.562879" lon="12.017044"><ele>2344.6</ele><time>2025-07-13T12:39:08Z</time></trkpt>
      <trkpt lat="46.562491" lon="12.016852"><ele>2344.3</ele><time>2025-07-13T12:40:23Z</time></trkpt>
      <trkpt lat="46.562084" lon="12.016693"><ele>2349.3</ele><time>2025-07-13T12:42:09Z</time></trkpt>
      <trkpt lat="46.561744" lon="12.016542"><ele>2352.7</ele><time>2025-07-13T12:43:34Z</time></trkpt>
      <trkpt lat="46.561307" lon="12.016382"><ele>2353.4</ele><time>2025-07-13T12:45:00Z</time></trkpt>
      <trkpt lat="46.561008" lon="12.016085"><ele>2355.2</ele><time>2025-07-13T12:46:17Z</time></trkpt>
      <trkpt lat="46.560591" lon="12.016008"><ele>2356.1</ele><time>2025-07-13T12:47:39Z</time></trkpt>
      <trkpt lat="46.560226" lon="12.015804"><ele>2358.1</ele><time>2025-07-13T12:49:02Z</time></trkpt>
      <trkpt lat="46.559779" lon="12.015678"><ele>2363.2</ele><time>2025-07-13T12:50:56Z</time></trkpt>
      <trkpt lat="46.559358" lon="12.015387"><ele>2363.4</ele><time>2025-07-13T12:52:21Z</time></trkpt>
      <trkpt lat="46.559170" lon="12.015193"><ele>2365.1</ele><time>2025-07-13T12:53:14Z</time></trkpt>
      <trkpt lat="46.558749" lon="12.015192"><ele>2370.4</ele><time>2025-07-13T12:55:02Z</time></trkpt>
      <trkpt lat="46.558351" lon="12.014711"><ele>2372.1</ele><time>2025-07-13T12:56:46Z</time></trkpt>
      <trkpt lat="46.557779" lon="12.014622"><ele>2375.7</ele><time>2025-07-13T12:58:53Z</time></trkpt>
      <trkpt lat="46.557656" lon="12.014584"><ele>2376.8</ele><time>2025-07-13T12:59:22Z</time></trkpt>
      <trkpt lat="46.557080" lon="12.014411"><ele>2380.4</ele><time>2025-07-13T13:01:31Z</time></trkpt>
      <trkpt lat="46.556641" lon="12.014155"><ele>2382.7</ele><time>2025-07-13T13:03:11Z</time></trkpt>
      <trkpt lat="46.556422" lon="12.014078"><ele>2384.9</ele><time>2025-07-13T13:04:05Z</time></trkpt>
      <trkpt lat="46.556031" lon="12.013792"><ele>2385.8</ele><time>2025-07-13T13:05:30Z</time></trkpt>
      <trkpt lat="46.555629" lon="12.013712"><ele>2388.5</ele><time>2025-07-13T13:07:00Z</time></trkpt>
      <trkpt lat="46.555257" lon="12.013390"><ele>2390.1</ele><time>2025-07-13T13:08:28Z</time></trkpt>
      <trkpt lat="46.554793" lon="12.013350"><ele>2393.4</ele><time>2025-07-13T13:10:13Z</time></trkpt>
      <trkpt lat="46.554429" lon="12.013140"><ele>2392.7</ele><time>2025-07-13T13:11:24Z</time></trkpt>
      <trkpt lat="46.553910" lon="12.012718"><ele>2395.5</ele><time>2025-07-13T13:13:29Z</time></trkpt>
      <trkpt lat="46.553611" lon="12.012632"><ele>2399.5</ele><time>2025-07-13T13:14:49Z</time></trkpt>
      <trkpt lat="46.553225" lon="12.012469"><ele>2402.9</ele><time>2025-07-13T13:16:22Z</time></trkpt>
      <trkpt lat="46.552789" lon="12.012207"><ele>2405.8</ele><time>2025-07-13T13:18:06Z</time></trkpt>
      <trkpt lat="46.552528" lon="12.012021"><ele>2407.4</ele><time>2025-07-13T13:19:08Z</time></trkpt>
      <trkpt lat="46.552074" lon="12.011854"><ele>2409.8</ele><time>2025-07-13T13:20:48Z</time></trkpt>
      <trkpt lat="46.551689" lon="12.011703"><ele>2408.8</ele><time>2025-07-13T13:22:00Z</time></trkpt>
      <trkpt lat="46.551357" lon="12.011544"><ele>2413.8</ele><time>2025-07-13T13:23:33Z</time></trkpt>
      <trkpt lat="46.550976" lon="12.011385"><ele>2415.2</ele><time>2025-07-13T13:24:54Z</time></trkpt>
      <trkpt lat="46.550583" lon="12.011196"><ele>2418.3</ele><time>2025-07-13T13:26:28Z</time></trkpt>
      <trkpt lat="46.550200" lon="12.011000"><ele>2419.1</ele><time>2025-07-13T13:27:46Z</time></trkpt>
      <trkpt lat="46.549796" lon="12.010877"><ele>2422.6</ele><time>2025-07-13T13:29:23Z</time></trkpt>
      <trkpt lat="46.549450" lon="12.010692"><ele>2428.0</ele><time>2025-07-13T13:31:02Z</time></trkpt>
      <trkpt lat="46.548995" lon="12.010525"><ele>2434.1</ele><time>2025-07-13T13:33:04Z</time></trkpt>
      <trkpt lat="46.548712" lon="12.010423"><ele>2435.3</ele><time>2025-07-13T13:34:04Z</time></trkpt>
      <trkpt lat="46.548168" lon="12.010204"><ele>2439.9</ele><time>2025-07-13T13:36:15Z</time></trkpt>
      <trkpt lat="46.547853" lon="12.010162"><ele>2447.9</ele><time>2025-07-13T13:38:00Z</time></trkpt>
      <trkpt lat="46.547383" lon="12.009994"><ele>2450.8</ele><time>2025-07-13T13:39:46Z</time></trkpt>
      <trkpt lat="46.547100" lon="12.009777"><ele>2452.6</ele><time>2025-07-13T13:40:54Z</time></trkpt>
      <trkpt lat="46.546724" lon="12.009587"><ele>2458.3</ele><time>2025-07-13T13:42:41Z</time></trkpt>
      <trkpt lat="46.546309" lon="12.009453"><ele>2465.1</ele><time>2025-07-13T13:44:40Z</time></trkpt>
      <trkpt lat="46.545894" lon="12.009545"><ele>2467.0</ele><time>2025-07-13T13:46:07Z</time></trkpt>
      <trkpt lat="46.545430" lon="12.009229"><ele>2471.2</ele><time>2025-07-13T13:48:06Z</time></trkpt>
      <trkpt lat="46.545181" lon="12.009275"><ele>2477.8</ele><time>2025-07-13T13:49:31Z</time></trkpt>
      <trkpt lat="46.544763" lon="12.009110"><ele>2481.5</ele><time>2025-07-13T13:51:12Z</time></trkpt>
      <trkpt lat="46.544357" lon="12.008913"><ele>2483.0</ele><time>2025-07-13T13:52:39Z</time></trkpt>
      <trkpt lat="46.543885" lon="12.008782"><ele>2489.2</ele><time>2025-07-13T13:54:44Z</time></trkpt>
      <trkpt lat="46.543492" lon="12.008595"><ele>2494.5</ele><time>2025-07-13T13:56:30Z</time></trkpt>
      <trkpt lat="46.543211" lon="12.008347"><ele>2498.1</ele><time>2025-07-13T13:57:52Z</time></trkpt>
      <trkpt lat="46.542850" lon="12.008271"><ele>2501.3</ele><time>2025-07-13T13:59:17Z</time></trkpt>
      <trkpt lat="46.542365" lon="12.008081"><ele>2508.0</ele><time>2025-07-13T14:01:29Z</time></trkpt>
      <trkpt lat="46.541931" lon="12.007927"><ele>2511.3</ele><time>2025-07-13T14:03:10Z</time></trkpt>
      <trkpt lat="46.541600" lon="12.007867"><ele>2516.0</ele><time>2025-07-13T14:04:39Z</time></trkpt>
      <trkpt lat="46.541159" lon="12.007742"><ele>2520.4</ele><time>2025-07-13T14:06:27Z</time></trkpt>
      <trkpt lat="46.540755" lon="12.007546"><ele>2521.9</ele><time>2025-07-13T14:07:54Z</time></trkpt>
      <trkpt lat="46.540386" lon="12.007418"><ele>2526.9</ele><time>2025-07-13T14:09:33Z</time></trkpt>
      <trkpt lat="46.540007" lon="12.007290"><ele>2530.9</ele><time>2025-07-13T14:11:08Z</time></trkpt>
      <trkpt lat="46.539614" lon="12.007157"><ele>2535.8</ele><time>2025-07-13T14:12:51Z</time></trkpt>
      <trkpt lat="46.539249" lon="12.006995"><ele>2541.2</ele><time>2025-07-13T14:14:32Z</time></trkpt>
      <trkpt lat="46.538861" lon="12.006802"><ele>2546.6</ele><time>2025-07-13T14:16:19Z</time></trkpt>
      <trkpt lat="46.538517" lon="12.006770"><ele>2549.0</ele><time>2025-07-13T14:17:37Z</time></trkpt>
      <trkpt lat="46.538019" lon="12.006562"><ele>2551.9</ele><time>2025-07-13T14:19:28Z</time></trkpt>
      <trkpt lat="46.537635" lon="12.006473"><ele>2558.3</ele><time>2025-07-13T14:21:17Z</time></trkpt>
      <trkpt lat="46.537241" lon="12.006161"><ele>2562.6</ele><time>2025-07-13T14:23:05Z</time></trkpt>
      <trkpt lat="46.536972" lon="12.006209"><ele>2565.5</ele><time>2025-07-13T14:24:11Z</time></trkpt>
      <trkpt lat="46.536599" lon="12.005990"><ele>2569.5</ele><time>2025-07-13T14:25:49Z</time></trkpt>
      <trkpt lat="46.536194" lon="12.005955"><ele>2576.2</ele><time>2025-07-13T14:27:43Z</time></trkpt>
      <trkpt lat="46.535741" lon="12.005607"><ele>2580.5</ele><time>2025-07-13T14:29:42Z</time></trkpt>
      <trkpt lat="46.535274" lon="12.005581"><ele>2582.3</ele><time>2025-07-13T14:31:17Z</time></trkpt>
      <trkpt lat="46.534900" lon="12.005282"><ele>2589.4</ele><time>2025-07-13T14:33:18Z</time></trkpt>
      <trkpt lat="46.534612" lon="12.005451"><ele>2591.3</ele><time>2025-07-13T14:34:26Z</time></trkpt>
      <trkpt lat="46.533983" lon="12.005036"><ele>2598.5</ele><time>2025-07-13T14:37:15Z</time></trkpt>
      <trkpt lat="46.533702" lon="12.004943"><ele>2599.7</ele><time>2025-07-13T14:38:14Z</time></trkpt>
      <trkpt lat="46.533280" lon="12.004983"><ele>2607.2</ele><time>2025-07-13T14:40:16Z</time></trkpt>
      <trkpt lat="46.533000" lon="12.004833"><ele>2610.4</ele><time>2025-07-13T14:41:30Z</time></trkpt>
      <trkpt lat="46.532448" lon="12.004451"><ele>2615.0</ele><time>2025-07-13T14:43:48Z</time></trkpt>
      <trkpt lat="46.532208" lon="12.004465"><ele>2617.9</ele><time>2025-07-13T14:44:50Z</time></trkpt>
      <trkpt lat="46.531680" lon="12.004364"><ele>2624.2</ele><time>2025-07-13T14:47:04Z</time></trkpt>
      <trkpt lat="46.531424" lon="12.004178"><ele>2625.8</ele><time>2025-07-13T14:48:06Z</time></trkpt>
      <trkpt lat="46.530990" lon="12.003993"><ele>2629.6</ele><time>2025-07-13T14:49:51Z</time></trkpt>
      <trkpt lat="46.530584" lon="12.003832"><ele>2635.5</ele><time>2025-07-13T14:51:43Z</time></trkpt>
      <trkpt lat="46.530194" lon="12.003710"><ele>2639.7</ele><time>2025-07-13T14:53:21Z</time></trkpt>
      <trkpt lat="46.529798" lon="12.003572"><ele>2645.5</ele><time>2025-07-13T14:55:10Z</time></trkpt>
      <trkpt lat="46.529383" lon="12.003426"><ele>2647.5</ele><time>2025-07-13T14:56:39Z</time></trkpt>
      <trkpt lat="46.529034" lon="12.003233"><ele>2651.9</ele><time>2025-07-13T14:58:14Z</time></trkpt>
      <trkpt lat="46.528575" lon="12.003158"><ele>2657.3</ele><time>2025-07-13T15:00:11Z</time></trkpt>
      <trkpt lat="46.528165" lon="12.003015"><ele>2659.5</ele><time>2025-07-13T15:01:40Z</time></trkpt>
      <trkpt lat="46.527849" lon="12.002940"><ele>2664.3</ele><time>2025-07-13T15:03:07Z</time></trkpt>
      <trkpt lat="46.527427" lon="12.002766"><ele>2671.3</ele><time>2025-07-13T15:05:09Z</time></trkpt>
      <trkpt lat="46.527120" lon="12.002656"><ele>2675.0</ele><time>2025-07-13T15:06:29Z</time></trkpt>
      <trkpt lat="46.526743" lon="12.002298"><ele>2679.4</ele><time>2025-07-13T15:08:17Z</time></trkpt>
      <trkpt lat="46.526355" lon="12.002387"><ele>2681.9</ele><time>2025-07-13T15:09:44Z</time></trkpt>
      <trkpt lat="46.525983" lon="12.001987"><ele>2688.2</ele><time>2025-07-13T15:11:45Z</time></trkpt>
      <trkpt lat="46.525512" lon="12.002031"><ele>2692.2</ele><time>2025-07-13T15:13:35Z</time></trkpt>
      <trkpt lat="46.525169" lon="12.001877"><ele>2695.7</ele><time>2025-07-13T15:15:02Z</time></trkpt>
      <trkpt lat="46.524854" lon="12.001636"><ele>2700.5</ele><time>2025-07-13T15:16:35Z</time></trkpt>
      <trkpt lat="46.524206" lon="12.001402"><ele>2705.0</ele><time>2025-07-13T15:19:04Z</time></trkpt>
      <trkpt lat="46.524024" lon="12.001517"><ele>2710.2</ele><time>2025-07-13T15:20:11Z</time></trkpt>
      <trkpt lat="46.523380" lon="12.001152"><ele>2713.9</ele><time>2025-07-13T15:22:39Z</time></trkpt>
      <trkpt lat="46.523048" lon="12.001055"><ele>2715.7</ele><time>2025-07-13T15:23:51Z</time></trkpt>
      <trkpt lat="46.522803" lon="12.000971"><ele>2722.9</ele><time>2025-07-13T15:25:21Z</time></trkpt>
      <trkpt lat="46.522388" lon="12.000789"><ele>2725.3</ele><time>2025-07-13T15:26:54Z</time></trkpt>
      <trkpt lat="46.521974" lon="12.000643"><ele>2731.3</ele><time>2025-07-13T15:28:47Z</time></trkpt>
      <trkpt lat="46.521510" lon="12.000592"><ele>2733.4</ele><time>2025-07-13T15:30:25Z</time></trkpt>
      <trkpt lat="46.521217" lon="12.000397"><ele>2740.4</ele><time>2025-07-13T15:32:05Z</time></trkpt>
      <trkpt lat="46.520773" lon="12.000295"><ele>2743.3</ele><time>2025-07-13T15:33:45Z</time></trkpt>
      <trkpt lat="46.520400" lon="12.000139"><ele>2748.9</ele><time>2025-07-13T15:35:29Z</time></trkpt>
      <trkpt lat="46.520000" lon="12.000000"><ele>2752.0</ele><time>2025-07-13T15:37:02Z</time></trkpt>
    </trkseg>
  </trk>
</gpx>
