<?xml version="1.0" encoding="UTF-8"?>
<gpx version="1.1" creator="tripplanner sample generator" xmlns="http://www.topografix.com/GPX/1/1">
  <metadata>
    <name>Lago di Braies → Rifugio Sennes</name>
    <time>2025-07-12T07:10:00Z</time>
  </metadata>
  <trk>
    <name>Lago di Braies → Rifugio Sennes</name>
    <trkseg>
      <trkpt lat="46.694700" lon="12.085000"><ele>1495.1</ele><time>2025-07-12T07:10:00Z</time></trkpt>
      <trkpt lat="46.694362" lon="12.085329"><ele>1508.5</ele><time>2025-07-12T07:12:28Z</time></trkpt>
      <trkpt lat="46.693901" lon="12.085725"><ele>1520.4</ele><time>2025-07-12T07:15:09Z</time></trkpt>
      <trkpt lat="46.693703" lon="12.086074"><ele>1530.2</ele><time>2025-07-12T07:16:59Z</time></trkpt>
      <trkpt lat="46.693212" lon="12.086473"><ele>1542.7</ele><time>2025-07-12T07:19:48Z</time></trkpt>
      <trkpt lat="46.692903" lon="12.086569"><ele>1552.1</ele><time>2025-07-12T07:21:37Z</time></trkpt>
      <trkpt lat="46.692657" lon="12.087021"><ele>1564.7</ele><time>2025-07-12T07:23:59Z</time></trkpt>
      <trkpt lat="46.692307" lon="12.087241"><ele>1574.9</ele><time>2025-07-12T07:26:03Z</time></trkpt>
      <trkpt lat="46.691947" lon="12.087633"><ele>1587.8</ele><time>2025-07-12T07:28:35Z</time></trkpt>
      <trkpt lat="46.691635" lon="12.087989"><ele>1598.6</ele><time>2025-07-12T07:30:46Z</time></trkpt>
      <trkpt lat="46.691323" lon="12.088248"><ele>1610.9</ele><time>2025-07-12T07:33:00Z</time></trkpt>
      <trkpt lat="46.690798" lon="12.088722"><ele>1619.8</ele><time>2025-07-12T07:35:37Z</time></trkpt>
      <trkpt lat="46.690617" lon="12.089058"><ele>1632.4</ele><time>2025-07-12T07:37:41Z</time></trkpt>
      <trkpt lat="46.690303" lon="12.089278"><ele>1644.0</ele><time>2025-07-12T07:39:49Z</time></trkpt>
      <trkpt lat="46.689769" lon="12.089492"><ele>1654.7</ele><time>2025-07-12T07:42:25Z</time></trkpt>
      <trkpt lat="46.689494" lon="12.090011"><ele>1665.9</ele><time>2025-07-12T07:44:47Z</time></trkpt>
      <trkpt lat="46.689225" lon="12.090259"><ele>1676.4</ele><time>2025-07-12T07:46:43Z</time></trkpt>
      <trkpt lat="46.688832" lon="12.090564"><ele>1689.5</ele><time>2025-07-12T07:49:17Z</time></trkpt>
      <trkpt lat="46.688459" lon="12.090972"><ele>1699.5</ele><time>2025-07-12T07:51:34Z</time></trkpt>
      <trkpt lat="46.688287" lon="12.091102"><ele>1711.6</ele><time>2025-07-12T07:53:19Z</time></trkpt>
      <trkpt lat="46.687950" lon="12.091716"><ele>1722.2</ele><time>2025-07-12T07:55:53Z</time></trkpt>
      <trkpt lat="46.687483" lon="12.091747"><ele>1735.3</ele><time>2025-07-12T07:58:29Z</time></trkpt>
      <trkpt lat="46.687282" lon="12.092330"><ele>1744.9</ele><time>2025-07-12T08:00:42Z</time></trkpt>
      <trkpt lat="46.686822" lon="12.092454"><ele>1756.8</ele><time>2025-07-12T08:03:11Z</time></trkpt>
      <trkpt lat="46.686447" lon="12.092914"><ele>1768.8</ele><time>2025-07-12T08:05:44Z</time></trkpt>
      <trkpt lat="46.686100" lon="12.093200"><ele>1779.0</ele><time>2025-07-12T08:07:53Z</time></trkpt>
      <trkpt lat="46.685744" lon="12.093441"><ele>1790.7</ele><time>2025-07-12T08:10:08Z</time></trkpt>
      <trkpt lat="46.685346" lon="12.093704"><ele>1803.7</ele><time>2025-07-12T08:12:39Z</time></trkpt>
      <trkpt lat="46.685086" lon="12.093935"><ele>1815.9</ele><time>2025-07-12T08:14:43Z</time></trkpt>
      <trkpt lat="46.684807" lon="12.094179"><ele>1828.0</ele><time>2025-07-12T08:16:50Z</time></trkpt>
      <trkpt lat="46.684425" lon="12.094505"><ele>1842.2</ele><time>2025-07-12T08:19:29Z</time></trkpt>
      <trkpt lat="46.683942" lon="12.094990"><ele>1853.4</ele><time>2025-07-12T08:22:14Z</time></trkpt>
      <trkpt lat="46.683542" lon="12.095297"><ele>1865.2</ele><time>2025-07-12T08:24:40Z</time></trkpt>
      <trkpt lat="46.683253" lon="12.095521"><ele>1879.0</ele><time>2025-07-12T08:26:57Z</time></trkpt>
      <trkpt lat="46.682887" lon="12.095786"><ele>1891.1</ele><time>2025-07-12T08:29:18Z</time></trkpt>
      <trkpt lat="46.682618" lon="12.096062"><ele>1904.1</ele><time>2025-07-12T08:31:31Z</time></trkpt>
      <trkpt lat="46.682283" lon="12.096293"><ele>1915.8</ele><time>2025-07-12T08:33:43Z</time></trkpt>
      <trkpt lat="46.681667" lon="12.096657"><ele>1927.0</ele><time>2025-07-12T08:36:41Z</time></trkpt>
      <trkpt lat="46.681342" lon="12.097058"><ele>1939.9</ele><time>2025-07-12T08:39:09Z</time></trkpt>
      <trkpt lat="46.681139" lon="12.097281"><ele>1954.5</ele><time>2025-07-12T08:41:20Z</time></trkpt>
      <trkpt lat="46.680850" lon="12.097573"><ele>1964.6</ele><time>2025-07-12T08:43:19Z</time></trkpt>
      <trkpt lat="46.680388" lon="12.097815"><ele>1978.7</ele><time>2025-07-12T08:46:05Z</time></trkpt>
      <trkpt lat="46.680053" lon="12.098097"><ele>1991.6</ele><time>2025-07-12T08:48:27Z</time></trkpt>
      <trkpt lat="46.679649" lon="12.098307"><ele>2003.3</ele><time>2025-07-12T08:50:49Z</time></trkpt>
      <trkpt lat="46.679334" lon="12.098695"><ele>2014.6</ele><time>2025-07-12T08:53:06Z</time></trkpt>
      <trkpt lat="46.679080" lon="12.099125"><ele>2027.6</ele><time>2025-07-12T08:55:28Z</time></trkpt>
      <trkpt lat="46.678720" lon="12.099253"><ele>2042.3</ele><time>2025-07-12T08:57:58Z</time></trkpt>
      <trkpt lat="46.678362" lon="12.099656"><ele>2052.0</ele><time>2025-07-12T09:00:12Z</time></trkpt>
      <trkpt lat="46.677824" lon="12.099727"><ele>2065.9</ele><time>2025-07-12T09:03:05Z</time></trkpt>
      <trkpt lat="46.677502" lon="12.100098"><ele>2078.9</ele><time>2025-07-12T09:05:32Z</time></trkpt>
      <trkpt lat="46.677200" lon="12.100400"><ele>2090.0</ele><time>2025-07-12T09:07:40Z</time></trkpt>
      <trkpt lat="46.676843" lon="12.100712"><ele>2102.6</ele><time>2025-07-12T09:10:05Z</time></trkpt>
      <trkpt lat="46.676557" lon="12.100875"><ele>2116.8</ele><time>2025-07-12T09:12:21Z</time></trkpt>
      <trkpt lat="46.676232" lon="12.101282"><ele>2127.7</ele><time>2025-07-12T09:14:38Z</time></trkpt>
      <trkpt lat="46.675754" lon="12.101347"><ele>2140.8</ele><time>2025-07-12T09:17:17Z</time></trkpt>
      <trkpt lat="46.675201" lon="12.101714"><ele>2152.7</ele><time>2025-07-12T09:20:10Z</time></trkpt>
      <trkpt lat="46.674899" lon="12.101865"><ele>2165.4</ele><time>2025-07-12T09:22:19Z</time></trkpt>
      <trkpt lat="46.674495" lon="12.102092"><ele>2176.7</ele><time>2025-07-12T09:24:39Z</time></trkpt>
      <trkpt lat="46.674187" lon="12.102322"><ele>2191.3</ele><time>2025-07-12T09:27:04Z</time></trkpt>
      <trkpt lat="46.673754" lon="12.102622"><ele>2201.9</ele><time>2025-07-12T09:29:28Z</time></trkpt>
      <trkpt lat="46.673416" lon="12.102834"><ele>2213.7</ele><time>2025-07-12T09:31:40Z</time></trkpt>
      <trkpt lat="46.673023" lon="12.103177"><ele>2227.8</ele><time>2025-07-12T09:34:21Z</time></trkpt>
      <trkpt lat="46.672617" lon="12.103280"><ele>2238.7</ele><time>2025-07-12T09:36:35Z</time></trkpt>
      <trkpt lat="46.672274" lon="12.103571"><ele>2251.6</ele><time>2025-07-12T09:38:59Z</time></trkpt>
      <trkpt lat="46.671804" lon="12.103829"><ele>2264.0</ele><time>2025-07-12T09:41:37Z</time></trkpt>
      <trkpt lat="46.671383" lon="12.104086"><ele>2277.4</ele><time>2025-07-12T09:44:13Z</time></trkpt>
      <trkpt lat="46.671045" lon="12.104433"><ele>2290.9</ele><time>2025-07-12T09:46:44Z</time></trkpt>
      <trkpt lat="46.670691" lon="12.104524"><ele>2302.3</ele><time>2025-07-12T09:48:52Z</time></trkpt>
      <trkpt lat="46.670354" lon="12.104809"><ele>2314.2</ele><time>2025-07-12T09:51:08Z</time></trkpt>
      <trkpt lat="46.670000" lon="12.105000"><ele>2326.6</ele><time>2025-07-12T09:53:25Z</time></trkpt>
      <trkpt lat="46.669633" lon="12.104696"><ele>2319.8</ele><time>2025-07-12T09:54:36Z</time></trkpt>
      <trkpt lat="46.669328" lon="12.104259"><ele>2314.5</ele><time>2025-07-12T09:55:47Z</time></trkpt>
      <trkpt lat="46.668970" lon="12.104028"><ele>2310.5</ele><time>2025-07-12T09:56:52Z</time></trkpt>
      <trkpt lat="46.668607" lon="12.103654"><ele>2305.8</ele><time>2025-07-12T09:58:07Z</time></trkpt>
      <trkpt lat="46.668480" lon="12.103167"><ele>2300.6</ele><time>2025-07-12T09:59:06Z</time></trkpt>
      <trkpt lat="46.668207" lon="12.102836"><ele>2295.4</ele><time>2025-07-12T10:00:05Z</time></trkpt>
      <trkpt lat="46.667825" lon="12.102509"><ele>2288.1</ele><time>2025-07-12T10:01:19Z</time></trkpt>
      <trkpt lat="46.667499" lon="12.102126"><ele>2284.2</ele><time>2025-07-12T10:02:29Z</time></trkpt>
      <trkpt lat="46.667141" lon="12.101691"><ele>2280.9</ele><time>2025-07-12T10:03:47Z</time></trkpt>
      <trkpt lat="46.666739" lon="12.101455"><ele>2274.7</ele><time>2025-07-12T10:04:59Z</time></trkpt>
      <trkpt lat="46.666600" lon="12.100910"><ele>2268.2</ele><time>2025-07-12T10:06:06Z</time></trkpt>
      <trkpt lat="46.666245" lon="12.100832"><ele>2262.6</ele><time>2025-07-12T10:07:06Z</time></trkpt>
      <trkpt lat="46.665886" lon="12.100345"><ele>2256.6</ele><time>2025-07-12T10:08:27Z</time></trkpt>
      <trkpt lat="46.665579" lon="12.099931"><ele>2251.7</ele><time>2025-07-12T10:09:37Z</time></trkpt>
      <trkpt lat="46.665302" lon="12.099623"><ele>2247.3</ele><time>2025-07-12T10:10:35Z</time></trkpt>
      <trkpt lat="46.665025" lon="12.099169"><ele>2241.7</ele><time>2025-07-12T10:11:45Z</time></trkpt>
      <trkpt lat="46.664799" lon="12.098840"><ele>2236.4</ele><time>2025-07-12T10:12:38Z</time></trkpt>
      <trkpt lat="46.664451" lon="12.098402"><ele>2229.4</ele><time>2025-07-12T10:13:55Z</time></trkpt>
      <trkpt lat="46.664146" lon="12.098236"><ele>2224.1</ele><time>2025-07-12T10:14:49Z</time></trkpt>
      <trkpt lat="46.663596" lon="12.097879"><ele>2221.7</ele><time>2025-07-12T10:16:29Z</time></trkpt>
      <trkpt lat="46.663460" lon="12.097470"><ele>2216.9</ele><time>2025-07-12T10:17:22Z</time></trkpt>
      <trkpt lat="46.663100" lon="12.097100"><ele>2209.8</ele><time>2025-07-12T10:18:35Z</time></trkpt>
      <trkpt lat="46.662687" lon="12.096768"><ele>2204.9</ele><time>2025-07-12T10:19:54Z</time></trkpt>
      <trkpt lat="46.662485" lon="12.096558"><ele>2202.4</ele><time>2025-07-12T10:20:35Z</time></trkpt>
      <trkpt lat="46.662105" lon="12.096227"><ele>2197.2</ele><time>2025-07-12T10:21:49Z</time></trkpt>
      <trkpt lat="46.661730" lon="12.095988"><ele>2194.1</ele><time>2025-07-12T10:22:57Z</time></trkpt>
      <trkpt lat="46.661313" lon="12.095633"><ele>2189.8</ele><time>2025-07-12T10:24:18Z</time></trkpt>
      <trkpt lat="46.661074" lon="12.095302"><ele>2188.3</ele><time>2025-07-12T10:25:13Z</time></trkpt>
      <trkpt lat="46.660640" lon="12.094925"><ele>2183.3</ele><time>2025-07-12T10:26:37Z</time></trkpt>
      <trkpt lat="46.660277" lon="12.094628"><ele>2179.2</ele><time>2025-07-12T10:27:46Z</time></trkpt>
      <trkpt lat="46.660001" lon="12.094239"><ele>2177.0</ele><time>2025-07-12T10:28:51Z</time></trkpt>
      <trkpt lat="46.659642" lon="12.094100"><ele>2171.7</ele><time>2025-07-12T10:29:52Z</time></trkpt>
      <trkpt lat="46.659380" lon="12.093761"><ele>2171.8</ele><time>2025-07-12T10:30:52Z</time></trkpt>
      <trkpt lat="46.658712" lon="12.093365"><ele>2167.4</ele><time>2025-07-12T10:32:52Z</time></trkpt>
      <trkpt lat="46.658483" lon="12.093052"><ele>2163.2</ele><time>2025-07-12T10:33:44Z</time></trkpt>
      <trkpt lat="46.658192" lon="12.092854"><ele>2158.0</ele><time>2025-07-12T10:34:38Z</time></trkpt>
      <trkpt lat="46.657836" lon="12.092470"><ele>2156.1</ele><time>2025-07-12T10:35:51Z</time></trkpt>
      <trkpt lat="46.657435" lon="12.092134"><ele>2150.5</ele><time>2025-07-12T10:37:09Z</time></trkpt>
      <trkpt lat="46.657165" lon="12.091890"><ele>2146.7</ele><time>2025-07-12T10:38:02Z</time></trkpt>
      <trkpt lat="46.656743" lon="12.091669"><ele>2142.5</ele><time>2025-07-12T10:39:16Z</time></trkpt>
      <trkpt lat="46.656524" lon="12.091369"><ele>2140.4</ele><time>2025-07-12T10:40:07Z</time></trkpt>
      <trkpt lat="46.656021" lon="12.090777"><ele>2136.4</ele><time>2025-07-12T10:41:54Z</time></trkpt>
      <trkpt lat="46.655618" lon="12.090692"><ele>2135.2</ele><time>2025-07-12T10:43:02Z</time></trkpt>
      <trkpt lat="46.655409" lon="12.090271"><ele>2131.1</ele><time>2025-07-12T10:44:02Z</time></trkpt>
      <trkpt lat="46.655000" lon="12.090000"><ele>2126.0</ele><time>2025-07-12T10:45:17Z</time></trkpt>
    </trkseg>
  </trk>
</gpx>
