<?xml version="1.0" encoding="UTF-8"?>
<gpx version="1.1" creator="tripplanner sample generator" xmlns="http://www.topografix.com/GPX/1/1">
  <metadata>
    <name>Rifugio Lagazuoi → Rifugio Nuvolau</name>
    <time>2025-07-14T07:00:00Z</time>
  </metadata>
  <trk>
    <name>Rifugio Lagazuoi → Rifugio Nuvolau</name>
    <trkseg>
      <trkpt lat="46.520000" lon="12.000000"><ele>2753.6</ele><time>2025-07-14T07:00:00Z</time></trkpt>
      <trkpt lat="46.519825" lon="12.000420"><ele>2740.9</ele><time>2025-07-14T07:00:58Z</time></trkpt>
      <trkpt lat="46.519445" lon="12.000889"><ele>2726.8</ele><time>2025-07-14T07:02:25Z</time></trkpt>
      <trkpt lat="46.519343" lon="12.001307"><ele>2716.6</ele><time>2025-07-14T07:03:18Z</time></trkpt>
      <trkpt lat="46.519083" lon="12.001950"><ele>2703.2</ele><time>2025-07-14T07:04:48Z</time></trkpt>
      <trkpt lat="46.518860" lon="12.002366"><ele>2688.8</ele><time>2025-07-14T07:05:51Z</time></trkpt>
      <trkpt lat="46.518568" lon="12.002690"><ele>2677.2</ele><time>2025-07-14T07:06:55Z</time></trkpt>
      <trkpt lat="46.518350" lon="12.003259"><ele>2665.2</ele><time>2025-07-14T07:08:13Z</time></trkpt>
      <trkpt lat="46.518123" lon="12.003702"><ele>2653.3</ele><time>2025-07-14T07:09:19Z</time></trkpt>
      <trkpt lat="46.517946" lon="12.004226"><ele>2641.0</ele><time>2025-07-14T07:10:29Z</time></trkpt>
      <trkpt lat="46.517635" lon="12.004712"><ele>2627.6</ele><time>2025-07-14T07:11:48Z</time></trkpt>
      <trkpt lat="46.517348" lon="12.005180"><ele>2615.5</ele><time>2025-07-14T07:13:03Z</time></trkpt>
      <trkpt lat="46.517118" lon="12.005431"><ele>2603.2</ele><time>2025-07-14T07:13:53Z</time></trkpt>
      <trkpt lat="46.516926" lon="12.005973"><ele>2590.7</ele><time>2025-07-14T07:15:06Z</time></trkpt>
      <trkpt lat="46.516705" lon="12.006479"><ele>2580.2</ele><time>2025-07-14T07:16:18Z</time></trkpt>
      <trkpt lat="46.516431" lon="12.006962"><ele>2565.0</ele><time>2025-07-14T07:17:33Z</time></trkpt>
      <trkpt lat="46.516258" lon="12.007475"><ele>2552.8</ele><time>2025-07-14T07:18:41Z</time></trkpt>
      <trkpt lat="46.515980" lon="12.007791"><ele>2542.9</ele><time>2025-07-14T07:19:43Z</time></trkpt>
      <trkpt lat="46.515721" lon="12.008387"><ele>2527.8</ele><time>2025-07-14T07:21:07Z</time></trkpt>
      <trkpt lat="46.515480" lon="12.008928"><ele>2516.8</ele><time>2025-07-14T07:22:24Z</time></trkpt>
      <trkpt lat="46.515260" lon="12.009373"><ele>2504.9</ele><time>2025-07-14T07:23:30Z</time></trkpt>
      <trkpt lat="46.515106" lon="12.009758"><ele>2490.6</ele><time>2025-07-14T07:24:23Z</time></trkpt>
      <trkpt lat="46.514800" lon="12.010200"><ele>2478.7</ele><time>2025-07-14T07:25:38Z</time></trkpt>
      <trkpt lat="46.514578" lon="12.010658"><ele>2475.9</ele><time>2025-07-14T07:26:46Z</time></trkpt>
      <trkpt lat="46.514418" lon="12.011116"><ele>2471.1</ele><time>2025-07-14T07:27:47Z</time></trkpt>
      <trkpt lat="46.514083" lon="12.011745"><ele>2463.1</ele><time>2025-07-14T07:29:22Z</time></trkpt>
      <trkpt lat="46.514133" lon="12.012294"><ele>2458.8</ele><time>2025-07-14T07:30:29Z</time></trkpt>
      <trkpt lat="46.513789" lon="12.012787"><ele>2454.0</ele><time>2025-07-14T07:31:53Z</time></trkpt>
      <trkpt lat="46.513571" lon="12.013125"><ele>2448.1</ele><time>2025-07-14T07:32:48Z</time></trkpt>
      <trkpt lat="46.513418" lon="12.013681"><ele>2444.8</ele><time>2025-07-14T07:34:00Z</time></trkpt>
      <trkpt lat="46.513273" lon="12.014201"><ele>2440.3</ele><time>2025-07-14T07:35:07Z</time></trkpt>
      <trkpt lat="46.512940" lon="12.014598"><ele>2434.4</ele><time>2025-07-14T07:36:22Z</time></trkpt>
      <trkpt lat="46.512634" lon="12.015069"><ele>2430.7</ele><time>2025-07-14T07:37:40Z</time></trkpt>
      <trkpt lat="46.512748" lon="12.015564"><ele>2425.8</ele><time>2025-07-14T07:38:42Z</time></trkpt>
      <trkpt lat="46.512425" lon="12.016182"><ele>2419.2</ele><time>2025-07-14T07:40:15Z</time></trkpt>
      <trkpt lat="46.512178" lon="12.016650"><ele>2416.3</ele><time>2025-07-14T07:41:26Z</time></trkpt>
      <trkpt lat="46.511968" lon="12.017120"><ele>2411.2</ele><time>2025-07-14T07:42:33Z</time></trkpt>
      <trkpt lat="46.511770" lon="12.017615"><ele>2404.4</ele><time>2025-07-14T07:43:42Z</time></trkpt>
      <trkpt lat="46.511674" lon="12.018240"><ele>2398.9</ele><time>2025-07-14T07:44:58Z</time></trkpt>
      <trkpt lat="46.511343" lon="12.018588"><ele>2396.9</ele><time>2025-07-14T07:46:10Z</time></trkpt>
      <trkpt lat="46.511224" lon="12.019161"><ele>2388.6</ele><time>2025-07-14T07:47:21Z</time></trkpt>
      <trkpt lat="46.511040" lon="12.019646"><ele>2383.5</ele><time>2025-07-14T07:48:28Z</time></trkpt>
      <trkpt lat="46.510800" lon="12.020100"><ele>2379.2</ele><time>2025-07-14T07:49:36Z</time></trkpt>
      <trkpt lat="46.510759" lon="12.020603"><ele>2392.6</ele><time>2025-07-14T07:51:57Z</time></trkpt>
      <trkpt lat="46.510691" lon="12.021275"><ele>2402.7</ele><time>2025-07-14T07:54:19Z</time></trkpt>
      <trkpt lat="46.510538" lon="12.021916"><ele>2413.2</ele><time>2025-07-14T07:56:44Z</time></trkpt>
      <trkpt lat="46.510732" lon="12.022498"><ele>2424.0</ele><time>2025-07-14T07:59:06Z</time></trkpt>
      <trkpt lat="46.510540" lon="12.023003"><ele>2436.8</ele><time>2025-07-14T08:01:32Z</time></trkpt>
      <trkpt lat="46.510508" lon="12.023598"><ele>2448.3</ele><time>2025-07-14T08:03:52Z</time></trkpt>
      <trkpt lat="46.510534" lon="12.024060"><ele>2459.7</ele><time>2025-07-14T08:05:56Z</time></trkpt>
      <trkpt lat="46.510350" lon="12.024760"><ele>2471.3</ele><time>2025-07-14T08:08:35Z</time></trkpt>
      <trkpt lat="46.510445" lon="12.025482"><ele>2483.7</ele><time>2025-07-14T08:11:18Z</time></trkpt>
      <trkpt lat="46.510297" lon="12.025836"><ele>2492.7</ele><time>2025-07-14T08:13:02Z</time></trkpt>
      <trkpt lat="46.510285" lon="12.026510"><ele>2504.5</ele><time>2025-07-14T08:15:33Z</time></trkpt>
      <trkpt lat="46.510267" lon="12.027096"><ele>2517.2</ele><time>2025-07-14T08:17:59Z</time></trkpt>
      <trkpt lat="46.510172" lon="12.027639"><ele>2530.6</ele><time>2025-07-14T08:20:27Z</time></trkpt>
      <trkpt lat="46.510267" lon="12.028160"><ele>2540.9</ele><time>2025-07-14T08:22:33Z</time></trkpt>
      <trkpt lat="46.510242" lon="12.028794"><ele>2551.6</ele><time>2025-07-14T08:24:54Z</time></trkpt>
      <trkpt lat="46.510068" lon="12.029431"><ele>2564.5</ele><time>2025-07-14T08:27:33Z</time></trkpt>
      <trkpt lat="46.510000" lon="12.030000"><ele>2575.0</ele><time>2025-07-14T08:29:45Z</time></trkpt>
    </trkseg>
  </trk>
</gpx>
