<?xml version="1.0" encoding="UTF-8"?>
<gpx version="1.1" creator="tripplanner (routed with BRouter, gravel profile)" xmlns="http://www.topografix.com/GPX/1/1">
  <metadata>
    <name>Toubkal to Telouet — Day 5: Tighza → Telouet</name>
    <desc>45 km, 707 m. Routed with BRouter (gravel profile) over OSM ways — a plan, not a ridden track.</desc>
  </metadata>
  <trk>
    <name>Toubkal to Telouet — Day 5: Tighza → Telouet</name>
    <trkseg>
    <trkpt lat="31.164915" lon="-7.523882"><ele>1880.2</ele></trkpt>
    <trkpt lat="31.164408" lon="-7.523421"><ele>1879.8</ele></trkpt>
    <trkpt lat="31.164380" lon="-7.523245"><ele>1877.2</ele></trkpt>
    <trkpt lat="31.164353" lon="-7.522994"><ele>1873.2</ele></trkpt>
    <trkpt lat="31.163629" lon="-7.521750"><ele>1860.8</ele></trkpt>
    <trkpt lat="31.163483" lon="-7.521081"><ele>1848.2</ele></trkpt>
    <trkpt lat="31.163470" lon="-7.521043"><ele>1847.8</ele></trkpt>
    <trkpt lat="31.163244" lon="-7.520978"><ele>1847.2</ele></trkpt>
    <trkpt lat="31.163493" lon="-7.520810"><ele>1843.5</ele></trkpt>
    <trkpt lat="31.163570" lon="-7.520841"><ele>1843.5</ele></trkpt>
    <trkpt lat="31.163861" lon="-7.521017"><ele>1844.0</ele></trkpt>
    <trkpt lat="31.164493" lon="-7.520485"><ele>1845.8</ele></trkpt>
    <trkpt lat="31.165187" lon="-7.521168"><ele>1851.2</ele></trkpt>
    <trkpt lat="31.165439" lon="-7.521245"><ele>1853.8</ele></trkpt>
    <trkpt lat="31.165448" lon="-7.520846"><ele>1857.0</ele></trkpt>
    <trkpt lat="31.165160" lon="-7.520300"><ele>1857.5</ele></trkpt>
    <trkpt lat="31.165125" lon="-7.519932"><ele>1859.2</ele></trkpt>
    <trkpt lat="31.165183" lon="-7.519889"><ele>1860.2</ele></trkpt>
    <trkpt lat="31.165702" lon="-7.519893"><ele>1868.2</ele></trkpt>
    <trkpt lat="31.166135" lon="-7.519452"><ele>1873.5</ele></trkpt>
    <trkpt lat="31.166483" lon="-7.518906"><ele>1878.5</ele></trkpt>
    <trkpt lat="31.166836" lon="-7.517805"><ele>1886.2</ele></trkpt>
    <trkpt lat="31.167369" lon="-7.517238"><ele>1891.5</ele></trkpt>
    <trkpt lat="31.167493" lon="-7.517025"><ele>1891.5</ele></trkpt>
    <trkpt lat="31.167449" lon="-7.516600"><ele>1889.8</ele></trkpt>
    <trkpt lat="31.167136" lon="-7.515913"><ele>1889.5</ele></trkpt>
    <trkpt lat="31.167367" lon="-7.513618"><ele>1887.2</ele></trkpt>
    <trkpt lat="31.167205" lon="-7.512615"><ele>1883.0</ele></trkpt>
    <trkpt lat="31.167240" lon="-7.512161"><ele>1883.0</ele></trkpt>
    <trkpt lat="31.167488" lon="-7.511611"><ele>1882.5</ele></trkpt>
    <trkpt lat="31.167530" lon="-7.511453"><ele>1882.2</ele></trkpt>
    <trkpt lat="31.167787" lon="-7.510361"><ele>1871.8</ele></trkpt>
    <trkpt lat="31.167933" lon="-7.509150"><ele>1865.0</ele></trkpt>
    <trkpt lat="31.167962" lon="-7.509005"><ele>1865.0</ele></trkpt>
    <trkpt lat="31.168459" lon="-7.508695"><ele>1865.0</ele></trkpt>
    <trkpt lat="31.168565" lon="-7.508580"><ele>1863.0</ele></trkpt>
    <trkpt lat="31.168635" lon="-7.508439"><ele>1861.5</ele></trkpt>
    <trkpt lat="31.168908" lon="-7.507611"><ele>1853.2</ele></trkpt>
    <trkpt lat="31.168953" lon="-7.506835"><ele>1848.2</ele></trkpt>
    <trkpt lat="31.169165" lon="-7.506127"><ele>1839.8</ele></trkpt>
    <trkpt lat="31.169370" lon="-7.505786"><ele>1833.5</ele></trkpt>
    <trkpt lat="31.170393" lon="-7.505182"><ele>1823.0</ele></trkpt>
    <trkpt lat="31.170521" lon="-7.505043"><ele>1822.0</ele></trkpt>
    <trkpt lat="31.170755" lon="-7.503442"><ele>1819.0</ele></trkpt>
    <trkpt lat="31.171105" lon="-7.502832"><ele>1819.0</ele></trkpt>
    <trkpt lat="31.171289" lon="-7.502448"><ele>1816.8</ele></trkpt>
    <trkpt lat="31.171718" lon="-7.501017"><ele>1808.2</ele></trkpt>
    <trkpt lat="31.172295" lon="-7.500343"><ele>1795.0</ele></trkpt>
    <trkpt lat="31.172115" lon="-7.499653"><ele>1792.5</ele></trkpt>
    <trkpt lat="31.172083" lon="-7.499596"><ele>1792.5</ele></trkpt>
    <trkpt lat="31.171779" lon="-7.499537"><ele>1792.5</ele></trkpt>
    <trkpt lat="31.171732" lon="-7.499346"><ele>1792.5</ele></trkpt>
    <trkpt lat="31.172126" lon="-7.498174"><ele>1777.8</ele></trkpt>
    <trkpt lat="31.172255" lon="-7.497283"><ele>1771.8</ele></trkpt>
    <trkpt lat="31.172462" lon="-7.496981"><ele>1767.8</ele></trkpt>
    <trkpt lat="31.172618" lon="-7.496742"><ele>1767.8</ele></trkpt>
    <trkpt lat="31.173282" lon="-7.495098"><ele>1768.5</ele></trkpt>
    <trkpt lat="31.173099" lon="-7.494589"><ele>1768.5</ele></trkpt>
    <trkpt lat="31.173188" lon="-7.493945"><ele>1772.2</ele></trkpt>
    <trkpt lat="31.173012" lon="-7.493615"><ele>1772.2</ele></trkpt>
    <trkpt lat="31.172941" lon="-7.492612"><ele>1770.2</ele></trkpt>
    <trkpt lat="31.172977" lon="-7.491962"><ele>1768.5</ele></trkpt>
    <trkpt lat="31.173239" lon="-7.491656"><ele>1768.0</ele></trkpt>
    <trkpt lat="31.173170" lon="-7.491454"><ele>1767.8</ele></trkpt>
    <trkpt lat="31.172707" lon="-7.490758"><ele>1759.8</ele></trkpt>
    <trkpt lat="31.171927" lon="-7.490106"><ele>1751.2</ele></trkpt>
    <trkpt lat="31.171196" lon="-7.489141"><ele>1743.5</ele></trkpt>
    <trkpt lat="31.171118" lon="-7.489061"><ele>1743.0</ele></trkpt>
    <trkpt lat="31.170432" lon="-7.488890"><ele>1743.0</ele></trkpt>
    <trkpt lat="31.170183" lon="-7.488792"><ele>1743.8</ele></trkpt>
    <trkpt lat="31.169914" lon="-7.488483"><ele>1744.0</ele></trkpt>
    <trkpt lat="31.169136" lon="-7.487714"><ele>1750.8</ele></trkpt>
    <trkpt lat="31.168048" lon="-7.487692"><ele>1764.5</ele></trkpt>
    <trkpt lat="31.167604" lon="-7.487211"><ele>1764.8</ele></trkpt>
    <trkpt lat="31.167043" lon="-7.486147"><ele>1759.8</ele></trkpt>
    <trkpt lat="31.166916" lon="-7.486123"><ele>1759.8</ele></trkpt>
    <trkpt lat="31.166548" lon="-7.486301"><ele>1767.2</ele></trkpt>
    <trkpt lat="31.166240" lon="-7.486052"><ele>1768.8</ele></trkpt>
    <trkpt lat="31.166211" lon="-7.485804"><ele>1768.8</ele></trkpt>
    <trkpt lat="31.166183" lon="-7.485056"><ele>1765.0</ele></trkpt>
    <trkpt lat="31.166422" lon="-7.484235"><ele>1754.5</ele></trkpt>
    <trkpt lat="31.166430" lon="-7.484098"><ele>1754.5</ele></trkpt>
    <trkpt lat="31.166228" lon="-7.483170"><ele>1753.5</ele></trkpt>
    <trkpt lat="31.166311" lon="-7.482282"><ele>1747.8</ele></trkpt>
    <trkpt lat="31.166074" lon="-7.481601"><ele>1746.2</ele></trkpt>
    <trkpt lat="31.166076" lon="-7.481492"><ele>1746.2</ele></trkpt>
    <trkpt lat="31.166116" lon="-7.479659"><ele>1733.5</ele></trkpt>
    <trkpt lat="31.166110" lon="-7.479569"><ele>1733.2</ele></trkpt>
    <trkpt lat="31.165890" lon="-7.479085"><ele>1732.5</ele></trkpt>
    <trkpt lat="31.166024" lon="-7.478565"><ele>1729.2</ele></trkpt>
    <trkpt lat="31.165541" lon="-7.477921"><ele>1730.8</ele></trkpt>
    <trkpt lat="31.165169" lon="-7.477694"><ele>1732.5</ele></trkpt>
    <trkpt lat="31.165285" lon="-7.477221"><ele>1729.8</ele></trkpt>
    <trkpt lat="31.164625" lon="-7.474862"><ele>1720.8</ele></trkpt>
    <trkpt lat="31.164238" lon="-7.473477"><ele>1716.0</ele></trkpt>
    <trkpt lat="31.163791" lon="-7.470794"><ele>1707.0</ele></trkpt>
    <trkpt lat="31.163635" lon="-7.470315"><ele>1706.5</ele></trkpt>
    <trkpt lat="31.163757" lon="-7.469178"><ele>1704.2</ele></trkpt>
    <trkpt lat="31.163477" lon="-7.468345"><ele>1704.2</ele></trkpt>
    <trkpt lat="31.162720" lon="-7.465941"><ele>1693.0</ele></trkpt>
    <trkpt lat="31.162803" lon="-7.465550"><ele>1691.0</ele></trkpt>
    <trkpt lat="31.163504" lon="-7.465120"><ele>1690.2</ele></trkpt>
    <trkpt lat="31.164254" lon="-7.464286"><ele>1690.2</ele></trkpt>
    <trkpt lat="31.164733" lon="-7.463814"><ele>1694.2</ele></trkpt>
    <trkpt lat="31.165305" lon="-7.463618"><ele>1695.5</ele></trkpt>
    <trkpt lat="31.170395" lon="-7.465941"><ele>1711.2</ele></trkpt>
    <trkpt lat="31.172593" lon="-7.466064"><ele>1711.8</ele></trkpt>
    <trkpt lat="31.173408" lon="-7.465876"><ele>1708.2</ele></trkpt>
    <trkpt lat="31.174488" lon="-7.465158"><ele>1705.2</ele></trkpt>
    <trkpt lat="31.175421" lon="-7.464247"><ele>1705.2</ele></trkpt>
    <trkpt lat="31.177231" lon="-7.462435"><ele>1712.5</ele></trkpt>
    <trkpt lat="31.178321" lon="-7.460925"><ele>1715.2</ele></trkpt>
    <trkpt lat="31.178893" lon="-7.460521"><ele>1719.8</ele></trkpt>
    <trkpt lat="31.180224" lon="-7.460083"><ele>1725.0</ele></trkpt>
    <trkpt lat="31.182019" lon="-7.458903"><ele>1727.5</ele></trkpt>
    <trkpt lat="31.184017" lon="-7.458212"><ele>1727.8</ele></trkpt>
    <trkpt lat="31.184549" lon="-7.458196"><ele>1728.8</ele></trkpt>
    <trkpt lat="31.186018" lon="-7.458587"><ele>1734.2</ele></trkpt>
    <trkpt lat="31.186218" lon="-7.458592"><ele>1736.5</ele></trkpt>
    <trkpt lat="31.186857" lon="-7.458474"><ele>1737.0</ele></trkpt>
    <trkpt lat="31.188876" lon="-7.457157"><ele>1735.5</ele></trkpt>
    <trkpt lat="31.192582" lon="-7.455732"><ele>1735.8</ele></trkpt>
    <trkpt lat="31.192822" lon="-7.455622"><ele>1736.5</ele></trkpt>
    <trkpt lat="31.193984" lon="-7.454908"><ele>1741.2</ele></trkpt>
    <trkpt lat="31.194588" lon="-7.454342"><ele>1744.8</ele></trkpt>
    <trkpt lat="31.195269" lon="-7.453451"><ele>1748.8</ele></trkpt>
    <trkpt lat="31.196150" lon="-7.452250"><ele>1754.2</ele></trkpt>
    <trkpt lat="31.196377" lon="-7.451766"><ele>1757.8</ele></trkpt>
    <trkpt lat="31.196465" lon="-7.450926"><ele>1760.2</ele></trkpt>
    <trkpt lat="31.196063" lon="-7.449344"><ele>1763.8</ele></trkpt>
    <trkpt lat="31.196088" lon="-7.448321"><ele>1769.0</ele></trkpt>
    <trkpt lat="31.196214" lon="-7.447935"><ele>1769.5</ele></trkpt>
    <trkpt lat="31.198167" lon="-7.443796"><ele>1789.5</ele></trkpt>
    <trkpt lat="31.198800" lon="-7.442841"><ele>1794.5</ele></trkpt>
    <trkpt lat="31.200877" lon="-7.440605"><ele>1799.5</ele></trkpt>
    <trkpt lat="31.203236" lon="-7.438956"><ele>1807.8</ele></trkpt>
    <trkpt lat="31.203856" lon="-7.438652"><ele>1808.5</ele></trkpt>
    <trkpt lat="31.205739" lon="-7.438590"><ele>1810.5</ele></trkpt>
    <trkpt lat="31.207200" lon="-7.438917"><ele>1817.5</ele></trkpt>
    <trkpt lat="31.207991" lon="-7.438633"><ele>1817.5</ele></trkpt>
    <trkpt lat="31.208421" lon="-7.438192"><ele>1812.5</ele></trkpt>
    <trkpt lat="31.209063" lon="-7.436835"><ele>1815.5</ele></trkpt>
    <trkpt lat="31.209483" lon="-7.436365"><ele>1815.5</ele></trkpt>
    <trkpt lat="31.209879" lon="-7.436149"><ele>1815.5</ele></trkpt>
    <trkpt lat="31.210387" lon="-7.436022"><ele>1815.8</ele></trkpt>
    <trkpt lat="31.211550" lon="-7.435703"><ele>1822.5</ele></trkpt>
    <trkpt lat="31.212189" lon="-7.435227"><ele>1825.8</ele></trkpt>
    <trkpt lat="31.212732" lon="-7.434434"><ele>1833.8</ele></trkpt>
    <trkpt lat="31.213365" lon="-7.433308"><ele>1834.0</ele></trkpt>
    <trkpt lat="31.213790" lon="-7.432817"><ele>1834.0</ele></trkpt>
    <trkpt lat="31.216447" lon="-7.431347"><ele>1842.5</ele></trkpt>
    <trkpt lat="31.218191" lon="-7.431049"><ele>1846.5</ele></trkpt>
    <trkpt lat="31.218831" lon="-7.430702"><ele>1846.8</ele></trkpt>
    <trkpt lat="31.219363" lon="-7.430062"><ele>1847.0</ele></trkpt>
    <trkpt lat="31.219492" lon="-7.429815"><ele>1847.0</ele></trkpt>
    <trkpt lat="31.220112" lon="-7.428639"><ele>1851.2</ele></trkpt>
    <trkpt lat="31.220558" lon="-7.428342"><ele>1856.0</ele></trkpt>
    <trkpt lat="31.222020" lon="-7.427838"><ele>1867.5</ele></trkpt>
    <trkpt lat="31.223030" lon="-7.426719"><ele>1877.8</ele></trkpt>
    <trkpt lat="31.223431" lon="-7.426251"><ele>1880.5</ele></trkpt>
    <trkpt lat="31.223915" lon="-7.425293"><ele>1885.2</ele></trkpt>
    <trkpt lat="31.223998" lon="-7.425144"><ele>1886.5</ele></trkpt>
    <trkpt lat="31.224471" lon="-7.424709"><ele>1888.0</ele></trkpt>
    <trkpt lat="31.224908" lon="-7.424663"><ele>1890.5</ele></trkpt>
    <trkpt lat="31.225282" lon="-7.424790"><ele>1891.8</ele></trkpt>
    <trkpt lat="31.225616" lon="-7.425090"><ele>1892.0</ele></trkpt>
    <trkpt lat="31.226171" lon="-7.425675"><ele>1896.2</ele></trkpt>
    <trkpt lat="31.227510" lon="-7.425570"><ele>1899.8</ele></trkpt>
    <trkpt lat="31.228100" lon="-7.425709"><ele>1905.2</ele></trkpt>
    <trkpt lat="31.228683" lon="-7.426038"><ele>1910.5</ele></trkpt>
    <trkpt lat="31.228943" lon="-7.425973"><ele>1911.2</ele></trkpt>
    <trkpt lat="31.229002" lon="-7.425633"><ele>1911.8</ele></trkpt>
    <trkpt lat="31.228525" lon="-7.424966"><ele>1912.2</ele></trkpt>
    <trkpt lat="31.228412" lon="-7.424620"><ele>1912.5</ele></trkpt>
    <trkpt lat="31.228406" lon="-7.424420"><ele>1914.0</ele></trkpt>
    <trkpt lat="31.228564" lon="-7.424073"><ele>1916.5</ele></trkpt>
    <trkpt lat="31.229642" lon="-7.423198"><ele>1921.5</ele></trkpt>
    <trkpt lat="31.229812" lon="-7.421920"><ele>1926.8</ele></trkpt>
    <trkpt lat="31.229581" lon="-7.421675"><ele>1926.8</ele></trkpt>
    <trkpt lat="31.228768" lon="-7.421679"><ele>1925.2</ele></trkpt>
    <trkpt lat="31.228657" lon="-7.421352"><ele>1925.0</ele></trkpt>
    <trkpt lat="31.228765" lon="-7.421184"><ele>1926.2</ele></trkpt>
    <trkpt lat="31.230069" lon="-7.420256"><ele>1939.2</ele></trkpt>
    <trkpt lat="31.231130" lon="-7.417686"><ele>1951.0</ele></trkpt>
    <trkpt lat="31.232228" lon="-7.416179"><ele>1960.0</ele></trkpt>
    <trkpt lat="31.233658" lon="-7.415206"><ele>1968.8</ele></trkpt>
    <trkpt lat="31.234484" lon="-7.415002"><ele>1972.8</ele></trkpt>
    <trkpt lat="31.236814" lon="-7.414904"><ele>1990.8</ele></trkpt>
    <trkpt lat="31.237352" lon="-7.414842"><ele>1994.2</ele></trkpt>
    <trkpt lat="31.238043" lon="-7.414370"><ele>1995.2</ele></trkpt>
    <trkpt lat="31.238354" lon="-7.414308"><ele>1995.5</ele></trkpt>
    <trkpt lat="31.239030" lon="-7.414436"><ele>1995.5</ele></trkpt>
    <trkpt lat="31.239320" lon="-7.414680"><ele>1995.0</ele></trkpt>
    <trkpt lat="31.240373" lon="-7.414762"><ele>1991.0</ele></trkpt>
    <trkpt lat="31.241064" lon="-7.414427"><ele>1988.8</ele></trkpt>
    <trkpt lat="31.242170" lon="-7.413188"><ele>1986.2</ele></trkpt>
    <trkpt lat="31.242670" lon="-7.412846"><ele>1986.2</ele></trkpt>
    <trkpt lat="31.245456" lon="-7.412130"><ele>1986.0</ele></trkpt>
    <trkpt lat="31.247082" lon="-7.410913"><ele>1982.0</ele></trkpt>
    <trkpt lat="31.248198" lon="-7.411283"><ele>1984.0</ele></trkpt>
    <trkpt lat="31.248385" lon="-7.411313"><ele>1984.2</ele></trkpt>
    <trkpt lat="31.248832" lon="-7.411318"><ele>1987.2</ele></trkpt>
    <trkpt lat="31.250252" lon="-7.410863"><ele>1994.0</ele></trkpt>
    <trkpt lat="31.252462" lon="-7.410132"><ele>2004.0</ele></trkpt>
    <trkpt lat="31.252903" lon="-7.410044"><ele>2004.5</ele></trkpt>
    <trkpt lat="31.253929" lon="-7.410209"><ele>2010.8</ele></trkpt>
    <trkpt lat="31.257038" lon="-7.411695"><ele>2020.5</ele></trkpt>
    <trkpt lat="31.257303" lon="-7.411755"><ele>2022.5</ele></trkpt>
    <trkpt lat="31.260047" lon="-7.412232"><ele>2035.0</ele></trkpt>
    <trkpt lat="31.261471" lon="-7.412226"><ele>2039.0</ele></trkpt>
    <trkpt lat="31.261771" lon="-7.412296"><ele>2039.8</ele></trkpt>
    <trkpt lat="31.262852" lon="-7.412715"><ele>2048.5</ele></trkpt>
    <trkpt lat="31.263746" lon="-7.412998"><ele>2052.5</ele></trkpt>
    <trkpt lat="31.264770" lon="-7.412956"><ele>2055.2</ele></trkpt>
    <trkpt lat="31.268669" lon="-7.412609"><ele>2079.0</ele></trkpt>
    <trkpt lat="31.269519" lon="-7.412755"><ele>2087.2</ele></trkpt>
    <trkpt lat="31.270332" lon="-7.413086"><ele>2095.2</ele></trkpt>
    <trkpt lat="31.270556" lon="-7.413154"><ele>2095.2</ele></trkpt>
    <trkpt lat="31.270865" lon="-7.412967"><ele>2095.8</ele></trkpt>
    <trkpt lat="31.270878" lon="-7.412604"><ele>2097.0</ele></trkpt>
    <trkpt lat="31.270430" lon="-7.411778"><ele>2104.0</ele></trkpt>
    <trkpt lat="31.270306" lon="-7.411622"><ele>2104.0</ele></trkpt>
    <trkpt lat="31.270000" lon="-7.411425"><ele>2104.0</ele></trkpt>
    <trkpt lat="31.269034" lon="-7.411380"><ele>2099.5</ele></trkpt>
    <trkpt lat="31.268894" lon="-7.411233"><ele>2099.5</ele></trkpt>
    <trkpt lat="31.268425" lon="-7.410318"><ele>2108.0</ele></trkpt>
    <trkpt lat="31.267673" lon="-7.409841"><ele>2109.8</ele></trkpt>
    <trkpt lat="31.267405" lon="-7.409433"><ele>2114.8</ele></trkpt>
    <trkpt lat="31.267302" lon="-7.409302"><ele>2114.8</ele></trkpt>
    <trkpt lat="31.266247" lon="-7.409050"><ele>2106.8</ele></trkpt>
    <trkpt lat="31.266192" lon="-7.408973"><ele>2106.8</ele></trkpt>
    <trkpt lat="31.263602" lon="-7.403833"><ele>2132.0</ele></trkpt>
    <trkpt lat="31.263451" lon="-7.403594"><ele>2132.5</ele></trkpt>
    <trkpt lat="31.263125" lon="-7.403535"><ele>2133.2</ele></trkpt>
    <trkpt lat="31.262501" lon="-7.403777"><ele>2133.5</ele></trkpt>
    <trkpt lat="31.262314" lon="-7.403696"><ele>2133.8</ele></trkpt>
    <trkpt lat="31.261999" lon="-7.403217"><ele>2136.5</ele></trkpt>
    <trkpt lat="31.259980" lon="-7.401296"><ele>2154.0</ele></trkpt>
    <trkpt lat="31.259783" lon="-7.401101"><ele>2155.0</ele></trkpt>
    <trkpt lat="31.259525" lon="-7.400649"><ele>2155.0</ele></trkpt>
    <trkpt lat="31.259177" lon="-7.399310"><ele>2155.0</ele></trkpt>
    <trkpt lat="31.258741" lon="-7.398065"><ele>2154.0</ele></trkpt>
    <trkpt lat="31.258790" lon="-7.397716"><ele>2153.5</ele></trkpt>
    <trkpt lat="31.259051" lon="-7.397332"><ele>2154.0</ele></trkpt>
    <trkpt lat="31.259776" lon="-7.396863"><ele>2153.0</ele></trkpt>
    <trkpt lat="31.260478" lon="-7.396113"><ele>2147.5</ele></trkpt>
    <trkpt lat="31.260572" lon="-7.396061"><ele>2146.8</ele></trkpt>
    <trkpt lat="31.260831" lon="-7.396021"><ele>2146.8</ele></trkpt>
    <trkpt lat="31.261914" lon="-7.396193"><ele>2146.8</ele></trkpt>
    <trkpt lat="31.262203" lon="-7.395998"><ele>2146.8</ele></trkpt>
    <trkpt lat="31.262326" lon="-7.395740"><ele>2146.8</ele></trkpt>
    <trkpt lat="31.262320" lon="-7.394931"><ele>2152.2</ele></trkpt>
    <trkpt lat="31.262244" lon="-7.394796"><ele>2152.2</ele></trkpt>
    <trkpt lat="31.261643" lon="-7.393954"><ele>2124.5</ele></trkpt>
    <trkpt lat="31.261587" lon="-7.393829"><ele>2123.0</ele></trkpt>
    <trkpt lat="31.261557" lon="-7.393702"><ele>2123.0</ele></trkpt>
    <trkpt lat="31.261594" lon="-7.393243"><ele>2123.0</ele></trkpt>
    <trkpt lat="31.262030" lon="-7.392352"><ele>2123.0</ele></trkpt>
    <trkpt lat="31.262058" lon="-7.391910"><ele>2122.2</ele></trkpt>
    <trkpt lat="31.261147" lon="-7.390062"><ele>2116.2</ele></trkpt>
    <trkpt lat="31.260921" lon="-7.389113"><ele>2109.0</ele></trkpt>
    <trkpt lat="31.260882" lon="-7.388798"><ele>2109.0</ele></trkpt>
    <trkpt lat="31.262103" lon="-7.385089"><ele>2110.0</ele></trkpt>
    <trkpt lat="31.262280" lon="-7.384618"><ele>2109.5</ele></trkpt>
    <trkpt lat="31.262496" lon="-7.384218"><ele>2108.5</ele></trkpt>
    <trkpt lat="31.262164" lon="-7.384182"><ele>2101.5</ele></trkpt>
    <trkpt lat="31.261727" lon="-7.384936"><ele>2099.8</ele></trkpt>
    <trkpt lat="31.261075" lon="-7.385534"><ele>2090.8</ele></trkpt>
    <trkpt lat="31.260991" lon="-7.385702"><ele>2090.8</ele></trkpt>
    <trkpt lat="31.260664" lon="-7.387174"><ele>2088.5</ele></trkpt>
    <trkpt lat="31.260109" lon="-7.388357"><ele>2085.2</ele></trkpt>
    <trkpt lat="31.260290" lon="-7.389506"><ele>2082.2</ele></trkpt>
    <trkpt lat="31.260184" lon="-7.389721"><ele>2082.2</ele></trkpt>
    <trkpt lat="31.260020" lon="-7.389705"><ele>2079.5</ele></trkpt>
    <trkpt lat="31.259479" lon="-7.388933"><ele>2077.5</ele></trkpt>
    <trkpt lat="31.259052" lon="-7.387806"><ele>2065.8</ele></trkpt>
    <trkpt lat="31.259128" lon="-7.386782"><ele>2053.0</ele></trkpt>
    <trkpt lat="31.259181" lon="-7.386573"><ele>2050.5</ele></trkpt>
    <trkpt lat="31.259368" lon="-7.386115"><ele>2049.2</ele></trkpt>
    <trkpt lat="31.259359" lon="-7.385640"><ele>2045.8</ele></trkpt>
    <trkpt lat="31.258834" lon="-7.384981"><ele>2041.5</ele></trkpt>
    <trkpt lat="31.258767" lon="-7.384708"><ele>2040.5</ele></trkpt>
    <trkpt lat="31.258310" lon="-7.383199"><ele>2023.2</ele></trkpt>
    <trkpt lat="31.258183" lon="-7.382922"><ele>2023.0</ele></trkpt>
    <trkpt lat="31.258073" lon="-7.382233"><ele>2019.0</ele></trkpt>
    <trkpt lat="31.257820" lon="-7.381760"><ele>2018.5</ele></trkpt>
    <trkpt lat="31.257547" lon="-7.380902"><ele>2004.5</ele></trkpt>
    <trkpt lat="31.257455" lon="-7.380758"><ele>2001.5</ele></trkpt>
    <trkpt lat="31.257257" lon="-7.380595"><ele>2001.2</ele></trkpt>
    <trkpt lat="31.256581" lon="-7.380552"><ele>2001.2</ele></trkpt>
    <trkpt lat="31.256502" lon="-7.380378"><ele>2001.2</ele></trkpt>
    <trkpt lat="31.257482" lon="-7.380111"><ele>1986.5</ele></trkpt>
    <trkpt lat="31.257626" lon="-7.380058"><ele>1985.5</ele></trkpt>
    <trkpt lat="31.258945" lon="-7.379120"><ele>1976.5</ele></trkpt>
    <trkpt lat="31.259557" lon="-7.378294"><ele>1973.8</ele></trkpt>
    <trkpt lat="31.260233" lon="-7.376887"><ele>1964.5</ele></trkpt>
    <trkpt lat="31.260331" lon="-7.376638"><ele>1963.8</ele></trkpt>
    <trkpt lat="31.260236" lon="-7.375197"><ele>1957.0</ele></trkpt>
    <trkpt lat="31.260476" lon="-7.373233"><ele>1952.2</ele></trkpt>
    <trkpt lat="31.260754" lon="-7.371398"><ele>1935.8</ele></trkpt>
    <trkpt lat="31.260859" lon="-7.370585"><ele>1934.5</ele></trkpt>
    <trkpt lat="31.261217" lon="-7.369319"><ele>1931.8</ele></trkpt>
    <trkpt lat="31.261330" lon="-7.369055"><ele>1931.8</ele></trkpt>
    <trkpt lat="31.261878" lon="-7.368184"><ele>1920.8</ele></trkpt>
    <trkpt lat="31.261972" lon="-7.368012"><ele>1920.0</ele></trkpt>
    <trkpt lat="31.262088" lon="-7.367522"><ele>1919.2</ele></trkpt>
    <trkpt lat="31.262142" lon="-7.365319"><ele>1914.0</ele></trkpt>
    <trkpt lat="31.261885" lon="-7.364497"><ele>1913.2</ele></trkpt>
    <trkpt lat="31.261849" lon="-7.364273"><ele>1912.5</ele></trkpt>
    <trkpt lat="31.261687" lon="-7.362611"><ele>1902.2</ele></trkpt>
    <trkpt lat="31.261404" lon="-7.361824"><ele>1896.8</ele></trkpt>
    <trkpt lat="31.261370" lon="-7.361374"><ele>1895.5</ele></trkpt>
    <trkpt lat="31.261540" lon="-7.360920"><ele>1893.5</ele></trkpt>
    <trkpt lat="31.262036" lon="-7.360218"><ele>1892.5</ele></trkpt>
    <trkpt lat="31.262812" lon="-7.359579"><ele>1881.0</ele></trkpt>
    <trkpt lat="31.263135" lon="-7.358582"><ele>1872.5</ele></trkpt>
    <trkpt lat="31.263150" lon="-7.358392"><ele>1870.8</ele></trkpt>
    <trkpt lat="31.263057" lon="-7.357943"><ele>1869.5</ele></trkpt>
    <trkpt lat="31.262349" lon="-7.357031"><ele>1868.2</ele></trkpt>
    <trkpt lat="31.262110" lon="-7.356530"><ele>1865.5</ele></trkpt>
    <trkpt lat="31.262095" lon="-7.356220"><ele>1864.2</ele></trkpt>
    <trkpt lat="31.262119" lon="-7.356088"><ele>1863.2</ele></trkpt>
    <trkpt lat="31.262695" lon="-7.354884"><ele>1854.0</ele></trkpt>
    <trkpt lat="31.262929" lon="-7.354563"><ele>1849.5</ele></trkpt>
    <trkpt lat="31.263631" lon="-7.353938"><ele>1849.5</ele></trkpt>
    <trkpt lat="31.263801" lon="-7.353446"><ele>1849.5</ele></trkpt>
    <trkpt lat="31.262952" lon="-7.349449"><ele>1846.8</ele></trkpt>
    <trkpt lat="31.262492" lon="-7.348523"><ele>1844.0</ele></trkpt>
    <trkpt lat="31.262258" lon="-7.347277"><ele>1843.5</ele></trkpt>
    <trkpt lat="31.262202" lon="-7.347134"><ele>1843.5</ele></trkpt>
    <trkpt lat="31.261829" lon="-7.346541"><ele>1840.2</ele></trkpt>
    <trkpt lat="31.261276" lon="-7.344556"><ele>1829.2</ele></trkpt>
    <trkpt lat="31.260751" lon="-7.343688"><ele>1825.5</ele></trkpt>
    <trkpt lat="31.259588" lon="-7.343326"><ele>1817.0</ele></trkpt>
    <trkpt lat="31.259490" lon="-7.343275"><ele>1816.2</ele></trkpt>
    <trkpt lat="31.259251" lon="-7.342742"><ele>1815.5</ele></trkpt>
    <trkpt lat="31.259274" lon="-7.341269"><ele>1814.8</ele></trkpt>
    <trkpt lat="31.259085" lon="-7.340250"><ele>1813.8</ele></trkpt>
    <trkpt lat="31.259561" lon="-7.338196"><ele>1812.5</ele></trkpt>
    <trkpt lat="31.259243" lon="-7.336917"><ele>1806.2</ele></trkpt>
    <trkpt lat="31.258585" lon="-7.335678"><ele>1798.2</ele></trkpt>
    <trkpt lat="31.258575" lon="-7.335038"><ele>1797.8</ele></trkpt>
    <trkpt lat="31.258885" lon="-7.333661"><ele>1796.0</ele></trkpt>
    <trkpt lat="31.258855" lon="-7.331757"><ele>1793.5</ele></trkpt>
    <trkpt lat="31.258603" lon="-7.330635"><ele>1787.0</ele></trkpt>
    <trkpt lat="31.258523" lon="-7.330278"><ele>1786.2</ele></trkpt>
    <trkpt lat="31.258799" lon="-7.328684"><ele>1785.8</ele></trkpt>
    <trkpt lat="31.258115" lon="-7.326520"><ele>1783.5</ele></trkpt>
    <trkpt lat="31.258300" lon="-7.325524"><ele>1783.2</ele></trkpt>
    <trkpt lat="31.258489" lon="-7.323180"><ele>1778.0</ele></trkpt>
    <trkpt lat="31.259016" lon="-7.322342"><ele>1778.2</ele></trkpt>
    <trkpt lat="31.259499" lon="-7.320832"><ele>1778.5</ele></trkpt>
    <trkpt lat="31.259257" lon="-7.320274"><ele>1777.0</ele></trkpt>
    <trkpt lat="31.259199" lon="-7.320185"><ele>1777.0</ele></trkpt>
    <trkpt lat="31.259193" lon="-7.319911"><ele>1777.0</ele></trkpt>
    <trkpt lat="31.259616" lon="-7.319494"><ele>1780.0</ele></trkpt>
    <trkpt lat="31.260320" lon="-7.318050"><ele>1784.2</ele></trkpt>
    <trkpt lat="31.260183" lon="-7.317833"><ele>1786.2</ele></trkpt>
    <trkpt lat="31.259599" lon="-7.317599"><ele>1786.8</ele></trkpt>
    <trkpt lat="31.259353" lon="-7.317486"><ele>1788.0</ele></trkpt>
    <trkpt lat="31.258676" lon="-7.316931"><ele>1799.5</ele></trkpt>
    <trkpt lat="31.258417" lon="-7.316782"><ele>1799.8</ele></trkpt>
    <trkpt lat="31.258187" lon="-7.316352"><ele>1801.0</ele></trkpt>
    <trkpt lat="31.258265" lon="-7.316132"><ele>1801.0</ele></trkpt>
    <trkpt lat="31.258506" lon="-7.315860"><ele>1806.0</ele></trkpt>
    <trkpt lat="31.259012" lon="-7.315479"><ele>1810.5</ele></trkpt>
    <trkpt lat="31.259560" lon="-7.315276"><ele>1814.0</ele></trkpt>
    <trkpt lat="31.260070" lon="-7.315410"><ele>1822.8</ele></trkpt>
    <trkpt lat="31.260241" lon="-7.315381"><ele>1824.5</ele></trkpt>
    <trkpt lat="31.260764" lon="-7.314769"><ele>1825.0</ele></trkpt>
    <trkpt lat="31.261291" lon="-7.314428"><ele>1826.8</ele></trkpt>
    <trkpt lat="31.262347" lon="-7.314037"><ele>1843.0</ele></trkpt>
    <trkpt lat="31.262514" lon="-7.313806"><ele>1843.0</ele></trkpt>
    <trkpt lat="31.262461" lon="-7.313219"><ele>1837.5</ele></trkpt>
    <trkpt lat="31.262671" lon="-7.312933"><ele>1837.5</ele></trkpt>
    <trkpt lat="31.263466" lon="-7.313113"><ele>1857.0</ele></trkpt>
    <trkpt lat="31.263567" lon="-7.313064"><ele>1857.0</ele></trkpt>
    <trkpt lat="31.263804" lon="-7.312389"><ele>1857.0</ele></trkpt>
    <trkpt lat="31.263853" lon="-7.311537"><ele>1854.5</ele></trkpt>
    <trkpt lat="31.264048" lon="-7.311172"><ele>1854.5</ele></trkpt>
    <trkpt lat="31.264117" lon="-7.311155"><ele>1854.5</ele></trkpt>
    <trkpt lat="31.264303" lon="-7.311246"><ele>1857.5</ele></trkpt>
    <trkpt lat="31.264992" lon="-7.312089"><ele>1873.5</ele></trkpt>
    <trkpt lat="31.265205" lon="-7.312097"><ele>1878.0</ele></trkpt>
    <trkpt lat="31.265429" lon="-7.311847"><ele>1878.0</ele></trkpt>
    <trkpt lat="31.265474" lon="-7.311751"><ele>1878.0</ele></trkpt>
    <trkpt lat="31.265968" lon="-7.309436"><ele>1858.8</ele></trkpt>
    <trkpt lat="31.266038" lon="-7.309305"><ele>1858.8</ele></trkpt>
    <trkpt lat="31.266247" lon="-7.309101"><ele>1858.0</ele></trkpt>
    <trkpt lat="31.267334" lon="-7.308645"><ele>1856.8</ele></trkpt>
    <trkpt lat="31.267674" lon="-7.308117"><ele>1855.8</ele></trkpt>
    <trkpt lat="31.268351" lon="-7.306585"><ele>1841.5</ele></trkpt>
    <trkpt lat="31.268422" lon="-7.306398"><ele>1840.2</ele></trkpt>
    <trkpt lat="31.268533" lon="-7.305635"><ele>1834.8</ele></trkpt>
    <trkpt lat="31.268422" lon="-7.303235"><ele>1815.8</ele></trkpt>
    <trkpt lat="31.268434" lon="-7.302786"><ele>1813.5</ele></trkpt>
    <trkpt lat="31.268595" lon="-7.301697"><ele>1808.2</ele></trkpt>
    <trkpt lat="31.269099" lon="-7.299303"><ele>1792.2</ele></trkpt>
    <trkpt lat="31.269212" lon="-7.298913"><ele>1790.8</ele></trkpt>
    <trkpt lat="31.269473" lon="-7.298402"><ele>1789.0</ele></trkpt>
    <trkpt lat="31.270111" lon="-7.297751"><ele>1785.0</ele></trkpt>
    <trkpt lat="31.270369" lon="-7.296940"><ele>1783.2</ele></trkpt>
    <trkpt lat="31.270362" lon="-7.296339"><ele>1780.5</ele></trkpt>
    <trkpt lat="31.270173" lon="-7.294996"><ele>1770.8</ele></trkpt>
    <trkpt lat="31.270008" lon="-7.294421"><ele>1768.2</ele></trkpt>
    <trkpt lat="31.269817" lon="-7.294211"><ele>1767.0</ele></trkpt>
    <trkpt lat="31.268801" lon="-7.293749"><ele>1761.5</ele></trkpt>
    <trkpt lat="31.268225" lon="-7.292762"><ele>1753.8</ele></trkpt>
    <trkpt lat="31.267736" lon="-7.292376"><ele>1750.8</ele></trkpt>
    <trkpt lat="31.267539" lon="-7.292145"><ele>1749.8</ele></trkpt>
    <trkpt lat="31.267283" lon="-7.291429"><ele>1749.5</ele></trkpt>
    <trkpt lat="31.266814" lon="-7.290730"><ele>1747.5</ele></trkpt>
    <trkpt lat="31.266651" lon="-7.289767"><ele>1747.5</ele></trkpt>
    <trkpt lat="31.266245" lon="-7.288787"><ele>1747.2</ele></trkpt>
    <trkpt lat="31.265980" lon="-7.288482"><ele>1747.0</ele></trkpt>
    <trkpt lat="31.265396" lon="-7.288004"><ele>1740.5</ele></trkpt>
    <trkpt lat="31.265163" lon="-7.287398"><ele>1738.5</ele></trkpt>
    <trkpt lat="31.265521" lon="-7.285674"><ele>1729.2</ele></trkpt>
    <trkpt lat="31.265192" lon="-7.283112"><ele>1716.0</ele></trkpt>
    <trkpt lat="31.265129" lon="-7.282419"><ele>1715.8</ele></trkpt>
    <trkpt lat="31.265216" lon="-7.281237"><ele>1715.0</ele></trkpt>
    <trkpt lat="31.265368" lon="-7.280760"><ele>1714.2</ele></trkpt>
    <trkpt lat="31.266654" lon="-7.278351"><ele>1713.0</ele></trkpt>
    <trkpt lat="31.266963" lon="-7.277296"><ele>1712.5</ele></trkpt>
    <trkpt lat="31.267051" lon="-7.276527"><ele>1714.2</ele></trkpt>
    <trkpt lat="31.267048" lon="-7.276167"><ele>1714.2</ele></trkpt>
    <trkpt lat="31.266881" lon="-7.272040"><ele>1719.2</ele></trkpt>
    <trkpt lat="31.266912" lon="-7.269609"><ele>1729.2</ele></trkpt>
    <trkpt lat="31.266955" lon="-7.269015"><ele>1730.2</ele></trkpt>
    <trkpt lat="31.267211" lon="-7.266295"><ele>1730.2</ele></trkpt>
    <trkpt lat="31.267573" lon="-7.264685"><ele>1730.2</ele></trkpt>
    <trkpt lat="31.267730" lon="-7.263295"><ele>1720.5</ele></trkpt>
    <trkpt lat="31.267546" lon="-7.262113"><ele>1717.8</ele></trkpt>
    <trkpt lat="31.267115" lon="-7.259857"><ele>1717.8</ele></trkpt>
    <trkpt lat="31.267009" lon="-7.257673"><ele>1718.5</ele></trkpt>
    <trkpt lat="31.267135" lon="-7.257133"><ele>1719.0</ele></trkpt>
    <trkpt lat="31.268163" lon="-7.255451"><ele>1722.2</ele></trkpt>
    <trkpt lat="31.268626" lon="-7.254064"><ele>1721.8</ele></trkpt>
    <trkpt lat="31.269512" lon="-7.252957"><ele>1719.2</ele></trkpt>
    <trkpt lat="31.270697" lon="-7.252633"><ele>1721.5</ele></trkpt>
    <trkpt lat="31.271874" lon="-7.252061"><ele>1722.0</ele></trkpt>
    <trkpt lat="31.273129" lon="-7.251948"><ele>1721.5</ele></trkpt>
    <trkpt lat="31.273540" lon="-7.251766"><ele>1722.0</ele></trkpt>
    <trkpt lat="31.276486" lon="-7.250124"><ele>1727.0</ele></trkpt>
    <trkpt lat="31.276826" lon="-7.249841"><ele>1727.8</ele></trkpt>
    <trkpt lat="31.277125" lon="-7.249391"><ele>1729.0</ele></trkpt>
    <trkpt lat="31.277923" lon="-7.248343"><ele>1740.5</ele></trkpt>
    <trkpt lat="31.278305" lon="-7.247959"><ele>1741.2</ele></trkpt>
    <trkpt lat="31.280640" lon="-7.247281"><ele>1741.0</ele></trkpt>
    <trkpt lat="31.281975" lon="-7.245506"><ele>1743.8</ele></trkpt>
    <trkpt lat="31.282604" lon="-7.244807"><ele>1744.2</ele></trkpt>
    <trkpt lat="31.283021" lon="-7.244379"><ele>1748.2</ele></trkpt>
    <trkpt lat="31.284200" lon="-7.243377"><ele>1758.2</ele></trkpt>
    <trkpt lat="31.284573" lon="-7.242776"><ele>1762.2</ele></trkpt>
    <trkpt lat="31.284858" lon="-7.242478"><ele>1763.8</ele></trkpt>
    <trkpt lat="31.285272" lon="-7.242334"><ele>1765.0</ele></trkpt>
    <trkpt lat="31.285781" lon="-7.242351"><ele>1765.8</ele></trkpt>
    <trkpt lat="31.286619" lon="-7.242754"><ele>1769.2</ele></trkpt>
    <trkpt lat="31.286838" lon="-7.242673"><ele>1770.8</ele></trkpt>
    <trkpt lat="31.287593" lon="-7.242204"><ele>1777.2</ele></trkpt>
    <trkpt lat="31.288595" lon="-7.242216"><ele>1781.0</ele></trkpt>
    <trkpt lat="31.289913" lon="-7.241585"><ele>1790.0</ele></trkpt>
    <trkpt lat="31.290057" lon="-7.241477"><ele>1791.0</ele></trkpt>
    <trkpt lat="31.290345" lon="-7.240846"><ele>1793.0</ele></trkpt>
    <trkpt lat="31.289916" lon="-7.240642"><ele>1794.0</ele></trkpt>
    </trkseg>
  </trk>
</gpx>
