<?xml version="1.0" encoding="UTF-8"?>
<gpx version="1.1" creator="tripplanner (routed with BRouter, gravel profile)" xmlns="http://www.topografix.com/GPX/1/1">
  <metadata>
    <name>Toubkal to Telouet — Day 1: Asni → Ouirgane → Ijoukak</name>
    <desc>50 km, 865 m. Routed with BRouter (gravel profile) over OSM ways — a plan, not a ridden track.</desc>
  </metadata>
  <trk>
    <name>Toubkal to Telouet — Day 1: Asni → Ouirgane → Ijoukak</name>
    <trkseg>
    <trkpt lat="31.249650" lon="-7.978862"><ele>1165.8</ele></trkpt>
    <trkpt lat="31.250025" lon="-7.978810"><ele>1166.2</ele></trkpt>
    <trkpt lat="31.249263" lon="-7.979526"><ele>1167.5</ele></trkpt>
    <trkpt lat="31.248782" lon="-7.980523"><ele>1171.8</ele></trkpt>
    <trkpt lat="31.249251" lon="-7.981946"><ele>1177.0</ele></trkpt>
    <trkpt lat="31.248901" lon="-7.982176"><ele>1178.0</ele></trkpt>
    <trkpt lat="31.248631" lon="-7.982876"><ele>1179.0</ele></trkpt>
    <trkpt lat="31.247643" lon="-7.985577"><ele>1187.5</ele></trkpt>
    <trkpt lat="31.246887" lon="-7.985188"><ele>1190.0</ele></trkpt>
    <trkpt lat="31.245666" lon="-7.988611"><ele>1192.0</ele></trkpt>
    <trkpt lat="31.245666" lon="-7.991133"><ele>1197.5</ele></trkpt>
    <trkpt lat="31.245141" lon="-7.992988"><ele>1205.8</ele></trkpt>
    <trkpt lat="31.245114" lon="-7.993245"><ele>1206.2</ele></trkpt>
    <trkpt lat="31.245209" lon="-7.993758"><ele>1208.2</ele></trkpt>
    <trkpt lat="31.245904" lon="-7.994871"><ele>1209.5</ele></trkpt>
    <trkpt lat="31.245910" lon="-7.995717"><ele>1209.5</ele></trkpt>
    <trkpt lat="31.245902" lon="-7.997828"><ele>1206.5</ele></trkpt>
    <trkpt lat="31.245526" lon="-7.999257"><ele>1205.8</ele></trkpt>
    <trkpt lat="31.244726" lon="-8.000655"><ele>1202.5</ele></trkpt>
    <trkpt lat="31.244655" lon="-8.000785"><ele>1201.8</ele></trkpt>
    <trkpt lat="31.244445" lon="-8.001408"><ele>1199.8</ele></trkpt>
    <trkpt lat="31.244159" lon="-8.001763"><ele>1197.0</ele></trkpt>
    <trkpt lat="31.244017" lon="-8.002234"><ele>1194.8</ele></trkpt>
    <trkpt lat="31.243263" lon="-8.003261"><ele>1182.0</ele></trkpt>
    <trkpt lat="31.243169" lon="-8.003356"><ele>1180.5</ele></trkpt>
    <trkpt lat="31.242716" lon="-8.003437"><ele>1174.2</ele></trkpt>
    <trkpt lat="31.242424" lon="-8.003435"><ele>1173.8</ele></trkpt>
    <trkpt lat="31.242314" lon="-8.003557"><ele>1172.8</ele></trkpt>
    <trkpt lat="31.242000" lon="-8.004338"><ele>1172.0</ele></trkpt>
    <trkpt lat="31.241616" lon="-8.004829"><ele>1164.8</ele></trkpt>
    <trkpt lat="31.241176" lon="-8.005974"><ele>1163.0</ele></trkpt>
    <trkpt lat="31.240608" lon="-8.006585"><ele>1158.2</ele></trkpt>
    <trkpt lat="31.240165" lon="-8.007777"><ele>1152.2</ele></trkpt>
    <trkpt lat="31.240081" lon="-8.008286"><ele>1150.0</ele></trkpt>
    <trkpt lat="31.239722" lon="-8.008428"><ele>1150.0</ele></trkpt>
    <trkpt lat="31.239321" lon="-8.008879"><ele>1150.0</ele></trkpt>
    <trkpt lat="31.238711" lon="-8.009577"><ele>1146.0</ele></trkpt>
    <trkpt lat="31.238151" lon="-8.009923"><ele>1140.2</ele></trkpt>
    <trkpt lat="31.237549" lon="-8.010831"><ele>1134.8</ele></trkpt>
    <trkpt lat="31.236757" lon="-8.011393"><ele>1128.8</ele></trkpt>
    <trkpt lat="31.236380" lon="-8.011691"><ele>1127.8</ele></trkpt>
    <trkpt lat="31.235610" lon="-8.013055"><ele>1123.8</ele></trkpt>
    <trkpt lat="31.235089" lon="-8.014837"><ele>1118.2</ele></trkpt>
    <trkpt lat="31.234136" lon="-8.015403"><ele>1115.0</ele></trkpt>
    <trkpt lat="31.233626" lon="-8.015948"><ele>1114.8</ele></trkpt>
    <trkpt lat="31.232013" lon="-8.017675"><ele>1102.8</ele></trkpt>
    <trkpt lat="31.230531" lon="-8.018405"><ele>1093.8</ele></trkpt>
    <trkpt lat="31.229357" lon="-8.019545"><ele>1087.2</ele></trkpt>
    <trkpt lat="31.229261" lon="-8.019675"><ele>1086.8</ele></trkpt>
    <trkpt lat="31.227773" lon="-8.021929"><ele>1079.5</ele></trkpt>
    <trkpt lat="31.227430" lon="-8.022774"><ele>1076.2</ele></trkpt>
    <trkpt lat="31.227033" lon="-8.023317"><ele>1072.0</ele></trkpt>
    <trkpt lat="31.226302" lon="-8.023673"><ele>1068.8</ele></trkpt>
    <trkpt lat="31.225541" lon="-8.023749"><ele>1063.2</ele></trkpt>
    <trkpt lat="31.224899" lon="-8.024232"><ele>1055.8</ele></trkpt>
    <trkpt lat="31.224732" lon="-8.024700"><ele>1053.2</ele></trkpt>
    <trkpt lat="31.224539" lon="-8.025489"><ele>1052.5</ele></trkpt>
    <trkpt lat="31.224690" lon="-8.026132"><ele>1049.5</ele></trkpt>
    <trkpt lat="31.224068" lon="-8.027260"><ele>1048.5</ele></trkpt>
    <trkpt lat="31.223991" lon="-8.028683"><ele>1047.8</ele></trkpt>
    <trkpt lat="31.223922" lon="-8.028841"><ele>1046.8</ele></trkpt>
    <trkpt lat="31.223374" lon="-8.029359"><ele>1036.8</ele></trkpt>
    <trkpt lat="31.223071" lon="-8.029913"><ele>1035.5</ele></trkpt>
    <trkpt lat="31.221934" lon="-8.030903"><ele>1028.8</ele></trkpt>
    <trkpt lat="31.221608" lon="-8.031592"><ele>1026.0</ele></trkpt>
    <trkpt lat="31.220733" lon="-8.032426"><ele>1019.5</ele></trkpt>
    <trkpt lat="31.220590" lon="-8.032873"><ele>1019.2</ele></trkpt>
    <trkpt lat="31.220313" lon="-8.033162"><ele>1017.2</ele></trkpt>
    <trkpt lat="31.219938" lon="-8.033951"><ele>1014.2</ele></trkpt>
    <trkpt lat="31.219240" lon="-8.034294"><ele>1011.8</ele></trkpt>
    <trkpt lat="31.218339" lon="-8.035275"><ele>1004.8</ele></trkpt>
    <trkpt lat="31.217987" lon="-8.035444"><ele>1004.0</ele></trkpt>
    <trkpt lat="31.217471" lon="-8.036239"><ele>1001.0</ele></trkpt>
    <trkpt lat="31.216490" lon="-8.036429"><ele>994.0</ele></trkpt>
    <trkpt lat="31.215946" lon="-8.037229"><ele>993.2</ele></trkpt>
    <trkpt lat="31.215343" lon="-8.037078"><ele>989.0</ele></trkpt>
    <trkpt lat="31.214583" lon="-8.037832"><ele>983.2</ele></trkpt>
    <trkpt lat="31.213812" lon="-8.038173"><ele>982.5</ele></trkpt>
    <trkpt lat="31.213990" lon="-8.039876"><ele>985.0</ele></trkpt>
    <trkpt lat="31.214347" lon="-8.040367"><ele>986.0</ele></trkpt>
    <trkpt lat="31.215283" lon="-8.041488"><ele>994.5</ele></trkpt>
    <trkpt lat="31.216499" lon="-8.042260"><ele>1006.0</ele></trkpt>
    <trkpt lat="31.217050" lon="-8.042928"><ele>1012.2</ele></trkpt>
    <trkpt lat="31.217229" lon="-8.043331"><ele>1015.0</ele></trkpt>
    <trkpt lat="31.217319" lon="-8.044080"><ele>1019.2</ele></trkpt>
    <trkpt lat="31.217307" lon="-8.045228"><ele>1020.0</ele></trkpt>
    <trkpt lat="31.217818" lon="-8.046129"><ele>1032.2</ele></trkpt>
    <trkpt lat="31.217727" lon="-8.046352"><ele>1032.2</ele></trkpt>
    <trkpt lat="31.217492" lon="-8.046835"><ele>1022.5</ele></trkpt>
    <trkpt lat="31.217475" lon="-8.046934"><ele>1022.5</ele></trkpt>
    <trkpt lat="31.217798" lon="-8.047843"><ele>1021.0</ele></trkpt>
    <trkpt lat="31.217767" lon="-8.048094"><ele>1019.0</ele></trkpt>
    <trkpt lat="31.217653" lon="-8.048289"><ele>1015.8</ele></trkpt>
    <trkpt lat="31.216445" lon="-8.050004"><ele>996.5</ele></trkpt>
    <trkpt lat="31.216266" lon="-8.050291"><ele>995.2</ele></trkpt>
    <trkpt lat="31.215833" lon="-8.050716"><ele>992.0</ele></trkpt>
    <trkpt lat="31.215482" lon="-8.051617"><ele>990.5</ele></trkpt>
    <trkpt lat="31.215480" lon="-8.051880"><ele>990.0</ele></trkpt>
    <trkpt lat="31.214857" lon="-8.052057"><ele>990.0</ele></trkpt>
    <trkpt lat="31.214583" lon="-8.051970"><ele>990.0</ele></trkpt>
    <trkpt lat="31.214061" lon="-8.052086"><ele>989.8</ele></trkpt>
    <trkpt lat="31.213544" lon="-8.051959"><ele>989.8</ele></trkpt>
    <trkpt lat="31.212504" lon="-8.052483"><ele>989.8</ele></trkpt>
    <trkpt lat="31.212324" lon="-8.052814"><ele>989.8</ele></trkpt>
    <trkpt lat="31.212089" lon="-8.053122"><ele>985.2</ele></trkpt>
    <trkpt lat="31.212134" lon="-8.053813"><ele>981.2</ele></trkpt>
    <trkpt lat="31.212405" lon="-8.054071"><ele>980.5</ele></trkpt>
    <trkpt lat="31.212405" lon="-8.054424"><ele>974.5</ele></trkpt>
    <trkpt lat="31.211686" lon="-8.055176"><ele>969.8</ele></trkpt>
    <trkpt lat="31.211156" lon="-8.055215"><ele>966.8</ele></trkpt>
    <trkpt lat="31.210138" lon="-8.056016"><ele>956.8</ele></trkpt>
    <trkpt lat="31.209819" lon="-8.056101"><ele>953.5</ele></trkpt>
    <trkpt lat="31.209709" lon="-8.056208"><ele>952.0</ele></trkpt>
    <trkpt lat="31.209599" lon="-8.056401"><ele>951.2</ele></trkpt>
    <trkpt lat="31.209562" lon="-8.057066"><ele>950.5</ele></trkpt>
    <trkpt lat="31.209195" lon="-8.057163"><ele>948.0</ele></trkpt>
    <trkpt lat="31.208856" lon="-8.057259"><ele>944.2</ele></trkpt>
    <trkpt lat="31.208177" lon="-8.058386"><ele>938.8</ele></trkpt>
    <trkpt lat="31.208094" lon="-8.058847"><ele>935.8</ele></trkpt>
    <trkpt lat="31.208232" lon="-8.059308"><ele>933.5</ele></trkpt>
    <trkpt lat="31.208186" lon="-8.059663"><ele>929.5</ele></trkpt>
    <trkpt lat="31.207424" lon="-8.060167"><ele>924.0</ele></trkpt>
    <trkpt lat="31.206800" lon="-8.060907"><ele>919.5</ele></trkpt>
    <trkpt lat="31.206626" lon="-8.061486"><ele>914.2</ele></trkpt>
    <trkpt lat="31.205738" lon="-8.061746"><ele>911.8</ele></trkpt>
    <trkpt lat="31.205181" lon="-8.061657"><ele>909.8</ele></trkpt>
    <trkpt lat="31.205043" lon="-8.061894"><ele>907.8</ele></trkpt>
    <trkpt lat="31.204554" lon="-8.062307"><ele>901.8</ele></trkpt>
    <trkpt lat="31.204084" lon="-8.062659"><ele>900.2</ele></trkpt>
    <trkpt lat="31.203871" lon="-8.063337"><ele>896.5</ele></trkpt>
    <trkpt lat="31.203304" lon="-8.064083"><ele>891.2</ele></trkpt>
    <trkpt lat="31.202976" lon="-8.064217"><ele>889.2</ele></trkpt>
    <trkpt lat="31.202712" lon="-8.064716"><ele>885.8</ele></trkpt>
    <trkpt lat="31.202301" lon="-8.064681"><ele>884.2</ele></trkpt>
    <trkpt lat="31.201638" lon="-8.065199"><ele>878.0</ele></trkpt>
    <trkpt lat="31.201184" lon="-8.065244"><ele>876.0</ele></trkpt>
    <trkpt lat="31.200964" lon="-8.065099"><ele>876.0</ele></trkpt>
    <trkpt lat="31.200542" lon="-8.065483"><ele>875.5</ele></trkpt>
    <trkpt lat="31.200355" lon="-8.065777"><ele>875.2</ele></trkpt>
    <trkpt lat="31.201108" lon="-8.066930"><ele>875.0</ele></trkpt>
    <trkpt lat="31.201313" lon="-8.067613"><ele>874.5</ele></trkpt>
    <trkpt lat="31.200887" lon="-8.067995"><ele>870.0</ele></trkpt>
    <trkpt lat="31.200838" lon="-8.069487"><ele>865.2</ele></trkpt>
    <trkpt lat="31.199314" lon="-8.072537"><ele>860.0</ele></trkpt>
    <trkpt lat="31.199127" lon="-8.072907"><ele>860.0</ele></trkpt>
    <trkpt lat="31.199163" lon="-8.073362"><ele>861.0</ele></trkpt>
    <trkpt lat="31.199369" lon="-8.073578"><ele>865.5</ele></trkpt>
    <trkpt lat="31.199256" lon="-8.074322"><ele>865.5</ele></trkpt>
    <trkpt lat="31.198936" lon="-8.074699"><ele>865.5</ele></trkpt>
    <trkpt lat="31.198828" lon="-8.074771"><ele>863.8</ele></trkpt>
    <trkpt lat="31.198463" lon="-8.074860"><ele>859.2</ele></trkpt>
    <trkpt lat="31.198010" lon="-8.074897"><ele>859.2</ele></trkpt>
    <trkpt lat="31.197640" lon="-8.076145"><ele>860.8</ele></trkpt>
    <trkpt lat="31.196839" lon="-8.076842"><ele>860.2</ele></trkpt>
    <trkpt lat="31.196206" lon="-8.078304"><ele>859.8</ele></trkpt>
    <trkpt lat="31.195717" lon="-8.078610"><ele>860.5</ele></trkpt>
    <trkpt lat="31.195058" lon="-8.079615"><ele>860.5</ele></trkpt>
    <trkpt lat="31.194600" lon="-8.080004"><ele>859.8</ele></trkpt>
    <trkpt lat="31.194581" lon="-8.080364"><ele>859.5</ele></trkpt>
    <trkpt lat="31.194460" lon="-8.080503"><ele>859.8</ele></trkpt>
    <trkpt lat="31.194090" lon="-8.080562"><ele>859.8</ele></trkpt>
    <trkpt lat="31.193879" lon="-8.080514"><ele>860.8</ele></trkpt>
    <trkpt lat="31.193691" lon="-8.080447"><ele>864.8</ele></trkpt>
    <trkpt lat="31.193624" lon="-8.080248"><ele>870.8</ele></trkpt>
    <trkpt lat="31.193604" lon="-8.080088"><ele>870.8</ele></trkpt>
    <trkpt lat="31.193505" lon="-8.080077"><ele>870.8</ele></trkpt>
    <trkpt lat="31.193278" lon="-8.080802"><ele>870.8</ele></trkpt>
    <trkpt lat="31.192975" lon="-8.080957"><ele>870.8</ele></trkpt>
    <trkpt lat="31.192381" lon="-8.081099"><ele>880.5</ele></trkpt>
    <trkpt lat="31.192139" lon="-8.081067"><ele>884.5</ele></trkpt>
    <trkpt lat="31.192054" lon="-8.081091"><ele>885.8</ele></trkpt>
    <trkpt lat="31.191731" lon="-8.081454"><ele>887.2</ele></trkpt>
    <trkpt lat="31.191335" lon="-8.081391"><ele>887.2</ele></trkpt>
    <trkpt lat="31.191757" lon="-8.080955"><ele>898.0</ele></trkpt>
    <trkpt lat="31.191736" lon="-8.080444"><ele>908.5</ele></trkpt>
    <trkpt lat="31.191587" lon="-8.079556"><ele>924.5</ele></trkpt>
    <trkpt lat="31.190848" lon="-8.079028"><ele>933.8</ele></trkpt>
    <trkpt lat="31.189992" lon="-8.078677"><ele>944.8</ele></trkpt>
    <trkpt lat="31.189380" lon="-8.078636"><ele>954.2</ele></trkpt>
    <trkpt lat="31.189130" lon="-8.078682"><ele>954.2</ele></trkpt>
    <trkpt lat="31.188870" lon="-8.078819"><ele>955.5</ele></trkpt>
    <trkpt lat="31.188225" lon="-8.079004"><ele>955.5</ele></trkpt>
    <trkpt lat="31.187585" lon="-8.078889"><ele>954.5</ele></trkpt>
    <trkpt lat="31.186569" lon="-8.078516"><ele>942.8</ele></trkpt>
    <trkpt lat="31.186390" lon="-8.078419"><ele>941.5</ele></trkpt>
    <trkpt lat="31.186204" lon="-8.077942"><ele>940.5</ele></trkpt>
    <trkpt lat="31.186183" lon="-8.076501"><ele>939.2</ele></trkpt>
    <trkpt lat="31.186048" lon="-8.076375"><ele>939.5</ele></trkpt>
    <trkpt lat="31.185045" lon="-8.076434"><ele>940.5</ele></trkpt>
    <trkpt lat="31.184561" lon="-8.076000"><ele>945.5</ele></trkpt>
    <trkpt lat="31.184063" lon="-8.076330"><ele>947.2</ele></trkpt>
    <trkpt lat="31.183705" lon="-8.076324"><ele>947.2</ele></trkpt>
    <trkpt lat="31.183174" lon="-8.076058"><ele>951.2</ele></trkpt>
    <trkpt lat="31.182642" lon="-8.075048"><ele>961.5</ele></trkpt>
    <trkpt lat="31.182515" lon="-8.074975"><ele>962.2</ele></trkpt>
    <trkpt lat="31.182294" lon="-8.075088"><ele>962.2</ele></trkpt>
    <trkpt lat="31.182173" lon="-8.075452"><ele>963.0</ele></trkpt>
    <trkpt lat="31.181642" lon="-8.076204"><ele>964.2</ele></trkpt>
    <trkpt lat="31.181046" lon="-8.076405"><ele>966.5</ele></trkpt>
    <trkpt lat="31.180006" lon="-8.075740"><ele>966.5</ele></trkpt>
    <trkpt lat="31.179485" lon="-8.075006"><ele>958.0</ele></trkpt>
    <trkpt lat="31.179497" lon="-8.075331"><ele>956.8</ele></trkpt>
    <trkpt lat="31.179109" lon="-8.076008"><ele>944.8</ele></trkpt>
    <trkpt lat="31.179060" lon="-8.076459"><ele>944.2</ele></trkpt>
    <trkpt lat="31.179400" lon="-8.077834"><ele>943.2</ele></trkpt>
    <trkpt lat="31.179409" lon="-8.077946"><ele>942.8</ele></trkpt>
    <trkpt lat="31.179428" lon="-8.079111"><ele>930.2</ele></trkpt>
    <trkpt lat="31.179632" lon="-8.079841"><ele>925.0</ele></trkpt>
    <trkpt lat="31.179545" lon="-8.081341"><ele>906.0</ele></trkpt>
    <trkpt lat="31.179013" lon="-8.080937"><ele>904.5</ele></trkpt>
    <trkpt lat="31.178891" lon="-8.080540"><ele>905.8</ele></trkpt>
    <trkpt lat="31.178954" lon="-8.080247"><ele>904.8</ele></trkpt>
    <trkpt lat="31.178414" lon="-8.079692"><ele>902.5</ele></trkpt>
    <trkpt lat="31.178214" lon="-8.079154"><ele>901.8</ele></trkpt>
    <trkpt lat="31.178191" lon="-8.078897"><ele>902.0</ele></trkpt>
    <trkpt lat="31.177885" lon="-8.078506"><ele>902.8</ele></trkpt>
    <trkpt lat="31.177712" lon="-8.077392"><ele>903.5</ele></trkpt>
    <trkpt lat="31.177923" lon="-8.076704"><ele>910.5</ele></trkpt>
    <trkpt lat="31.178279" lon="-8.076347"><ele>916.0</ele></trkpt>
    <trkpt lat="31.178324" lon="-8.075880"><ele>916.0</ele></trkpt>
    <trkpt lat="31.178010" lon="-8.075384"><ele>913.2</ele></trkpt>
    <trkpt lat="31.178189" lon="-8.074806"><ele>911.2</ele></trkpt>
    <trkpt lat="31.178031" lon="-8.074041"><ele>909.8</ele></trkpt>
    <trkpt lat="31.177478" lon="-8.074338"><ele>906.0</ele></trkpt>
    <trkpt lat="31.177087" lon="-8.074596"><ele>905.5</ele></trkpt>
    <trkpt lat="31.176947" lon="-8.076121"><ele>904.0</ele></trkpt>
    <trkpt lat="31.176212" lon="-8.077211"><ele>903.8</ele></trkpt>
    <trkpt lat="31.175927" lon="-8.078234"><ele>903.2</ele></trkpt>
    <trkpt lat="31.175279" lon="-8.079295"><ele>905.0</ele></trkpt>
    <trkpt lat="31.175133" lon="-8.080018"><ele>904.8</ele></trkpt>
    <trkpt lat="31.175118" lon="-8.080676"><ele>903.8</ele></trkpt>
    <trkpt lat="31.175290" lon="-8.082431"><ele>896.0</ele></trkpt>
    <trkpt lat="31.174947" lon="-8.084506"><ele>892.8</ele></trkpt>
    <trkpt lat="31.174879" lon="-8.084709"><ele>892.8</ele></trkpt>
    <trkpt lat="31.173972" lon="-8.085354"><ele>891.2</ele></trkpt>
    <trkpt lat="31.172991" lon="-8.084956"><ele>894.2</ele></trkpt>
    <trkpt lat="31.172778" lon="-8.085054"><ele>894.8</ele></trkpt>
    <trkpt lat="31.172708" lon="-8.085347"><ele>894.2</ele></trkpt>
    <trkpt lat="31.172881" lon="-8.085920"><ele>892.8</ele></trkpt>
    <trkpt lat="31.172636" lon="-8.086908"><ele>892.2</ele></trkpt>
    <trkpt lat="31.172577" lon="-8.087061"><ele>892.2</ele></trkpt>
    <trkpt lat="31.172478" lon="-8.087177"><ele>892.8</ele></trkpt>
    <trkpt lat="31.171999" lon="-8.087353"><ele>903.5</ele></trkpt>
    <trkpt lat="31.171945" lon="-8.087446"><ele>903.5</ele></trkpt>
    <trkpt lat="31.171663" lon="-8.088768"><ele>901.2</ele></trkpt>
    <trkpt lat="31.171401" lon="-8.089237"><ele>901.2</ele></trkpt>
    <trkpt lat="31.171203" lon="-8.089275"><ele>901.2</ele></trkpt>
    <trkpt lat="31.170637" lon="-8.088880"><ele>919.2</ele></trkpt>
    <trkpt lat="31.170427" lon="-8.088922"><ele>919.2</ele></trkpt>
    <trkpt lat="31.170060" lon="-8.089805"><ele>919.2</ele></trkpt>
    <trkpt lat="31.169602" lon="-8.090125"><ele>919.8</ele></trkpt>
    <trkpt lat="31.168776" lon="-8.090458"><ele>924.8</ele></trkpt>
    <trkpt lat="31.167965" lon="-8.091075"><ele>930.2</ele></trkpt>
    <trkpt lat="31.167119" lon="-8.091282"><ele>925.5</ele></trkpt>
    <trkpt lat="31.166916" lon="-8.091719"><ele>930.5</ele></trkpt>
    <trkpt lat="31.166286" lon="-8.092125"><ele>926.8</ele></trkpt>
    <trkpt lat="31.165720" lon="-8.092726"><ele>930.5</ele></trkpt>
    <trkpt lat="31.165417" lon="-8.092869"><ele>930.8</ele></trkpt>
    <trkpt lat="31.165276" lon="-8.092951"><ele>929.2</ele></trkpt>
    <trkpt lat="31.165128" lon="-8.093437"><ele>921.0</ele></trkpt>
    <trkpt lat="31.165005" lon="-8.093584"><ele>921.0</ele></trkpt>
    <trkpt lat="31.164166" lon="-8.094255"><ele>921.2</ele></trkpt>
    <trkpt lat="31.163848" lon="-8.094464"><ele>921.5</ele></trkpt>
    <trkpt lat="31.162818" lon="-8.094880"><ele>928.8</ele></trkpt>
    <trkpt lat="31.161775" lon="-8.094858"><ele>942.8</ele></trkpt>
    <trkpt lat="31.161171" lon="-8.095010"><ele>943.8</ele></trkpt>
    <trkpt lat="31.160938" lon="-8.095141"><ele>943.8</ele></trkpt>
    <trkpt lat="31.157191" lon="-8.097601"><ele>934.5</ele></trkpt>
    <trkpt lat="31.156464" lon="-8.098465"><ele>929.2</ele></trkpt>
    <trkpt lat="31.156029" lon="-8.098564"><ele>929.2</ele></trkpt>
    <trkpt lat="31.153157" lon="-8.098105"><ele>918.8</ele></trkpt>
    <trkpt lat="31.152459" lon="-8.097609"><ele>918.8</ele></trkpt>
    <trkpt lat="31.152234" lon="-8.097133"><ele>919.0</ele></trkpt>
    <trkpt lat="31.151662" lon="-8.096421"><ele>921.0</ele></trkpt>
    <trkpt lat="31.151385" lon="-8.095732"><ele>929.0</ele></trkpt>
    <trkpt lat="31.151192" lon="-8.095778"><ele>929.0</ele></trkpt>
    <trkpt lat="31.150897" lon="-8.096099"><ele>917.8</ele></trkpt>
    <trkpt lat="31.150815" lon="-8.096137"><ele>917.8</ele></trkpt>
    <trkpt lat="31.150339" lon="-8.096092"><ele>917.8</ele></trkpt>
    <trkpt lat="31.149616" lon="-8.095868"><ele>928.0</ele></trkpt>
    <trkpt lat="31.149087" lon="-8.095911"><ele>928.0</ele></trkpt>
    <trkpt lat="31.148929" lon="-8.096028"><ele>928.0</ele></trkpt>
    <trkpt lat="31.148643" lon="-8.096354"><ele>922.8</ele></trkpt>
    <trkpt lat="31.148492" lon="-8.096593"><ele>917.5</ele></trkpt>
    <trkpt lat="31.148308" lon="-8.096918"><ele>917.5</ele></trkpt>
    <trkpt lat="31.147429" lon="-8.097633"><ele>918.0</ele></trkpt>
    <trkpt lat="31.147301" lon="-8.097905"><ele>918.0</ele></trkpt>
    <trkpt lat="31.146847" lon="-8.099629"><ele>905.2</ele></trkpt>
    <trkpt lat="31.145779" lon="-8.101539"><ele>901.2</ele></trkpt>
    <trkpt lat="31.144785" lon="-8.102222"><ele>911.0</ele></trkpt>
    <trkpt lat="31.143257" lon="-8.103281"><ele>912.8</ele></trkpt>
    <trkpt lat="31.142271" lon="-8.103552"><ele>918.0</ele></trkpt>
    <trkpt lat="31.140692" lon="-8.103534"><ele>919.5</ele></trkpt>
    <trkpt lat="31.140283" lon="-8.103424"><ele>919.5</ele></trkpt>
    <trkpt lat="31.140188" lon="-8.103108"><ele>919.5</ele></trkpt>
    <trkpt lat="31.140450" lon="-8.102752"><ele>919.8</ele></trkpt>
    <trkpt lat="31.140786" lon="-8.102436"><ele>927.2</ele></trkpt>
    <trkpt lat="31.141180" lon="-8.101698"><ele>929.8</ele></trkpt>
    <trkpt lat="31.141363" lon="-8.101285"><ele>929.8</ele></trkpt>
    <trkpt lat="31.141753" lon="-8.099316"><ele>927.8</ele></trkpt>
    <trkpt lat="31.141776" lon="-8.098176"><ele>927.2</ele></trkpt>
    <trkpt lat="31.141570" lon="-8.097661"><ele>926.8</ele></trkpt>
    <trkpt lat="31.141359" lon="-8.097637"><ele>923.5</ele></trkpt>
    <trkpt lat="31.140253" lon="-8.096500"><ele>923.5</ele></trkpt>
    <trkpt lat="31.139452" lon="-8.096947"><ele>920.0</ele></trkpt>
    <trkpt lat="31.139095" lon="-8.097277"><ele>920.0</ele></trkpt>
    <trkpt lat="31.138015" lon="-8.098412"><ele>929.2</ele></trkpt>
    <trkpt lat="31.137789" lon="-8.098631"><ele>929.2</ele></trkpt>
    <trkpt lat="31.137464" lon="-8.098759"><ele>929.5</ele></trkpt>
    <trkpt lat="31.136997" lon="-8.098546"><ele>931.0</ele></trkpt>
    <trkpt lat="31.136687" lon="-8.097734"><ele>949.5</ele></trkpt>
    <trkpt lat="31.136477" lon="-8.097534"><ele>950.2</ele></trkpt>
    <trkpt lat="31.135733" lon="-8.097505"><ele>953.2</ele></trkpt>
    <trkpt lat="31.135619" lon="-8.097427"><ele>953.2</ele></trkpt>
    <trkpt lat="31.135204" lon="-8.096998"><ele>961.5</ele></trkpt>
    <trkpt lat="31.134876" lon="-8.096905"><ele>962.5</ele></trkpt>
    <trkpt lat="31.134319" lon="-8.096958"><ele>963.8</ele></trkpt>
    <trkpt lat="31.133589" lon="-8.097239"><ele>963.8</ele></trkpt>
    <trkpt lat="31.132105" lon="-8.097253"><ele>969.5</ele></trkpt>
    <trkpt lat="31.131040" lon="-8.098221"><ele>971.2</ele></trkpt>
    <trkpt lat="31.130464" lon="-8.098391"><ele>972.8</ele></trkpt>
    <trkpt lat="31.130276" lon="-8.098292"><ele>973.0</ele></trkpt>
    <trkpt lat="31.130168" lon="-8.098128"><ele>975.0</ele></trkpt>
    <trkpt lat="31.130113" lon="-8.097936"><ele>976.8</ele></trkpt>
    <trkpt lat="31.130145" lon="-8.096686"><ele>988.5</ele></trkpt>
    <trkpt lat="31.130089" lon="-8.096521"><ele>989.5</ele></trkpt>
    <trkpt lat="31.129869" lon="-8.096512"><ele>995.8</ele></trkpt>
    <trkpt lat="31.129517" lon="-8.097397"><ele>1001.0</ele></trkpt>
    <trkpt lat="31.129497" lon="-8.097555"><ele>1001.0</ele></trkpt>
    <trkpt lat="31.129494" lon="-8.098152"><ele>1001.2</ele></trkpt>
    <trkpt lat="31.129735" lon="-8.098825"><ele>1001.0</ele></trkpt>
    <trkpt lat="31.129799" lon="-8.098938"><ele>1000.0</ele></trkpt>
    <trkpt lat="31.129895" lon="-8.099081"><ele>997.5</ele></trkpt>
    <trkpt lat="31.130384" lon="-8.099424"><ele>993.2</ele></trkpt>
    <trkpt lat="31.131606" lon="-8.099714"><ele>973.8</ele></trkpt>
    <trkpt lat="31.131855" lon="-8.100002"><ele>971.2</ele></trkpt>
    <trkpt lat="31.131882" lon="-8.100149"><ele>971.2</ele></trkpt>
    <trkpt lat="31.131821" lon="-8.100415"><ele>971.2</ele></trkpt>
    <trkpt lat="31.131723" lon="-8.100520"><ele>971.2</ele></trkpt>
    <trkpt lat="31.130878" lon="-8.101233"><ele>979.8</ele></trkpt>
    <trkpt lat="31.130448" lon="-8.101752"><ele>988.2</ele></trkpt>
    <trkpt lat="31.130231" lon="-8.102075"><ele>988.2</ele></trkpt>
    <trkpt lat="31.129684" lon="-8.103467"><ele>1001.5</ele></trkpt>
    <trkpt lat="31.129694" lon="-8.103679"><ele>1001.5</ele></trkpt>
    <trkpt lat="31.130041" lon="-8.105097"><ele>991.8</ele></trkpt>
    <trkpt lat="31.130405" lon="-8.105967"><ele>987.8</ele></trkpt>
    <trkpt lat="31.130698" lon="-8.106692"><ele>986.2</ele></trkpt>
    <trkpt lat="31.130559" lon="-8.106883"><ele>987.0</ele></trkpt>
    <trkpt lat="31.130271" lon="-8.106953"><ele>987.0</ele></trkpt>
    <trkpt lat="31.128564" lon="-8.106949"><ele>991.8</ele></trkpt>
    <trkpt lat="31.127630" lon="-8.107560"><ele>985.8</ele></trkpt>
    <trkpt lat="31.126752" lon="-8.108443"><ele>984.8</ele></trkpt>
    <trkpt lat="31.126474" lon="-8.109210"><ele>981.2</ele></trkpt>
    <trkpt lat="31.126313" lon="-8.110230"><ele>980.2</ele></trkpt>
    <trkpt lat="31.126559" lon="-8.112402"><ele>969.8</ele></trkpt>
    <trkpt lat="31.126568" lon="-8.113402"><ele>964.0</ele></trkpt>
    <trkpt lat="31.126543" lon="-8.113667"><ele>964.0</ele></trkpt>
    <trkpt lat="31.126177" lon="-8.114727"><ele>966.0</ele></trkpt>
    <trkpt lat="31.125042" lon="-8.116854"><ele>972.0</ele></trkpt>
    <trkpt lat="31.124478" lon="-8.118897"><ele>972.2</ele></trkpt>
    <trkpt lat="31.124455" lon="-8.119247"><ele>972.2</ele></trkpt>
    <trkpt lat="31.124498" lon="-8.120189"><ele>967.2</ele></trkpt>
    <trkpt lat="31.124372" lon="-8.120640"><ele>965.0</ele></trkpt>
    <trkpt lat="31.124198" lon="-8.120870"><ele>963.0</ele></trkpt>
    <trkpt lat="31.124107" lon="-8.120926"><ele>963.0</ele></trkpt>
    <trkpt lat="31.123301" lon="-8.121007"><ele>963.0</ele></trkpt>
    <trkpt lat="31.120743" lon="-8.120601"><ele>958.5</ele></trkpt>
    <trkpt lat="31.120551" lon="-8.120933"><ele>958.2</ele></trkpt>
    <trkpt lat="31.119915" lon="-8.121005"><ele>956.5</ele></trkpt>
    <trkpt lat="31.119813" lon="-8.121471"><ele>954.2</ele></trkpt>
    <trkpt lat="31.119046" lon="-8.121921"><ele>952.8</ele></trkpt>
    <trkpt lat="31.118577" lon="-8.122414"><ele>952.8</ele></trkpt>
    <trkpt lat="31.118320" lon="-8.122877"><ele>952.8</ele></trkpt>
    <trkpt lat="31.118135" lon="-8.123181"><ele>954.5</ele></trkpt>
    <trkpt lat="31.118092" lon="-8.123608"><ele>955.8</ele></trkpt>
    <trkpt lat="31.117766" lon="-8.124108"><ele>959.8</ele></trkpt>
    <trkpt lat="31.118103" lon="-8.124918"><ele>962.8</ele></trkpt>
    <trkpt lat="31.118115" lon="-8.125288"><ele>966.8</ele></trkpt>
    <trkpt lat="31.117987" lon="-8.125447"><ele>970.0</ele></trkpt>
    <trkpt lat="31.118208" lon="-8.126189"><ele>970.0</ele></trkpt>
    <trkpt lat="31.118260" lon="-8.127029"><ele>970.2</ele></trkpt>
    <trkpt lat="31.118054" lon="-8.127690"><ele>971.2</ele></trkpt>
    <trkpt lat="31.117436" lon="-8.128606"><ele>971.5</ele></trkpt>
    <trkpt lat="31.117011" lon="-8.128982"><ele>973.2</ele></trkpt>
    <trkpt lat="31.116115" lon="-8.128987"><ele>983.2</ele></trkpt>
    <trkpt lat="31.115853" lon="-8.129049"><ele>983.2</ele></trkpt>
    <trkpt lat="31.114856" lon="-8.130156"><ele>984.2</ele></trkpt>
    <trkpt lat="31.114165" lon="-8.130639"><ele>984.2</ele></trkpt>
    <trkpt lat="31.113460" lon="-8.130915"><ele>984.0</ele></trkpt>
    <trkpt lat="31.112452" lon="-8.131820"><ele>980.8</ele></trkpt>
    <trkpt lat="31.112134" lon="-8.131959"><ele>980.8</ele></trkpt>
    <trkpt lat="31.111270" lon="-8.131931"><ele>984.5</ele></trkpt>
    <trkpt lat="31.107980" lon="-8.133938"><ele>996.2</ele></trkpt>
    <trkpt lat="31.106682" lon="-8.134720"><ele>995.2</ele></trkpt>
    <trkpt lat="31.105570" lon="-8.134790"><ele>997.0</ele></trkpt>
    <trkpt lat="31.103462" lon="-8.134687"><ele>1010.2</ele></trkpt>
    <trkpt lat="31.102948" lon="-8.134720"><ele>1010.2</ele></trkpt>
    <trkpt lat="31.100498" lon="-8.135912"><ele>1008.2</ele></trkpt>
    <trkpt lat="31.099963" lon="-8.136318"><ele>1012.5</ele></trkpt>
    <trkpt lat="31.098664" lon="-8.136589"><ele>1016.8</ele></trkpt>
    <trkpt lat="31.097134" lon="-8.137452"><ele>1012.8</ele></trkpt>
    <trkpt lat="31.096987" lon="-8.137381"><ele>1012.8</ele></trkpt>
    <trkpt lat="31.095757" lon="-8.135996"><ele>1029.5</ele></trkpt>
    <trkpt lat="31.095365" lon="-8.135352"><ele>1032.5</ele></trkpt>
    <trkpt lat="31.095278" lon="-8.134885"><ele>1042.5</ele></trkpt>
    <trkpt lat="31.095256" lon="-8.134779"><ele>1044.0</ele></trkpt>
    <trkpt lat="31.094768" lon="-8.133866"><ele>1044.5</ele></trkpt>
    <trkpt lat="31.094548" lon="-8.133056"><ele>1058.5</ele></trkpt>
    <trkpt lat="31.094339" lon="-8.132389"><ele>1062.0</ele></trkpt>
    <trkpt lat="31.093293" lon="-8.132397"><ele>1059.0</ele></trkpt>
    <trkpt lat="31.092717" lon="-8.132199"><ele>1059.0</ele></trkpt>
    <trkpt lat="31.092214" lon="-8.131561"><ele>1071.8</ele></trkpt>
    <trkpt lat="31.091638" lon="-8.131013"><ele>1077.2</ele></trkpt>
    <trkpt lat="31.091353" lon="-8.130494"><ele>1091.5</ele></trkpt>
    <trkpt lat="31.090593" lon="-8.130335"><ele>1092.5</ele></trkpt>
    <trkpt lat="31.090247" lon="-8.130653"><ele>1092.8</ele></trkpt>
    <trkpt lat="31.088810" lon="-8.131457"><ele>1090.0</ele></trkpt>
    <trkpt lat="31.087573" lon="-8.132252"><ele>1098.5</ele></trkpt>
    <trkpt lat="31.087405" lon="-8.132126"><ele>1100.0</ele></trkpt>
    <trkpt lat="31.087448" lon="-8.131840"><ele>1101.8</ele></trkpt>
    <trkpt lat="31.087701" lon="-8.131210"><ele>1103.5</ele></trkpt>
    <trkpt lat="31.088127" lon="-8.130512"><ele>1118.8</ele></trkpt>
    <trkpt lat="31.088113" lon="-8.130279"><ele>1118.8</ele></trkpt>
    <trkpt lat="31.087911" lon="-8.130276"><ele>1117.8</ele></trkpt>
    <trkpt lat="31.087679" lon="-8.130568"><ele>1108.0</ele></trkpt>
    <trkpt lat="31.087373" lon="-8.130663"><ele>1104.2</ele></trkpt>
    <trkpt lat="31.086705" lon="-8.131061"><ele>1099.5</ele></trkpt>
    <trkpt lat="31.086246" lon="-8.131755"><ele>1090.5</ele></trkpt>
    <trkpt lat="31.085552" lon="-8.132364"><ele>1082.0</ele></trkpt>
    <trkpt lat="31.085250" lon="-8.132918"><ele>1073.0</ele></trkpt>
    <trkpt lat="31.085172" lon="-8.132995"><ele>1072.2</ele></trkpt>
    <trkpt lat="31.084692" lon="-8.133191"><ele>1071.5</ele></trkpt>
    <trkpt lat="31.084500" lon="-8.133343"><ele>1069.5</ele></trkpt>
    <trkpt lat="31.083933" lon="-8.133879"><ele>1056.5</ele></trkpt>
    <trkpt lat="31.083715" lon="-8.134002"><ele>1050.5</ele></trkpt>
    <trkpt lat="31.083643" lon="-8.134011"><ele>1049.8</ele></trkpt>
    <trkpt lat="31.083200" lon="-8.133759"><ele>1049.5</ele></trkpt>
    <trkpt lat="31.083023" lon="-8.133486"><ele>1050.5</ele></trkpt>
    <trkpt lat="31.082995" lon="-8.133383"><ele>1051.8</ele></trkpt>
    <trkpt lat="31.082961" lon="-8.131515"><ele>1069.2</ele></trkpt>
    <trkpt lat="31.082774" lon="-8.130553"><ele>1069.8</ele></trkpt>
    <trkpt lat="31.082668" lon="-8.130381"><ele>1069.8</ele></trkpt>
    <trkpt lat="31.082246" lon="-8.130077"><ele>1069.0</ele></trkpt>
    <trkpt lat="31.081596" lon="-8.130023"><ele>1058.2</ele></trkpt>
    <trkpt lat="31.080469" lon="-8.130405"><ele>1052.5</ele></trkpt>
    <trkpt lat="31.079433" lon="-8.130578"><ele>1052.5</ele></trkpt>
    <trkpt lat="31.077645" lon="-8.130465"><ele>1048.8</ele></trkpt>
    <trkpt lat="31.077273" lon="-8.130667"><ele>1043.0</ele></trkpt>
    <trkpt lat="31.076946" lon="-8.130837"><ele>1043.0</ele></trkpt>
    <trkpt lat="31.075374" lon="-8.131299"><ele>1045.5</ele></trkpt>
    <trkpt lat="31.074967" lon="-8.131634"><ele>1045.5</ele></trkpt>
    <trkpt lat="31.074527" lon="-8.132351"><ele>1045.5</ele></trkpt>
    <trkpt lat="31.073759" lon="-8.134947"><ele>1044.2</ele></trkpt>
    <trkpt lat="31.073660" lon="-8.135312"><ele>1044.5</ele></trkpt>
    <trkpt lat="31.073028" lon="-8.136473"><ele>1048.8</ele></trkpt>
    <trkpt lat="31.072706" lon="-8.136910"><ele>1049.8</ele></trkpt>
    <trkpt lat="31.071873" lon="-8.137586"><ele>1050.0</ele></trkpt>
    <trkpt lat="31.071106" lon="-8.137865"><ele>1050.2</ele></trkpt>
    <trkpt lat="31.070610" lon="-8.137840"><ele>1050.0</ele></trkpt>
    <trkpt lat="31.070162" lon="-8.137385"><ele>1050.0</ele></trkpt>
    <trkpt lat="31.070010" lon="-8.136926"><ele>1050.2</ele></trkpt>
    <trkpt lat="31.069877" lon="-8.135786"><ele>1071.8</ele></trkpt>
    <trkpt lat="31.069748" lon="-8.135164"><ele>1071.8</ele></trkpt>
    <trkpt lat="31.069017" lon="-8.133665"><ele>1070.2</ele></trkpt>
    <trkpt lat="31.068611" lon="-8.133225"><ele>1069.5</ele></trkpt>
    <trkpt lat="31.067861" lon="-8.132669"><ele>1069.0</ele></trkpt>
    <trkpt lat="31.066780" lon="-8.132203"><ele>1069.2</ele></trkpt>
    <trkpt lat="31.066143" lon="-8.132163"><ele>1069.2</ele></trkpt>
    <trkpt lat="31.065659" lon="-8.132270"><ele>1071.0</ele></trkpt>
    <trkpt lat="31.064566" lon="-8.132875"><ele>1071.0</ele></trkpt>
    <trkpt lat="31.064116" lon="-8.133310"><ele>1071.2</ele></trkpt>
    <trkpt lat="31.063653" lon="-8.135083"><ele>1074.0</ele></trkpt>
    <trkpt lat="31.063474" lon="-8.136992"><ele>1076.5</ele></trkpt>
    <trkpt lat="31.063220" lon="-8.137500"><ele>1080.5</ele></trkpt>
    <trkpt lat="31.062402" lon="-8.138528"><ele>1080.5</ele></trkpt>
    <trkpt lat="31.062141" lon="-8.138721"><ele>1085.2</ele></trkpt>
    <trkpt lat="31.061750" lon="-8.138505"><ele>1086.5</ele></trkpt>
    <trkpt lat="31.060861" lon="-8.138077"><ele>1103.0</ele></trkpt>
    <trkpt lat="31.060604" lon="-8.137975"><ele>1105.8</ele></trkpt>
    <trkpt lat="31.060009" lon="-8.137895"><ele>1108.0</ele></trkpt>
    <trkpt lat="31.059731" lon="-8.137870"><ele>1108.0</ele></trkpt>
    <trkpt lat="31.058295" lon="-8.138096"><ele>1107.8</ele></trkpt>
    <trkpt lat="31.056922" lon="-8.138609"><ele>1105.8</ele></trkpt>
    <trkpt lat="31.056660" lon="-8.138546"><ele>1105.8</ele></trkpt>
    <trkpt lat="31.056424" lon="-8.138221"><ele>1106.2</ele></trkpt>
    <trkpt lat="31.056408" lon="-8.137917"><ele>1108.8</ele></trkpt>
    <trkpt lat="31.057110" lon="-8.136581"><ele>1122.5</ele></trkpt>
    <trkpt lat="31.057177" lon="-8.135781"><ele>1128.2</ele></trkpt>
    <trkpt lat="31.057101" lon="-8.135346"><ele>1128.2</ele></trkpt>
    <trkpt lat="31.054464" lon="-8.133168"><ele>1126.0</ele></trkpt>
    <trkpt lat="31.053814" lon="-8.132916"><ele>1126.2</ele></trkpt>
    <trkpt lat="31.052866" lon="-8.133008"><ele>1124.2</ele></trkpt>
    <trkpt lat="31.052116" lon="-8.133781"><ele>1109.2</ele></trkpt>
    <trkpt lat="31.051868" lon="-8.133928"><ele>1109.2</ele></trkpt>
    <trkpt lat="31.051624" lon="-8.133903"><ele>1109.2</ele></trkpt>
    <trkpt lat="31.049832" lon="-8.133365"><ele>1121.8</ele></trkpt>
    <trkpt lat="31.049601" lon="-8.133323"><ele>1122.2</ele></trkpt>
    <trkpt lat="31.048911" lon="-8.133283"><ele>1122.8</ele></trkpt>
    <trkpt lat="31.048571" lon="-8.133412"><ele>1122.8</ele></trkpt>
    <trkpt lat="31.048338" lon="-8.133618"><ele>1122.8</ele></trkpt>
    <trkpt lat="31.048075" lon="-8.134303"><ele>1112.8</ele></trkpt>
    <trkpt lat="31.047882" lon="-8.134703"><ele>1112.5</ele></trkpt>
    <trkpt lat="31.047510" lon="-8.135035"><ele>1111.0</ele></trkpt>
    <trkpt lat="31.046466" lon="-8.136470"><ele>1105.8</ele></trkpt>
    <trkpt lat="31.045024" lon="-8.137514"><ele>1098.2</ele></trkpt>
    <trkpt lat="31.044662" lon="-8.137598"><ele>1094.8</ele></trkpt>
    <trkpt lat="31.044239" lon="-8.137480"><ele>1094.5</ele></trkpt>
    <trkpt lat="31.044004" lon="-8.137249"><ele>1094.5</ele></trkpt>
    <trkpt lat="31.043949" lon="-8.137158"><ele>1094.8</ele></trkpt>
    <trkpt lat="31.043512" lon="-8.135915"><ele>1097.0</ele></trkpt>
    <trkpt lat="31.043083" lon="-8.134629"><ele>1110.8</ele></trkpt>
    <trkpt lat="31.042806" lon="-8.134135"><ele>1112.0</ele></trkpt>
    <trkpt lat="31.042631" lon="-8.133933"><ele>1112.2</ele></trkpt>
    <trkpt lat="31.042185" lon="-8.133634"><ele>1112.5</ele></trkpt>
    <trkpt lat="31.040631" lon="-8.133558"><ele>1114.2</ele></trkpt>
    <trkpt lat="31.040301" lon="-8.133648"><ele>1115.8</ele></trkpt>
    <trkpt lat="31.039824" lon="-8.134006"><ele>1115.5</ele></trkpt>
    <trkpt lat="31.039338" lon="-8.134636"><ele>1115.5</ele></trkpt>
    <trkpt lat="31.039039" lon="-8.135606"><ele>1116.2</ele></trkpt>
    <trkpt lat="31.038947" lon="-8.136871"><ele>1116.2</ele></trkpt>
    <trkpt lat="31.038717" lon="-8.137977"><ele>1115.8</ele></trkpt>
    <trkpt lat="31.037741" lon="-8.139449"><ele>1120.2</ele></trkpt>
    <trkpt lat="31.037550" lon="-8.140132"><ele>1122.0</ele></trkpt>
    <trkpt lat="31.037149" lon="-8.140922"><ele>1123.5</ele></trkpt>
    <trkpt lat="31.035590" lon="-8.141975"><ele>1122.0</ele></trkpt>
    <trkpt lat="31.035392" lon="-8.141712"><ele>1122.0</ele></trkpt>
    <trkpt lat="31.035572" lon="-8.140738"><ele>1135.8</ele></trkpt>
    <trkpt lat="31.035576" lon="-8.140375"><ele>1141.0</ele></trkpt>
    <trkpt lat="31.035533" lon="-8.139954"><ele>1144.8</ele></trkpt>
    <trkpt lat="31.034924" lon="-8.138214"><ele>1149.5</ele></trkpt>
    <trkpt lat="31.034338" lon="-8.137153"><ele>1152.8</ele></trkpt>
    <trkpt lat="31.034254" lon="-8.137085"><ele>1152.8</ele></trkpt>
    <trkpt lat="31.033764" lon="-8.136871"><ele>1151.5</ele></trkpt>
    <trkpt lat="31.033416" lon="-8.136892"><ele>1148.5</ele></trkpt>
    <trkpt lat="31.033126" lon="-8.137510"><ele>1139.8</ele></trkpt>
    <trkpt lat="31.032669" lon="-8.138076"><ele>1132.5</ele></trkpt>
    <trkpt lat="31.032557" lon="-8.138105"><ele>1132.5</ele></trkpt>
    <trkpt lat="31.032047" lon="-8.137964"><ele>1133.2</ele></trkpt>
    <trkpt lat="31.031680" lon="-8.137654"><ele>1138.8</ele></trkpt>
    <trkpt lat="31.031094" lon="-8.137317"><ele>1138.8</ele></trkpt>
    <trkpt lat="31.030521" lon="-8.137265"><ele>1136.2</ele></trkpt>
    <trkpt lat="31.029599" lon="-8.136821"><ele>1134.2</ele></trkpt>
    <trkpt lat="31.028747" lon="-8.136587"><ele>1134.2</ele></trkpt>
    <trkpt lat="31.028130" lon="-8.136130"><ele>1134.2</ele></trkpt>
    <trkpt lat="31.027863" lon="-8.135949"><ele>1136.2</ele></trkpt>
    <trkpt lat="31.026496" lon="-8.135781"><ele>1136.2</ele></trkpt>
    <trkpt lat="31.025088" lon="-8.135799"><ele>1139.5</ele></trkpt>
    <trkpt lat="31.023383" lon="-8.136755"><ele>1142.0</ele></trkpt>
    <trkpt lat="31.022339" lon="-8.137998"><ele>1142.5</ele></trkpt>
    <trkpt lat="31.021469" lon="-8.139454"><ele>1146.2</ele></trkpt>
    <trkpt lat="31.020810" lon="-8.140263"><ele>1148.8</ele></trkpt>
    <trkpt lat="31.020739" lon="-8.140394"><ele>1148.8</ele></trkpt>
    <trkpt lat="31.019946" lon="-8.142963"><ele>1143.8</ele></trkpt>
    <trkpt lat="31.019050" lon="-8.143525"><ele>1143.8</ele></trkpt>
    <trkpt lat="31.018345" lon="-8.143589"><ele>1144.0</ele></trkpt>
    <trkpt lat="31.017240" lon="-8.143701"><ele>1154.0</ele></trkpt>
    <trkpt lat="31.016825" lon="-8.143852"><ele>1155.8</ele></trkpt>
    <trkpt lat="31.016431" lon="-8.144224"><ele>1156.8</ele></trkpt>
    <trkpt lat="31.015544" lon="-8.145642"><ele>1156.2</ele></trkpt>
    <trkpt lat="31.015353" lon="-8.145777"><ele>1156.2</ele></trkpt>
    <trkpt lat="31.014001" lon="-8.146685"><ele>1165.8</ele></trkpt>
    <trkpt lat="31.013914" lon="-8.146850"><ele>1168.2</ele></trkpt>
    <trkpt lat="31.013450" lon="-8.147960"><ele>1167.2</ele></trkpt>
    <trkpt lat="31.012622" lon="-8.151106"><ele>1169.8</ele></trkpt>
    <trkpt lat="31.012571" lon="-8.153261"><ele>1173.0</ele></trkpt>
    <trkpt lat="31.012803" lon="-8.154253"><ele>1173.8</ele></trkpt>
    <trkpt lat="31.012696" lon="-8.154664"><ele>1173.8</ele></trkpt>
    <trkpt lat="31.012307" lon="-8.155266"><ele>1173.2</ele></trkpt>
    <trkpt lat="31.011968" lon="-8.155175"><ele>1173.2</ele></trkpt>
    <trkpt lat="31.011148" lon="-8.154780"><ele>1181.0</ele></trkpt>
    <trkpt lat="31.010835" lon="-8.154693"><ele>1183.8</ele></trkpt>
    <trkpt lat="31.009938" lon="-8.154491"><ele>1184.8</ele></trkpt>
    <trkpt lat="31.009250" lon="-8.153888"><ele>1189.0</ele></trkpt>
    <trkpt lat="31.007060" lon="-8.152755"><ele>1192.5</ele></trkpt>
    <trkpt lat="31.006210" lon="-8.152741"><ele>1195.0</ele></trkpt>
    <trkpt lat="31.005575" lon="-8.152696"><ele>1193.0</ele></trkpt>
    <trkpt lat="31.005117" lon="-8.152967"><ele>1190.8</ele></trkpt>
    <trkpt lat="31.004104" lon="-8.153233"><ele>1190.2</ele></trkpt>
    <trkpt lat="31.003644" lon="-8.153716"><ele>1189.8</ele></trkpt>
    <trkpt lat="31.003300" lon="-8.153887"><ele>1188.2</ele></trkpt>
    <trkpt lat="31.002570" lon="-8.154827"><ele>1186.8</ele></trkpt>
    <trkpt lat="31.002375" lon="-8.155502"><ele>1175.8</ele></trkpt>
    <trkpt lat="31.002268" lon="-8.155839"><ele>1175.8</ele></trkpt>
    <trkpt lat="31.002097" lon="-8.155859"><ele>1175.8</ele></trkpt>
    <trkpt lat="31.001617" lon="-8.155405"><ele>1185.5</ele></trkpt>
    <trkpt lat="31.001172" lon="-8.155278"><ele>1185.5</ele></trkpt>
    <trkpt lat="31.000664" lon="-8.155628"><ele>1185.2</ele></trkpt>
    <trkpt lat="30.999929" lon="-8.156431"><ele>1178.8</ele></trkpt>
    <trkpt lat="30.998735" lon="-8.157040"><ele>1177.8</ele></trkpt>
    <trkpt lat="30.998493" lon="-8.157166"><ele>1178.5</ele></trkpt>
    <trkpt lat="30.997294" lon="-8.156777"><ele>1179.2</ele></trkpt>
    <trkpt lat="30.996242" lon="-8.155833"><ele>1182.8</ele></trkpt>
    <trkpt lat="30.995523" lon="-8.155551"><ele>1184.0</ele></trkpt>
    <trkpt lat="30.995194" lon="-8.155380"><ele>1185.8</ele></trkpt>
    <trkpt lat="30.995119" lon="-8.155052"><ele>1190.0</ele></trkpt>
    <trkpt lat="30.994609" lon="-8.154560"><ele>1194.8</ele></trkpt>
    <trkpt lat="30.994370" lon="-8.154042"><ele>1201.0</ele></trkpt>
    <trkpt lat="30.994365" lon="-8.153699"><ele>1205.2</ele></trkpt>
    <trkpt lat="30.994017" lon="-8.152894"><ele>1214.2</ele></trkpt>
    <trkpt lat="30.993837" lon="-8.152644"><ele>1217.2</ele></trkpt>
    <trkpt lat="30.993477" lon="-8.152775"><ele>1217.2</ele></trkpt>
    <trkpt lat="30.993332" lon="-8.153116"><ele>1217.2</ele></trkpt>
    </trkseg>
  </trk>
</gpx>
