<?xml version="1.0" encoding="UTF-8"?>
<gpx version="1.1" creator="tripplanner (routed with BRouter, gravel profile)" xmlns="http://www.topografix.com/GPX/1/1">
  <metadata>
    <name>Toubkal to Telouet — Day 3: Amizmiz → Asni</name>
    <desc>40 km, 985 m, ~8% paved. Routed with BRouter (gravel profile) over OSM ways — a plan, not a ridden track.</desc>
  </metadata>
  <trk>
    <name>Toubkal to Telouet — Day 3: Amizmiz → Asni</name>
    <trkseg>
    <trkpt lat="31.217241" lon="-8.233143"><ele>971.8</ele></trkpt>
    <trkpt lat="31.217331" lon="-8.233271"><ele>972.0</ele></trkpt>
    <trkpt lat="31.217612" lon="-8.233126"><ele>972.8</ele></trkpt>
    <trkpt lat="31.217962" lon="-8.233155"><ele>974.8</ele></trkpt>
    <trkpt lat="31.218191" lon="-8.233539"><ele>976.8</ele></trkpt>
    <trkpt lat="31.218541" lon="-8.233530"><ele>978.5</ele></trkpt>
    <trkpt lat="31.218612" lon="-8.233639"><ele>978.5</ele></trkpt>
    <trkpt lat="31.218986" lon="-8.233629"><ele>978.5</ele></trkpt>
    <trkpt lat="31.220110" lon="-8.233526"><ele>974.8</ele></trkpt>
    <trkpt lat="31.219984" lon="-8.232355"><ele>974.0</ele></trkpt>
    <trkpt lat="31.219931" lon="-8.232145"><ele>973.0</ele></trkpt>
    <trkpt lat="31.220692" lon="-8.231052"><ele>961.0</ele></trkpt>
    <trkpt lat="31.221085" lon="-8.230854"><ele>958.5</ele></trkpt>
    <trkpt lat="31.221475" lon="-8.230406"><ele>958.5</ele></trkpt>
    <trkpt lat="31.222016" lon="-8.229339"><ele>963.0</ele></trkpt>
    <trkpt lat="31.222140" lon="-8.228009"><ele>962.5</ele></trkpt>
    <trkpt lat="31.222350" lon="-8.227495"><ele>959.8</ele></trkpt>
    <trkpt lat="31.222363" lon="-8.227058"><ele>956.5</ele></trkpt>
    <trkpt lat="31.222104" lon="-8.225719"><ele>956.5</ele></trkpt>
    <trkpt lat="31.221975" lon="-8.223855"><ele>962.8</ele></trkpt>
    <trkpt lat="31.221493" lon="-8.222035"><ele>957.8</ele></trkpt>
    <trkpt lat="31.221536" lon="-8.219822"><ele>957.0</ele></trkpt>
    <trkpt lat="31.221848" lon="-8.217778"><ele>956.8</ele></trkpt>
    <trkpt lat="31.221940" lon="-8.215185"><ele>962.5</ele></trkpt>
    <trkpt lat="31.222573" lon="-8.213117"><ele>959.5</ele></trkpt>
    <trkpt lat="31.222752" lon="-8.212025"><ele>959.0</ele></trkpt>
    <trkpt lat="31.223280" lon="-8.211099"><ele>958.2</ele></trkpt>
    <trkpt lat="31.223156" lon="-8.210236"><ele>958.2</ele></trkpt>
    <trkpt lat="31.223250" lon="-8.210047"><ele>957.8</ele></trkpt>
    <trkpt lat="31.225185" lon="-8.207315"><ele>946.0</ele></trkpt>
    <trkpt lat="31.226094" lon="-8.206458"><ele>939.2</ele></trkpt>
    <trkpt lat="31.226408" lon="-8.205970"><ele>939.2</ele></trkpt>
    <trkpt lat="31.230005" lon="-8.206017"><ele>935.5</ele></trkpt>
    <trkpt lat="31.232507" lon="-8.205285"><ele>928.8</ele></trkpt>
    <trkpt lat="31.232755" lon="-8.205011"><ele>926.5</ele></trkpt>
    <trkpt lat="31.232464" lon="-8.204495"><ele>924.8</ele></trkpt>
    <trkpt lat="31.232711" lon="-8.203838"><ele>920.8</ele></trkpt>
    <trkpt lat="31.234108" lon="-8.202791"><ele>918.0</ele></trkpt>
    <trkpt lat="31.236862" lon="-8.201109"><ele>913.5</ele></trkpt>
    <trkpt lat="31.238371" lon="-8.200489"><ele>906.5</ele></trkpt>
    <trkpt lat="31.239761" lon="-8.200398"><ele>895.8</ele></trkpt>
    <trkpt lat="31.239935" lon="-8.200395"><ele>895.0</ele></trkpt>
    <trkpt lat="31.241162" lon="-8.199875"><ele>892.0</ele></trkpt>
    <trkpt lat="31.241719" lon="-8.199820"><ele>889.0</ele></trkpt>
    <trkpt lat="31.241858" lon="-8.199848"><ele>887.5</ele></trkpt>
    <trkpt lat="31.242258" lon="-8.200065"><ele>882.2</ele></trkpt>
    <trkpt lat="31.242646" lon="-8.199988"><ele>878.8</ele></trkpt>
    <trkpt lat="31.244923" lon="-8.199041"><ele>855.5</ele></trkpt>
    <trkpt lat="31.245203" lon="-8.198872"><ele>853.0</ele></trkpt>
    <trkpt lat="31.245787" lon="-8.198217"><ele>850.0</ele></trkpt>
    <trkpt lat="31.246379" lon="-8.198086"><ele>846.0</ele></trkpt>
    <trkpt lat="31.246890" lon="-8.198327"><ele>844.0</ele></trkpt>
    <trkpt lat="31.246611" lon="-8.197997"><ele>844.0</ele></trkpt>
    <trkpt lat="31.246368" lon="-8.197287"><ele>844.0</ele></trkpt>
    <trkpt lat="31.246429" lon="-8.197254"><ele>843.5</ele></trkpt>
    <trkpt lat="31.247234" lon="-8.197161"><ele>843.8</ele></trkpt>
    <trkpt lat="31.247356" lon="-8.196251"><ele>856.0</ele></trkpt>
    <trkpt lat="31.247154" lon="-8.196047"><ele>858.2</ele></trkpt>
    <trkpt lat="31.247333" lon="-8.195852"><ele>862.5</ele></trkpt>
    <trkpt lat="31.248087" lon="-8.195897"><ele>867.0</ele></trkpt>
    <trkpt lat="31.247809" lon="-8.195685"><ele>868.2</ele></trkpt>
    <trkpt lat="31.247383" lon="-8.195195"><ele>875.5</ele></trkpt>
    <trkpt lat="31.245838" lon="-8.194283"><ele>881.5</ele></trkpt>
    <trkpt lat="31.244313" lon="-8.193966"><ele>886.5</ele></trkpt>
    <trkpt lat="31.243120" lon="-8.193325"><ele>894.0</ele></trkpt>
    <trkpt lat="31.242504" lon="-8.192512"><ele>902.8</ele></trkpt>
    <trkpt lat="31.242183" lon="-8.192190"><ele>904.2</ele></trkpt>
    <trkpt lat="31.241714" lon="-8.191874"><ele>905.2</ele></trkpt>
    <trkpt lat="31.241148" lon="-8.192039"><ele>905.5</ele></trkpt>
    <trkpt lat="31.240641" lon="-8.191941"><ele>907.5</ele></trkpt>
    <trkpt lat="31.238323" lon="-8.190363"><ele>916.8</ele></trkpt>
    <trkpt lat="31.237981" lon="-8.190184"><ele>919.0</ele></trkpt>
    <trkpt lat="31.237263" lon="-8.190080"><ele>920.2</ele></trkpt>
    <trkpt lat="31.235330" lon="-8.188402"><ele>932.2</ele></trkpt>
    <trkpt lat="31.234642" lon="-8.187565"><ele>940.2</ele></trkpt>
    <trkpt lat="31.234319" lon="-8.186783"><ele>945.5</ele></trkpt>
    <trkpt lat="31.233950" lon="-8.185789"><ele>946.2</ele></trkpt>
    <trkpt lat="31.233829" lon="-8.185799"><ele>947.2</ele></trkpt>
    <trkpt lat="31.231479" lon="-8.185705"><ele>958.0</ele></trkpt>
    <trkpt lat="31.230077" lon="-8.184503"><ele>963.5</ele></trkpt>
    <trkpt lat="31.229372" lon="-8.183925"><ele>965.8</ele></trkpt>
    <trkpt lat="31.228383" lon="-8.182610"><ele>970.2</ele></trkpt>
    <trkpt lat="31.227600" lon="-8.182016"><ele>972.0</ele></trkpt>
    <trkpt lat="31.227161" lon="-8.180323"><ele>975.2</ele></trkpt>
    <trkpt lat="31.226636" lon="-8.179221"><ele>976.2</ele></trkpt>
    <trkpt lat="31.226614" lon="-8.179108"><ele>976.2</ele></trkpt>
    <trkpt lat="31.226401" lon="-8.178093"><ele>961.0</ele></trkpt>
    <trkpt lat="31.226656" lon="-8.177599"><ele>952.0</ele></trkpt>
    <trkpt lat="31.226806" lon="-8.176624"><ele>931.5</ele></trkpt>
    <trkpt lat="31.226861" lon="-8.176390"><ele>928.0</ele></trkpt>
    <trkpt lat="31.226878" lon="-8.176026"><ele>921.2</ele></trkpt>
    <trkpt lat="31.226706" lon="-8.175631"><ele>920.5</ele></trkpt>
    <trkpt lat="31.226727" lon="-8.175543"><ele>920.5</ele></trkpt>
    <trkpt lat="31.226809" lon="-8.175089"><ele>925.8</ele></trkpt>
    <trkpt lat="31.227298" lon="-8.174267"><ele>935.2</ele></trkpt>
    <trkpt lat="31.228223" lon="-8.173243"><ele>938.5</ele></trkpt>
    <trkpt lat="31.228275" lon="-8.173168"><ele>938.5</ele></trkpt>
    <trkpt lat="31.228211" lon="-8.172930"><ele>938.8</ele></trkpt>
    <trkpt lat="31.229651" lon="-8.172270"><ele>936.0</ele></trkpt>
    <trkpt lat="31.230109" lon="-8.172249"><ele>935.2</ele></trkpt>
    <trkpt lat="31.230184" lon="-8.172346"><ele>935.2</ele></trkpt>
    <trkpt lat="31.230837" lon="-8.172234"><ele>933.5</ele></trkpt>
    <trkpt lat="31.232045" lon="-8.171889"><ele>928.8</ele></trkpt>
    <trkpt lat="31.233401" lon="-8.171344"><ele>920.2</ele></trkpt>
    <trkpt lat="31.234175" lon="-8.170874"><ele>915.5</ele></trkpt>
    <trkpt lat="31.234945" lon="-8.170947"><ele>908.5</ele></trkpt>
    <trkpt lat="31.235604" lon="-8.170794"><ele>903.5</ele></trkpt>
    <trkpt lat="31.235920" lon="-8.170476"><ele>899.2</ele></trkpt>
    <trkpt lat="31.236316" lon="-8.169946"><ele>898.0</ele></trkpt>
    <trkpt lat="31.238805" lon="-8.168525"><ele>895.8</ele></trkpt>
    <trkpt lat="31.240362" lon="-8.167391"><ele>894.8</ele></trkpt>
    <trkpt lat="31.241258" lon="-8.166903"><ele>894.0</ele></trkpt>
    <trkpt lat="31.241946" lon="-8.166264"><ele>893.2</ele></trkpt>
    <trkpt lat="31.243010" lon="-8.165433"><ele>888.0</ele></trkpt>
    <trkpt lat="31.243802" lon="-8.165127"><ele>885.2</ele></trkpt>
    <trkpt lat="31.244448" lon="-8.164717"><ele>880.5</ele></trkpt>
    <trkpt lat="31.244780" lon="-8.164298"><ele>876.2</ele></trkpt>
    <trkpt lat="31.245299" lon="-8.164139"><ele>875.2</ele></trkpt>
    <trkpt lat="31.245550" lon="-8.163729"><ele>869.0</ele></trkpt>
    <trkpt lat="31.245856" lon="-8.163597"><ele>868.8</ele></trkpt>
    <trkpt lat="31.245943" lon="-8.163528"><ele>866.5</ele></trkpt>
    <trkpt lat="31.246286" lon="-8.162961"><ele>858.0</ele></trkpt>
    <trkpt lat="31.247019" lon="-8.162214"><ele>846.5</ele></trkpt>
    <trkpt lat="31.247218" lon="-8.161884"><ele>841.8</ele></trkpt>
    <trkpt lat="31.247363" lon="-8.161612"><ele>838.8</ele></trkpt>
    <trkpt lat="31.247461" lon="-8.161169"><ele>835.5</ele></trkpt>
    <trkpt lat="31.248189" lon="-8.160432"><ele>820.2</ele></trkpt>
    <trkpt lat="31.248256" lon="-8.160084"><ele>816.8</ele></trkpt>
    <trkpt lat="31.248629" lon="-8.160014"><ele>814.2</ele></trkpt>
    <trkpt lat="31.248677" lon="-8.160015"><ele>814.2</ele></trkpt>
    <trkpt lat="31.248873" lon="-8.160147"><ele>814.2</ele></trkpt>
    <trkpt lat="31.248904" lon="-8.160254"><ele>815.0</ele></trkpt>
    <trkpt lat="31.248609" lon="-8.160665"><ele>819.5</ele></trkpt>
    <trkpt lat="31.248994" lon="-8.160687"><ele>820.0</ele></trkpt>
    <trkpt lat="31.249242" lon="-8.161145"><ele>826.2</ele></trkpt>
    <trkpt lat="31.249292" lon="-8.161161"><ele>826.2</ele></trkpt>
    <trkpt lat="31.249890" lon="-8.159982"><ele>823.5</ele></trkpt>
    <trkpt lat="31.250262" lon="-8.160086"><ele>823.5</ele></trkpt>
    <trkpt lat="31.251052" lon="-8.159425"><ele>820.8</ele></trkpt>
    <trkpt lat="31.252093" lon="-8.159245"><ele>819.2</ele></trkpt>
    <trkpt lat="31.252366" lon="-8.159100"><ele>819.0</ele></trkpt>
    <trkpt lat="31.253724" lon="-8.158459"><ele>809.0</ele></trkpt>
    <trkpt lat="31.254111" lon="-8.158261"><ele>807.5</ele></trkpt>
    <trkpt lat="31.254515" lon="-8.158258"><ele>801.0</ele></trkpt>
    <trkpt lat="31.255568" lon="-8.157799"><ele>792.5</ele></trkpt>
    <trkpt lat="31.256512" lon="-8.156767"><ele>782.8</ele></trkpt>
    <trkpt lat="31.256640" lon="-8.155726"><ele>777.5</ele></trkpt>
    <trkpt lat="31.257653" lon="-8.153701"><ele>757.5</ele></trkpt>
    <trkpt lat="31.258569" lon="-8.153468"><ele>755.5</ele></trkpt>
    <trkpt lat="31.259296" lon="-8.152254"><ele>755.5</ele></trkpt>
    <trkpt lat="31.260396" lon="-8.151134"><ele>756.2</ele></trkpt>
    <trkpt lat="31.261013" lon="-8.150152"><ele>756.2</ele></trkpt>
    <trkpt lat="31.261247" lon="-8.149594"><ele>756.2</ele></trkpt>
    <trkpt lat="31.261712" lon="-8.148275"><ele>751.5</ele></trkpt>
    <trkpt lat="31.261960" lon="-8.147093"><ele>741.5</ele></trkpt>
    <trkpt lat="31.262203" lon="-8.146486"><ele>738.2</ele></trkpt>
    <trkpt lat="31.262528" lon="-8.145981"><ele>731.8</ele></trkpt>
    <trkpt lat="31.262739" lon="-8.145660"><ele>729.2</ele></trkpt>
    <trkpt lat="31.263195" lon="-8.145206"><ele>728.2</ele></trkpt>
    <trkpt lat="31.263253" lon="-8.145067"><ele>726.8</ele></trkpt>
    <trkpt lat="31.263863" lon="-8.142988"><ele>713.0</ele></trkpt>
    <trkpt lat="31.263922" lon="-8.142816"><ele>711.5</ele></trkpt>
    <trkpt lat="31.264438" lon="-8.141989"><ele>701.5</ele></trkpt>
    <trkpt lat="31.264525" lon="-8.141697"><ele>698.8</ele></trkpt>
    <trkpt lat="31.264515" lon="-8.141547"><ele>698.8</ele></trkpt>
    <trkpt lat="31.263906" lon="-8.141343"><ele>704.0</ele></trkpt>
    <trkpt lat="31.263870" lon="-8.141060"><ele>704.2</ele></trkpt>
    <trkpt lat="31.263990" lon="-8.140884"><ele>704.2</ele></trkpt>
    <trkpt lat="31.264417" lon="-8.140476"><ele>700.8</ele></trkpt>
    <trkpt lat="31.264785" lon="-8.138739"><ele>695.5</ele></trkpt>
    <trkpt lat="31.265675" lon="-8.137237"><ele>694.2</ele></trkpt>
    <trkpt lat="31.266501" lon="-8.137470"><ele>689.8</ele></trkpt>
    <trkpt lat="31.267249" lon="-8.138053"><ele>689.8</ele></trkpt>
    <trkpt lat="31.267764" lon="-8.138338"><ele>691.8</ele></trkpt>
    <trkpt lat="31.268008" lon="-8.138275"><ele>692.8</ele></trkpt>
    <trkpt lat="31.268298" lon="-8.137927"><ele>694.2</ele></trkpt>
    <trkpt lat="31.269742" lon="-8.137840"><ele>700.5</ele></trkpt>
    <trkpt lat="31.269881" lon="-8.137666"><ele>701.2</ele></trkpt>
    <trkpt lat="31.270015" lon="-8.136916"><ele>704.0</ele></trkpt>
    <trkpt lat="31.272183" lon="-8.134664"><ele>708.8</ele></trkpt>
    <trkpt lat="31.273160" lon="-8.133080"><ele>712.8</ele></trkpt>
    <trkpt lat="31.272800" lon="-8.132898"><ele>713.5</ele></trkpt>
    <trkpt lat="31.271733" lon="-8.131235"><ele>720.8</ele></trkpt>
    <trkpt lat="31.268310" lon="-8.127311"><ele>736.5</ele></trkpt>
    <trkpt lat="31.267899" lon="-8.126604"><ele>741.5</ele></trkpt>
    <trkpt lat="31.266904" lon="-8.124853"><ele>741.5</ele></trkpt>
    <trkpt lat="31.266798" lon="-8.124158"><ele>741.2</ele></trkpt>
    <trkpt lat="31.266461" lon="-8.123249"><ele>743.2</ele></trkpt>
    <trkpt lat="31.266221" lon="-8.122926"><ele>744.5</ele></trkpt>
    <trkpt lat="31.266104" lon="-8.122845"><ele>744.5</ele></trkpt>
    <trkpt lat="31.265570" lon="-8.122747"><ele>741.8</ele></trkpt>
    <trkpt lat="31.265556" lon="-8.122957"><ele>739.2</ele></trkpt>
    <trkpt lat="31.265901" lon="-8.123217"><ele>735.0</ele></trkpt>
    <trkpt lat="31.266005" lon="-8.123466"><ele>734.0</ele></trkpt>
    <trkpt lat="31.265997" lon="-8.123511"><ele>733.8</ele></trkpt>
    <trkpt lat="31.265724" lon="-8.124177"><ele>733.8</ele></trkpt>
    <trkpt lat="31.265383" lon="-8.124547"><ele>736.2</ele></trkpt>
    <trkpt lat="31.265009" lon="-8.124296"><ele>740.5</ele></trkpt>
    <trkpt lat="31.265148" lon="-8.123537"><ele>738.8</ele></trkpt>
    <trkpt lat="31.265093" lon="-8.123268"><ele>739.2</ele></trkpt>
    <trkpt lat="31.265010" lon="-8.123203"><ele>740.0</ele></trkpt>
    <trkpt lat="31.264580" lon="-8.123081"><ele>743.2</ele></trkpt>
    <trkpt lat="31.262871" lon="-8.124314"><ele>756.0</ele></trkpt>
    <trkpt lat="31.262607" lon="-8.124419"><ele>757.5</ele></trkpt>
    <trkpt lat="31.260820" lon="-8.123985"><ele>762.5</ele></trkpt>
    <trkpt lat="31.261237" lon="-8.123468"><ele>767.8</ele></trkpt>
    <trkpt lat="31.261358" lon="-8.123241"><ele>769.5</ele></trkpt>
    <trkpt lat="31.261452" lon="-8.122558"><ele>773.8</ele></trkpt>
    <trkpt lat="31.261077" lon="-8.121758"><ele>777.5</ele></trkpt>
    <trkpt lat="31.260861" lon="-8.120913"><ele>778.8</ele></trkpt>
    <trkpt lat="31.260779" lon="-8.119867"><ele>782.5</ele></trkpt>
    <trkpt lat="31.260589" lon="-8.119496"><ele>783.8</ele></trkpt>
    <trkpt lat="31.261169" lon="-8.118526"><ele>790.0</ele></trkpt>
    <trkpt lat="31.261190" lon="-8.118124"><ele>791.5</ele></trkpt>
    <trkpt lat="31.261130" lon="-8.117993"><ele>792.5</ele></trkpt>
    <trkpt lat="31.259444" lon="-8.115165"><ele>814.5</ele></trkpt>
    <trkpt lat="31.259162" lon="-8.114239"><ele>827.8</ele></trkpt>
    <trkpt lat="31.259152" lon="-8.114187"><ele>828.5</ele></trkpt>
    <trkpt lat="31.259244" lon="-8.113630"><ele>830.5</ele></trkpt>
    <trkpt lat="31.258523" lon="-8.112256"><ele>839.0</ele></trkpt>
    <trkpt lat="31.258280" lon="-8.111549"><ele>842.8</ele></trkpt>
    <trkpt lat="31.257732" lon="-8.110064"><ele>843.5</ele></trkpt>
    <trkpt lat="31.257572" lon="-8.109200"><ele>847.0</ele></trkpt>
    <trkpt lat="31.256724" lon="-8.107309"><ele>853.2</ele></trkpt>
    <trkpt lat="31.256606" lon="-8.106797"><ele>853.2</ele></trkpt>
    <trkpt lat="31.256235" lon="-8.106060"><ele>853.8</ele></trkpt>
    <trkpt lat="31.255752" lon="-8.105361"><ele>862.0</ele></trkpt>
    <trkpt lat="31.255438" lon="-8.104037"><ele>863.8</ele></trkpt>
    <trkpt lat="31.255302" lon="-8.102625"><ele>869.0</ele></trkpt>
    <trkpt lat="31.254915" lon="-8.101356"><ele>880.5</ele></trkpt>
    <trkpt lat="31.254280" lon="-8.100444"><ele>889.8</ele></trkpt>
    <trkpt lat="31.254139" lon="-8.100034"><ele>893.8</ele></trkpt>
    <trkpt lat="31.253708" lon="-8.099538"><ele>897.5</ele></trkpt>
    <trkpt lat="31.253281" lon="-8.099550"><ele>901.8</ele></trkpt>
    <trkpt lat="31.253202" lon="-8.099504"><ele>902.2</ele></trkpt>
    <trkpt lat="31.252783" lon="-8.099135"><ele>908.5</ele></trkpt>
    <trkpt lat="31.250956" lon="-8.098459"><ele>923.5</ele></trkpt>
    <trkpt lat="31.250270" lon="-8.097547"><ele>936.5</ele></trkpt>
    <trkpt lat="31.249912" lon="-8.097228"><ele>940.8</ele></trkpt>
    <trkpt lat="31.250182" lon="-8.097097"><ele>946.0</ele></trkpt>
    <trkpt lat="31.250706" lon="-8.097256"><ele>946.8</ele></trkpt>
    <trkpt lat="31.251685" lon="-8.097128"><ele>952.0</ele></trkpt>
    <trkpt lat="31.251167" lon="-8.096751"><ele>959.5</ele></trkpt>
    <trkpt lat="31.251740" lon="-8.096535"><ele>965.8</ele></trkpt>
    <trkpt lat="31.251783" lon="-8.096405"><ele>968.2</ele></trkpt>
    <trkpt lat="31.251329" lon="-8.096303"><ele>970.0</ele></trkpt>
    <trkpt lat="31.251288" lon="-8.096215"><ele>971.5</ele></trkpt>
    <trkpt lat="31.251295" lon="-8.096174"><ele>972.5</ele></trkpt>
    <trkpt lat="31.252868" lon="-8.095314"><ele>983.0</ele></trkpt>
    <trkpt lat="31.253086" lon="-8.095025"><ele>986.5</ele></trkpt>
    <trkpt lat="31.251825" lon="-8.095010"><ele>998.8</ele></trkpt>
    <trkpt lat="31.251637" lon="-8.094951"><ele>1001.0</ele></trkpt>
    <trkpt lat="31.251455" lon="-8.094771"><ele>1004.8</ele></trkpt>
    <trkpt lat="31.252875" lon="-8.094113"><ele>1011.2</ele></trkpt>
    <trkpt lat="31.253158" lon="-8.093542"><ele>1014.2</ele></trkpt>
    <trkpt lat="31.252550" lon="-8.092978"><ele>1031.8</ele></trkpt>
    <trkpt lat="31.252443" lon="-8.092879"><ele>1034.2</ele></trkpt>
    <trkpt lat="31.251674" lon="-8.092999"><ele>1040.5</ele></trkpt>
    <trkpt lat="31.250303" lon="-8.092807"><ele>1051.5</ele></trkpt>
    <trkpt lat="31.249357" lon="-8.092178"><ele>1063.5</ele></trkpt>
    <trkpt lat="31.249284" lon="-8.092054"><ele>1065.8</ele></trkpt>
    <trkpt lat="31.249323" lon="-8.091880"><ele>1069.0</ele></trkpt>
    <trkpt lat="31.250307" lon="-8.091401"><ele>1078.2</ele></trkpt>
    <trkpt lat="31.250479" lon="-8.091254"><ele>1080.2</ele></trkpt>
    <trkpt lat="31.251587" lon="-8.090264"><ele>1091.0</ele></trkpt>
    <trkpt lat="31.251994" lon="-8.089972"><ele>1092.5</ele></trkpt>
    <trkpt lat="31.251971" lon="-8.089863"><ele>1095.2</ele></trkpt>
    <trkpt lat="31.251458" lon="-8.089914"><ele>1099.8</ele></trkpt>
    <trkpt lat="31.251388" lon="-8.089822"><ele>1102.5</ele></trkpt>
    <trkpt lat="31.252264" lon="-8.088860"><ele>1111.5</ele></trkpt>
    <trkpt lat="31.252380" lon="-8.088454"><ele>1115.8</ele></trkpt>
    <trkpt lat="31.252260" lon="-8.088379"><ele>1119.5</ele></trkpt>
    <trkpt lat="31.252186" lon="-8.088403"><ele>1120.8</ele></trkpt>
    <trkpt lat="31.251209" lon="-8.088783"><ele>1128.5</ele></trkpt>
    <trkpt lat="31.249780" lon="-8.088075"><ele>1145.0</ele></trkpt>
    <trkpt lat="31.249717" lon="-8.087785"><ele>1151.0</ele></trkpt>
    <trkpt lat="31.249727" lon="-8.087584"><ele>1154.0</ele></trkpt>
    <trkpt lat="31.250541" lon="-8.087936"><ele>1155.0</ele></trkpt>
    <trkpt lat="31.250571" lon="-8.087843"><ele>1155.0</ele></trkpt>
    <trkpt lat="31.250583" lon="-8.087386"><ele>1164.5</ele></trkpt>
    <trkpt lat="31.250258" lon="-8.087189"><ele>1168.0</ele></trkpt>
    <trkpt lat="31.250000" lon="-8.086782"><ele>1176.5</ele></trkpt>
    <trkpt lat="31.250173" lon="-8.086575"><ele>1180.2</ele></trkpt>
    <trkpt lat="31.250889" lon="-8.086241"><ele>1182.0</ele></trkpt>
    <trkpt lat="31.251052" lon="-8.085936"><ele>1183.2</ele></trkpt>
    <trkpt lat="31.250765" lon="-8.085777"><ele>1194.0</ele></trkpt>
    <trkpt lat="31.250531" lon="-8.084985"><ele>1203.5</ele></trkpt>
    <trkpt lat="31.250152" lon="-8.083851"><ele>1207.5</ele></trkpt>
    <trkpt lat="31.249819" lon="-8.083405"><ele>1213.2</ele></trkpt>
    <trkpt lat="31.249843" lon="-8.083257"><ele>1214.8</ele></trkpt>
    <trkpt lat="31.250409" lon="-8.081811"><ele>1227.0</ele></trkpt>
    <trkpt lat="31.250421" lon="-8.081682"><ele>1228.2</ele></trkpt>
    <trkpt lat="31.250210" lon="-8.080227"><ele>1229.8</ele></trkpt>
    <trkpt lat="31.250144" lon="-8.079752"><ele>1231.5</ele></trkpt>
    <trkpt lat="31.249943" lon="-8.079087"><ele>1238.0</ele></trkpt>
    <trkpt lat="31.249337" lon="-8.077505"><ele>1250.8</ele></trkpt>
    <trkpt lat="31.248864" lon="-8.075758"><ele>1258.5</ele></trkpt>
    <trkpt lat="31.248952" lon="-8.074837"><ele>1264.2</ele></trkpt>
    <trkpt lat="31.248933" lon="-8.074624"><ele>1265.5</ele></trkpt>
    <trkpt lat="31.248736" lon="-8.073424"><ele>1265.8</ele></trkpt>
    <trkpt lat="31.248347" lon="-8.072475"><ele>1265.8</ele></trkpt>
    <trkpt lat="31.248108" lon="-8.072027"><ele>1264.5</ele></trkpt>
    <trkpt lat="31.247198" lon="-8.070952"><ele>1255.2</ele></trkpt>
    <trkpt lat="31.247178" lon="-8.070863"><ele>1254.2</ele></trkpt>
    <trkpt lat="31.247313" lon="-8.070635"><ele>1252.0</ele></trkpt>
    <trkpt lat="31.247139" lon="-8.070480"><ele>1251.2</ele></trkpt>
    <trkpt lat="31.247371" lon="-8.070255"><ele>1248.2</ele></trkpt>
    <trkpt lat="31.247409" lon="-8.069879"><ele>1247.0</ele></trkpt>
    <trkpt lat="31.247456" lon="-8.069792"><ele>1246.5</ele></trkpt>
    <trkpt lat="31.248008" lon="-8.069296"><ele>1246.5</ele></trkpt>
    <trkpt lat="31.247726" lon="-8.068986"><ele>1250.0</ele></trkpt>
    <trkpt lat="31.247567" lon="-8.068394"><ele>1255.8</ele></trkpt>
    <trkpt lat="31.247284" lon="-8.068266"><ele>1258.8</ele></trkpt>
    <trkpt lat="31.247468" lon="-8.068044"><ele>1258.8</ele></trkpt>
    <trkpt lat="31.247764" lon="-8.067957"><ele>1258.8</ele></trkpt>
    <trkpt lat="31.247951" lon="-8.067853"><ele>1258.5</ele></trkpt>
    <trkpt lat="31.248328" lon="-8.067507"><ele>1257.2</ele></trkpt>
    <trkpt lat="31.249816" lon="-8.066647"><ele>1256.5</ele></trkpt>
    <trkpt lat="31.250231" lon="-8.066265"><ele>1254.2</ele></trkpt>
    <trkpt lat="31.250860" lon="-8.065182"><ele>1250.8</ele></trkpt>
    <trkpt lat="31.251048" lon="-8.064118"><ele>1250.8</ele></trkpt>
    <trkpt lat="31.251846" lon="-8.063116"><ele>1250.8</ele></trkpt>
    <trkpt lat="31.252577" lon="-8.060979"><ele>1245.2</ele></trkpt>
    <trkpt lat="31.252676" lon="-8.060729"><ele>1245.2</ele></trkpt>
    <trkpt lat="31.253370" lon="-8.060292"><ele>1245.2</ele></trkpt>
    <trkpt lat="31.254187" lon="-8.059995"><ele>1250.2</ele></trkpt>
    <trkpt lat="31.255353" lon="-8.058708"><ele>1251.5</ele></trkpt>
    <trkpt lat="31.255855" lon="-8.057926"><ele>1251.5</ele></trkpt>
    <trkpt lat="31.256804" lon="-8.056558"><ele>1244.8</ele></trkpt>
    <trkpt lat="31.256930" lon="-8.056051"><ele>1244.2</ele></trkpt>
    <trkpt lat="31.257266" lon="-8.055563"><ele>1241.8</ele></trkpt>
    <trkpt lat="31.257616" lon="-8.054379"><ele>1242.2</ele></trkpt>
    <trkpt lat="31.256567" lon="-8.052551"><ele>1247.8</ele></trkpt>
    <trkpt lat="31.255835" lon="-8.052034"><ele>1253.8</ele></trkpt>
    <trkpt lat="31.254157" lon="-8.050463"><ele>1267.8</ele></trkpt>
    <trkpt lat="31.252639" lon="-8.048687"><ele>1291.0</ele></trkpt>
    <trkpt lat="31.251837" lon="-8.047619"><ele>1298.2</ele></trkpt>
    <trkpt lat="31.250997" lon="-8.047088"><ele>1306.2</ele></trkpt>
    <trkpt lat="31.250236" lon="-8.046316"><ele>1309.2</ele></trkpt>
    <trkpt lat="31.248140" lon="-8.042470"><ele>1332.0</ele></trkpt>
    <trkpt lat="31.247851" lon="-8.041708"><ele>1337.8</ele></trkpt>
    <trkpt lat="31.247649" lon="-8.041134"><ele>1341.2</ele></trkpt>
    <trkpt lat="31.246374" lon="-8.039364"><ele>1355.0</ele></trkpt>
    <trkpt lat="31.246292" lon="-8.038355"><ele>1363.0</ele></trkpt>
    <trkpt lat="31.246223" lon="-8.036531"><ele>1366.5</ele></trkpt>
    <trkpt lat="31.246008" lon="-8.035469"><ele>1376.5</ele></trkpt>
    <trkpt lat="31.245132" lon="-8.033672"><ele>1387.2</ele></trkpt>
    <trkpt lat="31.245049" lon="-8.033001"><ele>1393.5</ele></trkpt>
    <trkpt lat="31.243568" lon="-8.029911"><ele>1405.2</ele></trkpt>
    <trkpt lat="31.243302" lon="-8.029370"><ele>1414.0</ele></trkpt>
    <trkpt lat="31.243283" lon="-8.029080"><ele>1417.5</ele></trkpt>
    <trkpt lat="31.243462" lon="-8.028737"><ele>1421.2</ele></trkpt>
    <trkpt lat="31.243412" lon="-8.027755"><ele>1432.2</ele></trkpt>
    <trkpt lat="31.243006" lon="-8.026784"><ele>1441.2</ele></trkpt>
    <trkpt lat="31.242531" lon="-8.025722"><ele>1457.8</ele></trkpt>
    <trkpt lat="31.242244" lon="-8.024890"><ele>1463.2</ele></trkpt>
    <trkpt lat="31.242284" lon="-8.023842"><ele>1463.2</ele></trkpt>
    <trkpt lat="31.242200" lon="-8.022928"><ele>1456.8</ele></trkpt>
    <trkpt lat="31.241941" lon="-8.022425"><ele>1453.2</ele></trkpt>
    <trkpt lat="31.241866" lon="-8.021809"><ele>1453.2</ele></trkpt>
    <trkpt lat="31.242006" lon="-8.021348"><ele>1453.8</ele></trkpt>
    <trkpt lat="31.242052" lon="-8.021267"><ele>1454.5</ele></trkpt>
    <trkpt lat="31.242596" lon="-8.020662"><ele>1467.0</ele></trkpt>
    <trkpt lat="31.242615" lon="-8.020528"><ele>1468.5</ele></trkpt>
    <trkpt lat="31.242561" lon="-8.020061"><ele>1476.0</ele></trkpt>
    <trkpt lat="31.242549" lon="-8.019908"><ele>1476.0</ele></trkpt>
    <trkpt lat="31.242146" lon="-8.019955"><ele>1469.5</ele></trkpt>
    <trkpt lat="31.242164" lon="-8.019791"><ele>1469.5</ele></trkpt>
    <trkpt lat="31.242593" lon="-8.019610"><ele>1480.2</ele></trkpt>
    <trkpt lat="31.243085" lon="-8.019478"><ele>1481.8</ele></trkpt>
    <trkpt lat="31.243492" lon="-8.019142"><ele>1487.0</ele></trkpt>
    <trkpt lat="31.244449" lon="-8.016785"><ele>1487.2</ele></trkpt>
    <trkpt lat="31.244811" lon="-8.016436"><ele>1487.2</ele></trkpt>
    <trkpt lat="31.245523" lon="-8.016490"><ele>1496.2</ele></trkpt>
    <trkpt lat="31.245565" lon="-8.016460"><ele>1496.8</ele></trkpt>
    <trkpt lat="31.245683" lon="-8.016315"><ele>1496.8</ele></trkpt>
    <trkpt lat="31.246025" lon="-8.015728"><ele>1495.5</ele></trkpt>
    <trkpt lat="31.246284" lon="-8.015010"><ele>1478.0</ele></trkpt>
    <trkpt lat="31.246614" lon="-8.014136"><ele>1464.8</ele></trkpt>
    <trkpt lat="31.246638" lon="-8.014082"><ele>1464.8</ele></trkpt>
    <trkpt lat="31.246582" lon="-8.014872"><ele>1471.5</ele></trkpt>
    <trkpt lat="31.246656" lon="-8.014935"><ele>1471.5</ele></trkpt>
    <trkpt lat="31.246668" lon="-8.014902"><ele>1471.2</ele></trkpt>
    <trkpt lat="31.247106" lon="-8.013699"><ele>1448.2</ele></trkpt>
    <trkpt lat="31.246882" lon="-8.013590"><ele>1447.5</ele></trkpt>
    <trkpt lat="31.246333" lon="-8.013641"><ele>1443.8</ele></trkpt>
    <trkpt lat="31.247489" lon="-8.013306"><ele>1441.8</ele></trkpt>
    <trkpt lat="31.247653" lon="-8.013455"><ele>1441.8</ele></trkpt>
    <trkpt lat="31.247687" lon="-8.013887"><ele>1442.2</ele></trkpt>
    <trkpt lat="31.247700" lon="-8.013875"><ele>1442.2</ele></trkpt>
    <trkpt lat="31.247783" lon="-8.013724"><ele>1438.8</ele></trkpt>
    <trkpt lat="31.248024" lon="-8.013696"><ele>1432.8</ele></trkpt>
    <trkpt lat="31.248036" lon="-8.013641"><ele>1431.8</ele></trkpt>
    <trkpt lat="31.247903" lon="-8.013000"><ele>1431.0</ele></trkpt>
    <trkpt lat="31.248285" lon="-8.013083"><ele>1430.2</ele></trkpt>
    <trkpt lat="31.248187" lon="-8.012908"><ele>1429.8</ele></trkpt>
    <trkpt lat="31.247622" lon="-8.012627"><ele>1428.2</ele></trkpt>
    <trkpt lat="31.247448" lon="-8.012470"><ele>1423.0</ele></trkpt>
    <trkpt lat="31.247139" lon="-8.012380"><ele>1418.0</ele></trkpt>
    <trkpt lat="31.246949" lon="-8.012385"><ele>1415.2</ele></trkpt>
    <trkpt lat="31.247081" lon="-8.012108"><ele>1413.2</ele></trkpt>
    <trkpt lat="31.246483" lon="-8.012407"><ele>1406.5</ele></trkpt>
    <trkpt lat="31.246592" lon="-8.012196"><ele>1404.8</ele></trkpt>
    <trkpt lat="31.246755" lon="-8.011843"><ele>1400.5</ele></trkpt>
    <trkpt lat="31.246889" lon="-8.010703"><ele>1389.5</ele></trkpt>
    <trkpt lat="31.246796" lon="-8.010642"><ele>1385.2</ele></trkpt>
    <trkpt lat="31.246194" lon="-8.010933"><ele>1375.5</ele></trkpt>
    <trkpt lat="31.246013" lon="-8.010754"><ele>1367.8</ele></trkpt>
    <trkpt lat="31.246087" lon="-8.010553"><ele>1365.0</ele></trkpt>
    <trkpt lat="31.246838" lon="-8.009326"><ele>1363.0</ele></trkpt>
    <trkpt lat="31.246974" lon="-8.008552"><ele>1360.0</ele></trkpt>
    <trkpt lat="31.246546" lon="-8.009269"><ele>1352.2</ele></trkpt>
    <trkpt lat="31.246573" lon="-8.008469"><ele>1343.8</ele></trkpt>
    <trkpt lat="31.246948" lon="-8.007925"><ele>1342.8</ele></trkpt>
    <trkpt lat="31.247041" lon="-8.007625"><ele>1342.5</ele></trkpt>
    <trkpt lat="31.247161" lon="-8.007126"><ele>1332.2</ele></trkpt>
    <trkpt lat="31.247573" lon="-8.006458"><ele>1328.2</ele></trkpt>
    <trkpt lat="31.247547" lon="-8.006081"><ele>1317.8</ele></trkpt>
    <trkpt lat="31.247574" lon="-8.005954"><ele>1317.8</ele></trkpt>
    <trkpt lat="31.248220" lon="-8.004937"><ele>1317.5</ele></trkpt>
    <trkpt lat="31.248112" lon="-8.004898"><ele>1313.2</ele></trkpt>
    <trkpt lat="31.247886" lon="-8.005273"><ele>1311.8</ele></trkpt>
    <trkpt lat="31.247797" lon="-8.005219"><ele>1306.5</ele></trkpt>
    <trkpt lat="31.248168" lon="-8.004017"><ele>1295.5</ele></trkpt>
    <trkpt lat="31.248036" lon="-8.003754"><ele>1290.0</ele></trkpt>
    <trkpt lat="31.247979" lon="-8.002903"><ele>1283.8</ele></trkpt>
    <trkpt lat="31.248057" lon="-8.002680"><ele>1282.5</ele></trkpt>
    <trkpt lat="31.247911" lon="-8.001925"><ele>1275.0</ele></trkpt>
    <trkpt lat="31.247897" lon="-8.001693"><ele>1274.5</ele></trkpt>
    <trkpt lat="31.248226" lon="-8.001297"><ele>1274.5</ele></trkpt>
    <trkpt lat="31.248565" lon="-7.999863"><ele>1265.2</ele></trkpt>
    <trkpt lat="31.248882" lon="-7.999330"><ele>1263.8</ele></trkpt>
    <trkpt lat="31.248886" lon="-7.999259"><ele>1263.8</ele></trkpt>
    <trkpt lat="31.248744" lon="-7.998700"><ele>1253.8</ele></trkpt>
    <trkpt lat="31.248738" lon="-7.998652"><ele>1253.0</ele></trkpt>
    <trkpt lat="31.248848" lon="-7.998403"><ele>1252.5</ele></trkpt>
    <trkpt lat="31.248864" lon="-7.996564"><ele>1245.0</ele></trkpt>
    <trkpt lat="31.248490" lon="-7.996195"><ele>1235.8</ele></trkpt>
    <trkpt lat="31.248463" lon="-7.996095"><ele>1235.2</ele></trkpt>
    <trkpt lat="31.248731" lon="-7.995948"><ele>1239.5</ele></trkpt>
    <trkpt lat="31.248836" lon="-7.995718"><ele>1240.2</ele></trkpt>
    <trkpt lat="31.248805" lon="-7.995671"><ele>1240.2</ele></trkpt>
    <trkpt lat="31.248483" lon="-7.995417"><ele>1232.5</ele></trkpt>
    <trkpt lat="31.248441" lon="-7.995355"><ele>1232.0</ele></trkpt>
    <trkpt lat="31.248476" lon="-7.994823"><ele>1231.0</ele></trkpt>
    <trkpt lat="31.248360" lon="-7.994690"><ele>1229.0</ele></trkpt>
    <trkpt lat="31.248231" lon="-7.994725"><ele>1227.5</ele></trkpt>
    <trkpt lat="31.248115" lon="-7.995017"><ele>1225.2</ele></trkpt>
    <trkpt lat="31.247712" lon="-7.995199"><ele>1222.5</ele></trkpt>
    <trkpt lat="31.245873" lon="-7.994765"><ele>1212.0</ele></trkpt>
    <trkpt lat="31.245209" lon="-7.993758"><ele>1208.2</ele></trkpt>
    <trkpt lat="31.245114" lon="-7.993245"><ele>1206.2</ele></trkpt>
    <trkpt lat="31.245666" lon="-7.991133"><ele>1197.5</ele></trkpt>
    <trkpt lat="31.245640" lon="-7.988841"><ele>1192.2</ele></trkpt>
    <trkpt lat="31.245764" lon="-7.988217"><ele>1190.8</ele></trkpt>
    <trkpt lat="31.246887" lon="-7.985188"><ele>1190.0</ele></trkpt>
    <trkpt lat="31.247643" lon="-7.985577"><ele>1187.5</ele></trkpt>
    <trkpt lat="31.248631" lon="-7.982876"><ele>1179.0</ele></trkpt>
    <trkpt lat="31.248901" lon="-7.982176"><ele>1178.0</ele></trkpt>
    <trkpt lat="31.249251" lon="-7.981946"><ele>1177.0</ele></trkpt>
    <trkpt lat="31.248782" lon="-7.980523"><ele>1171.8</ele></trkpt>
    <trkpt lat="31.249263" lon="-7.979526"><ele>1167.5</ele></trkpt>
    <trkpt lat="31.250025" lon="-7.978810"><ele>1166.2</ele></trkpt>
    <trkpt lat="31.249650" lon="-7.978862"><ele>1165.8</ele></trkpt>
    </trkseg>
  </trk>
</gpx>
