<?xml version="1.0" encoding="UTF-8"?>
<gpx version="1.1" creator="tripplanner (routed with BRouter, gravel profile)" xmlns="http://www.topografix.com/GPX/1/1">
  <metadata>
    <name>Toubkal to Telouet — Day 2: Ijoukak → Amizmiz</name>
    <desc>78 km, 1404 m. Routed with BRouter (gravel profile) over OSM ways — a plan, not a ridden track.</desc>
  </metadata>
  <trk>
    <name>Toubkal to Telouet — Day 2: Ijoukak → Amizmiz</name>
    <trkseg>
    <trkpt lat="30.993332" lon="-8.153116"><ele>1217.2</ele></trkpt>
    <trkpt lat="30.993477" lon="-8.152775"><ele>1217.2</ele></trkpt>
    <trkpt lat="30.993837" lon="-8.152644"><ele>1217.2</ele></trkpt>
    <trkpt lat="30.994017" lon="-8.152894"><ele>1214.2</ele></trkpt>
    <trkpt lat="30.994365" lon="-8.153699"><ele>1205.2</ele></trkpt>
    <trkpt lat="30.994370" lon="-8.154042"><ele>1201.0</ele></trkpt>
    <trkpt lat="30.994609" lon="-8.154560"><ele>1194.8</ele></trkpt>
    <trkpt lat="30.995119" lon="-8.155052"><ele>1190.0</ele></trkpt>
    <trkpt lat="30.995194" lon="-8.155380"><ele>1185.8</ele></trkpt>
    <trkpt lat="30.995523" lon="-8.155551"><ele>1184.0</ele></trkpt>
    <trkpt lat="30.996242" lon="-8.155833"><ele>1182.8</ele></trkpt>
    <trkpt lat="30.997294" lon="-8.156777"><ele>1179.2</ele></trkpt>
    <trkpt lat="30.998493" lon="-8.157166"><ele>1178.5</ele></trkpt>
    <trkpt lat="30.998735" lon="-8.157040"><ele>1177.8</ele></trkpt>
    <trkpt lat="30.999929" lon="-8.156431"><ele>1178.8</ele></trkpt>
    <trkpt lat="31.000664" lon="-8.155628"><ele>1185.2</ele></trkpt>
    <trkpt lat="31.001172" lon="-8.155278"><ele>1185.8</ele></trkpt>
    <trkpt lat="31.001617" lon="-8.155405"><ele>1185.8</ele></trkpt>
    <trkpt lat="31.002097" lon="-8.155859"><ele>1175.8</ele></trkpt>
    <trkpt lat="31.002268" lon="-8.155839"><ele>1175.8</ele></trkpt>
    <trkpt lat="31.002375" lon="-8.155502"><ele>1175.8</ele></trkpt>
    <trkpt lat="31.002570" lon="-8.154827"><ele>1186.8</ele></trkpt>
    <trkpt lat="31.003300" lon="-8.153887"><ele>1188.2</ele></trkpt>
    <trkpt lat="31.003644" lon="-8.153716"><ele>1189.8</ele></trkpt>
    <trkpt lat="31.004104" lon="-8.153233"><ele>1190.2</ele></trkpt>
    <trkpt lat="31.005117" lon="-8.152967"><ele>1190.8</ele></trkpt>
    <trkpt lat="31.005575" lon="-8.152696"><ele>1193.0</ele></trkpt>
    <trkpt lat="31.006210" lon="-8.152741"><ele>1195.0</ele></trkpt>
    <trkpt lat="31.007060" lon="-8.152755"><ele>1192.5</ele></trkpt>
    <trkpt lat="31.009250" lon="-8.153888"><ele>1189.0</ele></trkpt>
    <trkpt lat="31.009938" lon="-8.154491"><ele>1184.8</ele></trkpt>
    <trkpt lat="31.010835" lon="-8.154693"><ele>1183.8</ele></trkpt>
    <trkpt lat="31.011148" lon="-8.154780"><ele>1181.0</ele></trkpt>
    <trkpt lat="31.011968" lon="-8.155175"><ele>1173.2</ele></trkpt>
    <trkpt lat="31.012307" lon="-8.155266"><ele>1173.2</ele></trkpt>
    <trkpt lat="31.012696" lon="-8.154664"><ele>1173.8</ele></trkpt>
    <trkpt lat="31.012803" lon="-8.154253"><ele>1173.8</ele></trkpt>
    <trkpt lat="31.012571" lon="-8.153261"><ele>1173.0</ele></trkpt>
    <trkpt lat="31.012622" lon="-8.151106"><ele>1169.8</ele></trkpt>
    <trkpt lat="31.013450" lon="-8.147960"><ele>1167.2</ele></trkpt>
    <trkpt lat="31.013914" lon="-8.146850"><ele>1168.2</ele></trkpt>
    <trkpt lat="31.014001" lon="-8.146685"><ele>1165.8</ele></trkpt>
    <trkpt lat="31.015353" lon="-8.145777"><ele>1156.2</ele></trkpt>
    <trkpt lat="31.015544" lon="-8.145642"><ele>1156.2</ele></trkpt>
    <trkpt lat="31.016431" lon="-8.144224"><ele>1156.8</ele></trkpt>
    <trkpt lat="31.016825" lon="-8.143852"><ele>1155.8</ele></trkpt>
    <trkpt lat="31.017240" lon="-8.143701"><ele>1154.0</ele></trkpt>
    <trkpt lat="31.018345" lon="-8.143589"><ele>1144.0</ele></trkpt>
    <trkpt lat="31.019050" lon="-8.143525"><ele>1143.8</ele></trkpt>
    <trkpt lat="31.019946" lon="-8.142963"><ele>1143.8</ele></trkpt>
    <trkpt lat="31.020739" lon="-8.140394"><ele>1148.8</ele></trkpt>
    <trkpt lat="31.020810" lon="-8.140263"><ele>1148.8</ele></trkpt>
    <trkpt lat="31.021469" lon="-8.139454"><ele>1146.2</ele></trkpt>
    <trkpt lat="31.022339" lon="-8.137998"><ele>1142.5</ele></trkpt>
    <trkpt lat="31.023383" lon="-8.136755"><ele>1142.0</ele></trkpt>
    <trkpt lat="31.025088" lon="-8.135799"><ele>1139.5</ele></trkpt>
    <trkpt lat="31.026496" lon="-8.135781"><ele>1136.2</ele></trkpt>
    <trkpt lat="31.027863" lon="-8.135949"><ele>1136.2</ele></trkpt>
    <trkpt lat="31.028130" lon="-8.136130"><ele>1134.2</ele></trkpt>
    <trkpt lat="31.028747" lon="-8.136587"><ele>1134.2</ele></trkpt>
    <trkpt lat="31.029599" lon="-8.136821"><ele>1134.2</ele></trkpt>
    <trkpt lat="31.030521" lon="-8.137265"><ele>1136.2</ele></trkpt>
    <trkpt lat="31.031094" lon="-8.137317"><ele>1138.8</ele></trkpt>
    <trkpt lat="31.031680" lon="-8.137654"><ele>1138.8</ele></trkpt>
    <trkpt lat="31.032047" lon="-8.137964"><ele>1133.2</ele></trkpt>
    <trkpt lat="31.032557" lon="-8.138105"><ele>1132.5</ele></trkpt>
    <trkpt lat="31.032669" lon="-8.138076"><ele>1132.5</ele></trkpt>
    <trkpt lat="31.033126" lon="-8.137510"><ele>1139.8</ele></trkpt>
    <trkpt lat="31.033416" lon="-8.136892"><ele>1148.5</ele></trkpt>
    <trkpt lat="31.033764" lon="-8.136871"><ele>1151.5</ele></trkpt>
    <trkpt lat="31.034254" lon="-8.137085"><ele>1152.8</ele></trkpt>
    <trkpt lat="31.034338" lon="-8.137153"><ele>1152.8</ele></trkpt>
    <trkpt lat="31.034924" lon="-8.138214"><ele>1149.5</ele></trkpt>
    <trkpt lat="31.035533" lon="-8.139954"><ele>1144.8</ele></trkpt>
    <trkpt lat="31.035576" lon="-8.140375"><ele>1141.0</ele></trkpt>
    <trkpt lat="31.035572" lon="-8.140738"><ele>1135.8</ele></trkpt>
    <trkpt lat="31.035392" lon="-8.141712"><ele>1122.0</ele></trkpt>
    <trkpt lat="31.035590" lon="-8.141975"><ele>1122.0</ele></trkpt>
    <trkpt lat="31.037149" lon="-8.140922"><ele>1123.5</ele></trkpt>
    <trkpt lat="31.037550" lon="-8.140132"><ele>1122.0</ele></trkpt>
    <trkpt lat="31.037741" lon="-8.139449"><ele>1120.2</ele></trkpt>
    <trkpt lat="31.038717" lon="-8.137977"><ele>1115.8</ele></trkpt>
    <trkpt lat="31.038947" lon="-8.136871"><ele>1116.2</ele></trkpt>
    <trkpt lat="31.039039" lon="-8.135606"><ele>1116.2</ele></trkpt>
    <trkpt lat="31.039338" lon="-8.134636"><ele>1115.5</ele></trkpt>
    <trkpt lat="31.039824" lon="-8.134006"><ele>1115.5</ele></trkpt>
    <trkpt lat="31.040301" lon="-8.133648"><ele>1115.8</ele></trkpt>
    <trkpt lat="31.040631" lon="-8.133558"><ele>1114.2</ele></trkpt>
    <trkpt lat="31.042185" lon="-8.133634"><ele>1112.5</ele></trkpt>
    <trkpt lat="31.042631" lon="-8.133933"><ele>1112.2</ele></trkpt>
    <trkpt lat="31.042806" lon="-8.134135"><ele>1112.0</ele></trkpt>
    <trkpt lat="31.043083" lon="-8.134629"><ele>1110.8</ele></trkpt>
    <trkpt lat="31.043512" lon="-8.135915"><ele>1097.0</ele></trkpt>
    <trkpt lat="31.043949" lon="-8.137158"><ele>1094.8</ele></trkpt>
    <trkpt lat="31.044004" lon="-8.137249"><ele>1094.5</ele></trkpt>
    <trkpt lat="31.044239" lon="-8.137480"><ele>1094.5</ele></trkpt>
    <trkpt lat="31.044662" lon="-8.137598"><ele>1094.8</ele></trkpt>
    <trkpt lat="31.045024" lon="-8.137514"><ele>1098.2</ele></trkpt>
    <trkpt lat="31.046466" lon="-8.136470"><ele>1105.8</ele></trkpt>
    <trkpt lat="31.047510" lon="-8.135035"><ele>1111.0</ele></trkpt>
    <trkpt lat="31.047882" lon="-8.134703"><ele>1112.5</ele></trkpt>
    <trkpt lat="31.048075" lon="-8.134303"><ele>1112.8</ele></trkpt>
    <trkpt lat="31.048338" lon="-8.133618"><ele>1122.8</ele></trkpt>
    <trkpt lat="31.048571" lon="-8.133412"><ele>1122.8</ele></trkpt>
    <trkpt lat="31.048911" lon="-8.133283"><ele>1122.8</ele></trkpt>
    <trkpt lat="31.049601" lon="-8.133323"><ele>1122.2</ele></trkpt>
    <trkpt lat="31.049832" lon="-8.133365"><ele>1121.8</ele></trkpt>
    <trkpt lat="31.051624" lon="-8.133903"><ele>1109.2</ele></trkpt>
    <trkpt lat="31.051868" lon="-8.133928"><ele>1109.2</ele></trkpt>
    <trkpt lat="31.052116" lon="-8.133781"><ele>1109.2</ele></trkpt>
    <trkpt lat="31.052866" lon="-8.133008"><ele>1124.2</ele></trkpt>
    <trkpt lat="31.053814" lon="-8.132916"><ele>1126.2</ele></trkpt>
    <trkpt lat="31.054464" lon="-8.133168"><ele>1126.0</ele></trkpt>
    <trkpt lat="31.057101" lon="-8.135346"><ele>1128.2</ele></trkpt>
    <trkpt lat="31.057177" lon="-8.135781"><ele>1128.2</ele></trkpt>
    <trkpt lat="31.057110" lon="-8.136581"><ele>1122.5</ele></trkpt>
    <trkpt lat="31.056408" lon="-8.137917"><ele>1108.8</ele></trkpt>
    <trkpt lat="31.056424" lon="-8.138221"><ele>1106.2</ele></trkpt>
    <trkpt lat="31.056660" lon="-8.138546"><ele>1105.8</ele></trkpt>
    <trkpt lat="31.056922" lon="-8.138609"><ele>1105.8</ele></trkpt>
    <trkpt lat="31.058295" lon="-8.138096"><ele>1107.8</ele></trkpt>
    <trkpt lat="31.059731" lon="-8.137870"><ele>1108.0</ele></trkpt>
    <trkpt lat="31.060009" lon="-8.137895"><ele>1108.0</ele></trkpt>
    <trkpt lat="31.060604" lon="-8.137975"><ele>1105.8</ele></trkpt>
    <trkpt lat="31.060861" lon="-8.138077"><ele>1103.0</ele></trkpt>
    <trkpt lat="31.061750" lon="-8.138505"><ele>1086.5</ele></trkpt>
    <trkpt lat="31.062141" lon="-8.138721"><ele>1085.2</ele></trkpt>
    <trkpt lat="31.062402" lon="-8.138528"><ele>1080.5</ele></trkpt>
    <trkpt lat="31.063220" lon="-8.137500"><ele>1080.5</ele></trkpt>
    <trkpt lat="31.063474" lon="-8.136992"><ele>1076.5</ele></trkpt>
    <trkpt lat="31.063653" lon="-8.135083"><ele>1074.0</ele></trkpt>
    <trkpt lat="31.064116" lon="-8.133310"><ele>1071.2</ele></trkpt>
    <trkpt lat="31.064566" lon="-8.132875"><ele>1071.0</ele></trkpt>
    <trkpt lat="31.065659" lon="-8.132270"><ele>1071.0</ele></trkpt>
    <trkpt lat="31.066143" lon="-8.132163"><ele>1069.2</ele></trkpt>
    <trkpt lat="31.066780" lon="-8.132203"><ele>1069.2</ele></trkpt>
    <trkpt lat="31.067861" lon="-8.132669"><ele>1069.0</ele></trkpt>
    <trkpt lat="31.068611" lon="-8.133225"><ele>1069.5</ele></trkpt>
    <trkpt lat="31.069017" lon="-8.133665"><ele>1070.2</ele></trkpt>
    <trkpt lat="31.069748" lon="-8.135164"><ele>1071.8</ele></trkpt>
    <trkpt lat="31.069877" lon="-8.135786"><ele>1071.8</ele></trkpt>
    <trkpt lat="31.070010" lon="-8.136926"><ele>1050.2</ele></trkpt>
    <trkpt lat="31.070162" lon="-8.137385"><ele>1050.0</ele></trkpt>
    <trkpt lat="31.070610" lon="-8.137840"><ele>1050.0</ele></trkpt>
    <trkpt lat="31.071106" lon="-8.137865"><ele>1050.2</ele></trkpt>
    <trkpt lat="31.071873" lon="-8.137586"><ele>1050.0</ele></trkpt>
    <trkpt lat="31.072706" lon="-8.136910"><ele>1049.8</ele></trkpt>
    <trkpt lat="31.073028" lon="-8.136473"><ele>1048.8</ele></trkpt>
    <trkpt lat="31.073660" lon="-8.135312"><ele>1044.5</ele></trkpt>
    <trkpt lat="31.073759" lon="-8.134947"><ele>1044.2</ele></trkpt>
    <trkpt lat="31.074527" lon="-8.132351"><ele>1045.5</ele></trkpt>
    <trkpt lat="31.074967" lon="-8.131634"><ele>1045.5</ele></trkpt>
    <trkpt lat="31.075374" lon="-8.131299"><ele>1045.5</ele></trkpt>
    <trkpt lat="31.076946" lon="-8.130837"><ele>1043.0</ele></trkpt>
    <trkpt lat="31.077273" lon="-8.130667"><ele>1043.0</ele></trkpt>
    <trkpt lat="31.077645" lon="-8.130465"><ele>1048.8</ele></trkpt>
    <trkpt lat="31.079433" lon="-8.130578"><ele>1052.5</ele></trkpt>
    <trkpt lat="31.080469" lon="-8.130405"><ele>1052.5</ele></trkpt>
    <trkpt lat="31.081596" lon="-8.130023"><ele>1058.2</ele></trkpt>
    <trkpt lat="31.082246" lon="-8.130077"><ele>1069.0</ele></trkpt>
    <trkpt lat="31.082668" lon="-8.130381"><ele>1069.8</ele></trkpt>
    <trkpt lat="31.082774" lon="-8.130553"><ele>1069.8</ele></trkpt>
    <trkpt lat="31.082961" lon="-8.131515"><ele>1069.2</ele></trkpt>
    <trkpt lat="31.082995" lon="-8.133383"><ele>1051.8</ele></trkpt>
    <trkpt lat="31.083023" lon="-8.133486"><ele>1050.5</ele></trkpt>
    <trkpt lat="31.083200" lon="-8.133759"><ele>1049.5</ele></trkpt>
    <trkpt lat="31.083643" lon="-8.134011"><ele>1049.8</ele></trkpt>
    <trkpt lat="31.083715" lon="-8.134002"><ele>1050.5</ele></trkpt>
    <trkpt lat="31.083933" lon="-8.133879"><ele>1056.5</ele></trkpt>
    <trkpt lat="31.084500" lon="-8.133343"><ele>1069.5</ele></trkpt>
    <trkpt lat="31.084692" lon="-8.133191"><ele>1071.5</ele></trkpt>
    <trkpt lat="31.085172" lon="-8.132995"><ele>1072.2</ele></trkpt>
    <trkpt lat="31.085250" lon="-8.132918"><ele>1073.0</ele></trkpt>
    <trkpt lat="31.085552" lon="-8.132364"><ele>1082.0</ele></trkpt>
    <trkpt lat="31.086246" lon="-8.131755"><ele>1090.5</ele></trkpt>
    <trkpt lat="31.086705" lon="-8.131061"><ele>1099.5</ele></trkpt>
    <trkpt lat="31.087373" lon="-8.130663"><ele>1104.2</ele></trkpt>
    <trkpt lat="31.087679" lon="-8.130568"><ele>1108.0</ele></trkpt>
    <trkpt lat="31.087911" lon="-8.130276"><ele>1117.8</ele></trkpt>
    <trkpt lat="31.088113" lon="-8.130279"><ele>1118.8</ele></trkpt>
    <trkpt lat="31.088127" lon="-8.130512"><ele>1118.8</ele></trkpt>
    <trkpt lat="31.087701" lon="-8.131210"><ele>1103.5</ele></trkpt>
    <trkpt lat="31.087448" lon="-8.131840"><ele>1101.8</ele></trkpt>
    <trkpt lat="31.087405" lon="-8.132126"><ele>1100.0</ele></trkpt>
    <trkpt lat="31.087573" lon="-8.132252"><ele>1098.5</ele></trkpt>
    <trkpt lat="31.088810" lon="-8.131457"><ele>1090.0</ele></trkpt>
    <trkpt lat="31.090247" lon="-8.130653"><ele>1092.8</ele></trkpt>
    <trkpt lat="31.090593" lon="-8.130335"><ele>1092.5</ele></trkpt>
    <trkpt lat="31.091353" lon="-8.130494"><ele>1091.5</ele></trkpt>
    <trkpt lat="31.091638" lon="-8.131013"><ele>1077.2</ele></trkpt>
    <trkpt lat="31.092214" lon="-8.131561"><ele>1071.8</ele></trkpt>
    <trkpt lat="31.092717" lon="-8.132199"><ele>1059.0</ele></trkpt>
    <trkpt lat="31.093293" lon="-8.132397"><ele>1059.0</ele></trkpt>
    <trkpt lat="31.094339" lon="-8.132389"><ele>1061.2</ele></trkpt>
    <trkpt lat="31.094548" lon="-8.133056"><ele>1058.2</ele></trkpt>
    <trkpt lat="31.094768" lon="-8.133866"><ele>1044.5</ele></trkpt>
    <trkpt lat="31.095256" lon="-8.134779"><ele>1044.0</ele></trkpt>
    <trkpt lat="31.095278" lon="-8.134885"><ele>1042.5</ele></trkpt>
    <trkpt lat="31.095365" lon="-8.135352"><ele>1032.5</ele></trkpt>
    <trkpt lat="31.095757" lon="-8.135996"><ele>1029.5</ele></trkpt>
    <trkpt lat="31.096987" lon="-8.137381"><ele>1012.8</ele></trkpt>
    <trkpt lat="31.097134" lon="-8.137452"><ele>1012.8</ele></trkpt>
    <trkpt lat="31.098664" lon="-8.136589"><ele>1016.8</ele></trkpt>
    <trkpt lat="31.099963" lon="-8.136318"><ele>1012.5</ele></trkpt>
    <trkpt lat="31.100498" lon="-8.135912"><ele>1008.2</ele></trkpt>
    <trkpt lat="31.102948" lon="-8.134720"><ele>1010.2</ele></trkpt>
    <trkpt lat="31.103462" lon="-8.134687"><ele>1010.2</ele></trkpt>
    <trkpt lat="31.105570" lon="-8.134790"><ele>997.0</ele></trkpt>
    <trkpt lat="31.106682" lon="-8.134720"><ele>995.2</ele></trkpt>
    <trkpt lat="31.107980" lon="-8.133938"><ele>996.2</ele></trkpt>
    <trkpt lat="31.111270" lon="-8.131931"><ele>984.5</ele></trkpt>
    <trkpt lat="31.112134" lon="-8.131959"><ele>980.8</ele></trkpt>
    <trkpt lat="31.112452" lon="-8.131820"><ele>980.8</ele></trkpt>
    <trkpt lat="31.113460" lon="-8.130915"><ele>984.0</ele></trkpt>
    <trkpt lat="31.114165" lon="-8.130639"><ele>984.2</ele></trkpt>
    <trkpt lat="31.114856" lon="-8.130156"><ele>984.2</ele></trkpt>
    <trkpt lat="31.115853" lon="-8.129049"><ele>983.2</ele></trkpt>
    <trkpt lat="31.116115" lon="-8.128987"><ele>983.2</ele></trkpt>
    <trkpt lat="31.117011" lon="-8.128982"><ele>973.2</ele></trkpt>
    <trkpt lat="31.117436" lon="-8.128606"><ele>971.5</ele></trkpt>
    <trkpt lat="31.118054" lon="-8.127690"><ele>971.2</ele></trkpt>
    <trkpt lat="31.118260" lon="-8.127029"><ele>970.2</ele></trkpt>
    <trkpt lat="31.118208" lon="-8.126189"><ele>970.0</ele></trkpt>
    <trkpt lat="31.117987" lon="-8.125447"><ele>970.0</ele></trkpt>
    <trkpt lat="31.118115" lon="-8.125288"><ele>966.8</ele></trkpt>
    <trkpt lat="31.118103" lon="-8.124918"><ele>962.8</ele></trkpt>
    <trkpt lat="31.117829" lon="-8.124384"><ele>961.5</ele></trkpt>
    <trkpt lat="31.118320" lon="-8.124101"><ele>956.0</ele></trkpt>
    <trkpt lat="31.118092" lon="-8.123608"><ele>955.5</ele></trkpt>
    <trkpt lat="31.118135" lon="-8.123181"><ele>954.5</ele></trkpt>
    <trkpt lat="31.118320" lon="-8.122877"><ele>952.8</ele></trkpt>
    <trkpt lat="31.118577" lon="-8.122414"><ele>952.8</ele></trkpt>
    <trkpt lat="31.119046" lon="-8.121921"><ele>952.8</ele></trkpt>
    <trkpt lat="31.119813" lon="-8.121471"><ele>954.2</ele></trkpt>
    <trkpt lat="31.119915" lon="-8.121005"><ele>956.5</ele></trkpt>
    <trkpt lat="31.120551" lon="-8.120933"><ele>958.2</ele></trkpt>
    <trkpt lat="31.120743" lon="-8.120601"><ele>958.5</ele></trkpt>
    <trkpt lat="31.123301" lon="-8.121007"><ele>963.0</ele></trkpt>
    <trkpt lat="31.124107" lon="-8.120926"><ele>963.0</ele></trkpt>
    <trkpt lat="31.124198" lon="-8.120870"><ele>963.0</ele></trkpt>
    <trkpt lat="31.124372" lon="-8.120640"><ele>965.0</ele></trkpt>
    <trkpt lat="31.124498" lon="-8.120189"><ele>967.2</ele></trkpt>
    <trkpt lat="31.124455" lon="-8.119247"><ele>972.2</ele></trkpt>
    <trkpt lat="31.124478" lon="-8.118897"><ele>972.2</ele></trkpt>
    <trkpt lat="31.125042" lon="-8.116854"><ele>972.0</ele></trkpt>
    <trkpt lat="31.126177" lon="-8.114727"><ele>966.0</ele></trkpt>
    <trkpt lat="31.126543" lon="-8.113667"><ele>964.0</ele></trkpt>
    <trkpt lat="31.126568" lon="-8.113402"><ele>964.0</ele></trkpt>
    <trkpt lat="31.126559" lon="-8.112402"><ele>969.8</ele></trkpt>
    <trkpt lat="31.126313" lon="-8.110230"><ele>980.2</ele></trkpt>
    <trkpt lat="31.126474" lon="-8.109210"><ele>981.2</ele></trkpt>
    <trkpt lat="31.126752" lon="-8.108443"><ele>984.8</ele></trkpt>
    <trkpt lat="31.127630" lon="-8.107560"><ele>985.8</ele></trkpt>
    <trkpt lat="31.128564" lon="-8.106949"><ele>991.8</ele></trkpt>
    <trkpt lat="31.130271" lon="-8.106953"><ele>987.0</ele></trkpt>
    <trkpt lat="31.130559" lon="-8.106883"><ele>987.0</ele></trkpt>
    <trkpt lat="31.130698" lon="-8.106692"><ele>986.2</ele></trkpt>
    <trkpt lat="31.130405" lon="-8.105967"><ele>987.8</ele></trkpt>
    <trkpt lat="31.130041" lon="-8.105097"><ele>991.8</ele></trkpt>
    <trkpt lat="31.129694" lon="-8.103679"><ele>1001.5</ele></trkpt>
    <trkpt lat="31.129684" lon="-8.103467"><ele>1001.5</ele></trkpt>
    <trkpt lat="31.129741" lon="-8.103295"><ele>1001.5</ele></trkpt>
    <trkpt lat="31.129881" lon="-8.103094"><ele>992.8</ele></trkpt>
    <trkpt lat="31.130231" lon="-8.102075"><ele>988.2</ele></trkpt>
    <trkpt lat="31.130448" lon="-8.101752"><ele>988.2</ele></trkpt>
    <trkpt lat="31.130878" lon="-8.101233"><ele>979.8</ele></trkpt>
    <trkpt lat="31.131723" lon="-8.100520"><ele>971.2</ele></trkpt>
    <trkpt lat="31.131821" lon="-8.100415"><ele>971.2</ele></trkpt>
    <trkpt lat="31.131882" lon="-8.100149"><ele>971.2</ele></trkpt>
    <trkpt lat="31.131855" lon="-8.100002"><ele>971.2</ele></trkpt>
    <trkpt lat="31.131606" lon="-8.099714"><ele>973.8</ele></trkpt>
    <trkpt lat="31.130384" lon="-8.099424"><ele>993.2</ele></trkpt>
    <trkpt lat="31.129895" lon="-8.099081"><ele>997.5</ele></trkpt>
    <trkpt lat="31.129799" lon="-8.098938"><ele>1000.0</ele></trkpt>
    <trkpt lat="31.129735" lon="-8.098825"><ele>1001.0</ele></trkpt>
    <trkpt lat="31.129494" lon="-8.098152"><ele>1001.2</ele></trkpt>
    <trkpt lat="31.129497" lon="-8.097555"><ele>1001.0</ele></trkpt>
    <trkpt lat="31.129517" lon="-8.097397"><ele>1001.0</ele></trkpt>
    <trkpt lat="31.129869" lon="-8.096512"><ele>993.2</ele></trkpt>
    <trkpt lat="31.130089" lon="-8.096521"><ele>989.2</ele></trkpt>
    <trkpt lat="31.130145" lon="-8.096686"><ele>988.5</ele></trkpt>
    <trkpt lat="31.130113" lon="-8.097936"><ele>976.8</ele></trkpt>
    <trkpt lat="31.130168" lon="-8.098128"><ele>975.0</ele></trkpt>
    <trkpt lat="31.130276" lon="-8.098292"><ele>973.0</ele></trkpt>
    <trkpt lat="31.130464" lon="-8.098391"><ele>972.8</ele></trkpt>
    <trkpt lat="31.131040" lon="-8.098221"><ele>971.2</ele></trkpt>
    <trkpt lat="31.132105" lon="-8.097253"><ele>969.5</ele></trkpt>
    <trkpt lat="31.133589" lon="-8.097239"><ele>963.8</ele></trkpt>
    <trkpt lat="31.134319" lon="-8.096958"><ele>963.8</ele></trkpt>
    <trkpt lat="31.134876" lon="-8.096905"><ele>962.5</ele></trkpt>
    <trkpt lat="31.135204" lon="-8.096998"><ele>961.5</ele></trkpt>
    <trkpt lat="31.135619" lon="-8.097427"><ele>953.2</ele></trkpt>
    <trkpt lat="31.135733" lon="-8.097505"><ele>953.2</ele></trkpt>
    <trkpt lat="31.136477" lon="-8.097534"><ele>950.2</ele></trkpt>
    <trkpt lat="31.136687" lon="-8.097734"><ele>949.5</ele></trkpt>
    <trkpt lat="31.136997" lon="-8.098546"><ele>931.0</ele></trkpt>
    <trkpt lat="31.137464" lon="-8.098759"><ele>929.5</ele></trkpt>
    <trkpt lat="31.137789" lon="-8.098631"><ele>929.2</ele></trkpt>
    <trkpt lat="31.138015" lon="-8.098412"><ele>929.2</ele></trkpt>
    <trkpt lat="31.139095" lon="-8.097277"><ele>920.0</ele></trkpt>
    <trkpt lat="31.139452" lon="-8.096947"><ele>920.0</ele></trkpt>
    <trkpt lat="31.140253" lon="-8.096500"><ele>923.5</ele></trkpt>
    <trkpt lat="31.141359" lon="-8.097637"><ele>923.5</ele></trkpt>
    <trkpt lat="31.141570" lon="-8.097661"><ele>926.8</ele></trkpt>
    <trkpt lat="31.141776" lon="-8.098176"><ele>927.2</ele></trkpt>
    <trkpt lat="31.141753" lon="-8.099316"><ele>927.8</ele></trkpt>
    <trkpt lat="31.141363" lon="-8.101285"><ele>929.8</ele></trkpt>
    <trkpt lat="31.141180" lon="-8.101698"><ele>929.8</ele></trkpt>
    <trkpt lat="31.140786" lon="-8.102436"><ele>927.2</ele></trkpt>
    <trkpt lat="31.140450" lon="-8.102752"><ele>919.8</ele></trkpt>
    <trkpt lat="31.140188" lon="-8.103108"><ele>919.5</ele></trkpt>
    <trkpt lat="31.140283" lon="-8.103424"><ele>919.5</ele></trkpt>
    <trkpt lat="31.140692" lon="-8.103534"><ele>919.5</ele></trkpt>
    <trkpt lat="31.142105" lon="-8.103565"><ele>919.0</ele></trkpt>
    <trkpt lat="31.142271" lon="-8.103552"><ele>918.0</ele></trkpt>
    <trkpt lat="31.143257" lon="-8.103281"><ele>912.8</ele></trkpt>
    <trkpt lat="31.145779" lon="-8.101539"><ele>901.2</ele></trkpt>
    <trkpt lat="31.146407" lon="-8.100491"><ele>901.2</ele></trkpt>
    <trkpt lat="31.146847" lon="-8.099629"><ele>905.2</ele></trkpt>
    <trkpt lat="31.147301" lon="-8.097905"><ele>918.0</ele></trkpt>
    <trkpt lat="31.147429" lon="-8.097633"><ele>918.0</ele></trkpt>
    <trkpt lat="31.148308" lon="-8.096918"><ele>917.5</ele></trkpt>
    <trkpt lat="31.148492" lon="-8.096593"><ele>917.5</ele></trkpt>
    <trkpt lat="31.148643" lon="-8.096354"><ele>922.8</ele></trkpt>
    <trkpt lat="31.148929" lon="-8.096028"><ele>928.0</ele></trkpt>
    <trkpt lat="31.149087" lon="-8.095911"><ele>928.0</ele></trkpt>
    <trkpt lat="31.149616" lon="-8.095868"><ele>928.0</ele></trkpt>
    <trkpt lat="31.150339" lon="-8.096092"><ele>917.8</ele></trkpt>
    <trkpt lat="31.150815" lon="-8.096137"><ele>917.8</ele></trkpt>
    <trkpt lat="31.150897" lon="-8.096099"><ele>917.8</ele></trkpt>
    <trkpt lat="31.151192" lon="-8.095778"><ele>929.0</ele></trkpt>
    <trkpt lat="31.151385" lon="-8.095732"><ele>929.0</ele></trkpt>
    <trkpt lat="31.151662" lon="-8.096421"><ele>921.0</ele></trkpt>
    <trkpt lat="31.152234" lon="-8.097133"><ele>919.0</ele></trkpt>
    <trkpt lat="31.152459" lon="-8.097609"><ele>918.8</ele></trkpt>
    <trkpt lat="31.153157" lon="-8.098105"><ele>918.8</ele></trkpt>
    <trkpt lat="31.156029" lon="-8.098564"><ele>929.2</ele></trkpt>
    <trkpt lat="31.156464" lon="-8.098465"><ele>929.2</ele></trkpt>
    <trkpt lat="31.157191" lon="-8.097601"><ele>934.5</ele></trkpt>
    <trkpt lat="31.161171" lon="-8.095010"><ele>943.8</ele></trkpt>
    <trkpt lat="31.161572" lon="-8.094879"><ele>943.8</ele></trkpt>
    <trkpt lat="31.161775" lon="-8.094858"><ele>942.8</ele></trkpt>
    <trkpt lat="31.162818" lon="-8.094880"><ele>928.8</ele></trkpt>
    <trkpt lat="31.163722" lon="-8.094531"><ele>922.0</ele></trkpt>
    <trkpt lat="31.164166" lon="-8.094255"><ele>921.2</ele></trkpt>
    <trkpt lat="31.165005" lon="-8.093584"><ele>921.0</ele></trkpt>
    <trkpt lat="31.165276" lon="-8.092951"><ele>929.2</ele></trkpt>
    <trkpt lat="31.165720" lon="-8.092726"><ele>930.5</ele></trkpt>
    <trkpt lat="31.166286" lon="-8.092125"><ele>926.8</ele></trkpt>
    <trkpt lat="31.166916" lon="-8.091719"><ele>930.5</ele></trkpt>
    <trkpt lat="31.167119" lon="-8.091282"><ele>925.5</ele></trkpt>
    <trkpt lat="31.167965" lon="-8.091075"><ele>930.2</ele></trkpt>
    <trkpt lat="31.168776" lon="-8.090458"><ele>924.8</ele></trkpt>
    <trkpt lat="31.169602" lon="-8.090125"><ele>919.8</ele></trkpt>
    <trkpt lat="31.170060" lon="-8.089805"><ele>919.2</ele></trkpt>
    <trkpt lat="31.170427" lon="-8.088922"><ele>919.2</ele></trkpt>
    <trkpt lat="31.170637" lon="-8.088880"><ele>919.2</ele></trkpt>
    <trkpt lat="31.171203" lon="-8.089275"><ele>901.2</ele></trkpt>
    <trkpt lat="31.171401" lon="-8.089237"><ele>901.2</ele></trkpt>
    <trkpt lat="31.171663" lon="-8.088768"><ele>901.2</ele></trkpt>
    <trkpt lat="31.171945" lon="-8.087446"><ele>903.5</ele></trkpt>
    <trkpt lat="31.171999" lon="-8.087353"><ele>903.5</ele></trkpt>
    <trkpt lat="31.172478" lon="-8.087177"><ele>892.8</ele></trkpt>
    <trkpt lat="31.172577" lon="-8.087061"><ele>892.2</ele></trkpt>
    <trkpt lat="31.172636" lon="-8.086908"><ele>892.2</ele></trkpt>
    <trkpt lat="31.172881" lon="-8.085920"><ele>892.8</ele></trkpt>
    <trkpt lat="31.172708" lon="-8.085347"><ele>894.2</ele></trkpt>
    <trkpt lat="31.172778" lon="-8.085054"><ele>894.8</ele></trkpt>
    <trkpt lat="31.172991" lon="-8.084956"><ele>894.2</ele></trkpt>
    <trkpt lat="31.173972" lon="-8.085354"><ele>891.2</ele></trkpt>
    <trkpt lat="31.174131" lon="-8.085259"><ele>891.2</ele></trkpt>
    <trkpt lat="31.174879" lon="-8.084709"><ele>892.8</ele></trkpt>
    <trkpt lat="31.175290" lon="-8.082431"><ele>896.0</ele></trkpt>
    <trkpt lat="31.175118" lon="-8.080676"><ele>903.8</ele></trkpt>
    <trkpt lat="31.175133" lon="-8.080018"><ele>904.8</ele></trkpt>
    <trkpt lat="31.175279" lon="-8.079295"><ele>905.0</ele></trkpt>
    <trkpt lat="31.175927" lon="-8.078234"><ele>903.2</ele></trkpt>
    <trkpt lat="31.176212" lon="-8.077211"><ele>903.8</ele></trkpt>
    <trkpt lat="31.176947" lon="-8.076121"><ele>904.0</ele></trkpt>
    <trkpt lat="31.177087" lon="-8.074596"><ele>905.5</ele></trkpt>
    <trkpt lat="31.177478" lon="-8.074338"><ele>906.0</ele></trkpt>
    <trkpt lat="31.178031" lon="-8.074041"><ele>909.8</ele></trkpt>
    <trkpt lat="31.178189" lon="-8.074806"><ele>911.2</ele></trkpt>
    <trkpt lat="31.178010" lon="-8.075384"><ele>913.2</ele></trkpt>
    <trkpt lat="31.178324" lon="-8.075880"><ele>916.0</ele></trkpt>
    <trkpt lat="31.178279" lon="-8.076347"><ele>916.0</ele></trkpt>
    <trkpt lat="31.177923" lon="-8.076704"><ele>910.5</ele></trkpt>
    <trkpt lat="31.177712" lon="-8.077392"><ele>903.5</ele></trkpt>
    <trkpt lat="31.177866" lon="-8.078276"><ele>902.8</ele></trkpt>
    <trkpt lat="31.177885" lon="-8.078506"><ele>902.8</ele></trkpt>
    <trkpt lat="31.178191" lon="-8.078897"><ele>902.0</ele></trkpt>
    <trkpt lat="31.178414" lon="-8.079692"><ele>902.5</ele></trkpt>
    <trkpt lat="31.178954" lon="-8.080247"><ele>904.8</ele></trkpt>
    <trkpt lat="31.178891" lon="-8.080540"><ele>905.8</ele></trkpt>
    <trkpt lat="31.179013" lon="-8.080937"><ele>904.5</ele></trkpt>
    <trkpt lat="31.179410" lon="-8.081274"><ele>905.0</ele></trkpt>
    <trkpt lat="31.179545" lon="-8.081341"><ele>906.0</ele></trkpt>
    <trkpt lat="31.179632" lon="-8.079841"><ele>925.0</ele></trkpt>
    <trkpt lat="31.179428" lon="-8.079111"><ele>930.2</ele></trkpt>
    <trkpt lat="31.179409" lon="-8.077946"><ele>942.8</ele></trkpt>
    <trkpt lat="31.179400" lon="-8.077834"><ele>943.2</ele></trkpt>
    <trkpt lat="31.179060" lon="-8.076459"><ele>944.2</ele></trkpt>
    <trkpt lat="31.179109" lon="-8.076008"><ele>944.8</ele></trkpt>
    <trkpt lat="31.179497" lon="-8.075331"><ele>956.8</ele></trkpt>
    <trkpt lat="31.179485" lon="-8.075006"><ele>958.0</ele></trkpt>
    <trkpt lat="31.180006" lon="-8.075740"><ele>966.5</ele></trkpt>
    <trkpt lat="31.181046" lon="-8.076405"><ele>966.5</ele></trkpt>
    <trkpt lat="31.181172" lon="-8.076386"><ele>966.5</ele></trkpt>
    <trkpt lat="31.181642" lon="-8.076204"><ele>964.2</ele></trkpt>
    <trkpt lat="31.182173" lon="-8.075452"><ele>963.0</ele></trkpt>
    <trkpt lat="31.182294" lon="-8.075088"><ele>962.2</ele></trkpt>
    <trkpt lat="31.182515" lon="-8.074975"><ele>962.2</ele></trkpt>
    <trkpt lat="31.182642" lon="-8.075048"><ele>961.5</ele></trkpt>
    <trkpt lat="31.183174" lon="-8.076058"><ele>951.2</ele></trkpt>
    <trkpt lat="31.183705" lon="-8.076324"><ele>947.2</ele></trkpt>
    <trkpt lat="31.184063" lon="-8.076330"><ele>947.2</ele></trkpt>
    <trkpt lat="31.184561" lon="-8.076000"><ele>945.5</ele></trkpt>
    <trkpt lat="31.185045" lon="-8.076434"><ele>940.5</ele></trkpt>
    <trkpt lat="31.186048" lon="-8.076375"><ele>939.5</ele></trkpt>
    <trkpt lat="31.186183" lon="-8.076501"><ele>939.2</ele></trkpt>
    <trkpt lat="31.186204" lon="-8.077942"><ele>940.5</ele></trkpt>
    <trkpt lat="31.186289" lon="-8.078280"><ele>941.0</ele></trkpt>
    <trkpt lat="31.186390" lon="-8.078419"><ele>941.5</ele></trkpt>
    <trkpt lat="31.186569" lon="-8.078516"><ele>942.8</ele></trkpt>
    <trkpt lat="31.187585" lon="-8.078889"><ele>954.5</ele></trkpt>
    <trkpt lat="31.188225" lon="-8.079004"><ele>955.5</ele></trkpt>
    <trkpt lat="31.189130" lon="-8.078682"><ele>954.2</ele></trkpt>
    <trkpt lat="31.189380" lon="-8.078636"><ele>954.2</ele></trkpt>
    <trkpt lat="31.189992" lon="-8.078677"><ele>944.8</ele></trkpt>
    <trkpt lat="31.190848" lon="-8.079028"><ele>933.8</ele></trkpt>
    <trkpt lat="31.191587" lon="-8.079556"><ele>924.5</ele></trkpt>
    <trkpt lat="31.191694" lon="-8.079904"><ele>918.2</ele></trkpt>
    <trkpt lat="31.191757" lon="-8.080955"><ele>898.0</ele></trkpt>
    <trkpt lat="31.191335" lon="-8.081391"><ele>887.2</ele></trkpt>
    <trkpt lat="31.191731" lon="-8.081454"><ele>887.2</ele></trkpt>
    <trkpt lat="31.192054" lon="-8.081091"><ele>885.8</ele></trkpt>
    <trkpt lat="31.192139" lon="-8.081067"><ele>884.5</ele></trkpt>
    <trkpt lat="31.192381" lon="-8.081099"><ele>880.5</ele></trkpt>
    <trkpt lat="31.192975" lon="-8.080957"><ele>870.8</ele></trkpt>
    <trkpt lat="31.193278" lon="-8.080802"><ele>870.8</ele></trkpt>
    <trkpt lat="31.193505" lon="-8.080077"><ele>870.8</ele></trkpt>
    <trkpt lat="31.193604" lon="-8.080088"><ele>870.8</ele></trkpt>
    <trkpt lat="31.193624" lon="-8.080248"><ele>870.8</ele></trkpt>
    <trkpt lat="31.193691" lon="-8.080447"><ele>864.8</ele></trkpt>
    <trkpt lat="31.194090" lon="-8.080562"><ele>859.8</ele></trkpt>
    <trkpt lat="31.194460" lon="-8.080503"><ele>859.8</ele></trkpt>
    <trkpt lat="31.194581" lon="-8.080364"><ele>859.5</ele></trkpt>
    <trkpt lat="31.194600" lon="-8.080004"><ele>859.8</ele></trkpt>
    <trkpt lat="31.195058" lon="-8.079615"><ele>860.5</ele></trkpt>
    <trkpt lat="31.195717" lon="-8.078610"><ele>860.5</ele></trkpt>
    <trkpt lat="31.196206" lon="-8.078304"><ele>859.8</ele></trkpt>
    <trkpt lat="31.196839" lon="-8.076842"><ele>860.2</ele></trkpt>
    <trkpt lat="31.197640" lon="-8.076145"><ele>860.8</ele></trkpt>
    <trkpt lat="31.198010" lon="-8.074897"><ele>859.2</ele></trkpt>
    <trkpt lat="31.198463" lon="-8.074860"><ele>859.2</ele></trkpt>
    <trkpt lat="31.198828" lon="-8.074771"><ele>863.8</ele></trkpt>
    <trkpt lat="31.198936" lon="-8.074699"><ele>865.5</ele></trkpt>
    <trkpt lat="31.199256" lon="-8.074322"><ele>865.5</ele></trkpt>
    <trkpt lat="31.199369" lon="-8.073578"><ele>865.5</ele></trkpt>
    <trkpt lat="31.199163" lon="-8.073362"><ele>861.0</ele></trkpt>
    <trkpt lat="31.199127" lon="-8.072907"><ele>860.0</ele></trkpt>
    <trkpt lat="31.199314" lon="-8.072537"><ele>860.0</ele></trkpt>
    <trkpt lat="31.200838" lon="-8.069487"><ele>865.2</ele></trkpt>
    <trkpt lat="31.200887" lon="-8.067995"><ele>870.0</ele></trkpt>
    <trkpt lat="31.201313" lon="-8.067613"><ele>874.5</ele></trkpt>
    <trkpt lat="31.201108" lon="-8.066930"><ele>875.0</ele></trkpt>
    <trkpt lat="31.200355" lon="-8.065777"><ele>875.2</ele></trkpt>
    <trkpt lat="31.200542" lon="-8.065483"><ele>875.5</ele></trkpt>
    <trkpt lat="31.200964" lon="-8.065099"><ele>876.0</ele></trkpt>
    <trkpt lat="31.201184" lon="-8.065244"><ele>876.0</ele></trkpt>
    <trkpt lat="31.201638" lon="-8.065199"><ele>878.0</ele></trkpt>
    <trkpt lat="31.202301" lon="-8.064681"><ele>884.2</ele></trkpt>
    <trkpt lat="31.202712" lon="-8.064716"><ele>885.8</ele></trkpt>
    <trkpt lat="31.202976" lon="-8.064217"><ele>889.2</ele></trkpt>
    <trkpt lat="31.203304" lon="-8.064083"><ele>891.2</ele></trkpt>
    <trkpt lat="31.203871" lon="-8.063337"><ele>896.5</ele></trkpt>
    <trkpt lat="31.204084" lon="-8.062659"><ele>900.2</ele></trkpt>
    <trkpt lat="31.204710" lon="-8.062197"><ele>902.8</ele></trkpt>
    <trkpt lat="31.205043" lon="-8.061894"><ele>907.8</ele></trkpt>
    <trkpt lat="31.205181" lon="-8.061657"><ele>909.8</ele></trkpt>
    <trkpt lat="31.205738" lon="-8.061746"><ele>911.8</ele></trkpt>
    <trkpt lat="31.206626" lon="-8.061486"><ele>914.2</ele></trkpt>
    <trkpt lat="31.206800" lon="-8.060907"><ele>919.5</ele></trkpt>
    <trkpt lat="31.207424" lon="-8.060167"><ele>924.0</ele></trkpt>
    <trkpt lat="31.208186" lon="-8.059663"><ele>929.5</ele></trkpt>
    <trkpt lat="31.208232" lon="-8.059308"><ele>933.5</ele></trkpt>
    <trkpt lat="31.208094" lon="-8.058847"><ele>935.8</ele></trkpt>
    <trkpt lat="31.208177" lon="-8.058386"><ele>938.8</ele></trkpt>
    <trkpt lat="31.208856" lon="-8.057259"><ele>944.2</ele></trkpt>
    <trkpt lat="31.209195" lon="-8.057163"><ele>948.0</ele></trkpt>
    <trkpt lat="31.209480" lon="-8.057173"><ele>950.0</ele></trkpt>
    <trkpt lat="31.209617" lon="-8.056830"><ele>950.8</ele></trkpt>
    <trkpt lat="31.209599" lon="-8.056401"><ele>951.2</ele></trkpt>
    <trkpt lat="31.209819" lon="-8.056101"><ele>953.5</ele></trkpt>
    <trkpt lat="31.210138" lon="-8.056016"><ele>956.8</ele></trkpt>
    <trkpt lat="31.211156" lon="-8.055215"><ele>966.8</ele></trkpt>
    <trkpt lat="31.211686" lon="-8.055176"><ele>969.8</ele></trkpt>
    <trkpt lat="31.212012" lon="-8.054870"><ele>970.2</ele></trkpt>
    <trkpt lat="31.212405" lon="-8.054424"><ele>974.5</ele></trkpt>
    <trkpt lat="31.212405" lon="-8.054071"><ele>980.5</ele></trkpt>
    <trkpt lat="31.212134" lon="-8.053813"><ele>981.2</ele></trkpt>
    <trkpt lat="31.212089" lon="-8.053122"><ele>985.2</ele></trkpt>
    <trkpt lat="31.212324" lon="-8.052814"><ele>989.8</ele></trkpt>
    <trkpt lat="31.212504" lon="-8.052483"><ele>989.8</ele></trkpt>
    <trkpt lat="31.213544" lon="-8.051959"><ele>989.8</ele></trkpt>
    <trkpt lat="31.214061" lon="-8.052086"><ele>989.8</ele></trkpt>
    <trkpt lat="31.214583" lon="-8.051970"><ele>989.2</ele></trkpt>
    <trkpt lat="31.214857" lon="-8.052057"><ele>989.0</ele></trkpt>
    <trkpt lat="31.215480" lon="-8.051880"><ele>989.0</ele></trkpt>
    <trkpt lat="31.215983" lon="-8.052335"><ele>990.5</ele></trkpt>
    <trkpt lat="31.216045" lon="-8.052325"><ele>991.5</ele></trkpt>
    <trkpt lat="31.216906" lon="-8.051990"><ele>1005.2</ele></trkpt>
    <trkpt lat="31.217264" lon="-8.051753"><ele>1008.5</ele></trkpt>
    <trkpt lat="31.217398" lon="-8.051412"><ele>1009.0</ele></trkpt>
    <trkpt lat="31.217559" lon="-8.051345"><ele>1010.5</ele></trkpt>
    <trkpt lat="31.217649" lon="-8.051389"><ele>1012.0</ele></trkpt>
    <trkpt lat="31.218460" lon="-8.051977"><ele>1029.5</ele></trkpt>
    <trkpt lat="31.218500" lon="-8.052120"><ele>1031.8</ele></trkpt>
    <trkpt lat="31.218521" lon="-8.052371"><ele>1032.2</ele></trkpt>
    <trkpt lat="31.218293" lon="-8.052717"><ele>1030.2</ele></trkpt>
    <trkpt lat="31.218323" lon="-8.052857"><ele>1030.2</ele></trkpt>
    <trkpt lat="31.218354" lon="-8.052875"><ele>1030.2</ele></trkpt>
    <trkpt lat="31.219087" lon="-8.052725"><ele>1044.0</ele></trkpt>
    <trkpt lat="31.219149" lon="-8.052761"><ele>1044.0</ele></trkpt>
    <trkpt lat="31.219434" lon="-8.054153"><ele>1044.2</ele></trkpt>
    <trkpt lat="31.219513" lon="-8.054180"><ele>1044.2</ele></trkpt>
    <trkpt lat="31.220122" lon="-8.054250"><ele>1057.8</ele></trkpt>
    <trkpt lat="31.220677" lon="-8.054649"><ele>1064.0</ele></trkpt>
    <trkpt lat="31.220831" lon="-8.054785"><ele>1064.0</ele></trkpt>
    <trkpt lat="31.220902" lon="-8.055017"><ele>1064.0</ele></trkpt>
    <trkpt lat="31.220316" lon="-8.055030"><ele>1054.0</ele></trkpt>
    <trkpt lat="31.219402" lon="-8.055969"><ele>1050.0</ele></trkpt>
    <trkpt lat="31.219463" lon="-8.056137"><ele>1050.0</ele></trkpt>
    <trkpt lat="31.220439" lon="-8.056888"><ele>1066.2</ele></trkpt>
    <trkpt lat="31.220651" lon="-8.056980"><ele>1068.0</ele></trkpt>
    <trkpt lat="31.220660" lon="-8.057348"><ele>1068.0</ele></trkpt>
    <trkpt lat="31.220836" lon="-8.057497"><ele>1068.0</ele></trkpt>
    <trkpt lat="31.220969" lon="-8.057664"><ele>1077.8</ele></trkpt>
    <trkpt lat="31.220875" lon="-8.057797"><ele>1077.8</ele></trkpt>
    <trkpt lat="31.220161" lon="-8.057958"><ele>1065.5</ele></trkpt>
    <trkpt lat="31.220149" lon="-8.058008"><ele>1065.5</ele></trkpt>
    <trkpt lat="31.220204" lon="-8.058391"><ele>1072.8</ele></trkpt>
    <trkpt lat="31.220577" lon="-8.059239"><ele>1101.8</ele></trkpt>
    <trkpt lat="31.220577" lon="-8.059286"><ele>1101.8</ele></trkpt>
    <trkpt lat="31.220411" lon="-8.059401"><ele>1101.8</ele></trkpt>
    <trkpt lat="31.220137" lon="-8.059437"><ele>1095.2</ele></trkpt>
    <trkpt lat="31.219509" lon="-8.059378"><ele>1089.8</ele></trkpt>
    <trkpt lat="31.218996" lon="-8.059404"><ele>1089.5</ele></trkpt>
    <trkpt lat="31.219025" lon="-8.059508"><ele>1089.5</ele></trkpt>
    <trkpt lat="31.219820" lon="-8.060037"><ele>1107.0</ele></trkpt>
    <trkpt lat="31.220262" lon="-8.060415"><ele>1115.5</ele></trkpt>
    <trkpt lat="31.220602" lon="-8.060293"><ele>1125.2</ele></trkpt>
    <trkpt lat="31.220782" lon="-8.060752"><ele>1133.0</ele></trkpt>
    <trkpt lat="31.220924" lon="-8.061060"><ele>1134.2</ele></trkpt>
    <trkpt lat="31.220915" lon="-8.060428"><ele>1138.0</ele></trkpt>
    <trkpt lat="31.221257" lon="-8.060149"><ele>1148.5</ele></trkpt>
    <trkpt lat="31.221356" lon="-8.059990"><ele>1151.2</ele></trkpt>
    <trkpt lat="31.221792" lon="-8.059321"><ele>1154.0</ele></trkpt>
    <trkpt lat="31.221908" lon="-8.059272"><ele>1154.0</ele></trkpt>
    <trkpt lat="31.222306" lon="-8.059197"><ele>1164.5</ele></trkpt>
    <trkpt lat="31.222780" lon="-8.059074"><ele>1174.2</ele></trkpt>
    <trkpt lat="31.223229" lon="-8.058753"><ele>1181.8</ele></trkpt>
    <trkpt lat="31.223285" lon="-8.058738"><ele>1183.5</ele></trkpt>
    <trkpt lat="31.223207" lon="-8.059311"><ele>1188.0</ele></trkpt>
    <trkpt lat="31.223120" lon="-8.059461"><ele>1188.0</ele></trkpt>
    <trkpt lat="31.222799" lon="-8.059410"><ele>1182.8</ele></trkpt>
    <trkpt lat="31.222565" lon="-8.059633"><ele>1182.8</ele></trkpt>
    <trkpt lat="31.222488" lon="-8.060240"><ele>1190.2</ele></trkpt>
    <trkpt lat="31.222688" lon="-8.060498"><ele>1191.2</ele></trkpt>
    <trkpt lat="31.223120" lon="-8.060699"><ele>1196.0</ele></trkpt>
    <trkpt lat="31.223706" lon="-8.061071"><ele>1203.8</ele></trkpt>
    <trkpt lat="31.224093" lon="-8.060998"><ele>1212.2</ele></trkpt>
    <trkpt lat="31.224273" lon="-8.060770"><ele>1218.2</ele></trkpt>
    <trkpt lat="31.224402" lon="-8.060212"><ele>1222.8</ele></trkpt>
    <trkpt lat="31.224633" lon="-8.059406"><ele>1224.8</ele></trkpt>
    <trkpt lat="31.224836" lon="-8.059190"><ele>1225.8</ele></trkpt>
    <trkpt lat="31.224893" lon="-8.059208"><ele>1226.8</ele></trkpt>
    <trkpt lat="31.225057" lon="-8.059369"><ele>1231.0</ele></trkpt>
    <trkpt lat="31.225933" lon="-8.056933"><ele>1249.5</ele></trkpt>
    <trkpt lat="31.226132" lon="-8.057333"><ele>1254.0</ele></trkpt>
    <trkpt lat="31.226114" lon="-8.057856"><ele>1254.8</ele></trkpt>
    <trkpt lat="31.225907" lon="-8.058507"><ele>1256.0</ele></trkpt>
    <trkpt lat="31.225708" lon="-8.060694"><ele>1259.0</ele></trkpt>
    <trkpt lat="31.225805" lon="-8.061435"><ele>1259.2</ele></trkpt>
    <trkpt lat="31.225597" lon="-8.063067"><ele>1263.8</ele></trkpt>
    <trkpt lat="31.225691" lon="-8.063054"><ele>1267.2</ele></trkpt>
    <trkpt lat="31.226166" lon="-8.062590"><ele>1281.8</ele></trkpt>
    <trkpt lat="31.226639" lon="-8.061768"><ele>1289.2</ele></trkpt>
    <trkpt lat="31.227568" lon="-8.058922"><ele>1316.5</ele></trkpt>
    <trkpt lat="31.227740" lon="-8.058430"><ele>1318.5</ele></trkpt>
    <trkpt lat="31.227798" lon="-8.057332"><ele>1323.5</ele></trkpt>
    <trkpt lat="31.227647" lon="-8.056884"><ele>1326.2</ele></trkpt>
    <trkpt lat="31.227997" lon="-8.055719"><ele>1332.2</ele></trkpt>
    <trkpt lat="31.228785" lon="-8.054600"><ele>1353.5</ele></trkpt>
    <trkpt lat="31.229607" lon="-8.052573"><ele>1362.2</ele></trkpt>
    <trkpt lat="31.229789" lon="-8.051246"><ele>1362.2</ele></trkpt>
    <trkpt lat="31.231189" lon="-8.050116"><ele>1362.2</ele></trkpt>
    <trkpt lat="31.231573" lon="-8.050237"><ele>1362.2</ele></trkpt>
    <trkpt lat="31.232108" lon="-8.050071"><ele>1361.0</ele></trkpt>
    <trkpt lat="31.232640" lon="-8.049629"><ele>1361.0</ele></trkpt>
    <trkpt lat="31.232832" lon="-8.049664"><ele>1361.0</ele></trkpt>
    <trkpt lat="31.232906" lon="-8.049564"><ele>1361.0</ele></trkpt>
    <trkpt lat="31.234020" lon="-8.048951"><ele>1368.8</ele></trkpt>
    <trkpt lat="31.234978" lon="-8.048723"><ele>1368.8</ele></trkpt>
    <trkpt lat="31.235628" lon="-8.049218"><ele>1368.8</ele></trkpt>
    <trkpt lat="31.235942" lon="-8.049769"><ele>1368.8</ele></trkpt>
    <trkpt lat="31.236288" lon="-8.051156"><ele>1368.8</ele></trkpt>
    <trkpt lat="31.236642" lon="-8.051491"><ele>1366.0</ele></trkpt>
    <trkpt lat="31.237451" lon="-8.051790"><ele>1364.8</ele></trkpt>
    <trkpt lat="31.237877" lon="-8.051628"><ele>1363.5</ele></trkpt>
    <trkpt lat="31.238535" lon="-8.051882"><ele>1363.2</ele></trkpt>
    <trkpt lat="31.239030" lon="-8.053230"><ele>1361.5</ele></trkpt>
    <trkpt lat="31.239268" lon="-8.053318"><ele>1360.2</ele></trkpt>
    <trkpt lat="31.239392" lon="-8.053082"><ele>1360.0</ele></trkpt>
    <trkpt lat="31.240107" lon="-8.052578"><ele>1355.5</ele></trkpt>
    <trkpt lat="31.240157" lon="-8.052281"><ele>1353.0</ele></trkpt>
    <trkpt lat="31.241604" lon="-8.051308"><ele>1343.2</ele></trkpt>
    <trkpt lat="31.242084" lon="-8.051228"><ele>1336.8</ele></trkpt>
    <trkpt lat="31.242450" lon="-8.051367"><ele>1332.5</ele></trkpt>
    <trkpt lat="31.243412" lon="-8.051511"><ele>1322.5</ele></trkpt>
    <trkpt lat="31.246038" lon="-8.051819"><ele>1298.0</ele></trkpt>
    <trkpt lat="31.246726" lon="-8.051779"><ele>1291.2</ele></trkpt>
    <trkpt lat="31.247566" lon="-8.052118"><ele>1281.5</ele></trkpt>
    <trkpt lat="31.248484" lon="-8.052193"><ele>1277.5</ele></trkpt>
    <trkpt lat="31.248645" lon="-8.052326"><ele>1277.5</ele></trkpt>
    <trkpt lat="31.248351" lon="-8.052533"><ele>1277.5</ele></trkpt>
    <trkpt lat="31.248220" lon="-8.052850"><ele>1277.5</ele></trkpt>
    <trkpt lat="31.248177" lon="-8.053955"><ele>1278.0</ele></trkpt>
    <trkpt lat="31.247936" lon="-8.054738"><ele>1278.5</ele></trkpt>
    <trkpt lat="31.248140" lon="-8.055532"><ele>1281.0</ele></trkpt>
    <trkpt lat="31.248278" lon="-8.057466"><ele>1286.2</ele></trkpt>
    <trkpt lat="31.247973" lon="-8.058279"><ele>1287.2</ele></trkpt>
    <trkpt lat="31.248064" lon="-8.058989"><ele>1287.2</ele></trkpt>
    <trkpt lat="31.247688" lon="-8.059566"><ele>1287.2</ele></trkpt>
    <trkpt lat="31.247030" lon="-8.059939"><ele>1287.2</ele></trkpt>
    <trkpt lat="31.247035" lon="-8.060743"><ele>1288.2</ele></trkpt>
    <trkpt lat="31.246725" lon="-8.061551"><ele>1288.8</ele></trkpt>
    <trkpt lat="31.246973" lon="-8.062243"><ele>1289.0</ele></trkpt>
    <trkpt lat="31.246950" lon="-8.062707"><ele>1289.5</ele></trkpt>
    <trkpt lat="31.246565" lon="-8.063415"><ele>1290.8</ele></trkpt>
    <trkpt lat="31.246509" lon="-8.064421"><ele>1291.0</ele></trkpt>
    <trkpt lat="31.246356" lon="-8.064668"><ele>1291.0</ele></trkpt>
    <trkpt lat="31.246145" lon="-8.064874"><ele>1290.2</ele></trkpt>
    <trkpt lat="31.246014" lon="-8.065939"><ele>1281.0</ele></trkpt>
    <trkpt lat="31.246330" lon="-8.066970"><ele>1274.2</ele></trkpt>
    <trkpt lat="31.246987" lon="-8.068474"><ele>1262.2</ele></trkpt>
    <trkpt lat="31.247098" lon="-8.068636"><ele>1260.0</ele></trkpt>
    <trkpt lat="31.247284" lon="-8.068266"><ele>1259.8</ele></trkpt>
    <trkpt lat="31.247567" lon="-8.068394"><ele>1255.8</ele></trkpt>
    <trkpt lat="31.247726" lon="-8.068986"><ele>1250.0</ele></trkpt>
    <trkpt lat="31.247962" lon="-8.069135"><ele>1246.5</ele></trkpt>
    <trkpt lat="31.248007" lon="-8.069237"><ele>1246.5</ele></trkpt>
    <trkpt lat="31.247920" lon="-8.069465"><ele>1246.5</ele></trkpt>
    <trkpt lat="31.247409" lon="-8.069879"><ele>1247.0</ele></trkpt>
    <trkpt lat="31.247371" lon="-8.070255"><ele>1248.2</ele></trkpt>
    <trkpt lat="31.247139" lon="-8.070480"><ele>1251.2</ele></trkpt>
    <trkpt lat="31.247313" lon="-8.070635"><ele>1252.0</ele></trkpt>
    <trkpt lat="31.247178" lon="-8.070863"><ele>1254.2</ele></trkpt>
    <trkpt lat="31.248108" lon="-8.072027"><ele>1264.5</ele></trkpt>
    <trkpt lat="31.248347" lon="-8.072475"><ele>1265.8</ele></trkpt>
    <trkpt lat="31.248736" lon="-8.073424"><ele>1265.8</ele></trkpt>
    <trkpt lat="31.248952" lon="-8.074837"><ele>1264.2</ele></trkpt>
    <trkpt lat="31.248864" lon="-8.075758"><ele>1258.5</ele></trkpt>
    <trkpt lat="31.248963" lon="-8.076003"><ele>1256.8</ele></trkpt>
    <trkpt lat="31.249337" lon="-8.077505"><ele>1250.8</ele></trkpt>
    <trkpt lat="31.249943" lon="-8.079087"><ele>1238.0</ele></trkpt>
    <trkpt lat="31.250144" lon="-8.079752"><ele>1231.5</ele></trkpt>
    <trkpt lat="31.250210" lon="-8.080227"><ele>1229.8</ele></trkpt>
    <trkpt lat="31.250421" lon="-8.081682"><ele>1228.2</ele></trkpt>
    <trkpt lat="31.250409" lon="-8.081811"><ele>1227.0</ele></trkpt>
    <trkpt lat="31.249843" lon="-8.083257"><ele>1214.8</ele></trkpt>
    <trkpt lat="31.249819" lon="-8.083405"><ele>1213.2</ele></trkpt>
    <trkpt lat="31.250152" lon="-8.083851"><ele>1207.5</ele></trkpt>
    <trkpt lat="31.250531" lon="-8.084985"><ele>1203.5</ele></trkpt>
    <trkpt lat="31.250765" lon="-8.085777"><ele>1194.0</ele></trkpt>
    <trkpt lat="31.251052" lon="-8.085936"><ele>1183.2</ele></trkpt>
    <trkpt lat="31.250889" lon="-8.086241"><ele>1182.0</ele></trkpt>
    <trkpt lat="31.250173" lon="-8.086575"><ele>1180.2</ele></trkpt>
    <trkpt lat="31.250000" lon="-8.086782"><ele>1176.5</ele></trkpt>
    <trkpt lat="31.250258" lon="-8.087189"><ele>1168.0</ele></trkpt>
    <trkpt lat="31.250583" lon="-8.087386"><ele>1164.5</ele></trkpt>
    <trkpt lat="31.250571" lon="-8.087843"><ele>1155.0</ele></trkpt>
    <trkpt lat="31.250541" lon="-8.087936"><ele>1155.0</ele></trkpt>
    <trkpt lat="31.249727" lon="-8.087584"><ele>1154.0</ele></trkpt>
    <trkpt lat="31.249717" lon="-8.087785"><ele>1151.0</ele></trkpt>
    <trkpt lat="31.249780" lon="-8.088075"><ele>1145.0</ele></trkpt>
    <trkpt lat="31.251209" lon="-8.088783"><ele>1128.5</ele></trkpt>
    <trkpt lat="31.252186" lon="-8.088403"><ele>1120.8</ele></trkpt>
    <trkpt lat="31.252260" lon="-8.088379"><ele>1119.5</ele></trkpt>
    <trkpt lat="31.252380" lon="-8.088454"><ele>1115.8</ele></trkpt>
    <trkpt lat="31.252264" lon="-8.088860"><ele>1111.5</ele></trkpt>
    <trkpt lat="31.251388" lon="-8.089822"><ele>1102.5</ele></trkpt>
    <trkpt lat="31.251458" lon="-8.089914"><ele>1099.8</ele></trkpt>
    <trkpt lat="31.251971" lon="-8.089863"><ele>1095.2</ele></trkpt>
    <trkpt lat="31.251994" lon="-8.089972"><ele>1092.5</ele></trkpt>
    <trkpt lat="31.251587" lon="-8.090264"><ele>1091.0</ele></trkpt>
    <trkpt lat="31.250479" lon="-8.091254"><ele>1080.2</ele></trkpt>
    <trkpt lat="31.250307" lon="-8.091401"><ele>1078.2</ele></trkpt>
    <trkpt lat="31.249323" lon="-8.091880"><ele>1069.0</ele></trkpt>
    <trkpt lat="31.249284" lon="-8.092054"><ele>1065.8</ele></trkpt>
    <trkpt lat="31.249357" lon="-8.092178"><ele>1063.5</ele></trkpt>
    <trkpt lat="31.250303" lon="-8.092807"><ele>1051.5</ele></trkpt>
    <trkpt lat="31.251674" lon="-8.092999"><ele>1040.5</ele></trkpt>
    <trkpt lat="31.252443" lon="-8.092879"><ele>1034.2</ele></trkpt>
    <trkpt lat="31.252550" lon="-8.092978"><ele>1031.8</ele></trkpt>
    <trkpt lat="31.253158" lon="-8.093542"><ele>1014.2</ele></trkpt>
    <trkpt lat="31.252875" lon="-8.094113"><ele>1011.2</ele></trkpt>
    <trkpt lat="31.251455" lon="-8.094771"><ele>1004.8</ele></trkpt>
    <trkpt lat="31.251637" lon="-8.094951"><ele>1001.0</ele></trkpt>
    <trkpt lat="31.251825" lon="-8.095010"><ele>998.8</ele></trkpt>
    <trkpt lat="31.253086" lon="-8.095025"><ele>986.5</ele></trkpt>
    <trkpt lat="31.252868" lon="-8.095314"><ele>983.0</ele></trkpt>
    <trkpt lat="31.251295" lon="-8.096174"><ele>972.5</ele></trkpt>
    <trkpt lat="31.251288" lon="-8.096215"><ele>971.5</ele></trkpt>
    <trkpt lat="31.251329" lon="-8.096303"><ele>970.0</ele></trkpt>
    <trkpt lat="31.251783" lon="-8.096405"><ele>968.2</ele></trkpt>
    <trkpt lat="31.251740" lon="-8.096535"><ele>965.8</ele></trkpt>
    <trkpt lat="31.251167" lon="-8.096751"><ele>959.5</ele></trkpt>
    <trkpt lat="31.251685" lon="-8.097128"><ele>952.0</ele></trkpt>
    <trkpt lat="31.250706" lon="-8.097256"><ele>946.8</ele></trkpt>
    <trkpt lat="31.250182" lon="-8.097097"><ele>946.0</ele></trkpt>
    <trkpt lat="31.249912" lon="-8.097228"><ele>940.8</ele></trkpt>
    <trkpt lat="31.250270" lon="-8.097547"><ele>936.5</ele></trkpt>
    <trkpt lat="31.250956" lon="-8.098459"><ele>923.5</ele></trkpt>
    <trkpt lat="31.252783" lon="-8.099135"><ele>908.5</ele></trkpt>
    <trkpt lat="31.253202" lon="-8.099504"><ele>902.2</ele></trkpt>
    <trkpt lat="31.253281" lon="-8.099550"><ele>901.8</ele></trkpt>
    <trkpt lat="31.253708" lon="-8.099538"><ele>897.5</ele></trkpt>
    <trkpt lat="31.254139" lon="-8.100034"><ele>893.8</ele></trkpt>
    <trkpt lat="31.254280" lon="-8.100444"><ele>889.8</ele></trkpt>
    <trkpt lat="31.254915" lon="-8.101356"><ele>880.5</ele></trkpt>
    <trkpt lat="31.255302" lon="-8.102625"><ele>869.0</ele></trkpt>
    <trkpt lat="31.255344" lon="-8.103361"><ele>865.8</ele></trkpt>
    <trkpt lat="31.255438" lon="-8.104037"><ele>863.8</ele></trkpt>
    <trkpt lat="31.255752" lon="-8.105361"><ele>862.0</ele></trkpt>
    <trkpt lat="31.256606" lon="-8.106797"><ele>853.2</ele></trkpt>
    <trkpt lat="31.256724" lon="-8.107309"><ele>853.2</ele></trkpt>
    <trkpt lat="31.257572" lon="-8.109200"><ele>847.0</ele></trkpt>
    <trkpt lat="31.257732" lon="-8.110064"><ele>843.5</ele></trkpt>
    <trkpt lat="31.258280" lon="-8.111549"><ele>842.8</ele></trkpt>
    <trkpt lat="31.258523" lon="-8.112256"><ele>839.0</ele></trkpt>
    <trkpt lat="31.259244" lon="-8.113630"><ele>830.5</ele></trkpt>
    <trkpt lat="31.259152" lon="-8.114187"><ele>828.5</ele></trkpt>
    <trkpt lat="31.259162" lon="-8.114239"><ele>827.8</ele></trkpt>
    <trkpt lat="31.259444" lon="-8.115165"><ele>814.5</ele></trkpt>
    <trkpt lat="31.261130" lon="-8.117993"><ele>792.5</ele></trkpt>
    <trkpt lat="31.261190" lon="-8.118124"><ele>791.5</ele></trkpt>
    <trkpt lat="31.261169" lon="-8.118526"><ele>790.0</ele></trkpt>
    <trkpt lat="31.260589" lon="-8.119496"><ele>783.8</ele></trkpt>
    <trkpt lat="31.260779" lon="-8.119867"><ele>782.5</ele></trkpt>
    <trkpt lat="31.260861" lon="-8.120913"><ele>778.8</ele></trkpt>
    <trkpt lat="31.261077" lon="-8.121758"><ele>777.5</ele></trkpt>
    <trkpt lat="31.261452" lon="-8.122558"><ele>773.8</ele></trkpt>
    <trkpt lat="31.261358" lon="-8.123241"><ele>769.5</ele></trkpt>
    <trkpt lat="31.261237" lon="-8.123468"><ele>767.8</ele></trkpt>
    <trkpt lat="31.260820" lon="-8.123985"><ele>762.5</ele></trkpt>
    <trkpt lat="31.262607" lon="-8.124419"><ele>757.5</ele></trkpt>
    <trkpt lat="31.262871" lon="-8.124314"><ele>756.0</ele></trkpt>
    <trkpt lat="31.264580" lon="-8.123081"><ele>743.2</ele></trkpt>
    <trkpt lat="31.265010" lon="-8.123203"><ele>740.0</ele></trkpt>
    <trkpt lat="31.265093" lon="-8.123268"><ele>739.2</ele></trkpt>
    <trkpt lat="31.265148" lon="-8.123537"><ele>738.8</ele></trkpt>
    <trkpt lat="31.265009" lon="-8.124296"><ele>740.5</ele></trkpt>
    <trkpt lat="31.265383" lon="-8.124547"><ele>736.2</ele></trkpt>
    <trkpt lat="31.265724" lon="-8.124177"><ele>733.8</ele></trkpt>
    <trkpt lat="31.265997" lon="-8.123511"><ele>733.8</ele></trkpt>
    <trkpt lat="31.266005" lon="-8.123466"><ele>734.0</ele></trkpt>
    <trkpt lat="31.265901" lon="-8.123217"><ele>735.0</ele></trkpt>
    <trkpt lat="31.265556" lon="-8.122957"><ele>739.2</ele></trkpt>
    <trkpt lat="31.265570" lon="-8.122747"><ele>741.8</ele></trkpt>
    <trkpt lat="31.266104" lon="-8.122845"><ele>744.5</ele></trkpt>
    <trkpt lat="31.266221" lon="-8.122926"><ele>744.5</ele></trkpt>
    <trkpt lat="31.266461" lon="-8.123249"><ele>743.2</ele></trkpt>
    <trkpt lat="31.266798" lon="-8.124158"><ele>741.2</ele></trkpt>
    <trkpt lat="31.266904" lon="-8.124853"><ele>741.5</ele></trkpt>
    <trkpt lat="31.267899" lon="-8.126604"><ele>741.5</ele></trkpt>
    <trkpt lat="31.268310" lon="-8.127311"><ele>736.5</ele></trkpt>
    <trkpt lat="31.271733" lon="-8.131235"><ele>720.8</ele></trkpt>
    <trkpt lat="31.272800" lon="-8.132898"><ele>713.5</ele></trkpt>
    <trkpt lat="31.273160" lon="-8.133080"><ele>712.8</ele></trkpt>
    <trkpt lat="31.272183" lon="-8.134664"><ele>708.8</ele></trkpt>
    <trkpt lat="31.270015" lon="-8.136916"><ele>704.0</ele></trkpt>
    <trkpt lat="31.269881" lon="-8.137666"><ele>701.2</ele></trkpt>
    <trkpt lat="31.269742" lon="-8.137840"><ele>700.5</ele></trkpt>
    <trkpt lat="31.268298" lon="-8.137927"><ele>694.2</ele></trkpt>
    <trkpt lat="31.268008" lon="-8.138275"><ele>691.8</ele></trkpt>
    <trkpt lat="31.267764" lon="-8.138338"><ele>690.8</ele></trkpt>
    <trkpt lat="31.267487" lon="-8.138209"><ele>689.5</ele></trkpt>
    <trkpt lat="31.266501" lon="-8.137470"><ele>689.8</ele></trkpt>
    <trkpt lat="31.265675" lon="-8.137237"><ele>694.2</ele></trkpt>
    <trkpt lat="31.264785" lon="-8.138739"><ele>695.5</ele></trkpt>
    <trkpt lat="31.264417" lon="-8.140476"><ele>700.8</ele></trkpt>
    <trkpt lat="31.263990" lon="-8.140884"><ele>704.2</ele></trkpt>
    <trkpt lat="31.263870" lon="-8.141060"><ele>704.2</ele></trkpt>
    <trkpt lat="31.263906" lon="-8.141343"><ele>704.0</ele></trkpt>
    <trkpt lat="31.264515" lon="-8.141547"><ele>698.8</ele></trkpt>
    <trkpt lat="31.264525" lon="-8.141697"><ele>698.8</ele></trkpt>
    <trkpt lat="31.264438" lon="-8.141989"><ele>701.5</ele></trkpt>
    <trkpt lat="31.263922" lon="-8.142816"><ele>711.5</ele></trkpt>
    <trkpt lat="31.263863" lon="-8.142988"><ele>713.0</ele></trkpt>
    <trkpt lat="31.263253" lon="-8.145067"><ele>726.8</ele></trkpt>
    <trkpt lat="31.263195" lon="-8.145206"><ele>728.2</ele></trkpt>
    <trkpt lat="31.262739" lon="-8.145660"><ele>729.2</ele></trkpt>
    <trkpt lat="31.262528" lon="-8.145981"><ele>731.8</ele></trkpt>
    <trkpt lat="31.262203" lon="-8.146486"><ele>738.2</ele></trkpt>
    <trkpt lat="31.261960" lon="-8.147093"><ele>741.5</ele></trkpt>
    <trkpt lat="31.261712" lon="-8.148275"><ele>751.5</ele></trkpt>
    <trkpt lat="31.261247" lon="-8.149594"><ele>756.2</ele></trkpt>
    <trkpt lat="31.261013" lon="-8.150152"><ele>756.2</ele></trkpt>
    <trkpt lat="31.260396" lon="-8.151134"><ele>756.2</ele></trkpt>
    <trkpt lat="31.259296" lon="-8.152254"><ele>755.5</ele></trkpt>
    <trkpt lat="31.258569" lon="-8.153468"><ele>755.5</ele></trkpt>
    <trkpt lat="31.257653" lon="-8.153701"><ele>757.5</ele></trkpt>
    <trkpt lat="31.256640" lon="-8.155726"><ele>777.5</ele></trkpt>
    <trkpt lat="31.256512" lon="-8.156767"><ele>782.8</ele></trkpt>
    <trkpt lat="31.255568" lon="-8.157799"><ele>792.5</ele></trkpt>
    <trkpt lat="31.254515" lon="-8.158258"><ele>801.0</ele></trkpt>
    <trkpt lat="31.254111" lon="-8.158261"><ele>807.5</ele></trkpt>
    <trkpt lat="31.253724" lon="-8.158459"><ele>809.0</ele></trkpt>
    <trkpt lat="31.252366" lon="-8.159100"><ele>819.0</ele></trkpt>
    <trkpt lat="31.252093" lon="-8.159245"><ele>819.2</ele></trkpt>
    <trkpt lat="31.251052" lon="-8.159425"><ele>820.8</ele></trkpt>
    <trkpt lat="31.250262" lon="-8.160086"><ele>823.5</ele></trkpt>
    <trkpt lat="31.249890" lon="-8.159982"><ele>823.5</ele></trkpt>
    <trkpt lat="31.249292" lon="-8.161161"><ele>826.2</ele></trkpt>
    <trkpt lat="31.249242" lon="-8.161145"><ele>826.2</ele></trkpt>
    <trkpt lat="31.248994" lon="-8.160687"><ele>820.0</ele></trkpt>
    <trkpt lat="31.248609" lon="-8.160665"><ele>819.5</ele></trkpt>
    <trkpt lat="31.248904" lon="-8.160254"><ele>815.0</ele></trkpt>
    <trkpt lat="31.248873" lon="-8.160147"><ele>814.2</ele></trkpt>
    <trkpt lat="31.248677" lon="-8.160015"><ele>814.2</ele></trkpt>
    <trkpt lat="31.248629" lon="-8.160014"><ele>814.2</ele></trkpt>
    <trkpt lat="31.248256" lon="-8.160084"><ele>816.8</ele></trkpt>
    <trkpt lat="31.248189" lon="-8.160432"><ele>820.2</ele></trkpt>
    <trkpt lat="31.247461" lon="-8.161169"><ele>835.5</ele></trkpt>
    <trkpt lat="31.247363" lon="-8.161612"><ele>838.8</ele></trkpt>
    <trkpt lat="31.247218" lon="-8.161884"><ele>841.8</ele></trkpt>
    <trkpt lat="31.247019" lon="-8.162214"><ele>846.5</ele></trkpt>
    <trkpt lat="31.246286" lon="-8.162961"><ele>858.0</ele></trkpt>
    <trkpt lat="31.245943" lon="-8.163528"><ele>866.5</ele></trkpt>
    <trkpt lat="31.245856" lon="-8.163597"><ele>868.8</ele></trkpt>
    <trkpt lat="31.245550" lon="-8.163729"><ele>869.0</ele></trkpt>
    <trkpt lat="31.245299" lon="-8.164139"><ele>875.2</ele></trkpt>
    <trkpt lat="31.244780" lon="-8.164298"><ele>876.2</ele></trkpt>
    <trkpt lat="31.244448" lon="-8.164717"><ele>880.5</ele></trkpt>
    <trkpt lat="31.243802" lon="-8.165127"><ele>885.2</ele></trkpt>
    <trkpt lat="31.243010" lon="-8.165433"><ele>888.0</ele></trkpt>
    <trkpt lat="31.241946" lon="-8.166264"><ele>893.2</ele></trkpt>
    <trkpt lat="31.241258" lon="-8.166903"><ele>894.0</ele></trkpt>
    <trkpt lat="31.240362" lon="-8.167391"><ele>894.8</ele></trkpt>
    <trkpt lat="31.238805" lon="-8.168525"><ele>895.8</ele></trkpt>
    <trkpt lat="31.236316" lon="-8.169946"><ele>898.0</ele></trkpt>
    <trkpt lat="31.235920" lon="-8.170476"><ele>899.2</ele></trkpt>
    <trkpt lat="31.235604" lon="-8.170794"><ele>903.5</ele></trkpt>
    <trkpt lat="31.234945" lon="-8.170947"><ele>908.5</ele></trkpt>
    <trkpt lat="31.234175" lon="-8.170874"><ele>915.5</ele></trkpt>
    <trkpt lat="31.233401" lon="-8.171344"><ele>920.2</ele></trkpt>
    <trkpt lat="31.232045" lon="-8.171889"><ele>928.8</ele></trkpt>
    <trkpt lat="31.230837" lon="-8.172234"><ele>933.5</ele></trkpt>
    <trkpt lat="31.230184" lon="-8.172346"><ele>935.2</ele></trkpt>
    <trkpt lat="31.230109" lon="-8.172249"><ele>935.2</ele></trkpt>
    <trkpt lat="31.229651" lon="-8.172270"><ele>936.0</ele></trkpt>
    <trkpt lat="31.228211" lon="-8.172930"><ele>938.8</ele></trkpt>
    <trkpt lat="31.228275" lon="-8.173168"><ele>938.5</ele></trkpt>
    <trkpt lat="31.228223" lon="-8.173243"><ele>938.5</ele></trkpt>
    <trkpt lat="31.227298" lon="-8.174267"><ele>935.2</ele></trkpt>
    <trkpt lat="31.226809" lon="-8.175089"><ele>925.8</ele></trkpt>
    <trkpt lat="31.226727" lon="-8.175543"><ele>920.5</ele></trkpt>
    <trkpt lat="31.226706" lon="-8.175631"><ele>920.5</ele></trkpt>
    <trkpt lat="31.226878" lon="-8.176026"><ele>921.2</ele></trkpt>
    <trkpt lat="31.226861" lon="-8.176390"><ele>928.0</ele></trkpt>
    <trkpt lat="31.226806" lon="-8.176624"><ele>931.5</ele></trkpt>
    <trkpt lat="31.226656" lon="-8.177599"><ele>952.0</ele></trkpt>
    <trkpt lat="31.226401" lon="-8.178093"><ele>961.0</ele></trkpt>
    <trkpt lat="31.226614" lon="-8.179108"><ele>976.2</ele></trkpt>
    <trkpt lat="31.226636" lon="-8.179221"><ele>976.2</ele></trkpt>
    <trkpt lat="31.227161" lon="-8.180323"><ele>975.2</ele></trkpt>
    <trkpt lat="31.227600" lon="-8.182016"><ele>972.0</ele></trkpt>
    <trkpt lat="31.228383" lon="-8.182610"><ele>970.2</ele></trkpt>
    <trkpt lat="31.229372" lon="-8.183925"><ele>965.8</ele></trkpt>
    <trkpt lat="31.230077" lon="-8.184503"><ele>963.5</ele></trkpt>
    <trkpt lat="31.231479" lon="-8.185705"><ele>958.0</ele></trkpt>
    <trkpt lat="31.233829" lon="-8.185799"><ele>947.2</ele></trkpt>
    <trkpt lat="31.233950" lon="-8.185789"><ele>946.2</ele></trkpt>
    <trkpt lat="31.234319" lon="-8.186783"><ele>945.5</ele></trkpt>
    <trkpt lat="31.234642" lon="-8.187565"><ele>940.2</ele></trkpt>
    <trkpt lat="31.235330" lon="-8.188402"><ele>932.2</ele></trkpt>
    <trkpt lat="31.237263" lon="-8.190080"><ele>920.2</ele></trkpt>
    <trkpt lat="31.237981" lon="-8.190184"><ele>919.0</ele></trkpt>
    <trkpt lat="31.238323" lon="-8.190363"><ele>916.8</ele></trkpt>
    <trkpt lat="31.240641" lon="-8.191941"><ele>907.5</ele></trkpt>
    <trkpt lat="31.241148" lon="-8.192039"><ele>905.5</ele></trkpt>
    <trkpt lat="31.241714" lon="-8.191874"><ele>905.2</ele></trkpt>
    <trkpt lat="31.242183" lon="-8.192190"><ele>904.2</ele></trkpt>
    <trkpt lat="31.242504" lon="-8.192512"><ele>902.8</ele></trkpt>
    <trkpt lat="31.243120" lon="-8.193325"><ele>894.0</ele></trkpt>
    <trkpt lat="31.244313" lon="-8.193966"><ele>886.5</ele></trkpt>
    <trkpt lat="31.245838" lon="-8.194283"><ele>881.5</ele></trkpt>
    <trkpt lat="31.247383" lon="-8.195195"><ele>875.5</ele></trkpt>
    <trkpt lat="31.247809" lon="-8.195685"><ele>868.2</ele></trkpt>
    <trkpt lat="31.248087" lon="-8.195897"><ele>867.0</ele></trkpt>
    <trkpt lat="31.247333" lon="-8.195852"><ele>862.5</ele></trkpt>
    <trkpt lat="31.247154" lon="-8.196047"><ele>858.2</ele></trkpt>
    <trkpt lat="31.247356" lon="-8.196251"><ele>856.0</ele></trkpt>
    <trkpt lat="31.247234" lon="-8.197161"><ele>843.8</ele></trkpt>
    <trkpt lat="31.246429" lon="-8.197254"><ele>843.5</ele></trkpt>
    <trkpt lat="31.246368" lon="-8.197287"><ele>844.0</ele></trkpt>
    <trkpt lat="31.246611" lon="-8.197997"><ele>844.0</ele></trkpt>
    <trkpt lat="31.246890" lon="-8.198327"><ele>844.0</ele></trkpt>
    <trkpt lat="31.246379" lon="-8.198086"><ele>846.0</ele></trkpt>
    <trkpt lat="31.245787" lon="-8.198217"><ele>850.0</ele></trkpt>
    <trkpt lat="31.245203" lon="-8.198872"><ele>853.0</ele></trkpt>
    <trkpt lat="31.244923" lon="-8.199041"><ele>855.5</ele></trkpt>
    <trkpt lat="31.242646" lon="-8.199988"><ele>878.8</ele></trkpt>
    <trkpt lat="31.242258" lon="-8.200065"><ele>882.2</ele></trkpt>
    <trkpt lat="31.241858" lon="-8.199848"><ele>887.5</ele></trkpt>
    <trkpt lat="31.241719" lon="-8.199820"><ele>889.0</ele></trkpt>
    <trkpt lat="31.241162" lon="-8.199875"><ele>892.0</ele></trkpt>
    <trkpt lat="31.239935" lon="-8.200395"><ele>895.0</ele></trkpt>
    <trkpt lat="31.239761" lon="-8.200398"><ele>895.8</ele></trkpt>
    <trkpt lat="31.238371" lon="-8.200489"><ele>906.5</ele></trkpt>
    <trkpt lat="31.236862" lon="-8.201109"><ele>913.5</ele></trkpt>
    <trkpt lat="31.234108" lon="-8.202791"><ele>918.0</ele></trkpt>
    <trkpt lat="31.232711" lon="-8.203838"><ele>920.8</ele></trkpt>
    <trkpt lat="31.232464" lon="-8.204495"><ele>924.8</ele></trkpt>
    <trkpt lat="31.232755" lon="-8.205011"><ele>926.5</ele></trkpt>
    <trkpt lat="31.232507" lon="-8.205285"><ele>928.8</ele></trkpt>
    <trkpt lat="31.230005" lon="-8.206017"><ele>935.5</ele></trkpt>
    <trkpt lat="31.226408" lon="-8.205970"><ele>939.2</ele></trkpt>
    <trkpt lat="31.226094" lon="-8.206458"><ele>939.2</ele></trkpt>
    <trkpt lat="31.225185" lon="-8.207315"><ele>946.0</ele></trkpt>
    <trkpt lat="31.223250" lon="-8.210047"><ele>957.8</ele></trkpt>
    <trkpt lat="31.223156" lon="-8.210236"><ele>958.2</ele></trkpt>
    <trkpt lat="31.223280" lon="-8.211099"><ele>958.2</ele></trkpt>
    <trkpt lat="31.222752" lon="-8.212025"><ele>959.0</ele></trkpt>
    <trkpt lat="31.222573" lon="-8.213117"><ele>959.5</ele></trkpt>
    <trkpt lat="31.221940" lon="-8.215185"><ele>962.5</ele></trkpt>
    <trkpt lat="31.221848" lon="-8.217778"><ele>956.8</ele></trkpt>
    <trkpt lat="31.221536" lon="-8.219822"><ele>957.0</ele></trkpt>
    <trkpt lat="31.221493" lon="-8.222035"><ele>957.8</ele></trkpt>
    <trkpt lat="31.221975" lon="-8.223855"><ele>962.8</ele></trkpt>
    <trkpt lat="31.222104" lon="-8.225719"><ele>956.5</ele></trkpt>
    <trkpt lat="31.222363" lon="-8.227058"><ele>956.5</ele></trkpt>
    <trkpt lat="31.222350" lon="-8.227495"><ele>959.8</ele></trkpt>
    <trkpt lat="31.222140" lon="-8.228009"><ele>962.5</ele></trkpt>
    <trkpt lat="31.222016" lon="-8.229339"><ele>963.0</ele></trkpt>
    <trkpt lat="31.221475" lon="-8.230406"><ele>958.5</ele></trkpt>
    <trkpt lat="31.221085" lon="-8.230854"><ele>958.5</ele></trkpt>
    <trkpt lat="31.220692" lon="-8.231052"><ele>961.0</ele></trkpt>
    <trkpt lat="31.219931" lon="-8.232145"><ele>973.0</ele></trkpt>
    <trkpt lat="31.220005" lon="-8.232484"><ele>974.8</ele></trkpt>
    <trkpt lat="31.220111" lon="-8.233652"><ele>974.5</ele></trkpt>
    <trkpt lat="31.218986" lon="-8.233629"><ele>978.8</ele></trkpt>
    <trkpt lat="31.218537" lon="-8.233705"><ele>978.8</ele></trkpt>
    <trkpt lat="31.218441" lon="-8.233527"><ele>978.2</ele></trkpt>
    <trkpt lat="31.218191" lon="-8.233539"><ele>976.8</ele></trkpt>
    <trkpt lat="31.217962" lon="-8.233155"><ele>974.8</ele></trkpt>
    <trkpt lat="31.217612" lon="-8.233126"><ele>972.8</ele></trkpt>
    <trkpt lat="31.217331" lon="-8.233271"><ele>972.2</ele></trkpt>
    <trkpt lat="31.217241" lon="-8.233143"><ele>972.0</ele></trkpt>
    </trkseg>
  </trk>
</gpx>
