<?xml version="1.0" encoding="UTF-8"?>
<gpx version="1.1" creator="trips" xmlns="http://www.topografix.com/GPX/1/1" xmlns:xsi="http://www.w3.org/2001/XMLSchema-instance" xsi:schemaLocation="http://www.topografix.com/GPX/1/1 http://www.topografix.com/GPX/1/1/gpx.xsd">
  <metadata><name>Grand Atlas Loop — Day 3: Oulad Berhil to Taliouine</name><desc>85 km, 900 m (estimated). Planning route: via-points only, NOT snapped to roads. Import into Komoot / RideWithGPS / Garmin Connect and let it route between the points before riding.</desc></metadata>
  <wpt lat="30.640000" lon="-8.530000">
    <ele>430.0</ele>
    <name>Oulad Berhil</name>
    <sym>Flag, Green</sym>
  </wpt>
  <wpt lat="30.670000" lon="-8.170000">
    <ele>750.0</ele>
    <name>Aoulouz</name>
    <sym>City (Small)</sym>
  </wpt>
  <wpt lat="30.533300" lon="-7.925000">
    <ele>1100.0</ele>
    <name>Taliouine</name>
    <sym>Flag, Blue</sym>
  </wpt>
  <rte><name>Grand Atlas Loop — Day 3: Oulad Berhil to Taliouine</name>
    <rtept lat="30.640000" lon="-8.530000">
    <ele>430.0</ele>
    <name>Oulad Berhil</name>
    <sym>Flag, Green</sym>
    </rtept>
    <rtept lat="30.670000" lon="-8.170000">
    <ele>750.0</ele>
    <name>Aoulouz</name>
    <sym>City (Small)</sym>
    </rtept>
    <rtept lat="30.533300" lon="-7.925000">
    <ele>1100.0</ele>
    <name>Taliouine</name>
    <sym>Flag, Blue</sym>
    </rtept>
  </rte>
</gpx>
