<?xml version="1.0" encoding="UTF-8"?>
<gpx version="1.1" creator="trips" xmlns="http://www.topografix.com/GPX/1/1" xmlns:xsi="http://www.w3.org/2001/XMLSchema-instance" xsi:schemaLocation="http://www.topografix.com/GPX/1/1 http://www.topografix.com/GPX/1/1/gpx.xsd">
  <metadata><name>Grand Atlas Loop — Day 5: Tazenakht to Ouarzazate</name><desc>95 km, 700 m (estimated). Planning route: via-points only, NOT snapped to roads. Import into Komoot / RideWithGPS / Garmin Connect and let it route between the points before riding.</desc></metadata>
  <wpt lat="30.577200" lon="-7.203600">
    <ele>1400.0</ele>
    <name>Tazenakht</name>
    <sym>Flag, Green</sym>
  </wpt>
  <wpt lat="30.918900" lon="-6.893400">
    <ele>1160.0</ele>
    <name>Ouarzazate</name>
    <sym>Flag, Blue</sym>
  </wpt>
  <rte><name>Grand Atlas Loop — Day 5: Tazenakht to Ouarzazate</name>
    <rtept lat="30.577200" lon="-7.203600">
    <ele>1400.0</ele>
    <name>Tazenakht</name>
    <sym>Flag, Green</sym>
    </rtept>
    <rtept lat="30.900000" lon="-7.150000">
    <ele>1300.0</ele>
    <name>Amerzgane</name>
    <sym>Waypoint</sym>
    </rtept>
    <rtept lat="30.918900" lon="-6.893400">
    <ele>1160.0</ele>
    <name>Ouarzazate</name>
    <sym>Flag, Blue</sym>
    </rtept>
  </rte>
</gpx>
