<?xml version="1.0" encoding="UTF-8"?>
<gpx version="1.1" creator="trips" xmlns="http://www.topografix.com/GPX/1/1" xmlns:xsi="http://www.w3.org/2001/XMLSchema-instance" xsi:schemaLocation="http://www.topografix.com/GPX/1/1 http://www.topografix.com/GPX/1/1/gpx.xsd">
  <metadata><name>Grand Atlas Loop — Day 1: Marrakech to Ouirgane</name><desc>75 km, 1000 m (estimated). Planning route: via-points only, NOT snapped to roads. Import into Komoot / RideWithGPS / Garmin Connect and let it route between the points before riding.</desc></metadata>
  <wpt lat="31.629500" lon="-7.981100">
    <ele>466.0</ele>
    <name>Marrakech</name>
    <sym>Flag, Green</sym>
  </wpt>
  <wpt lat="31.356000" lon="-7.950000">
    <ele>925.0</ele>
    <name>Tahannaout</name>
    <sym>City (Small)</sym>
  </wpt>
  <wpt lat="31.254500" lon="-7.980000">
    <ele>1150.0</ele>
    <name>Asni</name>
    <sym>City (Small)</sym>
  </wpt>
  <wpt lat="31.183000" lon="-8.080000">
    <ele>1050.0</ele>
    <name>Ouirgane</name>
    <sym>Flag, Blue</sym>
  </wpt>
  <rte><name>Grand Atlas Loop — Day 1: Marrakech to Ouirgane</name>
    <rtept lat="31.629500" lon="-7.981100">
    <ele>466.0</ele>
    <name>Marrakech</name>
    <sym>Flag, Green</sym>
    </rtept>
    <rtept lat="31.470000" lon="-8.030000">
    <ele>550.0</ele>
    <name>Tameslouht</name>
    <sym>Waypoint</sym>
    </rtept>
    <rtept lat="31.356000" lon="-7.950000">
    <ele>925.0</ele>
    <name>Tahannaout</name>
    <sym>City (Small)</sym>
    </rtept>
    <rtept lat="31.254500" lon="-7.980000">
    <ele>1150.0</ele>
    <name>Asni</name>
    <sym>City (Small)</sym>
    </rtept>
    <rtept lat="31.183000" lon="-8.080000">
    <ele>1050.0</ele>
    <name>Ouirgane</name>
    <sym>Flag, Blue</sym>
    </rtept>
  </rte>
</gpx>
