<?xml version="1.0" encoding="UTF-8"?>
<gpx version="1.1" creator="trips" xmlns="http://www.topografix.com/GPX/1/1" xmlns:xsi="http://www.w3.org/2001/XMLSchema-instance" xsi:schemaLocation="http://www.topografix.com/GPX/1/1 http://www.topografix.com/GPX/1/1/gpx.xsd">
  <metadata><name>Grand Atlas Loop — Day 2: Ouirgane to Oulad Berhil</name><desc>110 km, 1350 m (estimated). Planning route: via-points only, NOT snapped to roads. Import into Komoot / RideWithGPS / Garmin Connect and let it route between the points before riding.</desc></metadata>
  <wpt lat="31.183000" lon="-8.080000">
    <ele>1050.0</ele>
    <name>Ouirgane</name>
    <sym>Flag, Green</sym>
  </wpt>
  <wpt lat="31.030000" lon="-8.150000">
    <ele>1100.0</ele>
    <name>Ijoukak</name>
    <sym>City (Small)</sym>
  </wpt>
  <wpt lat="30.872200" lon="-8.364400">
    <ele>2092.0</ele>
    <name>Tizi n'Test</name>
    <sym>Summit</sym>
  </wpt>
  <wpt lat="30.640000" lon="-8.530000">
    <ele>430.0</ele>
    <name>Oulad Berhil</name>
    <sym>Flag, Blue</sym>
  </wpt>
  <rte><name>Grand Atlas Loop — Day 2: Ouirgane to Oulad Berhil</name>
    <rtept lat="31.183000" lon="-8.080000">
    <ele>1050.0</ele>
    <name>Ouirgane</name>
    <sym>Flag, Green</sym>
    </rtept>
    <rtept lat="31.030000" lon="-8.150000">
    <ele>1100.0</ele>
    <name>Ijoukak</name>
    <sym>City (Small)</sym>
    </rtept>
    <rtept lat="30.960000" lon="-8.240000">
    <ele>1200.0</ele>
    <name>Talat n'Yaaqoub</name>
    <sym>Waypoint</sym>
    </rtept>
    <rtept lat="30.872200" lon="-8.364400">
    <ele>2092.0</ele>
    <name>Tizi n'Test</name>
    <sym>Summit</sym>
    </rtept>
    <rtept lat="30.640000" lon="-8.530000">
    <ele>430.0</ele>
    <name>Oulad Berhil</name>
    <sym>Flag, Blue</sym>
    </rtept>
  </rte>
</gpx>
