<?xml version="1.0" encoding="UTF-8"?>
<gpx version="1.1" creator="trips" xmlns="http://www.topografix.com/GPX/1/1" xmlns:xsi="http://www.w3.org/2001/XMLSchema-instance" xsi:schemaLocation="http://www.topografix.com/GPX/1/1 http://www.topografix.com/GPX/1/1/gpx.xsd">
  <metadata><name>Grand Atlas Loop — Day 6: Ouarzazate to Telouet</name><desc>90 km, 1400 m (estimated). Planning route: via-points only, NOT snapped to roads. Import into Komoot / RideWithGPS / Garmin Connect and let it route between the points before riding.</desc></metadata>
  <wpt lat="30.918900" lon="-6.893400">
    <ele>1160.0</ele>
    <name>Ouarzazate</name>
    <sym>Flag, Green</sym>
  </wpt>
  <wpt lat="31.047000" lon="-7.130000">
    <ele>1300.0</ele>
    <name>Aït Benhaddou</name>
    <sym>City (Small)</sym>
  </wpt>
  <wpt lat="31.290000" lon="-7.240000">
    <ele>1800.0</ele>
    <name>Telouet</name>
    <sym>Flag, Blue</sym>
  </wpt>
  <rte><name>Grand Atlas Loop — Day 6: Ouarzazate to Telouet</name>
    <rtept lat="30.918900" lon="-6.893400">
    <ele>1160.0</ele>
    <name>Ouarzazate</name>
    <sym>Flag, Green</sym>
    </rtept>
    <rtept lat="31.047000" lon="-7.130000">
    <ele>1300.0</ele>
    <name>Aït Benhaddou</name>
    <sym>City (Small)</sym>
    </rtept>
    <rtept lat="31.080000" lon="-7.140000">
    <ele>1350.0</ele>
    <name>Tamdaght</name>
    <sym>Waypoint</sym>
    </rtept>
    <rtept lat="31.290000" lon="-7.240000">
    <ele>1800.0</ele>
    <name>Telouet</name>
    <sym>Flag, Blue</sym>
    </rtept>
  </rte>
</gpx>
