<?xml version='1.0' encoding='utf-8'?>
<gpx xmlns="http://www.topografix.com/GPX/1/1" xmlns:xsi="http://www.w3.org/2001/XMLSchema-instance" version="1.1" creator="trips" xsi:schemaLocation="http://www.topografix.com/GPX/1/1 http://www.topografix.com/GPX/1/1/gpx.xsd">
  <metadata><name>Alpine-grade Morocco — Day 1: Marrakech → Oukaïmeden loop</name><desc>150 km, 2400 m (estimated). Composed from climbing-camp day-1. Planning route: via-points only, NOT snapped to roads.</desc></metadata>
  <wpt lat="31.629500" lon="-7.981100">
    <ele>466.0</ele>
    <name>Marrakech</name>
    <sym>Flag, Green</sym>
  </wpt>
  <wpt lat="31.280000" lon="-7.780000">
    <ele>1000.0</ele>
    <name>Aghbalou</name>
    <sym>City (Small)</sym>
  </wpt>
  <wpt lat="31.195000" lon="-7.860000">
    <ele>2620.0</ele>
    <name>Oukaïmeden</name>
    <sym>Summit</sym>
  </wpt>
  <wpt lat="31.629500" lon="-7.981100">
    <ele>466.0</ele>
    <name>Marrakech</name>
    <sym>Flag, Blue</sym>
  </wpt>
  <rte><name>Alpine-grade Morocco — Day 1: Marrakech → Oukaïmeden loop</name>
    <rtept lat="31.629500" lon="-7.981100">
    <ele>466.0</ele>
    <name>Marrakech</name>
    <sym>Flag, Green</sym>
    </rtept>
    <rtept lat="31.440000" lon="-7.850000">
    <ele>600.0</ele>
    <name>Aït Ourir turn</name>
    <sym>Waypoint</sym>
    </rtept>
    <rtept lat="31.280000" lon="-7.780000">
    <ele>1000.0</ele>
    <name>Aghbalou</name>
    <sym>City (Small)</sym>
    </rtept>
    <rtept lat="31.195000" lon="-7.860000">
    <ele>2620.0</ele>
    <name>Oukaïmeden</name>
    <sym>Summit</sym>
    </rtept>
    <rtept lat="31.280000" lon="-7.780000">
    <ele>1000.0</ele>
    <name>Aghbalou</name>
    <sym>Waypoint</sym>
    </rtept>
    <rtept lat="31.629500" lon="-7.981100">
    <ele>466.0</ele>
    <name>Marrakech</name>
    <sym>Flag, Blue</sym>
    </rtept>
  </rte>
</gpx>