<?xml version='1.0' encoding='utf-8'?>
<gpx xmlns="http://www.topografix.com/GPX/1/1" xmlns:xsi="http://www.w3.org/2001/XMLSchema-instance" version="1.1" creator="trips" xsi:schemaLocation="http://www.topografix.com/GPX/1/1 http://www.topografix.com/GPX/1/1/gpx.xsd">
  <metadata><name>Alpine-grade Morocco — Day 5: Marrakech → Taddert</name><desc>90 km, 1300 m (estimated). Composed from atlas-gorges day-1. Planning route: via-points only, NOT snapped to roads.</desc></metadata>
  <wpt lat="31.629500" lon="-7.981100">
    <ele>466.0</ele>
    <name>Marrakech</name>
    <sym>Flag, Green</sym>
  </wpt>
  <wpt lat="31.560000" lon="-7.660000">
    <ele>620.0</ele>
    <name>Aït Ourir</name>
    <sym>City (Small)</sym>
  </wpt>
  <wpt lat="31.340000" lon="-7.430000">
    <ele>1650.0</ele>
    <name>Taddert</name>
    <sym>Flag, Blue</sym>
  </wpt>
  <rte><name>Alpine-grade Morocco — Day 5: Marrakech → Taddert</name>
    <rtept lat="31.629500" lon="-7.981100">
    <ele>466.0</ele>
    <name>Marrakech</name>
    <sym>Flag, Green</sym>
    </rtept>
    <rtept lat="31.560000" lon="-7.660000">
    <ele>620.0</ele>
    <name>Aït Ourir</name>
    <sym>City (Small)</sym>
    </rtept>
    <rtept lat="31.340000" lon="-7.430000">
    <ele>1650.0</ele>
    <name>Taddert</name>
    <sym>Flag, Blue</sym>
    </rtept>
  </rte>
</gpx>