<?xml version='1.0' encoding='utf-8'?>
<gpx xmlns="http://www.topografix.com/GPX/1/1" xmlns:xsi="http://www.w3.org/2001/XMLSchema-instance" version="1.1" creator="trips" xsi:schemaLocation="http://www.topografix.com/GPX/1/1 http://www.topografix.com/GPX/1/1/gpx.xsd">
  <metadata><name>Alpine-grade Morocco — Day 4: Ouirgane → Marrakech</name><desc>85 km, 700 m (estimated). Composed from climbing-camp day-5. Planning route: via-points only, NOT snapped to roads.</desc></metadata>
  <wpt lat="31.183000" lon="-8.080000">
    <ele>1050.0</ele>
    <name>Ouirgane</name>
    <sym>Flag, Green</sym>
  </wpt>
  <wpt lat="31.220000" lon="-8.240000">
    <ele>1000.0</ele>
    <name>Amizmiz</name>
    <sym>City (Small)</sym>
  </wpt>
  <wpt lat="31.360000" lon="-8.130000">
    <ele>600.0</ele>
    <name>Lalla Takerkoust</name>
    <sym>City (Small)</sym>
  </wpt>
  <wpt lat="31.629500" lon="-7.981100">
    <ele>466.0</ele>
    <name>Marrakech</name>
    <sym>Flag, Blue</sym>
  </wpt>
  <rte><name>Alpine-grade Morocco — Day 4: Ouirgane → Marrakech</name>
    <rtept lat="31.183000" lon="-8.080000">
    <ele>1050.0</ele>
    <name>Ouirgane</name>
    <sym>Flag, Green</sym>
    </rtept>
    <rtept lat="31.220000" lon="-8.240000">
    <ele>1000.0</ele>
    <name>Amizmiz</name>
    <sym>City (Small)</sym>
    </rtept>
    <rtept lat="31.360000" lon="-8.130000">
    <ele>600.0</ele>
    <name>Lalla Takerkoust</name>
    <sym>City (Small)</sym>
    </rtept>
    <rtept lat="31.629500" lon="-7.981100">
    <ele>466.0</ele>
    <name>Marrakech</name>
    <sym>Flag, Blue</sym>
    </rtept>
  </rte>
</gpx>