<?xml version='1.0' encoding='utf-8'?>
<gpx xmlns="http://www.topografix.com/GPX/1/1" xmlns:xsi="http://www.w3.org/2001/XMLSchema-instance" version="1.1" creator="trips" xsi:schemaLocation="http://www.topografix.com/GPX/1/1 http://www.topografix.com/GPX/1/1/gpx.xsd">
  <metadata><name>Alpine-grade Morocco — Day 3: Ouirgane → Tizi n’Test loop</name><desc>110 km, 1900 m (estimated). Composed from climbing-camp day-4. Planning route: via-points only, NOT snapped to roads.</desc></metadata>
  <wpt lat="31.183000" lon="-8.080000">
    <ele>1050.0</ele>
    <name>Ouirgane</name>
    <sym>Flag, Green</sym>
  </wpt>
  <wpt lat="31.030000" lon="-8.150000">
    <ele>1100.0</ele>
    <name>Ijoukak</name>
    <sym>City (Small)</sym>
  </wpt>
  <wpt lat="30.872200" lon="-8.364400">
    <ele>2092.0</ele>
    <name>Tizi n'Test</name>
    <sym>Summit</sym>
  </wpt>
  <wpt lat="31.183000" lon="-8.080000">
    <ele>1050.0</ele>
    <name>Ouirgane</name>
    <sym>Flag, Blue</sym>
  </wpt>
  <rte><name>Alpine-grade Morocco — Day 3: Ouirgane → Tizi n’Test loop</name>
    <rtept lat="31.183000" lon="-8.080000">
    <ele>1050.0</ele>
    <name>Ouirgane</name>
    <sym>Flag, Green</sym>
    </rtept>
    <rtept lat="31.030000" lon="-8.150000">
    <ele>1100.0</ele>
    <name>Ijoukak</name>
    <sym>City (Small)</sym>
    </rtept>
    <rtept lat="30.872200" lon="-8.364400">
    <ele>2092.0</ele>
    <name>Tizi n'Test</name>
    <sym>Summit</sym>
    </rtept>
    <rtept lat="31.030000" lon="-8.150000">
    <ele>1100.0</ele>
    <name>Ijoukak</name>
    <sym>Waypoint</sym>
    </rtept>
    <rtept lat="31.183000" lon="-8.080000">
    <ele>1050.0</ele>
    <name>Ouirgane</name>
    <sym>Flag, Blue</sym>
    </rtept>
  </rte>
</gpx>